{
  "type": "FeatureCollection",
  "features": [
    {
      "type": "Feature",
      "properties": {
        "_source": "Ruta6-EstanciaelRoble-AvenidaNorte-RetenSur",
        "_segmentIndex": 0,
        "_position": 0
      },
      "geometry": {
        "type": "Point",
        "coordinates": [
          -73.355127,
          5.564044
        ]
      }
    },
    {
      "type": "Feature",
      "properties": {
        "_source": "Ruta6-EstanciaelRoble-AvenidaNorte-RetenSur",
        "_segmentIndex": 0,
        "_position": 1
      },
      "geometry": {
        "type": "Point",
        "coordinates": [
          -73.35515420770001,
          5.56438643184817
        ]
      }
    },
    {
      "type": "Feature",
      "properties": {
        "_source": "Ruta6-EstanciaelRoble-AvenidaNorte-RetenSur",
        "_segmentIndex": 0,
        "_position": 0
      },
      "geometry": {
        "type": "Point",
        "coordinates": [
          -73.355112,
          5.564529
        ]
      }
    },
    {
      "type": "Feature",
      "properties": {
        "_source": "Ruta6-EstanciaelRoble-AvenidaNorte-RetenSur",
        "_segmentIndex": 0,
        "_position": 1
      },
      "geometry": {
        "type": "Point",
        "coordinates": [
          -73.35499973760511,
          5.564126660820311
        ]
      }
    },
    {
      "type": "Feature",
      "properties": {
        "_source": "Ruta6-EstanciaelRoble-AvenidaNorte-RetenSur",
        "_segmentIndex": 0,
        "_position": 2
      },
      "geometry": {
        "type": "Point",
        "coordinates": [
          -73.35464063609321,
          5.5642525457002705
        ]
      }
    },
    {
      "type": "Feature",
      "properties": {
        "_source": "Ruta6-EstanciaelRoble-AvenidaNorte-RetenSur",
        "_segmentIndex": 0,
        "_position": 3
      },
      "geometry": {
        "type": "Point",
        "coordinates": [
          -73.35428749878064,
          5.564532169152301
        ]
      }
    },
    {
      "type": "Feature",
      "properties": {
        "_source": "Ruta6-EstanciaelRoble-AvenidaNorte-RetenSur",
        "_segmentIndex": 0,
        "_position": 4
      },
      "geometry": {
        "type": "Point",
        "coordinates": [
          -73.35392433106415,
          5.564799643681263
        ]
      }
    },
    {
      "type": "Feature",
      "properties": {
        "_source": "Ruta6-EstanciaelRoble-AvenidaNorte-RetenSur",
        "_segmentIndex": 0,
        "_position": 5
      },
      "geometry": {
        "type": "Point",
        "coordinates": [
          -73.35356576665019,
          5.565073176561828
        ]
      }
    },
    {
      "type": "Feature",
      "properties": {
        "_source": "Ruta6-EstanciaelRoble-AvenidaNorte-RetenSur",
        "_segmentIndex": 0,
        "_position": 6
      },
      "geometry": {
        "type": "Point",
        "coordinates": [
          -73.35320554454538,
          5.56534423543381
        ]
      }
    },
    {
      "type": "Feature",
      "properties": {
        "_source": "Ruta6-EstanciaelRoble-AvenidaNorte-RetenSur",
        "_segmentIndex": 0,
        "_position": 0
      },
      "geometry": {
        "type": "Point",
        "coordinates": [
          -73.353103,
          5.565406
        ]
      }
    },
    {
      "type": "Feature",
      "properties": {
        "_source": "Ruta6-EstanciaelRoble-AvenidaNorte-RetenSur",
        "_segmentIndex": 0,
        "_position": 1
      },
      "geometry": {
        "type": "Point",
        "coordinates": [
          -73.35269278370522,
          5.565217586753936
        ]
      }
    },
    {
      "type": "Feature",
      "properties": {
        "_source": "Ruta6-EstanciaelRoble-AvenidaNorte-RetenSur",
        "_segmentIndex": 0,
        "_position": 2
      },
      "geometry": {
        "type": "Point",
        "coordinates": [
          -73.35244193718547,
          5.565455045405557
        ]
      }
    },
    {
      "type": "Feature",
      "properties": {
        "_source": "Ruta6-EstanciaelRoble-AvenidaNorte-RetenSur",
        "_segmentIndex": 0,
        "_position": 3
      },
      "geometry": {
        "type": "Point",
        "coordinates": [
          -73.35232066651686,
          5.565887826528456
        ]
      }
    },
    {
      "type": "Feature",
      "properties": {
        "_source": "Ruta6-EstanciaelRoble-AvenidaNorte-RetenSur",
        "_segmentIndex": 0,
        "_position": 4
      },
      "geometry": {
        "type": "Point",
        "coordinates": [
          -73.35255756261448,
          5.565906668617148
        ]
      }
    },
    {
      "type": "Feature",
      "properties": {
        "_source": "Ruta6-EstanciaelRoble-AvenidaNorte-RetenSur",
        "_segmentIndex": 0,
        "_position": 5
      },
      "geometry": {
        "type": "Point",
        "coordinates": [
          -73.352906430286,
          5.565620958090514
        ]
      }
    },
    {
      "type": "Feature",
      "properties": {
        "_source": "Ruta6-EstanciaelRoble-AvenidaNorte-RetenSur",
        "_segmentIndex": 0,
        "_position": 6
      },
      "geometry": {
        "type": "Point",
        "coordinates": [
          -73.35326445725121,
          5.565347222917038
        ]
      }
    },
    {
      "type": "Feature",
      "properties": {
        "_source": "Ruta6-EstanciaelRoble-AvenidaNorte-RetenSur",
        "_segmentIndex": 0,
        "_position": 7
      },
      "geometry": {
        "type": "Point",
        "coordinates": [
          -73.35362311301094,
          5.565073781684282
        ]
      }
    },
    {
      "type": "Feature",
      "properties": {
        "_source": "Ruta6-EstanciaelRoble-AvenidaNorte-RetenSur",
        "_segmentIndex": 0,
        "_position": 8
      },
      "geometry": {
        "type": "Point",
        "coordinates": [
          -73.35398124628784,
          5.564799665028212
        ]
      }
    },
    {
      "type": "Feature",
      "properties": {
        "_source": "Ruta6-EstanciaelRoble-AvenidaNorte-RetenSur",
        "_segmentIndex": 0,
        "_position": 9
      },
      "geometry": {
        "type": "Point",
        "coordinates": [
          -73.35434202333323,
          5.564529063482085
        ]
      }
    },
    {
      "type": "Feature",
      "properties": {
        "_source": "Ruta6-EstanciaelRoble-AvenidaNorte-RetenSur",
        "_segmentIndex": 0,
        "_position": 10
      },
      "geometry": {
        "type": "Point",
        "coordinates": [
          -73.35469224664833,
          5.564245775879115
        ]
      }
    },
    {
      "type": "Feature",
      "properties": {
        "_source": "Ruta6-EstanciaelRoble-AvenidaNorte-RetenSur",
        "_segmentIndex": 0,
        "_position": 11
      },
      "geometry": {
        "type": "Point",
        "coordinates": [
          -73.3549839568848,
          5.564237730935585
        ]
      }
    },
    {
      "type": "Feature",
      "properties": {
        "_source": "Ruta6-EstanciaelRoble-AvenidaNorte-RetenSur",
        "_segmentIndex": 0,
        "_position": 0
      },
      "geometry": {
        "type": "Point",
        "coordinates": [
          -73.355062,
          5.564542
        ]
      }
    },
    {
      "type": "Feature",
      "properties": {
        "_source": "Ruta6-EstanciaelRoble-AvenidaNorte-RetenSur",
        "_segmentIndex": 0,
        "_position": 1
      },
      "geometry": {
        "type": "Point",
        "coordinates": [
          -73.3552529566313,
          5.564244939091036
        ]
      }
    },
    {
      "type": "Feature",
      "properties": {
        "_source": "Ruta6-EstanciaelRoble-AvenidaNorte-RetenSur",
        "_segmentIndex": 0,
        "_position": 2
      },
      "geometry": {
        "type": "Point",
        "coordinates": [
          -73.35537588933661,
          5.563812248970217
        ]
      }
    },
    {
      "type": "Feature",
      "properties": {
        "_source": "Ruta6-EstanciaelRoble-AvenidaNorte-RetenSur",
        "_segmentIndex": 0,
        "_position": 3
      },
      "geometry": {
        "type": "Point",
        "coordinates": [
          -73.35548956910135,
          5.563377089299731
        ]
      }
    },
    {
      "type": "Feature",
      "properties": {
        "_source": "Ruta6-EstanciaelRoble-AvenidaNorte-RetenSur",
        "_segmentIndex": 0,
        "_position": 4
      },
      "geometry": {
        "type": "Point",
        "coordinates": [
          -73.3555280688993,
          5.5629299430884265
        ]
      }
    },
    {
      "type": "Feature",
      "properties": {
        "_source": "Ruta6-EstanciaelRoble-AvenidaNorte-RetenSur",
        "_segmentIndex": 0,
        "_position": 5
      },
      "geometry": {
        "type": "Point",
        "coordinates": [
          -73.35555576346482,
          5.562481128541943
        ]
      }
    },
    {
      "type": "Feature",
      "properties": {
        "_source": "Ruta6-EstanciaelRoble-AvenidaNorte-RetenSur",
        "_segmentIndex": 0,
        "_position": 6
      },
      "geometry": {
        "type": "Point",
        "coordinates": [
          -73.35558345798809,
          5.562032313994169
        ]
      }
    },
    {
      "type": "Feature",
      "properties": {
        "_source": "Ruta6-EstanciaelRoble-AvenidaNorte-RetenSur",
        "_segmentIndex": 0,
        "_position": 7
      },
      "geometry": {
        "type": "Point",
        "coordinates": [
          -73.35561185646363,
          5.561583545430108
        ]
      }
    },
    {
      "type": "Feature",
      "properties": {
        "_source": "Ruta6-EstanciaelRoble-AvenidaNorte-RetenSur",
        "_segmentIndex": 0,
        "_position": 0
      },
      "geometry": {
        "type": "Point",
        "coordinates": [
          -73.35563,
          5.561325
        ]
      }
    },
    {
      "type": "Feature",
      "properties": {
        "_source": "Ruta6-EstanciaelRoble-AvenidaNorte-RetenSur",
        "_segmentIndex": 0,
        "_position": 1
      },
      "geometry": {
        "type": "Point",
        "coordinates": [
          -73.35580119283652,
          5.560923714535994
        ]
      }
    },
    {
      "type": "Feature",
      "properties": {
        "_source": "Ruta6-EstanciaelRoble-AvenidaNorte-RetenSur",
        "_segmentIndex": 0,
        "_position": 2
      },
      "geometry": {
        "type": "Point",
        "coordinates": [
          -73.35592511066298,
          5.560491580114868
        ]
      }
    },
    {
      "type": "Feature",
      "properties": {
        "_source": "Ruta6-EstanciaelRoble-AvenidaNorte-RetenSur",
        "_segmentIndex": 0,
        "_position": 3
      },
      "geometry": {
        "type": "Point",
        "coordinates": [
          -73.3560817697046,
          5.560069854528487
        ]
      }
    },
    {
      "type": "Feature",
      "properties": {
        "_source": "Ruta6-EstanciaelRoble-AvenidaNorte-RetenSur",
        "_segmentIndex": 0,
        "_position": 4
      },
      "geometry": {
        "type": "Point",
        "coordinates": [
          -73.3560859565942,
          5.5596309142334155
        ]
      }
    },
    {
      "type": "Feature",
      "properties": {
        "_source": "Ruta6-EstanciaelRoble-AvenidaNorte-RetenSur",
        "_segmentIndex": 0,
        "_position": 0
      },
      "geometry": {
        "type": "Point",
        "coordinates": [
          -73.356127,
          5.55949
        ]
      }
    },
    {
      "type": "Feature",
      "properties": {
        "_source": "Ruta6-EstanciaelRoble-AvenidaNorte-RetenSur",
        "_segmentIndex": 0,
        "_position": 1
      },
      "geometry": {
        "type": "Point",
        "coordinates": [
          -73.35657144041895,
          5.559570752267332
        ]
      }
    },
    {
      "type": "Feature",
      "properties": {
        "_source": "Ruta6-EstanciaelRoble-AvenidaNorte-RetenSur",
        "_segmentIndex": 0,
        "_position": 2
      },
      "geometry": {
        "type": "Point",
        "coordinates": [
          -73.35701397186311,
          5.559660446749344
        ]
      }
    },
    {
      "type": "Feature",
      "properties": {
        "_source": "Ruta6-EstanciaelRoble-AvenidaNorte-RetenSur",
        "_segmentIndex": 0,
        "_position": 3
      },
      "geometry": {
        "type": "Point",
        "coordinates": [
          -73.35735610459098,
          5.559931434291705
        ]
      }
    },
    {
      "type": "Feature",
      "properties": {
        "_source": "Ruta6-EstanciaelRoble-AvenidaNorte-RetenSur",
        "_segmentIndex": 0,
        "_position": 4
      },
      "geometry": {
        "type": "Point",
        "coordinates": [
          -73.35766396919045,
          5.560149835273869
        ]
      }
    },
    {
      "type": "Feature",
      "properties": {
        "_source": "Ruta6-EstanciaelRoble-AvenidaNorte-RetenSur",
        "_segmentIndex": 0,
        "_position": 5
      },
      "geometry": {
        "type": "Point",
        "coordinates": [
          -73.35778053898402,
          5.5597298887913835
        ]
      }
    },
    {
      "type": "Feature",
      "properties": {
        "_source": "Ruta6-EstanciaelRoble-AvenidaNorte-RetenSur",
        "_segmentIndex": 0,
        "_position": 6
      },
      "geometry": {
        "type": "Point",
        "coordinates": [
          -73.35747305211211,
          5.559401696723454
        ]
      }
    },
    {
      "type": "Feature",
      "properties": {
        "_source": "Ruta6-EstanciaelRoble-AvenidaNorte-RetenSur",
        "_segmentIndex": 0,
        "_position": 7
      },
      "geometry": {
        "type": "Point",
        "coordinates": [
          -73.35745953626129,
          5.559023129399615
        ]
      }
    },
    {
      "type": "Feature",
      "properties": {
        "_source": "Ruta6-EstanciaelRoble-AvenidaNorte-RetenSur",
        "_segmentIndex": 0,
        "_position": 8
      },
      "geometry": {
        "type": "Point",
        "coordinates": [
          -73.35716864993113,
          5.558744973670054
        ]
      }
    },
    {
      "type": "Feature",
      "properties": {
        "_source": "Ruta6-EstanciaelRoble-AvenidaNorte-RetenSur",
        "_segmentIndex": 0,
        "_position": 9
      },
      "geometry": {
        "type": "Point",
        "coordinates": [
          -73.3567384468776,
          5.558630096039855
        ]
      }
    },
    {
      "type": "Feature",
      "properties": {
        "_source": "Ruta6-EstanciaelRoble-AvenidaNorte-RetenSur",
        "_segmentIndex": 0,
        "_position": 10
      },
      "geometry": {
        "type": "Point",
        "coordinates": [
          -73.35644676394415,
          5.558288008748073
        ]
      }
    },
    {
      "type": "Feature",
      "properties": {
        "_source": "Ruta6-EstanciaelRoble-AvenidaNorte-RetenSur",
        "_segmentIndex": 0,
        "_position": 11
      },
      "geometry": {
        "type": "Point",
        "coordinates": [
          -73.3561748082309,
          5.5579291120088605
        ]
      }
    },
    {
      "type": "Feature",
      "properties": {
        "_source": "Ruta6-EstanciaelRoble-AvenidaNorte-RetenSur",
        "_segmentIndex": 0,
        "_position": 12
      },
      "geometry": {
        "type": "Point",
        "coordinates": [
          -73.35579062480949,
          5.558070243778914
        ]
      }
    },
    {
      "type": "Feature",
      "properties": {
        "_source": "Ruta6-EstanciaelRoble-AvenidaNorte-RetenSur",
        "_segmentIndex": 0,
        "_position": 0
      },
      "geometry": {
        "type": "Point",
        "coordinates": [
          -73.355615,
          5.558163
        ]
      }
    },
    {
      "type": "Feature",
      "properties": {
        "_source": "Ruta6-EstanciaelRoble-AvenidaNorte-RetenSur",
        "_segmentIndex": 0,
        "_position": 1
      },
      "geometry": {
        "type": "Point",
        "coordinates": [
          -73.3554898702421,
          5.558545187765772
        ]
      }
    },
    {
      "type": "Feature",
      "properties": {
        "_source": "Ruta6-EstanciaelRoble-AvenidaNorte-RetenSur",
        "_segmentIndex": 0,
        "_position": 2
      },
      "geometry": {
        "type": "Point",
        "coordinates": [
          -73.3553307452236,
          5.55896570787046
        ]
      }
    },
    {
      "type": "Feature",
      "properties": {
        "_source": "Ruta6-EstanciaelRoble-AvenidaNorte-RetenSur",
        "_segmentIndex": 0,
        "_position": 3
      },
      "geometry": {
        "type": "Point",
        "coordinates": [
          -73.35518948342569,
          5.559391287293897
        ]
      }
    },
    {
      "type": "Feature",
      "properties": {
        "_source": "Ruta6-EstanciaelRoble-AvenidaNorte-RetenSur",
        "_segmentIndex": 0,
        "_position": 0
      },
      "geometry": {
        "type": "Point",
        "coordinates": [
          -73.355182,
          5.559521
        ]
      }
    },
    {
      "type": "Feature",
      "properties": {
        "_source": "Ruta6-EstanciaelRoble-AvenidaNorte-RetenSur",
        "_segmentIndex": 0,
        "_position": 1
      },
      "geometry": {
        "type": "Point",
        "coordinates": [
          -73.35492890856972,
          5.559875058173065
        ]
      }
    },
    {
      "type": "Feature",
      "properties": {
        "_source": "Ruta6-EstanciaelRoble-AvenidaNorte-RetenSur",
        "_segmentIndex": 0,
        "_position": 2
      },
      "geometry": {
        "type": "Point",
        "coordinates": [
          -73.35476126844708,
          5.560291267412097
        ]
      }
    },
    {
      "type": "Feature",
      "properties": {
        "_source": "Ruta6-EstanciaelRoble-AvenidaNorte-RetenSur",
        "_segmentIndex": 0,
        "_position": 3
      },
      "geometry": {
        "type": "Point",
        "coordinates": [
          -73.35462284955932,
          5.560718719082092
        ]
      }
    },
    {
      "type": "Feature",
      "properties": {
        "_source": "Ruta6-EstanciaelRoble-AvenidaNorte-RetenSur",
        "_segmentIndex": 0,
        "_position": 4
      },
      "geometry": {
        "type": "Point",
        "coordinates": [
          -73.35447990699299,
          5.561145279056702
        ]
      }
    },
    {
      "type": "Feature",
      "properties": {
        "_source": "Ruta6-EstanciaelRoble-AvenidaNorte-RetenSur",
        "_segmentIndex": 0,
        "_position": 5
      },
      "geometry": {
        "type": "Point",
        "coordinates": [
          -73.3544701336024,
          5.561262344642015
        ]
      }
    },
    {
      "type": "Feature",
      "properties": {
        "_source": "Ruta6-EstanciaelRoble-AvenidaNorte-RetenSur",
        "_segmentIndex": 0,
        "_position": 6
      },
      "geometry": {
        "type": "Point",
        "coordinates": [
          -73.35461533796737,
          5.560836557955359
        ]
      }
    },
    {
      "type": "Feature",
      "properties": {
        "_source": "Ruta6-EstanciaelRoble-AvenidaNorte-RetenSur",
        "_segmentIndex": 0,
        "_position": 7
      },
      "geometry": {
        "type": "Point",
        "coordinates": [
          -73.35475319646856,
          5.5604083685297825
        ]
      }
    },
    {
      "type": "Feature",
      "properties": {
        "_source": "Ruta6-EstanciaelRoble-AvenidaNorte-RetenSur",
        "_segmentIndex": 0,
        "_position": 8
      },
      "geometry": {
        "type": "Point",
        "coordinates": [
          -73.35492352716338,
          5.55999767082987
        ]
      }
    },
    {
      "type": "Feature",
      "properties": {
        "_source": "Ruta6-EstanciaelRoble-AvenidaNorte-RetenSur",
        "_segmentIndex": 0,
        "_position": 9
      },
      "geometry": {
        "type": "Point",
        "coordinates": [
          -73.35512450096786,
          5.55960244913008
        ]
      }
    },
    {
      "type": "Feature",
      "properties": {
        "_source": "Ruta6-EstanciaelRoble-AvenidaNorte-RetenSur",
        "_segmentIndex": 0,
        "_position": 0
      },
      "geometry": {
        "type": "Point",
        "coordinates": [
          -73.355186,
          5.559562
        ]
      }
    },
    {
      "type": "Feature",
      "properties": {
        "_source": "Ruta6-EstanciaelRoble-AvenidaNorte-RetenSur",
        "_segmentIndex": 0,
        "_position": 1
      },
      "geometry": {
        "type": "Point",
        "coordinates": [
          -73.35531653096889,
          5.559156337342713
        ]
      }
    },
    {
      "type": "Feature",
      "properties": {
        "_source": "Ruta6-EstanciaelRoble-AvenidaNorte-RetenSur",
        "_segmentIndex": 0,
        "_position": 2
      },
      "geometry": {
        "type": "Point",
        "coordinates": [
          -73.35548507612657,
          5.558739288184709
        ]
      }
    },
    {
      "type": "Feature",
      "properties": {
        "_source": "Ruta6-EstanciaelRoble-AvenidaNorte-RetenSur",
        "_segmentIndex": 0,
        "_position": 3
      },
      "geometry": {
        "type": "Point",
        "coordinates": [
          -73.3555747871416,
          5.558301722337547
        ]
      }
    },
    {
      "type": "Feature",
      "properties": {
        "_source": "Ruta6-EstanciaelRoble-AvenidaNorte-RetenSur",
        "_segmentIndex": 0,
        "_position": 4
      },
      "geometry": {
        "type": "Point",
        "coordinates": [
          -73.35556199733776,
          5.5578524614172595
        ]
      }
    },
    {
      "type": "Feature",
      "properties": {
        "_source": "Ruta6-EstanciaelRoble-AvenidaNorte-RetenSur",
        "_segmentIndex": 0,
        "_position": 5
      },
      "geometry": {
        "type": "Point",
        "coordinates": [
          -73.35554836534816,
          5.55740318831857
        ]
      }
    },
    {
      "type": "Feature",
      "properties": {
        "_source": "Ruta6-EstanciaelRoble-AvenidaNorte-RetenSur",
        "_segmentIndex": 0,
        "_position": 6
      },
      "geometry": {
        "type": "Point",
        "coordinates": [
          -73.3556404201887,
          5.556971513015902
        ]
      }
    },
    {
      "type": "Feature",
      "properties": {
        "_source": "Ruta6-EstanciaelRoble-AvenidaNorte-RetenSur",
        "_segmentIndex": 0,
        "_position": 7
      },
      "geometry": {
        "type": "Point",
        "coordinates": [
          -73.35590446284277,
          5.556660006760897
        ]
      }
    },
    {
      "type": "Feature",
      "properties": {
        "_source": "Ruta6-EstanciaelRoble-AvenidaNorte-RetenSur",
        "_segmentIndex": 0,
        "_position": 0
      },
      "geometry": {
        "type": "Point",
        "coordinates": [
          -73.355902,
          5.556658
        ]
      }
    },
    {
      "type": "Feature",
      "properties": {
        "_source": "Ruta6-EstanciaelRoble-AvenidaNorte-RetenSur",
        "_segmentIndex": 0,
        "_position": 1
      },
      "geometry": {
        "type": "Point",
        "coordinates": [
          -73.35545921391869,
          5.5565846147943185
        ]
      }
    },
    {
      "type": "Feature",
      "properties": {
        "_source": "Ruta6-EstanciaelRoble-AvenidaNorte-RetenSur",
        "_segmentIndex": 0,
        "_position": 2
      },
      "geometry": {
        "type": "Point",
        "coordinates": [
          -73.35507918228487,
          5.556351429577484
        ]
      }
    },
    {
      "type": "Feature",
      "properties": {
        "_source": "Ruta6-EstanciaelRoble-AvenidaNorte-RetenSur",
        "_segmentIndex": 0,
        "_position": 3
      },
      "geometry": {
        "type": "Point",
        "coordinates": [
          -73.3548048604341,
          5.555994301868942
        ]
      }
    },
    {
      "type": "Feature",
      "properties": {
        "_source": "Ruta6-EstanciaelRoble-AvenidaNorte-RetenSur",
        "_segmentIndex": 0,
        "_position": 4
      },
      "geometry": {
        "type": "Point",
        "coordinates": [
          -73.35453892883031,
          5.555630797069467
        ]
      }
    },
    {
      "type": "Feature",
      "properties": {
        "_source": "Ruta6-EstanciaelRoble-AvenidaNorte-RetenSur",
        "_segmentIndex": 0,
        "_position": 5
      },
      "geometry": {
        "type": "Point",
        "coordinates": [
          -73.35425669328805,
          5.555288522148848
        ]
      }
    },
    {
      "type": "Feature",
      "properties": {
        "_source": "Ruta6-EstanciaelRoble-AvenidaNorte-RetenSur",
        "_segmentIndex": 0,
        "_position": 6
      },
      "geometry": {
        "type": "Point",
        "coordinates": [
          -73.35381756420887,
          5.555342404990243
        ]
      }
    },
    {
      "type": "Feature",
      "properties": {
        "_source": "Ruta6-EstanciaelRoble-AvenidaNorte-RetenSur",
        "_segmentIndex": 0,
        "_position": 7
      },
      "geometry": {
        "type": "Point",
        "coordinates": [
          -73.35339468288302,
          5.555189761216228
        ]
      }
    },
    {
      "type": "Feature",
      "properties": {
        "_source": "Ruta6-EstanciaelRoble-AvenidaNorte-RetenSur",
        "_segmentIndex": 0,
        "_position": 0
      },
      "geometry": {
        "type": "Point",
        "coordinates": [
          -73.353147,
          5.555152
        ]
      }
    },
    {
      "type": "Feature",
      "properties": {
        "_source": "Ruta6-EstanciaelRoble-AvenidaNorte-RetenSur",
        "_segmentIndex": 0,
        "_position": 1
      },
      "geometry": {
        "type": "Point",
        "coordinates": [
          -73.35273858392925,
          5.555327156713636
        ]
      }
    },
    {
      "type": "Feature",
      "properties": {
        "_source": "Ruta6-EstanciaelRoble-AvenidaNorte-RetenSur",
        "_segmentIndex": 0,
        "_position": 2
      },
      "geometry": {
        "type": "Point",
        "coordinates": [
          -73.35241715389058,
          5.555640875164891
        ]
      }
    },
    {
      "type": "Feature",
      "properties": {
        "_source": "Ruta6-EstanciaelRoble-AvenidaNorte-RetenSur",
        "_segmentIndex": 0,
        "_position": 0
      },
      "geometry": {
        "type": "Point",
        "coordinates": [
          -73.35236,
          5.555712
        ]
      }
    },
    {
      "type": "Feature",
      "properties": {
        "_source": "Ruta6-EstanciaelRoble-AvenidaNorte-RetenSur",
        "_segmentIndex": 0,
        "_position": 1
      },
      "geometry": {
        "type": "Point",
        "coordinates": [
          -73.352089468589,
          5.555354760147045
        ]
      }
    },
    {
      "type": "Feature",
      "properties": {
        "_source": "Ruta6-EstanciaelRoble-AvenidaNorte-RetenSur",
        "_segmentIndex": 0,
        "_position": 2
      },
      "geometry": {
        "type": "Point",
        "coordinates": [
          -73.35183392260353,
          5.554984024754167
        ]
      }
    },
    {
      "type": "Feature",
      "properties": {
        "_source": "Ruta6-EstanciaelRoble-AvenidaNorte-RetenSur",
        "_segmentIndex": 0,
        "_position": 3
      },
      "geometry": {
        "type": "Point",
        "coordinates": [
          -73.35159475689397,
          5.554602540814507
        ]
      }
    },
    {
      "type": "Feature",
      "properties": {
        "_source": "Ruta6-EstanciaelRoble-AvenidaNorte-RetenSur",
        "_segmentIndex": 0,
        "_position": 0
      },
      "geometry": {
        "type": "Point",
        "coordinates": [
          -73.351459,
          5.554386
        ]
      }
    },
    {
      "type": "Feature",
      "properties": {
        "_source": "Ruta6-EstanciaelRoble-AvenidaNorte-RetenSur",
        "_segmentIndex": 0,
        "_position": 1
      },
      "geometry": {
        "type": "Point",
        "coordinates": [
          -73.35158896454871,
          5.553955348119715
        ]
      }
    },
    {
      "type": "Feature",
      "properties": {
        "_source": "Ruta6-EstanciaelRoble-AvenidaNorte-RetenSur",
        "_segmentIndex": 0,
        "_position": 2
      },
      "geometry": {
        "type": "Point",
        "coordinates": [
          -73.35172347794521,
          5.553526081423218
        ]
      }
    },
    {
      "type": "Feature",
      "properties": {
        "_source": "Ruta6-EstanciaelRoble-AvenidaNorte-RetenSur",
        "_segmentIndex": 0,
        "_position": 3
      },
      "geometry": {
        "type": "Point",
        "coordinates": [
          -73.35186623886878,
          5.553099504889562
        ]
      }
    },
    {
      "type": "Feature",
      "properties": {
        "_source": "Ruta6-EstanciaelRoble-AvenidaNorte-RetenSur",
        "_segmentIndex": 0,
        "_position": 4
      },
      "geometry": {
        "type": "Point",
        "coordinates": [
          -73.35200617968101,
          5.552672023769396
        ]
      }
    },
    {
      "type": "Feature",
      "properties": {
        "_source": "Ruta6-EstanciaelRoble-AvenidaNorte-RetenSur",
        "_segmentIndex": 0,
        "_position": 5
      },
      "geometry": {
        "type": "Point",
        "coordinates": [
          -73.35213485892464,
          5.552241028724327
        ]
      }
    },
    {
      "type": "Feature",
      "properties": {
        "_source": "Ruta6-EstanciaelRoble-AvenidaNorte-RetenSur",
        "_segmentIndex": 0,
        "_position": 6
      },
      "geometry": {
        "type": "Point",
        "coordinates": [
          -73.35226177446475,
          5.5518099064896775
        ]
      }
    },
    {
      "type": "Feature",
      "properties": {
        "_source": "Ruta6-EstanciaelRoble-AvenidaNorte-RetenSur",
        "_segmentIndex": 0,
        "_position": 7
      },
      "geometry": {
        "type": "Point",
        "coordinates": [
          -73.35245340253134,
          5.551403590211221
        ]
      }
    },
    {
      "type": "Feature",
      "properties": {
        "_source": "Ruta6-EstanciaelRoble-AvenidaNorte-RetenSur",
        "_segmentIndex": 0,
        "_position": 8
      },
      "geometry": {
        "type": "Point",
        "coordinates": [
          -73.35270560915536,
          5.551030520073172
        ]
      }
    },
    {
      "type": "Feature",
      "properties": {
        "_source": "Ruta6-EstanciaelRoble-AvenidaNorte-RetenSur",
        "_segmentIndex": 0,
        "_position": 9
      },
      "geometry": {
        "type": "Point",
        "coordinates": [
          -73.35298524704106,
          5.550678057787155
        ]
      }
    },
    {
      "type": "Feature",
      "properties": {
        "_source": "Ruta6-EstanciaelRoble-AvenidaNorte-RetenSur",
        "_segmentIndex": 0,
        "_position": 10
      },
      "geometry": {
        "type": "Point",
        "coordinates": [
          -73.35327647104339,
          5.55033428999855
        ]
      }
    },
    {
      "type": "Feature",
      "properties": {
        "_source": "Ruta6-EstanciaelRoble-AvenidaNorte-RetenSur",
        "_segmentIndex": 0,
        "_position": 11
      },
      "geometry": {
        "type": "Point",
        "coordinates": [
          -73.35363371379833,
          5.550072195488685
        ]
      }
    },
    {
      "type": "Feature",
      "properties": {
        "_source": "Ruta6-EstanciaelRoble-AvenidaNorte-RetenSur",
        "_segmentIndex": 0,
        "_position": 12
      },
      "geometry": {
        "type": "Point",
        "coordinates": [
          -73.35392236606626,
          5.549726822194623
        ]
      }
    },
    {
      "type": "Feature",
      "properties": {
        "_source": "Ruta6-EstanciaelRoble-AvenidaNorte-RetenSur",
        "_segmentIndex": 0,
        "_position": 13
      },
      "geometry": {
        "type": "Point",
        "coordinates": [
          -73.35414408133462,
          5.549358496090283
        ]
      }
    },
    {
      "type": "Feature",
      "properties": {
        "_source": "Ruta6-EstanciaelRoble-AvenidaNorte-RetenSur",
        "_segmentIndex": 0,
        "_position": 14
      },
      "geometry": {
        "type": "Point",
        "coordinates": [
          -73.3543900223583,
          5.548996369948039
        ]
      }
    },
    {
      "type": "Feature",
      "properties": {
        "_source": "Ruta6-EstanciaelRoble-AvenidaNorte-RetenSur",
        "_segmentIndex": 0,
        "_position": 15
      },
      "geometry": {
        "type": "Point",
        "coordinates": [
          -73.35466285378197,
          5.54863796618628
        ]
      }
    },
    {
      "type": "Feature",
      "properties": {
        "_source": "Ruta6-EstanciaelRoble-AvenidaNorte-RetenSur",
        "_segmentIndex": 0,
        "_position": 16
      },
      "geometry": {
        "type": "Point",
        "coordinates": [
          -73.35493270308172,
          5.5482773502113165
        ]
      }
    },
    {
      "type": "Feature",
      "properties": {
        "_source": "Ruta6-EstanciaelRoble-AvenidaNorte-RetenSur",
        "_segmentIndex": 0,
        "_position": 17
      },
      "geometry": {
        "type": "Point",
        "coordinates": [
          -73.35519983229123,
          5.547914716419018
        ]
      }
    },
    {
      "type": "Feature",
      "properties": {
        "_source": "Ruta6-EstanciaelRoble-AvenidaNorte-RetenSur",
        "_segmentIndex": 0,
        "_position": 18
      },
      "geometry": {
        "type": "Point",
        "coordinates": [
          -73.3554665764298,
          5.547551802501624
        ]
      }
    },
    {
      "type": "Feature",
      "properties": {
        "_source": "Ruta6-EstanciaelRoble-AvenidaNorte-RetenSur",
        "_segmentIndex": 0,
        "_position": 19
      },
      "geometry": {
        "type": "Point",
        "coordinates": [
          -73.35573276174966,
          5.547188482010454
        ]
      }
    },
    {
      "type": "Feature",
      "properties": {
        "_source": "Ruta6-EstanciaelRoble-AvenidaNorte-RetenSur",
        "_segmentIndex": 0,
        "_position": 20
      },
      "geometry": {
        "type": "Point",
        "coordinates": [
          -73.35599894674166,
          5.546825161400301
        ]
      }
    },
    {
      "type": "Feature",
      "properties": {
        "_source": "Ruta6-EstanciaelRoble-AvenidaNorte-RetenSur",
        "_segmentIndex": 0,
        "_position": 21
      },
      "geometry": {
        "type": "Point",
        "coordinates": [
          -73.35626452566315,
          5.546461402636718
        ]
      }
    },
    {
      "type": "Feature",
      "properties": {
        "_source": "Ruta6-EstanciaelRoble-AvenidaNorte-RetenSur",
        "_segmentIndex": 0,
        "_position": 22
      },
      "geometry": {
        "type": "Point",
        "coordinates": [
          -73.3565294316558,
          5.54609715737245
        ]
      }
    },
    {
      "type": "Feature",
      "properties": {
        "_source": "Ruta6-EstanciaelRoble-AvenidaNorte-RetenSur",
        "_segmentIndex": 0,
        "_position": 23
      },
      "geometry": {
        "type": "Point",
        "coordinates": [
          -73.3567943373214,
          5.545732911990364
        ]
      }
    },
    {
      "type": "Feature",
      "properties": {
        "_source": "Ruta6-EstanciaelRoble-AvenidaNorte-RetenSur",
        "_segmentIndex": 0,
        "_position": 24
      },
      "geometry": {
        "type": "Point",
        "coordinates": [
          -73.35705924265996,
          5.545368666490469
        ]
      }
    },
    {
      "type": "Feature",
      "properties": {
        "_source": "Ruta6-EstanciaelRoble-AvenidaNorte-RetenSur",
        "_segmentIndex": 0,
        "_position": 25
      },
      "geometry": {
        "type": "Point",
        "coordinates": [
          -73.35733617901877,
          5.5450134525620625
        ]
      }
    },
    {
      "type": "Feature",
      "properties": {
        "_source": "Ruta6-EstanciaelRoble-AvenidaNorte-RetenSur",
        "_segmentIndex": 0,
        "_position": 26
      },
      "geometry": {
        "type": "Point",
        "coordinates": [
          -73.35769367002888,
          5.5447860508382965
        ]
      }
    },
    {
      "type": "Feature",
      "properties": {
        "_source": "Ruta6-EstanciaelRoble-AvenidaNorte-RetenSur",
        "_segmentIndex": 0,
        "_position": 0
      },
      "geometry": {
        "type": "Point",
        "coordinates": [
          -73.357861,
          5.544412
        ]
      }
    },
    {
      "type": "Feature",
      "properties": {
        "_source": "Ruta6-EstanciaelRoble-AvenidaNorte-RetenSur",
        "_segmentIndex": 0,
        "_position": 1
      },
      "geometry": {
        "type": "Point",
        "coordinates": [
          -73.35809357029088,
          5.544026712537865
        ]
      }
    },
    {
      "type": "Feature",
      "properties": {
        "_source": "Ruta6-EstanciaelRoble-AvenidaNorte-RetenSur",
        "_segmentIndex": 0,
        "_position": 2
      },
      "geometry": {
        "type": "Point",
        "coordinates": [
          -73.35835048372694,
          5.543656839877645
        ]
      }
    },
    {
      "type": "Feature",
      "properties": {
        "_source": "Ruta6-EstanciaelRoble-AvenidaNorte-RetenSur",
        "_segmentIndex": 0,
        "_position": 3
      },
      "geometry": {
        "type": "Point",
        "coordinates": [
          -73.35860880444919,
          5.5432879412193286
        ]
      }
    },
    {
      "type": "Feature",
      "properties": {
        "_source": "Ruta6-EstanciaelRoble-AvenidaNorte-RetenSur",
        "_segmentIndex": 0,
        "_position": 4
      },
      "geometry": {
        "type": "Point",
        "coordinates": [
          -73.35888343788045,
          5.5429389751384655
        ]
      }
    },
    {
      "type": "Feature",
      "properties": {
        "_source": "Ruta6-EstanciaelRoble-AvenidaNorte-RetenSur",
        "_segmentIndex": 0,
        "_position": 5
      },
      "geometry": {
        "type": "Point",
        "coordinates": [
          -73.35892731647438,
          5.542589223462534
        ]
      }
    },
    {
      "type": "Feature",
      "properties": {
        "_source": "Ruta6-EstanciaelRoble-AvenidaNorte-RetenSur",
        "_segmentIndex": 0,
        "_position": 6
      },
      "geometry": {
        "type": "Point",
        "coordinates": [
          -73.35897253608348,
          5.54214665015768
        ]
      }
    },
    {
      "type": "Feature",
      "properties": {
        "_source": "Ruta6-EstanciaelRoble-AvenidaNorte-RetenSur",
        "_segmentIndex": 0,
        "_position": 7
      },
      "geometry": {
        "type": "Point",
        "coordinates": [
          -73.35915511744132,
          5.541735933014307
        ]
      }
    },
    {
      "type": "Feature",
      "properties": {
        "_source": "Ruta6-EstanciaelRoble-AvenidaNorte-RetenSur",
        "_segmentIndex": 0,
        "_position": 8
      },
      "geometry": {
        "type": "Point",
        "coordinates": [
          -73.35935128279004,
          5.5413308762264775
        ]
      }
    },
    {
      "type": "Feature",
      "properties": {
        "_source": "Ruta6-EstanciaelRoble-AvenidaNorte-RetenSur",
        "_segmentIndex": 0,
        "_position": 9
      },
      "geometry": {
        "type": "Point",
        "coordinates": [
          -73.35954468931499,
          5.540924516947064
        ]
      }
    },
    {
      "type": "Feature",
      "properties": {
        "_source": "Ruta6-EstanciaelRoble-AvenidaNorte-RetenSur",
        "_segmentIndex": 0,
        "_position": 10
      },
      "geometry": {
        "type": "Point",
        "coordinates": [
          -73.35972265215008,
          5.540511527163264
        ]
      }
    },
    {
      "type": "Feature",
      "properties": {
        "_source": "Ruta6-EstanciaelRoble-AvenidaNorte-RetenSur",
        "_segmentIndex": 0,
        "_position": 11
      },
      "geometry": {
        "type": "Point",
        "coordinates": [
          -73.35987360820394,
          5.540087715802212
        ]
      }
    },
    {
      "type": "Feature",
      "properties": {
        "_source": "Ruta6-EstanciaelRoble-AvenidaNorte-RetenSur",
        "_segmentIndex": 0,
        "_position": 12
      },
      "geometry": {
        "type": "Point",
        "coordinates": [
          -73.36001762530515,
          5.539661892937379
        ]
      }
    },
    {
      "type": "Feature",
      "properties": {
        "_source": "Ruta6-EstanciaelRoble-AvenidaNorte-RetenSur",
        "_segmentIndex": 0,
        "_position": 13
      },
      "geometry": {
        "type": "Point",
        "coordinates": [
          -73.36010969047021,
          5.5392220014504785
        ]
      }
    },
    {
      "type": "Feature",
      "properties": {
        "_source": "Ruta6-EstanciaelRoble-AvenidaNorte-RetenSur",
        "_segmentIndex": 0,
        "_position": 14
      },
      "geometry": {
        "type": "Point",
        "coordinates": [
          -73.36021266647924,
          5.538784249085106
        ]
      }
    },
    {
      "type": "Feature",
      "properties": {
        "_source": "Ruta6-EstanciaelRoble-AvenidaNorte-RetenSur",
        "_segmentIndex": 0,
        "_position": 15
      },
      "geometry": {
        "type": "Point",
        "coordinates": [
          -73.3603251526136,
          5.53834902522176
        ]
      }
    },
    {
      "type": "Feature",
      "properties": {
        "_source": "Ruta6-EstanciaelRoble-AvenidaNorte-RetenSur",
        "_segmentIndex": 0,
        "_position": 16
      },
      "geometry": {
        "type": "Point",
        "coordinates": [
          -73.36051347720162,
          5.5379419122685
        ]
      }
    },
    {
      "type": "Feature",
      "properties": {
        "_source": "Ruta6-EstanciaelRoble-AvenidaNorte-RetenSur",
        "_segmentIndex": 0,
        "_position": 0
      },
      "geometry": {
        "type": "Point",
        "coordinates": [
          -73.360639,
          5.53782
        ]
      }
    },
    {
      "type": "Feature",
      "properties": {
        "_source": "Ruta6-EstanciaelRoble-AvenidaNorte-RetenSur",
        "_segmentIndex": 0,
        "_position": 1
      },
      "geometry": {
        "type": "Point",
        "coordinates": [
          -73.36102894541777,
          5.537597604810907
        ]
      }
    },
    {
      "type": "Feature",
      "properties": {
        "_source": "Ruta6-EstanciaelRoble-AvenidaNorte-RetenSur",
        "_segmentIndex": 0,
        "_position": 2
      },
      "geometry": {
        "type": "Point",
        "coordinates": [
          -73.36131262535913,
          5.537257326884103
        ]
      }
    },
    {
      "type": "Feature",
      "properties": {
        "_source": "Ruta6-EstanciaelRoble-AvenidaNorte-RetenSur",
        "_segmentIndex": 0,
        "_position": 3
      },
      "geometry": {
        "type": "Point",
        "coordinates": [
          -73.36153707438217,
          5.5368690191667715
        ]
      }
    },
    {
      "type": "Feature",
      "properties": {
        "_source": "Ruta6-EstanciaelRoble-AvenidaNorte-RetenSur",
        "_segmentIndex": 0,
        "_position": 4
      },
      "geometry": {
        "type": "Point",
        "coordinates": [
          -73.36187942866174,
          5.536578958374639
        ]
      }
    },
    {
      "type": "Feature",
      "properties": {
        "_source": "Ruta6-EstanciaelRoble-AvenidaNorte-RetenSur",
        "_segmentIndex": 0,
        "_position": 5
      },
      "geometry": {
        "type": "Point",
        "coordinates": [
          -73.36231771945062,
          5.536488094485704
        ]
      }
    },
    {
      "type": "Feature",
      "properties": {
        "_source": "Ruta6-EstanciaelRoble-AvenidaNorte-RetenSur",
        "_segmentIndex": 0,
        "_position": 6
      },
      "geometry": {
        "type": "Point",
        "coordinates": [
          -73.36276693099748,
          5.536440328851055
        ]
      }
    },
    {
      "type": "Feature",
      "properties": {
        "_source": "Ruta6-EstanciaelRoble-AvenidaNorte-RetenSur",
        "_segmentIndex": 0,
        "_position": 7
      },
      "geometry": {
        "type": "Point",
        "coordinates": [
          -73.36321614948581,
          5.536392664493115
        ]
      }
    },
    {
      "type": "Feature",
      "properties": {
        "_source": "Ruta6-EstanciaelRoble-AvenidaNorte-RetenSur",
        "_segmentIndex": 0,
        "_position": 8
      },
      "geometry": {
        "type": "Point",
        "coordinates": [
          -73.36366610919913,
          5.53635247675152
        ]
      }
    },
    {
      "type": "Feature",
      "properties": {
        "_source": "Ruta6-EstanciaelRoble-AvenidaNorte-RetenSur",
        "_segmentIndex": 0,
        "_position": 9
      },
      "geometry": {
        "type": "Point",
        "coordinates": [
          -73.36411603454249,
          5.536312179436078
        ]
      }
    },
    {
      "type": "Feature",
      "properties": {
        "_source": "Ruta6-EstanciaelRoble-AvenidaNorte-RetenSur",
        "_segmentIndex": 0,
        "_position": 10
      },
      "geometry": {
        "type": "Point",
        "coordinates": [
          -73.36456427980991,
          5.536258406460931
        ]
      }
    },
    {
      "type": "Feature",
      "properties": {
        "_source": "Ruta6-EstanciaelRoble-AvenidaNorte-RetenSur",
        "_segmentIndex": 0,
        "_position": 0
      },
      "geometry": {
        "type": "Point",
        "coordinates": [
          -73.364751,
          5.536118
        ]
      }
    },
    {
      "type": "Feature",
      "properties": {
        "_source": "Ruta6-EstanciaelRoble-AvenidaNorte-RetenSur",
        "_segmentIndex": 0,
        "_position": 1
      },
      "geometry": {
        "type": "Point",
        "coordinates": [
          -73.36493988327238,
          5.535718116731739
        ]
      }
    },
    {
      "type": "Feature",
      "properties": {
        "_source": "Ruta6-EstanciaelRoble-AvenidaNorte-RetenSur",
        "_segmentIndex": 0,
        "_position": 2
      },
      "geometry": {
        "type": "Point",
        "coordinates": [
          -73.36537084961606,
          5.5356097038812795
        ]
      }
    },
    {
      "type": "Feature",
      "properties": {
        "_source": "Ruta6-EstanciaelRoble-AvenidaNorte-RetenSur",
        "_segmentIndex": 0,
        "_position": 0
      },
      "geometry": {
        "type": "Point",
        "coordinates": [
          -73.365432,
          5.535605
        ]
      }
    },
    {
      "type": "Feature",
      "properties": {
        "_source": "Ruta6-EstanciaelRoble-AvenidaNorte-RetenSur",
        "_segmentIndex": 0,
        "_position": 1
      },
      "geometry": {
        "type": "Point",
        "coordinates": [
          -73.36562637428891,
          5.535199165391549
        ]
      }
    },
    {
      "type": "Feature",
      "properties": {
        "_source": "Ruta6-EstanciaelRoble-AvenidaNorte-RetenSur",
        "_segmentIndex": 0,
        "_position": 2
      },
      "geometry": {
        "type": "Point",
        "coordinates": [
          -73.36579105876082,
          5.534780446370722
        ]
      }
    },
    {
      "type": "Feature",
      "properties": {
        "_source": "Ruta6-EstanciaelRoble-AvenidaNorte-RetenSur",
        "_segmentIndex": 0,
        "_position": 3
      },
      "geometry": {
        "type": "Point",
        "coordinates": [
          -73.36597821640827,
          5.534371255154961
        ]
      }
    },
    {
      "type": "Feature",
      "properties": {
        "_source": "Ruta6-EstanciaelRoble-AvenidaNorte-RetenSur",
        "_segmentIndex": 0,
        "_position": 4
      },
      "geometry": {
        "type": "Point",
        "coordinates": [
          -73.36616922382446,
          5.533963765701931
        ]
      }
    },
    {
      "type": "Feature",
      "properties": {
        "_source": "Ruta6-EstanciaelRoble-AvenidaNorte-RetenSur",
        "_segmentIndex": 0,
        "_position": 5
      },
      "geometry": {
        "type": "Point",
        "coordinates": [
          -73.3663612197285,
          5.533556734201572
        ]
      }
    },
    {
      "type": "Feature",
      "properties": {
        "_source": "Ruta6-EstanciaelRoble-AvenidaNorte-RetenSur",
        "_segmentIndex": 0,
        "_position": 6
      },
      "geometry": {
        "type": "Point",
        "coordinates": [
          -73.36653154001047,
          5.533140290612433
        ]
      }
    },
    {
      "type": "Feature",
      "properties": {
        "_source": "Ruta6-EstanciaelRoble-AvenidaNorte-RetenSur",
        "_segmentIndex": 0,
        "_position": 7
      },
      "geometry": {
        "type": "Point",
        "coordinates": [
          -73.36666325961525,
          5.532710473432602
        ]
      }
    },
    {
      "type": "Feature",
      "properties": {
        "_source": "Ruta6-EstanciaelRoble-AvenidaNorte-RetenSur",
        "_segmentIndex": 0,
        "_position": 8
      },
      "geometry": {
        "type": "Point",
        "coordinates": [
          -73.36673493246835,
          5.5322685606614765
        ]
      }
    },
    {
      "type": "Feature",
      "properties": {
        "_source": "Ruta6-EstanciaelRoble-AvenidaNorte-RetenSur",
        "_segmentIndex": 0,
        "_position": 9
      },
      "geometry": {
        "type": "Point",
        "coordinates": [
          -73.36680751389171,
          5.531824854439678
        ]
      }
    },
    {
      "type": "Feature",
      "properties": {
        "_source": "Ruta6-EstanciaelRoble-AvenidaNorte-RetenSur",
        "_segmentIndex": 0,
        "_position": 10
      },
      "geometry": {
        "type": "Point",
        "coordinates": [
          -73.36688191748846,
          5.531381354154123
        ]
      }
    },
    {
      "type": "Feature",
      "properties": {
        "_source": "Ruta6-EstanciaelRoble-AvenidaNorte-RetenSur",
        "_segmentIndex": 0,
        "_position": 0
      },
      "geometry": {
        "type": "Point",
        "coordinates": [
          -73.366915,
          5.531131
        ]
      }
    },
    {
      "type": "Feature",
      "properties": {
        "_source": "Ruta6-EstanciaelRoble-AvenidaNorte-RetenSur",
        "_segmentIndex": 0,
        "_position": 1
      },
      "geometry": {
        "type": "Point",
        "coordinates": [
          -73.36647455993416,
          5.531030958836496
        ]
      }
    },
    {
      "type": "Feature",
      "properties": {
        "_source": "Ruta6-EstanciaelRoble-AvenidaNorte-RetenSur",
        "_segmentIndex": 0,
        "_position": 2
      },
      "geometry": {
        "type": "Point",
        "coordinates": [
          -73.36603556883661,
          5.5309247921103
        ]
      }
    },
    {
      "type": "Feature",
      "properties": {
        "_source": "Ruta6-EstanciaelRoble-AvenidaNorte-RetenSur",
        "_segmentIndex": 0,
        "_position": 3
      },
      "geometry": {
        "type": "Point",
        "coordinates": [
          -73.36559476112181,
          5.530826430672322
        ]
      }
    },
    {
      "type": "Feature",
      "properties": {
        "_source": "Ruta6-EstanciaelRoble-AvenidaNorte-RetenSur",
        "_segmentIndex": 0,
        "_position": 4
      },
      "geometry": {
        "type": "Point",
        "coordinates": [
          -73.36515358778917,
          5.530729640378005
        ]
      }
    },
    {
      "type": "Feature",
      "properties": {
        "_source": "Ruta6-EstanciaelRoble-AvenidaNorte-RetenSur",
        "_segmentIndex": 0,
        "_position": 5
      },
      "geometry": {
        "type": "Point",
        "coordinates": [
          -73.36471636314899,
          5.530617517235694
        ]
      }
    },
    {
      "type": "Feature",
      "properties": {
        "_source": "Ruta6-EstanciaelRoble-AvenidaNorte-RetenSur",
        "_segmentIndex": 0,
        "_position": 6
      },
      "geometry": {
        "type": "Point",
        "coordinates": [
          -73.36428281089145,
          5.530491134306835
        ]
      }
    },
    {
      "type": "Feature",
      "properties": {
        "_source": "Ruta6-EstanciaelRoble-AvenidaNorte-RetenSur",
        "_segmentIndex": 0,
        "_position": 0
      },
      "geometry": {
        "type": "Point",
        "coordinates": [
          -73.363858,
          5.530367
        ]
      }
    },
    {
      "type": "Feature",
      "properties": {
        "_source": "Ruta6-EstanciaelRoble-AvenidaNorte-RetenSur",
        "_segmentIndex": 0,
        "_position": 1
      },
      "geometry": {
        "type": "Point",
        "coordinates": [
          -73.36397209266258,
          5.529931959207339
        ]
      }
    },
    {
      "type": "Feature",
      "properties": {
        "_source": "Ruta6-EstanciaelRoble-AvenidaNorte-RetenSur",
        "_segmentIndex": 0,
        "_position": 2
      },
      "geometry": {
        "type": "Point",
        "coordinates": [
          -73.3641002645654,
          5.529500777940616
        ]
      }
    },
    {
      "type": "Feature",
      "properties": {
        "_source": "Ruta6-EstanciaelRoble-AvenidaNorte-RetenSur",
        "_segmentIndex": 0,
        "_position": 3
      },
      "geometry": {
        "type": "Point",
        "coordinates": [
          -73.36422969583923,
          5.529069969294668
        ]
      }
    },
    {
      "type": "Feature",
      "properties": {
        "_source": "Ruta6-EstanciaelRoble-AvenidaNorte-RetenSur",
        "_segmentIndex": 0,
        "_position": 4
      },
      "geometry": {
        "type": "Point",
        "coordinates": [
          -73.36436018704443,
          5.528639476099864
        ]
      }
    },
    {
      "type": "Feature",
      "properties": {
        "_source": "Ruta6-EstanciaelRoble-AvenidaNorte-RetenSur",
        "_segmentIndex": 0,
        "_position": 5
      },
      "geometry": {
        "type": "Point",
        "coordinates": [
          -73.36449147271644,
          5.528209222353991
        ]
      }
    },
    {
      "type": "Feature",
      "properties": {
        "_source": "Ruta6-EstanciaelRoble-AvenidaNorte-RetenSur",
        "_segmentIndex": 0,
        "_position": 6
      },
      "geometry": {
        "type": "Point",
        "coordinates": [
          -73.36461992883129,
          5.527778134176982
        ]
      }
    },
    {
      "type": "Feature",
      "properties": {
        "_source": "Ruta6-EstanciaelRoble-AvenidaNorte-RetenSur",
        "_segmentIndex": 0,
        "_position": 7
      },
      "geometry": {
        "type": "Point",
        "coordinates": [
          -73.36474523428662,
          5.527346117666625
        ]
      }
    },
    {
      "type": "Feature",
      "properties": {
        "_source": "Ruta6-EstanciaelRoble-AvenidaNorte-RetenSur",
        "_segmentIndex": 0,
        "_position": 8
      },
      "geometry": {
        "type": "Point",
        "coordinates": [
          -73.36489306271623,
          5.526923862266105
        ]
      }
    },
    {
      "type": "Feature",
      "properties": {
        "_source": "Ruta6-EstanciaelRoble-AvenidaNorte-RetenSur",
        "_segmentIndex": 0,
        "_position": 9
      },
      "geometry": {
        "type": "Point",
        "coordinates": [
          -73.3652160166994,
          5.526619031272648
        ]
      }
    },
    {
      "type": "Feature",
      "properties": {
        "_source": "Ruta6-EstanciaelRoble-AvenidaNorte-RetenSur",
        "_segmentIndex": 0,
        "_position": 10
      },
      "geometry": {
        "type": "Point",
        "coordinates": [
          -73.36544031401705,
          5.526228709419847
        ]
      }
    },
    {
      "type": "Feature",
      "properties": {
        "_source": "Ruta6-EstanciaelRoble-AvenidaNorte-RetenSur",
        "_segmentIndex": 0,
        "_position": 11
      },
      "geometry": {
        "type": "Point",
        "coordinates": [
          -73.36564302459469,
          5.525827896642611
        ]
      }
    },
    {
      "type": "Feature",
      "properties": {
        "_source": "Ruta6-EstanciaelRoble-AvenidaNorte-RetenSur",
        "_segmentIndex": 0,
        "_position": 12
      },
      "geometry": {
        "type": "Point",
        "coordinates": [
          -73.36581538065175,
          5.525412248827478
        ]
      }
    },
    {
      "type": "Feature",
      "properties": {
        "_source": "Ruta6-EstanciaelRoble-AvenidaNorte-RetenSur",
        "_segmentIndex": 0,
        "_position": 13
      },
      "geometry": {
        "type": "Point",
        "coordinates": [
          -73.36597325193571,
          5.524991050286562
        ]
      }
    },
    {
      "type": "Feature",
      "properties": {
        "_source": "Ruta6-EstanciaelRoble-AvenidaNorte-RetenSur",
        "_segmentIndex": 0,
        "_position": 14
      },
      "geometry": {
        "type": "Point",
        "coordinates": [
          -73.36612493493934,
          5.524567504845502
        ]
      }
    },
    {
      "type": "Feature",
      "properties": {
        "_source": "Ruta6-EstanciaelRoble-AvenidaNorte-RetenSur",
        "_segmentIndex": 0,
        "_position": 15
      },
      "geometry": {
        "type": "Point",
        "coordinates": [
          -73.36627223311956,
          5.524142542856045
        ]
      }
    },
    {
      "type": "Feature",
      "properties": {
        "_source": "Ruta6-EstanciaelRoble-AvenidaNorte-RetenSur",
        "_segmentIndex": 0,
        "_position": 16
      },
      "geometry": {
        "type": "Point",
        "coordinates": [
          -73.36639278302752,
          5.523710225590767
        ]
      }
    },
    {
      "type": "Feature",
      "properties": {
        "_source": "Ruta6-EstanciaelRoble-AvenidaNorte-RetenSur",
        "_segmentIndex": 0,
        "_position": 17
      },
      "geometry": {
        "type": "Point",
        "coordinates": [
          -73.36648876789835,
          5.52327083288165
        ]
      }
    },
    {
      "type": "Feature",
      "properties": {
        "_source": "Ruta6-EstanciaelRoble-AvenidaNorte-RetenSur",
        "_segmentIndex": 0,
        "_position": 18
      },
      "geometry": {
        "type": "Point",
        "coordinates": [
          -73.36658337476715,
          5.5228311435247
        ]
      }
    },
    {
      "type": "Feature",
      "properties": {
        "_source": "Ruta6-EstanciaelRoble-AvenidaNorte-RetenSur",
        "_segmentIndex": 0,
        "_position": 19
      },
      "geometry": {
        "type": "Point",
        "coordinates": [
          -73.36669593450205,
          5.522395950091525
        ]
      }
    },
    {
      "type": "Feature",
      "properties": {
        "_source": "Ruta6-EstanciaelRoble-AvenidaNorte-RetenSur",
        "_segmentIndex": 0,
        "_position": 20
      },
      "geometry": {
        "type": "Point",
        "coordinates": [
          -73.36683472458597,
          5.5219681289908875
        ]
      }
    },
    {
      "type": "Feature",
      "properties": {
        "_source": "Ruta6-EstanciaelRoble-AvenidaNorte-RetenSur",
        "_segmentIndex": 0,
        "_position": 21
      },
      "geometry": {
        "type": "Point",
        "coordinates": [
          -73.36696765551173,
          5.521538406309074
        ]
      }
    },
    {
      "type": "Feature",
      "properties": {
        "_source": "Ruta6-EstanciaelRoble-AvenidaNorte-RetenSur",
        "_segmentIndex": 0,
        "_position": 22
      },
      "geometry": {
        "type": "Point",
        "coordinates": [
          -73.36706923585318,
          5.521100272196715
        ]
      }
    },
    {
      "type": "Feature",
      "properties": {
        "_source": "Ruta6-EstanciaelRoble-AvenidaNorte-RetenSur",
        "_segmentIndex": 0,
        "_position": 23
      },
      "geometry": {
        "type": "Point",
        "coordinates": [
          -73.36717086486227,
          5.520662138170815
        ]
      }
    },
    {
      "type": "Feature",
      "properties": {
        "_source": "Ruta6-EstanciaelRoble-AvenidaNorte-RetenSur",
        "_segmentIndex": 0,
        "_position": 24
      },
      "geometry": {
        "type": "Point",
        "coordinates": [
          -73.36729187107197,
          5.520228933603873
        ]
      }
    },
    {
      "type": "Feature",
      "properties": {
        "_source": "Ruta6-EstanciaelRoble-AvenidaNorte-RetenSur",
        "_segmentIndex": 0,
        "_position": 25
      },
      "geometry": {
        "type": "Point",
        "coordinates": [
          -73.36739547830709,
          5.519791295975995
        ]
      }
    },
    {
      "type": "Feature",
      "properties": {
        "_source": "Ruta6-EstanciaelRoble-AvenidaNorte-RetenSur",
        "_segmentIndex": 0,
        "_position": 26
      },
      "geometry": {
        "type": "Point",
        "coordinates": [
          -73.36747395917536,
          5.519348797859926
        ]
      }
    },
    {
      "type": "Feature",
      "properties": {
        "_source": "Ruta6-EstanciaelRoble-AvenidaNorte-RetenSur",
        "_segmentIndex": 0,
        "_position": 27
      },
      "geometry": {
        "type": "Point",
        "coordinates": [
          -73.36752934906481,
          5.518902548340469
        ]
      }
    },
    {
      "type": "Feature",
      "properties": {
        "_source": "Ruta6-EstanciaelRoble-AvenidaNorte-RetenSur",
        "_segmentIndex": 0,
        "_position": 28
      },
      "geometry": {
        "type": "Point",
        "coordinates": [
          -73.36757483085766,
          5.518455172863369
        ]
      }
    },
    {
      "type": "Feature",
      "properties": {
        "_source": "Ruta6-EstanciaelRoble-AvenidaNorte-RetenSur",
        "_segmentIndex": 0,
        "_position": 0
      },
      "geometry": {
        "type": "Point",
        "coordinates": [
          -73.36764,
          5.518333
        ]
      }
    },
    {
      "type": "Feature",
      "properties": {
        "_source": "Ruta6-EstanciaelRoble-AvenidaNorte-RetenSur",
        "_segmentIndex": 0,
        "_position": 1
      },
      "geometry": {
        "type": "Point",
        "coordinates": [
          -73.36808079235993,
          5.518236513808606
        ]
      }
    },
    {
      "type": "Feature",
      "properties": {
        "_source": "Ruta6-EstanciaelRoble-AvenidaNorte-RetenSur",
        "_segmentIndex": 0,
        "_position": 2
      },
      "geometry": {
        "type": "Point",
        "coordinates": [
          -73.36852107082106,
          5.518137218429928
        ]
      }
    },
    {
      "type": "Feature",
      "properties": {
        "_source": "Ruta6-EstanciaelRoble-AvenidaNorte-RetenSur",
        "_segmentIndex": 0,
        "_position": 3
      },
      "geometry": {
        "type": "Point",
        "coordinates": [
          -73.36895903919599,
          5.518028023280125
        ]
      }
    },
    {
      "type": "Feature",
      "properties": {
        "_source": "Ruta6-EstanciaelRoble-AvenidaNorte-RetenSur",
        "_segmentIndex": 0,
        "_position": 4
      },
      "geometry": {
        "type": "Point",
        "coordinates": [
          -73.36940310035806,
          5.5179573370480535
        ]
      }
    },
    {
      "type": "Feature",
      "properties": {
        "_source": "Ruta6-EstanciaelRoble-AvenidaNorte-RetenSur",
        "_segmentIndex": 0,
        "_position": 5
      },
      "geometry": {
        "type": "Point",
        "coordinates": [
          -73.36985321182216,
          5.5179215567313875
        ]
      }
    },
    {
      "type": "Feature",
      "properties": {
        "_source": "Ruta6-EstanciaelRoble-AvenidaNorte-RetenSur",
        "_segmentIndex": 0,
        "_position": 0
      },
      "geometry": {
        "type": "Point",
        "coordinates": [
          -73.37016,
          5.51781
        ]
      }
    },
    {
      "type": "Feature",
      "properties": {
        "_source": "Ruta6-EstanciaelRoble-AvenidaNorte-RetenSur",
        "_segmentIndex": 0,
        "_position": 1
      },
      "geometry": {
        "type": "Point",
        "coordinates": [
          -73.37032517054409,
          5.517395099251161
        ]
      }
    },
    {
      "type": "Feature",
      "properties": {
        "_source": "Ruta6-EstanciaelRoble-AvenidaNorte-RetenSur",
        "_segmentIndex": 0,
        "_position": 2
      },
      "geometry": {
        "type": "Point",
        "coordinates": [
          -73.37043011121507,
          5.516957770685863
        ]
      }
    },
    {
      "type": "Feature",
      "properties": {
        "_source": "Ruta6-EstanciaelRoble-AvenidaNorte-RetenSur",
        "_segmentIndex": 0,
        "_position": 3
      },
      "geometry": {
        "type": "Point",
        "coordinates": [
          -73.37051648124735,
          5.5165164052571
        ]
      }
    },
    {
      "type": "Feature",
      "properties": {
        "_source": "Ruta6-EstanciaelRoble-AvenidaNorte-RetenSur",
        "_segmentIndex": 0,
        "_position": 4
      },
      "geometry": {
        "type": "Point",
        "coordinates": [
          -73.37060927000906,
          5.516076352710437
        ]
      }
    },
    {
      "type": "Feature",
      "properties": {
        "_source": "Ruta6-EstanciaelRoble-AvenidaNorte-RetenSur",
        "_segmentIndex": 0,
        "_position": 5
      },
      "geometry": {
        "type": "Point",
        "coordinates": [
          -73.37070321609282,
          5.515636528805561
        ]
      }
    },
    {
      "type": "Feature",
      "properties": {
        "_source": "Ruta6-EstanciaelRoble-AvenidaNorte-RetenSur",
        "_segmentIndex": 0,
        "_position": 6
      },
      "geometry": {
        "type": "Point",
        "coordinates": [
          -73.37080747689059,
          5.515199107203676
        ]
      }
    },
    {
      "type": "Feature",
      "properties": {
        "_source": "Ruta6-EstanciaelRoble-AvenidaNorte-RetenSur",
        "_segmentIndex": 0,
        "_position": 7
      },
      "geometry": {
        "type": "Point",
        "coordinates": [
          -73.37092863677823,
          5.514766111055155
        ]
      }
    },
    {
      "type": "Feature",
      "properties": {
        "_source": "Ruta6-EstanciaelRoble-AvenidaNorte-RetenSur",
        "_segmentIndex": 0,
        "_position": 8
      },
      "geometry": {
        "type": "Point",
        "coordinates": [
          -73.37113364998875,
          5.514366809957463
        ]
      }
    },
    {
      "type": "Feature",
      "properties": {
        "_source": "Ruta6-EstanciaelRoble-AvenidaNorte-RetenSur",
        "_segmentIndex": 0,
        "_position": 9
      },
      "geometry": {
        "type": "Point",
        "coordinates": [
          -73.37134767135996,
          5.513971218440703
        ]
      }
    },
    {
      "type": "Feature",
      "properties": {
        "_source": "Ruta6-EstanciaelRoble-AvenidaNorte-RetenSur",
        "_segmentIndex": 0,
        "_position": 10
      },
      "geometry": {
        "type": "Point",
        "coordinates": [
          -73.37154659468571,
          5.513568566210247
        ]
      }
    },
    {
      "type": "Feature",
      "properties": {
        "_source": "Ruta6-EstanciaelRoble-AvenidaNorte-RetenSur",
        "_segmentIndex": 0,
        "_position": 0
      },
      "geometry": {
        "type": "Point",
        "coordinates": [
          -73.371572,
          5.513345
        ]
      }
    },
    {
      "type": "Feature",
      "properties": {
        "_source": "Ruta6-EstanciaelRoble-AvenidaNorte-RetenSur",
        "_segmentIndex": 0,
        "_position": 1
      },
      "geometry": {
        "type": "Point",
        "coordinates": [
          -73.37179698273884,
          5.512961715399295
        ]
      }
    },
    {
      "type": "Feature",
      "properties": {
        "_source": "Ruta6-EstanciaelRoble-AvenidaNorte-RetenSur",
        "_segmentIndex": 0,
        "_position": 2
      },
      "geometry": {
        "type": "Point",
        "coordinates": [
          -73.37198449546393,
          5.512553413751283
        ]
      }
    },
    {
      "type": "Feature",
      "properties": {
        "_source": "Ruta6-EstanciaelRoble-AvenidaNorte-RetenSur",
        "_segmentIndex": 0,
        "_position": 3
      },
      "geometry": {
        "type": "Point",
        "coordinates": [
          -73.37217617515526,
          5.512146242670811
        ]
      }
    },
    {
      "type": "Feature",
      "properties": {
        "_source": "Ruta6-EstanciaelRoble-AvenidaNorte-RetenSur",
        "_segmentIndex": 0,
        "_position": 4
      },
      "geometry": {
        "type": "Point",
        "coordinates": [
          -73.37236657159278,
          5.511738471173327
        ]
      }
    },
    {
      "type": "Feature",
      "properties": {
        "_source": "Ruta6-EstanciaelRoble-AvenidaNorte-RetenSur",
        "_segmentIndex": 0,
        "_position": 5
      },
      "geometry": {
        "type": "Point",
        "coordinates": [
          -73.37255448328933,
          5.511329572481364
        ]
      }
    },
    {
      "type": "Feature",
      "properties": {
        "_source": "Ruta6-EstanciaelRoble-AvenidaNorte-RetenSur",
        "_segmentIndex": 0,
        "_position": 6
      },
      "geometry": {
        "type": "Point",
        "coordinates": [
          -73.37273746189368,
          5.510918449722596
        ]
      }
    },
    {
      "type": "Feature",
      "properties": {
        "_source": "Ruta6-EstanciaelRoble-AvenidaNorte-RetenSur",
        "_segmentIndex": 0,
        "_position": 7
      },
      "geometry": {
        "type": "Point",
        "coordinates": [
          -73.37292055012335,
          5.510507375392379
        ]
      }
    },
    {
      "type": "Feature",
      "properties": {
        "_source": "Ruta6-EstanciaelRoble-AvenidaNorte-RetenSur",
        "_segmentIndex": 0,
        "_position": 8
      },
      "geometry": {
        "type": "Point",
        "coordinates": [
          -73.37310397325678,
          5.510096449098668
        ]
      }
    },
    {
      "type": "Feature",
      "properties": {
        "_source": "Ruta6-EstanciaelRoble-AvenidaNorte-RetenSur",
        "_segmentIndex": 0,
        "_position": 9
      },
      "geometry": {
        "type": "Point",
        "coordinates": [
          -73.37328752590098,
          5.509685580115571
        ]
      }
    },
    {
      "type": "Feature",
      "properties": {
        "_source": "Ruta6-EstanciaelRoble-AvenidaNorte-RetenSur",
        "_segmentIndex": 0,
        "_position": 10
      },
      "geometry": {
        "type": "Point",
        "coordinates": [
          -73.3734789633895,
          5.509278509548969
        ]
      }
    },
    {
      "type": "Feature",
      "properties": {
        "_source": "Ruta6-EstanciaelRoble-AvenidaNorte-RetenSur",
        "_segmentIndex": 0,
        "_position": 11
      },
      "geometry": {
        "type": "Point",
        "coordinates": [
          -73.3736852475962,
          5.508878533909955
        ]
      }
    }
  ]
}