{
  "type": "FeatureCollection",
  "features": [
    {
      "type": "Feature",
      "properties": {
        "_source": "Ruta14-Paraiso-AvenidaNorte-EstanciaelRoble",
        "_segmentIndex": 0,
        "_position": 0
      },
      "geometry": {
        "type": "Point",
        "coordinates": [
          -73.370053,
          5.524098
        ]
      }
    },
    {
      "type": "Feature",
      "properties": {
        "_source": "Ruta14-Paraiso-AvenidaNorte-EstanciaelRoble",
        "_segmentIndex": 0,
        "_position": 1
      },
      "geometry": {
        "type": "Point",
        "coordinates": [
          -73.36963281333651,
          5.5239330409040575
        ]
      }
    },
    {
      "type": "Feature",
      "properties": {
        "_source": "Ruta14-Paraiso-AvenidaNorte-EstanciaelRoble",
        "_segmentIndex": 0,
        "_position": 2
      },
      "geometry": {
        "type": "Point",
        "coordinates": [
          -73.36921198900357,
          5.523769517059248
        ]
      }
    },
    {
      "type": "Feature",
      "properties": {
        "_source": "Ruta14-Paraiso-AvenidaNorte-EstanciaelRoble",
        "_segmentIndex": 0,
        "_position": 3
      },
      "geometry": {
        "type": "Point",
        "coordinates": [
          -73.36879354176298,
          5.523600241020074
        ]
      }
    },
    {
      "type": "Feature",
      "properties": {
        "_source": "Ruta14-Paraiso-AvenidaNorte-EstanciaelRoble",
        "_segmentIndex": 0,
        "_position": 4
      },
      "geometry": {
        "type": "Point",
        "coordinates": [
          -73.36837619746106,
          5.523428924222715
        ]
      }
    },
    {
      "type": "Feature",
      "properties": {
        "_source": "Ruta14-Paraiso-AvenidaNorte-EstanciaelRoble",
        "_segmentIndex": 0,
        "_position": 5
      },
      "geometry": {
        "type": "Point",
        "coordinates": [
          -73.36794763570515,
          5.523287394797797
        ]
      }
    },
    {
      "type": "Feature",
      "properties": {
        "_source": "Ruta14-Paraiso-AvenidaNorte-EstanciaelRoble",
        "_segmentIndex": 0,
        "_position": 6
      },
      "geometry": {
        "type": "Point",
        "coordinates": [
          -73.36753195579948,
          5.523111311890788
        ]
      }
    },
    {
      "type": "Feature",
      "properties": {
        "_source": "Ruta14-Paraiso-AvenidaNorte-EstanciaelRoble",
        "_segmentIndex": 0,
        "_position": 7
      },
      "geometry": {
        "type": "Point",
        "coordinates": [
          -73.36711391690893,
          5.522941390272442
        ]
      }
    },
    {
      "type": "Feature",
      "properties": {
        "_source": "Ruta14-Paraiso-AvenidaNorte-EstanciaelRoble",
        "_segmentIndex": 0,
        "_position": 8
      },
      "geometry": {
        "type": "Point",
        "coordinates": [
          -73.3666859364578,
          5.522797433193087
        ]
      }
    },
    {
      "type": "Feature",
      "properties": {
        "_source": "Ruta14-Paraiso-AvenidaNorte-EstanciaelRoble",
        "_segmentIndex": 0,
        "_position": 0
      },
      "geometry": {
        "type": "Point",
        "coordinates": [
          -73.366493,
          5.522792
        ]
      }
    },
    {
      "type": "Feature",
      "properties": {
        "_source": "Ruta14-Paraiso-AvenidaNorte-EstanciaelRoble",
        "_segmentIndex": 0,
        "_position": 1
      },
      "geometry": {
        "type": "Point",
        "coordinates": [
          -73.36640772989283,
          5.523233577445817
        ]
      }
    },
    {
      "type": "Feature",
      "properties": {
        "_source": "Ruta14-Paraiso-AvenidaNorte-EstanciaelRoble",
        "_segmentIndex": 0,
        "_position": 2
      },
      "geometry": {
        "type": "Point",
        "coordinates": [
          -73.36630950414907,
          5.523672389421028
        ]
      }
    },
    {
      "type": "Feature",
      "properties": {
        "_source": "Ruta14-Paraiso-AvenidaNorte-EstanciaelRoble",
        "_segmentIndex": 0,
        "_position": 3
      },
      "geometry": {
        "type": "Point",
        "coordinates": [
          -73.36620116688275,
          5.52410889630372
        ]
      }
    },
    {
      "type": "Feature",
      "properties": {
        "_source": "Ruta14-Paraiso-AvenidaNorte-EstanciaelRoble",
        "_segmentIndex": 0,
        "_position": 4
      },
      "geometry": {
        "type": "Point",
        "coordinates": [
          -73.36606200956561,
          5.524535952481318
        ]
      }
    },
    {
      "type": "Feature",
      "properties": {
        "_source": "Ruta14-Paraiso-AvenidaNorte-EstanciaelRoble",
        "_segmentIndex": 0,
        "_position": 5
      },
      "geometry": {
        "type": "Point",
        "coordinates": [
          -73.36589929621746,
          5.5249554331699775
        ]
      }
    },
    {
      "type": "Feature",
      "properties": {
        "_source": "Ruta14-Paraiso-AvenidaNorte-EstanciaelRoble",
        "_segmentIndex": 0,
        "_position": 6
      },
      "geometry": {
        "type": "Point",
        "coordinates": [
          -73.36573074996794,
          5.525372550248809
        ]
      }
    },
    {
      "type": "Feature",
      "properties": {
        "_source": "Ruta14-Paraiso-AvenidaNorte-EstanciaelRoble",
        "_segmentIndex": 0,
        "_position": 7
      },
      "geometry": {
        "type": "Point",
        "coordinates": [
          -73.36555283115933,
          5.525785869346025
        ]
      }
    },
    {
      "type": "Feature",
      "properties": {
        "_source": "Ruta14-Paraiso-AvenidaNorte-EstanciaelRoble",
        "_segmentIndex": 0,
        "_position": 0
      },
      "geometry": {
        "type": "Point",
        "coordinates": [
          -73.365474,
          5.525969
        ]
      }
    },
    {
      "type": "Feature",
      "properties": {
        "_source": "Ruta14-Paraiso-AvenidaNorte-EstanciaelRoble",
        "_segmentIndex": 0,
        "_position": 1
      },
      "geometry": {
        "type": "Point",
        "coordinates": [
          -73.3650507047547,
          5.525814633525485
        ]
      }
    },
    {
      "type": "Feature",
      "properties": {
        "_source": "Ruta14-Paraiso-AvenidaNorte-EstanciaelRoble",
        "_segmentIndex": 0,
        "_position": 2
      },
      "geometry": {
        "type": "Point",
        "coordinates": [
          -73.36463370446259,
          5.525641680326578
        ]
      }
    },
    {
      "type": "Feature",
      "properties": {
        "_source": "Ruta14-Paraiso-AvenidaNorte-EstanciaelRoble",
        "_segmentIndex": 0,
        "_position": 3
      },
      "geometry": {
        "type": "Point",
        "coordinates": [
          -73.36421571913331,
          5.525471086010546
        ]
      }
    },
    {
      "type": "Feature",
      "properties": {
        "_source": "Ruta14-Paraiso-AvenidaNorte-EstanciaelRoble",
        "_segmentIndex": 0,
        "_position": 4
      },
      "geometry": {
        "type": "Point",
        "coordinates": [
          -73.36379545171542,
          5.525306187677861
        ]
      }
    },
    {
      "type": "Feature",
      "properties": {
        "_source": "Ruta14-Paraiso-AvenidaNorte-EstanciaelRoble",
        "_segmentIndex": 0,
        "_position": 5
      },
      "geometry": {
        "type": "Point",
        "coordinates": [
          -73.3633713525541,
          5.525159000001438
        ]
      }
    },
    {
      "type": "Feature",
      "properties": {
        "_source": "Ruta14-Paraiso-AvenidaNorte-EstanciaelRoble",
        "_segmentIndex": 0,
        "_position": 0
      },
      "geometry": {
        "type": "Point",
        "coordinates": [
          -73.363331,
          5.525159
        ]
      }
    },
    {
      "type": "Feature",
      "properties": {
        "_source": "Ruta14-Paraiso-AvenidaNorte-EstanciaelRoble",
        "_segmentIndex": 0,
        "_position": 1
      },
      "geometry": {
        "type": "Point",
        "coordinates": [
          -73.36319791384805,
          5.525588545217249
        ]
      }
    },
    {
      "type": "Feature",
      "properties": {
        "_source": "Ruta14-Paraiso-AvenidaNorte-EstanciaelRoble",
        "_segmentIndex": 0,
        "_position": 2
      },
      "geometry": {
        "type": "Point",
        "coordinates": [
          -73.36305338775462,
          5.526014573585088
        ]
      }
    },
    {
      "type": "Feature",
      "properties": {
        "_source": "Ruta14-Paraiso-AvenidaNorte-EstanciaelRoble",
        "_segmentIndex": 0,
        "_position": 3
      },
      "geometry": {
        "type": "Point",
        "coordinates": [
          -73.36290298022656,
          5.526438554464969
        ]
      }
    },
    {
      "type": "Feature",
      "properties": {
        "_source": "Ruta14-Paraiso-AvenidaNorte-EstanciaelRoble",
        "_segmentIndex": 0,
        "_position": 4
      },
      "geometry": {
        "type": "Point",
        "coordinates": [
          -73.36270650000078,
          5.526838844447186
        ]
      }
    },
    {
      "type": "Feature",
      "properties": {
        "_source": "Ruta14-Paraiso-AvenidaNorte-EstanciaelRoble",
        "_segmentIndex": 0,
        "_position": 5
      },
      "geometry": {
        "type": "Point",
        "coordinates": [
          -73.36256389264472,
          5.527265481353688
        ]
      }
    },
    {
      "type": "Feature",
      "properties": {
        "_source": "Ruta14-Paraiso-AvenidaNorte-EstanciaelRoble",
        "_segmentIndex": 0,
        "_position": 6
      },
      "geometry": {
        "type": "Point",
        "coordinates": [
          -73.36242827270648,
          5.527694387930307
        ]
      }
    },
    {
      "type": "Feature",
      "properties": {
        "_source": "Ruta14-Paraiso-AvenidaNorte-EstanciaelRoble",
        "_segmentIndex": 0,
        "_position": 7
      },
      "geometry": {
        "type": "Point",
        "coordinates": [
          -73.36229449616454,
          5.528123880869659
        ]
      }
    },
    {
      "type": "Feature",
      "properties": {
        "_source": "Ruta14-Paraiso-AvenidaNorte-EstanciaelRoble",
        "_segmentIndex": 0,
        "_position": 8
      },
      "geometry": {
        "type": "Point",
        "coordinates": [
          -73.36215638521027,
          5.528552005112869
        ]
      }
    },
    {
      "type": "Feature",
      "properties": {
        "_source": "Ruta14-Paraiso-AvenidaNorte-EstanciaelRoble",
        "_segmentIndex": 0,
        "_position": 0
      },
      "geometry": {
        "type": "Point",
        "coordinates": [
          -73.362129,
          5.528636
        ]
      }
    },
    {
      "type": "Feature",
      "properties": {
        "_source": "Ruta14-Paraiso-AvenidaNorte-EstanciaelRoble",
        "_segmentIndex": 0,
        "_position": 1
      },
      "geometry": {
        "type": "Point",
        "coordinates": [
          -73.36169100088375,
          5.528550476481238
        ]
      }
    },
    {
      "type": "Feature",
      "properties": {
        "_source": "Ruta14-Paraiso-AvenidaNorte-EstanciaelRoble",
        "_segmentIndex": 0,
        "_position": 2
      },
      "geometry": {
        "type": "Point",
        "coordinates": [
          -73.36125406245033,
          5.528436235193901
        ]
      }
    },
    {
      "type": "Feature",
      "properties": {
        "_source": "Ruta14-Paraiso-AvenidaNorte-EstanciaelRoble",
        "_segmentIndex": 0,
        "_position": 0
      },
      "geometry": {
        "type": "Point",
        "coordinates": [
          -73.361104,
          5.528397
        ]
      }
    },
    {
      "type": "Feature",
      "properties": {
        "_source": "Ruta14-Paraiso-AvenidaNorte-EstanciaelRoble",
        "_segmentIndex": 0,
        "_position": 1
      },
      "geometry": {
        "type": "Point",
        "coordinates": [
          -73.36095706435783,
          5.528817689791854
        ]
      }
    },
    {
      "type": "Feature",
      "properties": {
        "_source": "Ruta14-Paraiso-AvenidaNorte-EstanciaelRoble",
        "_segmentIndex": 0,
        "_position": 2
      },
      "geometry": {
        "type": "Point",
        "coordinates": [
          -73.36083879561461,
          5.529251667480666
        ]
      }
    },
    {
      "type": "Feature",
      "properties": {
        "_source": "Ruta14-Paraiso-AvenidaNorte-EstanciaelRoble",
        "_segmentIndex": 0,
        "_position": 3
      },
      "geometry": {
        "type": "Point",
        "coordinates": [
          -73.36071869466987,
          5.529685132860425
        ]
      }
    },
    {
      "type": "Feature",
      "properties": {
        "_source": "Ruta14-Paraiso-AvenidaNorte-EstanciaelRoble",
        "_segmentIndex": 0,
        "_position": 4
      },
      "geometry": {
        "type": "Point",
        "coordinates": [
          -73.36059161318973,
          5.53011663552181
        ]
      }
    },
    {
      "type": "Feature",
      "properties": {
        "_source": "Ruta14-Paraiso-AvenidaNorte-EstanciaelRoble",
        "_segmentIndex": 0,
        "_position": 5
      },
      "geometry": {
        "type": "Point",
        "coordinates": [
          -73.3604661632451,
          5.530548601043057
        ]
      }
    },
    {
      "type": "Feature",
      "properties": {
        "_source": "Ruta14-Paraiso-AvenidaNorte-EstanciaelRoble",
        "_segmentIndex": 0,
        "_position": 6
      },
      "geometry": {
        "type": "Point",
        "coordinates": [
          -73.36035104717935,
          5.530983417863869
        ]
      }
    },
    {
      "type": "Feature",
      "properties": {
        "_source": "Ruta14-Paraiso-AvenidaNorte-EstanciaelRoble",
        "_segmentIndex": 0,
        "_position": 7
      },
      "geometry": {
        "type": "Point",
        "coordinates": [
          -73.36022983936272,
          5.531416520312132
        ]
      }
    },
    {
      "type": "Feature",
      "properties": {
        "_source": "Ruta14-Paraiso-AvenidaNorte-EstanciaelRoble",
        "_segmentIndex": 0,
        "_position": 8
      },
      "geometry": {
        "type": "Point",
        "coordinates": [
          -73.36009916370378,
          5.531846958256012
        ]
      }
    },
    {
      "type": "Feature",
      "properties": {
        "_source": "Ruta14-Paraiso-AvenidaNorte-EstanciaelRoble",
        "_segmentIndex": 0,
        "_position": 9
      },
      "geometry": {
        "type": "Point",
        "coordinates": [
          -73.3599684878547,
          5.532277396171293
        ]
      }
    },
    {
      "type": "Feature",
      "properties": {
        "_source": "Ruta14-Paraiso-AvenidaNorte-EstanciaelRoble",
        "_segmentIndex": 0,
        "_position": 10
      },
      "geometry": {
        "type": "Point",
        "coordinates": [
          -73.3598457880285,
          5.53271014137203
        ]
      }
    },
    {
      "type": "Feature",
      "properties": {
        "_source": "Ruta14-Paraiso-AvenidaNorte-EstanciaelRoble",
        "_segmentIndex": 0,
        "_position": 11
      },
      "geometry": {
        "type": "Point",
        "coordinates": [
          -73.35972432036914,
          5.533143243033786
        ]
      }
    },
    {
      "type": "Feature",
      "properties": {
        "_source": "Ruta14-Paraiso-AvenidaNorte-EstanciaelRoble",
        "_segmentIndex": 0,
        "_position": 12
      },
      "geometry": {
        "type": "Point",
        "coordinates": [
          -73.35959017783601,
          5.53357252959137
        ]
      }
    },
    {
      "type": "Feature",
      "properties": {
        "_source": "Ruta14-Paraiso-AvenidaNorte-EstanciaelRoble",
        "_segmentIndex": 0,
        "_position": 13
      },
      "geometry": {
        "type": "Point",
        "coordinates": [
          -73.35945879593336,
          5.53400275282078
        ]
      }
    },
    {
      "type": "Feature",
      "properties": {
        "_source": "Ruta14-Paraiso-AvenidaNorte-EstanciaelRoble",
        "_segmentIndex": 0,
        "_position": 14
      },
      "geometry": {
        "type": "Point",
        "coordinates": [
          -73.35932752228042,
          5.53443301063216
        ]
      }
    },
    {
      "type": "Feature",
      "properties": {
        "_source": "Ruta14-Paraiso-AvenidaNorte-EstanciaelRoble",
        "_segmentIndex": 0,
        "_position": 15
      },
      "geometry": {
        "type": "Point",
        "coordinates": [
          -73.35921766095035,
          5.53486912470359
        ]
      }
    },
    {
      "type": "Feature",
      "properties": {
        "_source": "Ruta14-Paraiso-AvenidaNorte-EstanciaelRoble",
        "_segmentIndex": 0,
        "_position": 16
      },
      "geometry": {
        "type": "Point",
        "coordinates": [
          -73.35908942398828,
          5.535300288890495
        ]
      }
    },
    {
      "type": "Feature",
      "properties": {
        "_source": "Ruta14-Paraiso-AvenidaNorte-EstanciaelRoble",
        "_segmentIndex": 0,
        "_position": 0
      },
      "geometry": {
        "type": "Point",
        "coordinates": [
          -73.359033,
          5.53549
        ]
      }
    },
    {
      "type": "Feature",
      "properties": {
        "_source": "Ruta14-Paraiso-AvenidaNorte-EstanciaelRoble",
        "_segmentIndex": 0,
        "_position": 1
      },
      "geometry": {
        "type": "Point",
        "coordinates": [
          -73.35945548459452,
          5.535647349898297
        ]
      }
    },
    {
      "type": "Feature",
      "properties": {
        "_source": "Ruta14-Paraiso-AvenidaNorte-EstanciaelRoble",
        "_segmentIndex": 0,
        "_position": 2
      },
      "geometry": {
        "type": "Point",
        "coordinates": [
          -73.35988301121373,
          5.535792663917254
        ]
      }
    },
    {
      "type": "Feature",
      "properties": {
        "_source": "Ruta14-Paraiso-AvenidaNorte-EstanciaelRoble",
        "_segmentIndex": 0,
        "_position": 3
      },
      "geometry": {
        "type": "Point",
        "coordinates": [
          -73.35975008347532,
          5.5362213612448095
        ]
      }
    },
    {
      "type": "Feature",
      "properties": {
        "_source": "Ruta14-Paraiso-AvenidaNorte-EstanciaelRoble",
        "_segmentIndex": 0,
        "_position": 4
      },
      "geometry": {
        "type": "Point",
        "coordinates": [
          -73.35936216778019,
          5.536225741457109
        ]
      }
    },
    {
      "type": "Feature",
      "properties": {
        "_source": "Ruta14-Paraiso-AvenidaNorte-EstanciaelRoble",
        "_segmentIndex": 0,
        "_position": 5
      },
      "geometry": {
        "type": "Point",
        "coordinates": [
          -73.35892813037236,
          5.536101005002911
        ]
      }
    },
    {
      "type": "Feature",
      "properties": {
        "_source": "Ruta14-Paraiso-AvenidaNorte-EstanciaelRoble",
        "_segmentIndex": 0,
        "_position": 0
      },
      "geometry": {
        "type": "Point",
        "coordinates": [
          -73.358805,
          5.536159
        ]
      }
    },
    {
      "type": "Feature",
      "properties": {
        "_source": "Ruta14-Paraiso-AvenidaNorte-EstanciaelRoble",
        "_segmentIndex": 0,
        "_position": 1
      },
      "geometry": {
        "type": "Point",
        "coordinates": [
          -73.35869141962615,
          5.536594153427726
        ]
      }
    },
    {
      "type": "Feature",
      "properties": {
        "_source": "Ruta14-Paraiso-AvenidaNorte-EstanciaelRoble",
        "_segmentIndex": 0,
        "_position": 2
      },
      "geometry": {
        "type": "Point",
        "coordinates": [
          -73.35859198191713,
          5.537030668878852
        ]
      }
    },
    {
      "type": "Feature",
      "properties": {
        "_source": "Ruta14-Paraiso-AvenidaNorte-EstanciaelRoble",
        "_segmentIndex": 0,
        "_position": 0
      },
      "geometry": {
        "type": "Point",
        "coordinates": [
          -73.358642,
          5.537127
        ]
      }
    },
    {
      "type": "Feature",
      "properties": {
        "_source": "Ruta14-Paraiso-AvenidaNorte-EstanciaelRoble",
        "_segmentIndex": 0,
        "_position": 1
      },
      "geometry": {
        "type": "Point",
        "coordinates": [
          -73.359069382599,
          5.537272730860424
        ]
      }
    },
    {
      "type": "Feature",
      "properties": {
        "_source": "Ruta14-Paraiso-AvenidaNorte-EstanciaelRoble",
        "_segmentIndex": 0,
        "_position": 2
      },
      "geometry": {
        "type": "Point",
        "coordinates": [
          -73.35949770353137,
          5.537415600140645
        ]
      }
    },
    {
      "type": "Feature",
      "properties": {
        "_source": "Ruta14-Paraiso-AvenidaNorte-EstanciaelRoble",
        "_segmentIndex": 0,
        "_position": 3
      },
      "geometry": {
        "type": "Point",
        "coordinates": [
          -73.35991327126062,
          5.537591570462417
        ]
      }
    },
    {
      "type": "Feature",
      "properties": {
        "_source": "Ruta14-Paraiso-AvenidaNorte-EstanciaelRoble",
        "_segmentIndex": 0,
        "_position": 4
      },
      "geometry": {
        "type": "Point",
        "coordinates": [
          -73.36032548559935,
          5.537766889816916
        ]
      }
    },
    {
      "type": "Feature",
      "properties": {
        "_source": "Ruta14-Paraiso-AvenidaNorte-EstanciaelRoble",
        "_segmentIndex": 0,
        "_position": 0
      },
      "geometry": {
        "type": "Point",
        "coordinates": [
          -73.360369,
          5.537974
        ]
      }
    },
    {
      "type": "Feature",
      "properties": {
        "_source": "Ruta14-Paraiso-AvenidaNorte-EstanciaelRoble",
        "_segmentIndex": 0,
        "_position": 1
      },
      "geometry": {
        "type": "Point",
        "coordinates": [
          -73.36021085781866,
          5.538393677565274
        ]
      }
    },
    {
      "type": "Feature",
      "properties": {
        "_source": "Ruta14-Paraiso-AvenidaNorte-EstanciaelRoble",
        "_segmentIndex": 0,
        "_position": 0
      },
      "geometry": {
        "type": "Point",
        "coordinates": [
          -73.360141,
          5.53871
        ]
      }
    },
    {
      "type": "Feature",
      "properties": {
        "_source": "Ruta14-Paraiso-AvenidaNorte-EstanciaelRoble",
        "_segmentIndex": 0,
        "_position": 1
      },
      "geometry": {
        "type": "Point",
        "coordinates": [
          -73.3600356629316,
          5.539147265662581
        ]
      }
    },
    {
      "type": "Feature",
      "properties": {
        "_source": "Ruta14-Paraiso-AvenidaNorte-EstanciaelRoble",
        "_segmentIndex": 0,
        "_position": 2
      },
      "geometry": {
        "type": "Point",
        "coordinates": [
          -73.35992565914876,
          5.539583392022806
        ]
      }
    },
    {
      "type": "Feature",
      "properties": {
        "_source": "Ruta14-Paraiso-AvenidaNorte-EstanciaelRoble",
        "_segmentIndex": 0,
        "_position": 3
      },
      "geometry": {
        "type": "Point",
        "coordinates": [
          -73.35981015687317,
          5.540017976987047
        ]
      }
    },
    {
      "type": "Feature",
      "properties": {
        "_source": "Ruta14-Paraiso-AvenidaNorte-EstanciaelRoble",
        "_segmentIndex": 0,
        "_position": 4
      },
      "geometry": {
        "type": "Point",
        "coordinates": [
          -73.35966155965163,
          5.540441990827032
        ]
      }
    },
    {
      "type": "Feature",
      "properties": {
        "_source": "Ruta14-Paraiso-AvenidaNorte-EstanciaelRoble",
        "_segmentIndex": 0,
        "_position": 5
      },
      "geometry": {
        "type": "Point",
        "coordinates": [
          -73.35947523137261,
          5.540851607438475
        ]
      }
    },
    {
      "type": "Feature",
      "properties": {
        "_source": "Ruta14-Paraiso-AvenidaNorte-EstanciaelRoble",
        "_segmentIndex": 0,
        "_position": 6
      },
      "geometry": {
        "type": "Point",
        "coordinates": [
          -73.35928562567469,
          5.541259748524657
        ]
      }
    },
    {
      "type": "Feature",
      "properties": {
        "_source": "Ruta14-Paraiso-AvenidaNorte-EstanciaelRoble",
        "_segmentIndex": 0,
        "_position": 7
      },
      "geometry": {
        "type": "Point",
        "coordinates": [
          -73.35909601971468,
          5.541667889550533
        ]
      }
    },
    {
      "type": "Feature",
      "properties": {
        "_source": "Ruta14-Paraiso-AvenidaNorte-EstanciaelRoble",
        "_segmentIndex": 0,
        "_position": 8
      },
      "geometry": {
        "type": "Point",
        "coordinates": [
          -73.35891628299122,
          5.542080425401521
        ]
      }
    },
    {
      "type": "Feature",
      "properties": {
        "_source": "Ruta14-Paraiso-AvenidaNorte-EstanciaelRoble",
        "_segmentIndex": 0,
        "_position": 9
      },
      "geometry": {
        "type": "Point",
        "coordinates": [
          -73.35884789423265,
          5.5425214149434785
        ]
      }
    },
    {
      "type": "Feature",
      "properties": {
        "_source": "Ruta14-Paraiso-AvenidaNorte-EstanciaelRoble",
        "_segmentIndex": 0,
        "_position": 10
      },
      "geometry": {
        "type": "Point",
        "coordinates": [
          -73.35876716858695,
          5.542948269356178
        ]
      }
    },
    {
      "type": "Feature",
      "properties": {
        "_source": "Ruta14-Paraiso-AvenidaNorte-EstanciaelRoble",
        "_segmentIndex": 0,
        "_position": 11
      },
      "geometry": {
        "type": "Point",
        "coordinates": [
          -73.35848786059034,
          5.543300858291932
        ]
      }
    },
    {
      "type": "Feature",
      "properties": {
        "_source": "Ruta14-Paraiso-AvenidaNorte-EstanciaelRoble",
        "_segmentIndex": 0,
        "_position": 12
      },
      "geometry": {
        "type": "Point",
        "coordinates": [
          -73.35821822596859,
          5.543661648946572
        ]
      }
    },
    {
      "type": "Feature",
      "properties": {
        "_source": "Ruta14-Paraiso-AvenidaNorte-EstanciaelRoble",
        "_segmentIndex": 0,
        "_position": 13
      },
      "geometry": {
        "type": "Point",
        "coordinates": [
          -73.35793197157076,
          5.544008673392589
        ]
      }
    },
    {
      "type": "Feature",
      "properties": {
        "_source": "Ruta14-Paraiso-AvenidaNorte-EstanciaelRoble",
        "_segmentIndex": 0,
        "_position": 0
      },
      "geometry": {
        "type": "Point",
        "coordinates": [
          -73.357731,
          5.544224
        ]
      }
    },
    {
      "type": "Feature",
      "properties": {
        "_source": "Ruta14-Paraiso-AvenidaNorte-EstanciaelRoble",
        "_segmentIndex": 0,
        "_position": 1
      },
      "geometry": {
        "type": "Point",
        "coordinates": [
          -73.3573407971966,
          5.544391985327802
        ]
      }
    },
    {
      "type": "Feature",
      "properties": {
        "_source": "Ruta14-Paraiso-AvenidaNorte-EstanciaelRoble",
        "_segmentIndex": 0,
        "_position": 2
      },
      "geometry": {
        "type": "Point",
        "coordinates": [
          -73.35729310940076,
          5.544830228699922
        ]
      }
    },
    {
      "type": "Feature",
      "properties": {
        "_source": "Ruta14-Paraiso-AvenidaNorte-EstanciaelRoble",
        "_segmentIndex": 0,
        "_position": 0
      },
      "geometry": {
        "type": "Point",
        "coordinates": [
          -73.357187,
          5.54503
        ]
      }
    },
    {
      "type": "Feature",
      "properties": {
        "_source": "Ruta14-Paraiso-AvenidaNorte-EstanciaelRoble",
        "_segmentIndex": 0,
        "_position": 1
      },
      "geometry": {
        "type": "Point",
        "coordinates": [
          -73.35692010162654,
          5.5453928011822216
        ]
      }
    },
    {
      "type": "Feature",
      "properties": {
        "_source": "Ruta14-Paraiso-AvenidaNorte-EstanciaelRoble",
        "_segmentIndex": 0,
        "_position": 2
      },
      "geometry": {
        "type": "Point",
        "coordinates": [
          -73.35665320292493,
          5.545755602244867
        ]
      }
    },
    {
      "type": "Feature",
      "properties": {
        "_source": "Ruta14-Paraiso-AvenidaNorte-EstanciaelRoble",
        "_segmentIndex": 0,
        "_position": 3
      },
      "geometry": {
        "type": "Point",
        "coordinates": [
          -73.3563853959519,
          5.546117739291454
        ]
      }
    },
    {
      "type": "Feature",
      "properties": {
        "_source": "Ruta14-Paraiso-AvenidaNorte-EstanciaelRoble",
        "_segmentIndex": 0,
        "_position": 4
      },
      "geometry": {
        "type": "Point",
        "coordinates": [
          -73.35611806602748,
          5.546480221047371
        ]
      }
    },
    {
      "type": "Feature",
      "properties": {
        "_source": "Ruta14-Paraiso-AvenidaNorte-EstanciaelRoble",
        "_segmentIndex": 0,
        "_position": 5
      },
      "geometry": {
        "type": "Point",
        "coordinates": [
          -73.35585398057312,
          5.546845056223108
        ]
      }
    },
    {
      "type": "Feature",
      "properties": {
        "_source": "Ruta14-Paraiso-AvenidaNorte-EstanciaelRoble",
        "_segmentIndex": 0,
        "_position": 6
      },
      "geometry": {
        "type": "Point",
        "coordinates": [
          -73.35558989479215,
          5.547209891281739
        ]
      }
    },
    {
      "type": "Feature",
      "properties": {
        "_source": "Ruta14-Paraiso-AvenidaNorte-EstanciaelRoble",
        "_segmentIndex": 0,
        "_position": 7
      },
      "geometry": {
        "type": "Point",
        "coordinates": [
          -73.3553216429965,
          5.547571674331281
        ]
      }
    },
    {
      "type": "Feature",
      "properties": {
        "_source": "Ruta14-Paraiso-AvenidaNorte-EstanciaelRoble",
        "_segmentIndex": 0,
        "_position": 8
      },
      "geometry": {
        "type": "Point",
        "coordinates": [
          -73.3550501330427,
          5.547931070488371
        ]
      }
    },
    {
      "type": "Feature",
      "properties": {
        "_source": "Ruta14-Paraiso-AvenidaNorte-EstanciaelRoble",
        "_segmentIndex": 0,
        "_position": 9
      },
      "geometry": {
        "type": "Point",
        "coordinates": [
          -73.35477862275803,
          5.5482904665216575
        ]
      }
    },
    {
      "type": "Feature",
      "properties": {
        "_source": "Ruta14-Paraiso-AvenidaNorte-EstanciaelRoble",
        "_segmentIndex": 0,
        "_position": 10
      },
      "geometry": {
        "type": "Point",
        "coordinates": [
          -73.35450610713713,
          5.548649101494519
        ]
      }
    },
    {
      "type": "Feature",
      "properties": {
        "_source": "Ruta14-Paraiso-AvenidaNorte-EstanciaelRoble",
        "_segmentIndex": 0,
        "_position": 11
      },
      "geometry": {
        "type": "Point",
        "coordinates": [
          -73.3542289809089,
          5.549004195878992
        ]
      }
    },
    {
      "type": "Feature",
      "properties": {
        "_source": "Ruta14-Paraiso-AvenidaNorte-EstanciaelRoble",
        "_segmentIndex": 0,
        "_position": 12
      },
      "geometry": {
        "type": "Point",
        "coordinates": [
          -73.35394355204055,
          5.54935274495064
        ]
      }
    },
    {
      "type": "Feature",
      "properties": {
        "_source": "Ruta14-Paraiso-AvenidaNorte-EstanciaelRoble",
        "_segmentIndex": 0,
        "_position": 13
      },
      "geometry": {
        "type": "Point",
        "coordinates": [
          -73.3536581228348,
          5.549701293885427
        ]
      }
    },
    {
      "type": "Feature",
      "properties": {
        "_source": "Ruta14-Paraiso-AvenidaNorte-EstanciaelRoble",
        "_segmentIndex": 0,
        "_position": 14
      },
      "geometry": {
        "type": "Point",
        "coordinates": [
          -73.3533757416856,
          5.550052281837759
        ]
      }
    },
    {
      "type": "Feature",
      "properties": {
        "_source": "Ruta14-Paraiso-AvenidaNorte-EstanciaelRoble",
        "_segmentIndex": 0,
        "_position": 15
      },
      "geometry": {
        "type": "Point",
        "coordinates": [
          -73.35309103752239,
          5.55040132919855
        ]
      }
    },
    {
      "type": "Feature",
      "properties": {
        "_source": "Ruta14-Paraiso-AvenidaNorte-EstanciaelRoble",
        "_segmentIndex": 0,
        "_position": 16
      },
      "geometry": {
        "type": "Point",
        "coordinates": [
          -73.35279706694112,
          5.550742773300076
        ]
      }
    },
    {
      "type": "Feature",
      "properties": {
        "_source": "Ruta14-Paraiso-AvenidaNorte-EstanciaelRoble",
        "_segmentIndex": 0,
        "_position": 17
      },
      "geometry": {
        "type": "Point",
        "coordinates": [
          -73.35251874135216,
          5.551096678227187
        ]
      }
    },
    {
      "type": "Feature",
      "properties": {
        "_source": "Ruta14-Paraiso-AvenidaNorte-EstanciaelRoble",
        "_segmentIndex": 0,
        "_position": 18
      },
      "geometry": {
        "type": "Point",
        "coordinates": [
          -73.35227695841313,
          5.551476225360571
        ]
      }
    },
    {
      "type": "Feature",
      "properties": {
        "_source": "Ruta14-Paraiso-AvenidaNorte-EstanciaelRoble",
        "_segmentIndex": 0,
        "_position": 0
      },
      "geometry": {
        "type": "Point",
        "coordinates": [
          -73.352266,
          5.551494
        ]
      }
    },
    {
      "type": "Feature",
      "properties": {
        "_source": "Ruta14-Paraiso-AvenidaNorte-EstanciaelRoble",
        "_segmentIndex": 0,
        "_position": 1
      },
      "geometry": {
        "type": "Point",
        "coordinates": [
          -73.35196000135292,
          5.551238268709224
        ]
      }
    },
    {
      "type": "Feature",
      "properties": {
        "_source": "Ruta14-Paraiso-AvenidaNorte-EstanciaelRoble",
        "_segmentIndex": 0,
        "_position": 2
      },
      "geometry": {
        "type": "Point",
        "coordinates": [
          -73.35212645730249,
          5.550823744640539
        ]
      }
    },
    {
      "type": "Feature",
      "properties": {
        "_source": "Ruta14-Paraiso-AvenidaNorte-EstanciaelRoble",
        "_segmentIndex": 0,
        "_position": 3
      },
      "geometry": {
        "type": "Point",
        "coordinates": [
          -73.35233393397509,
          5.550424664298023
        ]
      }
    },
    {
      "type": "Feature",
      "properties": {
        "_source": "Ruta14-Paraiso-AvenidaNorte-EstanciaelRoble",
        "_segmentIndex": 0,
        "_position": 0
      },
      "geometry": {
        "type": "Point",
        "coordinates": [
          -73.352403,
          5.550064
        ]
      }
    },
    {
      "type": "Feature",
      "properties": {
        "_source": "Ruta14-Paraiso-AvenidaNorte-EstanciaelRoble",
        "_segmentIndex": 0,
        "_position": 1
      },
      "geometry": {
        "type": "Point",
        "coordinates": [
          -73.35203937774897,
          5.54979716806283
        ]
      }
    },
    {
      "type": "Feature",
      "properties": {
        "_source": "Ruta14-Paraiso-AvenidaNorte-EstanciaelRoble",
        "_segmentIndex": 0,
        "_position": 2
      },
      "geometry": {
        "type": "Point",
        "coordinates": [
          -73.35168351629787,
          5.549520145887795
        ]
      }
    },
    {
      "type": "Feature",
      "properties": {
        "_source": "Ruta14-Paraiso-AvenidaNorte-EstanciaelRoble",
        "_segmentIndex": 0,
        "_position": 3
      },
      "geometry": {
        "type": "Point",
        "coordinates": [
          -73.35132765518111,
          5.5492431235000215
        ]
      }
    },
    {
      "type": "Feature",
      "properties": {
        "_source": "Ruta14-Paraiso-AvenidaNorte-EstanciaelRoble",
        "_segmentIndex": 0,
        "_position": 4
      },
      "geometry": {
        "type": "Point",
        "coordinates": [
          -73.35097179439867,
          5.5489661008995155
        ]
      }
    },
    {
      "type": "Feature",
      "properties": {
        "_source": "Ruta14-Paraiso-AvenidaNorte-EstanciaelRoble",
        "_segmentIndex": 0,
        "_position": 5
      },
      "geometry": {
        "type": "Point",
        "coordinates": [
          -73.35061575281917,
          5.548689308995191
        ]
      }
    },
    {
      "type": "Feature",
      "properties": {
        "_source": "Ruta14-Paraiso-AvenidaNorte-EstanciaelRoble",
        "_segmentIndex": 0,
        "_position": 6
      },
      "geometry": {
        "type": "Point",
        "coordinates": [
          -73.35025941898321,
          5.5484128898764595
        ]
      }
    },
    {
      "type": "Feature",
      "properties": {
        "_source": "Ruta14-Paraiso-AvenidaNorte-EstanciaelRoble",
        "_segmentIndex": 0,
        "_position": 7
      },
      "geometry": {
        "type": "Point",
        "coordinates": [
          -73.34990308548124,
          5.548136470544462
        ]
      }
    },
    {
      "type": "Feature",
      "properties": {
        "_source": "Ruta14-Paraiso-AvenidaNorte-EstanciaelRoble",
        "_segmentIndex": 0,
        "_position": 8
      },
      "geometry": {
        "type": "Point",
        "coordinates": [
          -73.34954404037975,
          5.54786355902311
        ]
      }
    },
    {
      "type": "Feature",
      "properties": {
        "_source": "Ruta14-Paraiso-AvenidaNorte-EstanciaelRoble",
        "_segmentIndex": 0,
        "_position": 9
      },
      "geometry": {
        "type": "Point",
        "coordinates": [
          -73.34918428377166,
          5.547591568084291
        ]
      }
    },
    {
      "type": "Feature",
      "properties": {
        "_source": "Ruta14-Paraiso-AvenidaNorte-EstanciaelRoble",
        "_segmentIndex": 0,
        "_position": 10
      },
      "geometry": {
        "type": "Point",
        "coordinates": [
          -73.34882564821277,
          5.547318124802993
        ]
      }
    },
    {
      "type": "Feature",
      "properties": {
        "_source": "Ruta14-Paraiso-AvenidaNorte-EstanciaelRoble",
        "_segmentIndex": 0,
        "_position": 11
      },
      "geometry": {
        "type": "Point",
        "coordinates": [
          -73.3484688684086,
          5.54704227721786
        ]
      }
    },
    {
      "type": "Feature",
      "properties": {
        "_source": "Ruta14-Paraiso-AvenidaNorte-EstanciaelRoble",
        "_segmentIndex": 0,
        "_position": 12
      },
      "geometry": {
        "type": "Point",
        "coordinates": [
          -73.34811208893808,
          5.546766429418983
        ]
      }
    },
    {
      "type": "Feature",
      "properties": {
        "_source": "Ruta14-Paraiso-AvenidaNorte-EstanciaelRoble",
        "_segmentIndex": 0,
        "_position": 13
      },
      "geometry": {
        "type": "Point",
        "coordinates": [
          -73.34774538451013,
          5.546508969207106
        ]
      }
    },
    {
      "type": "Feature",
      "properties": {
        "_source": "Ruta14-Paraiso-AvenidaNorte-EstanciaelRoble",
        "_segmentIndex": 0,
        "_position": 0
      },
      "geometry": {
        "type": "Point",
        "coordinates": [
          -73.347555,
          5.546445
        ]
      }
    },
    {
      "type": "Feature",
      "properties": {
        "_source": "Ruta14-Paraiso-AvenidaNorte-EstanciaelRoble",
        "_segmentIndex": 0,
        "_position": 1
      },
      "geometry": {
        "type": "Point",
        "coordinates": [
          -73.34728043172095,
          5.546801987623077
        ]
      }
    },
    {
      "type": "Feature",
      "properties": {
        "_source": "Ruta14-Paraiso-AvenidaNorte-EstanciaelRoble",
        "_segmentIndex": 0,
        "_position": 2
      },
      "geometry": {
        "type": "Point",
        "coordinates": [
          -73.34703158638966,
          5.54717728599846
        ]
      }
    },
    {
      "type": "Feature",
      "properties": {
        "_source": "Ruta14-Paraiso-AvenidaNorte-EstanciaelRoble",
        "_segmentIndex": 0,
        "_position": 3
      },
      "geometry": {
        "type": "Point",
        "coordinates": [
          -73.34679521869761,
          5.547559968778211
        ]
      }
    },
    {
      "type": "Feature",
      "properties": {
        "_source": "Ruta14-Paraiso-AvenidaNorte-EstanciaelRoble",
        "_segmentIndex": 0,
        "_position": 4
      },
      "geometry": {
        "type": "Point",
        "coordinates": [
          -73.34661598119696,
          5.547969301306542
        ]
      }
    },
    {
      "type": "Feature",
      "properties": {
        "_source": "Ruta14-Paraiso-AvenidaNorte-EstanciaelRoble",
        "_segmentIndex": 0,
        "_position": 5
      },
      "geometry": {
        "type": "Point",
        "coordinates": [
          -73.34651167397287,
          5.5484068124307475
        ]
      }
    },
    {
      "type": "Feature",
      "properties": {
        "_source": "Ruta14-Paraiso-AvenidaNorte-EstanciaelRoble",
        "_segmentIndex": 0,
        "_position": 6
      },
      "geometry": {
        "type": "Point",
        "coordinates": [
          -73.34640736659404,
          5.548844323536679
        ]
      }
    },
    {
      "type": "Feature",
      "properties": {
        "_source": "Ruta14-Paraiso-AvenidaNorte-EstanciaelRoble",
        "_segmentIndex": 0,
        "_position": 7
      },
      "geometry": {
        "type": "Point",
        "coordinates": [
          -73.34630323049277,
          5.549281875074111
        ]
      }
    },
    {
      "type": "Feature",
      "properties": {
        "_source": "Ruta14-Paraiso-AvenidaNorte-EstanciaelRoble",
        "_segmentIndex": 0,
        "_position": 8
      },
      "geometry": {
        "type": "Point",
        "coordinates": [
          -73.34619911520304,
          5.549719431540304
        ]
      }
    },
    {
      "type": "Feature",
      "properties": {
        "_source": "Ruta14-Paraiso-AvenidaNorte-EstanciaelRoble",
        "_segmentIndex": 0,
        "_position": 9
      },
      "geometry": {
        "type": "Point",
        "coordinates": [
          -73.34609499975876,
          5.550156987988284
        ]
      }
    },
    {
      "type": "Feature",
      "properties": {
        "_source": "Ruta14-Paraiso-AvenidaNorte-EstanciaelRoble",
        "_segmentIndex": 0,
        "_position": 10
      },
      "geometry": {
        "type": "Point",
        "coordinates": [
          -73.34600722138207,
          5.550598063212771
        ]
      }
    },
    {
      "type": "Feature",
      "properties": {
        "_source": "Ruta14-Paraiso-AvenidaNorte-EstanciaelRoble",
        "_segmentIndex": 0,
        "_position": 11
      },
      "geometry": {
        "type": "Point",
        "coordinates": [
          -73.34592486616219,
          5.551039972485652
        ]
      }
    },
    {
      "type": "Feature",
      "properties": {
        "_source": "Ruta14-Paraiso-AvenidaNorte-EstanciaelRoble",
        "_segmentIndex": 0,
        "_position": 12
      },
      "geometry": {
        "type": "Point",
        "coordinates": [
          -73.34588370559435,
          5.55148776254909
        ]
      }
    },
    {
      "type": "Feature",
      "properties": {
        "_source": "Ruta14-Paraiso-AvenidaNorte-EstanciaelRoble",
        "_segmentIndex": 0,
        "_position": 13
      },
      "geometry": {
        "type": "Point",
        "coordinates": [
          -73.34584254496396,
          5.551935552609684
        ]
      }
    },
    {
      "type": "Feature",
      "properties": {
        "_source": "Ruta14-Paraiso-AvenidaNorte-EstanciaelRoble",
        "_segmentIndex": 0,
        "_position": 14
      },
      "geometry": {
        "type": "Point",
        "coordinates": [
          -73.34580138427106,
          5.552383342667428
        ]
      }
    },
    {
      "type": "Feature",
      "properties": {
        "_source": "Ruta14-Paraiso-AvenidaNorte-EstanciaelRoble",
        "_segmentIndex": 0,
        "_position": 15
      },
      "geometry": {
        "type": "Point",
        "coordinates": [
          -73.34576022351557,
          5.552831132722326
        ]
      }
    },
    {
      "type": "Feature",
      "properties": {
        "_source": "Ruta14-Paraiso-AvenidaNorte-EstanciaelRoble",
        "_segmentIndex": 0,
        "_position": 16
      },
      "geometry": {
        "type": "Point",
        "coordinates": [
          -73.34571906269757,
          5.553278922774375
        ]
      }
    },
    {
      "type": "Feature",
      "properties": {
        "_source": "Ruta14-Paraiso-AvenidaNorte-EstanciaelRoble",
        "_segmentIndex": 0,
        "_position": 17
      },
      "geometry": {
        "type": "Point",
        "coordinates": [
          -73.34568010970615,
          5.553726907675384
        ]
      }
    },
    {
      "type": "Feature",
      "properties": {
        "_source": "Ruta14-Paraiso-AvenidaNorte-EstanciaelRoble",
        "_segmentIndex": 0,
        "_position": 18
      },
      "geometry": {
        "type": "Point",
        "coordinates": [
          -73.345641466308,
          5.554174919901456
        ]
      }
    },
    {
      "type": "Feature",
      "properties": {
        "_source": "Ruta14-Paraiso-AvenidaNorte-EstanciaelRoble",
        "_segmentIndex": 0,
        "_position": 19
      },
      "geometry": {
        "type": "Point",
        "coordinates": [
          -73.34560282285108,
          5.554622932125018
        ]
      }
    },
    {
      "type": "Feature",
      "properties": {
        "_source": "Ruta14-Paraiso-AvenidaNorte-EstanciaelRoble",
        "_segmentIndex": 0,
        "_position": 0
      },
      "geometry": {
        "type": "Point",
        "coordinates": [
          -73.345591,
          5.55476
        ]
      }
    },
    {
      "type": "Feature",
      "properties": {
        "_source": "Ruta14-Paraiso-AvenidaNorte-EstanciaelRoble",
        "_segmentIndex": 0,
        "_position": 1
      },
      "geometry": {
        "type": "Point",
        "coordinates": [
          -73.34597774195457,
          5.554992435826394
        ]
      }
    },
    {
      "type": "Feature",
      "properties": {
        "_source": "Ruta14-Paraiso-AvenidaNorte-EstanciaelRoble",
        "_segmentIndex": 0,
        "_position": 2
      },
      "geometry": {
        "type": "Point",
        "coordinates": [
          -73.34634538343944,
          5.555253723616463
        ]
      }
    },
    {
      "type": "Feature",
      "properties": {
        "_source": "Ruta14-Paraiso-AvenidaNorte-EstanciaelRoble",
        "_segmentIndex": 0,
        "_position": 3
      },
      "geometry": {
        "type": "Point",
        "coordinates": [
          -73.34671255679159,
          5.5555157187991115
        ]
      }
    },
    {
      "type": "Feature",
      "properties": {
        "_source": "Ruta14-Paraiso-AvenidaNorte-EstanciaelRoble",
        "_segmentIndex": 0,
        "_position": 4
      },
      "geometry": {
        "type": "Point",
        "coordinates": [
          -73.34707973047033,
          5.555777713755033
        ]
      }
    },
    {
      "type": "Feature",
      "properties": {
        "_source": "Ruta14-Paraiso-AvenidaNorte-EstanciaelRoble",
        "_segmentIndex": 0,
        "_position": 5
      },
      "geometry": {
        "type": "Point",
        "coordinates": [
          -73.34744926517318,
          5.556036392620846
        ]
      }
    },
    {
      "type": "Feature",
      "properties": {
        "_source": "Ruta14-Paraiso-AvenidaNorte-EstanciaelRoble",
        "_segmentIndex": 0,
        "_position": 6
      },
      "geometry": {
        "type": "Point",
        "coordinates": [
          -73.3478193201075,
          5.5562943409890115
        ]
      }
    },
    {
      "type": "Feature",
      "properties": {
        "_source": "Ruta14-Paraiso-AvenidaNorte-EstanciaelRoble",
        "_segmentIndex": 0,
        "_position": 7
      },
      "geometry": {
        "type": "Point",
        "coordinates": [
          -73.34821312727203,
          5.556205058972207
        ]
      }
    },
    {
      "type": "Feature",
      "properties": {
        "_source": "Ruta14-Paraiso-AvenidaNorte-EstanciaelRoble",
        "_segmentIndex": 0,
        "_position": 0
      },
      "geometry": {
        "type": "Point",
        "coordinates": [
          -73.348356,
          5.556055
        ]
      }
    },
    {
      "type": "Feature",
      "properties": {
        "_source": "Ruta14-Paraiso-AvenidaNorte-EstanciaelRoble",
        "_segmentIndex": 0,
        "_position": 1
      },
      "geometry": {
        "type": "Point",
        "coordinates": [
          -73.34870168868527,
          5.556344457838862
        ]
      }
    },
    {
      "type": "Feature",
      "properties": {
        "_source": "Ruta14-Paraiso-AvenidaNorte-EstanciaelRoble",
        "_segmentIndex": 0,
        "_position": 2
      },
      "geometry": {
        "type": "Point",
        "coordinates": [
          -73.34904251337555,
          5.556639621998092
        ]
      }
    },
    {
      "type": "Feature",
      "properties": {
        "_source": "Ruta14-Paraiso-AvenidaNorte-EstanciaelRoble",
        "_segmentIndex": 0,
        "_position": 3
      },
      "geometry": {
        "type": "Point",
        "coordinates": [
          -73.34938333840748,
          5.556934785961932
        ]
      }
    },
    {
      "type": "Feature",
      "properties": {
        "_source": "Ruta14-Paraiso-AvenidaNorte-EstanciaelRoble",
        "_segmentIndex": 0,
        "_position": 4
      },
      "geometry": {
        "type": "Point",
        "coordinates": [
          -73.34972595697285,
          5.557227858946685
        ]
      }
    },
    {
      "type": "Feature",
      "properties": {
        "_source": "Ruta14-Paraiso-AvenidaNorte-EstanciaelRoble",
        "_segmentIndex": 0,
        "_position": 0
      },
      "geometry": {
        "type": "Point",
        "coordinates": [
          -73.349939,
          5.557391
        ]
      }
    },
    {
      "type": "Feature",
      "properties": {
        "_source": "Ruta14-Paraiso-AvenidaNorte-EstanciaelRoble",
        "_segmentIndex": 0,
        "_position": 1
      },
      "geometry": {
        "type": "Point",
        "coordinates": [
          -73.34978820644162,
          5.557811349896429
        ]
      }
    },
    {
      "type": "Feature",
      "properties": {
        "_source": "Ruta14-Paraiso-AvenidaNorte-EstanciaelRoble",
        "_segmentIndex": 0,
        "_position": 2
      },
      "geometry": {
        "type": "Point",
        "coordinates": [
          -73.3496025322479,
          5.558221280096638
        ]
      }
    },
    {
      "type": "Feature",
      "properties": {
        "_source": "Ruta14-Paraiso-AvenidaNorte-EstanciaelRoble",
        "_segmentIndex": 0,
        "_position": 3
      },
      "geometry": {
        "type": "Point",
        "coordinates": [
          -73.34941685779563,
          5.558631210238841
        ]
      }
    },
    {
      "type": "Feature",
      "properties": {
        "_source": "Ruta14-Paraiso-AvenidaNorte-EstanciaelRoble",
        "_segmentIndex": 0,
        "_position": 4
      },
      "geometry": {
        "type": "Point",
        "coordinates": [
          -73.34922860652614,
          5.559039971991161
        ]
      }
    },
    {
      "type": "Feature",
      "properties": {
        "_source": "Ruta14-Paraiso-AvenidaNorte-EstanciaelRoble",
        "_segmentIndex": 0,
        "_position": 5
      },
      "geometry": {
        "type": "Point",
        "coordinates": [
          -73.34903967306076,
          5.559448424462901
        ]
      }
    },
    {
      "type": "Feature",
      "properties": {
        "_source": "Ruta14-Paraiso-AvenidaNorte-EstanciaelRoble",
        "_segmentIndex": 0,
        "_position": 6
      },
      "geometry": {
        "type": "Point",
        "coordinates": [
          -73.34884912813558,
          5.55985612007133
        ]
      }
    },
    {
      "type": "Feature",
      "properties": {
        "_source": "Ruta14-Paraiso-AvenidaNorte-EstanciaelRoble",
        "_segmentIndex": 0,
        "_position": 7
      },
      "geometry": {
        "type": "Point",
        "coordinates": [
          -73.34865244058595,
          5.56026093046099
        ]
      }
    },
    {
      "type": "Feature",
      "properties": {
        "_source": "Ruta14-Paraiso-AvenidaNorte-EstanciaelRoble",
        "_segmentIndex": 0,
        "_position": 0
      },
      "geometry": {
        "type": "Point",
        "coordinates": [
          -73.348615,
          5.560443
        ]
      }
    },
    {
      "type": "Feature",
      "properties": {
        "_source": "Ruta14-Paraiso-AvenidaNorte-EstanciaelRoble",
        "_segmentIndex": 0,
        "_position": 1
      },
      "geometry": {
        "type": "Point",
        "coordinates": [
          -73.34883567849944,
          5.560086716634675
        ]
      }
    },
    {
      "type": "Feature",
      "properties": {
        "_source": "Ruta14-Paraiso-AvenidaNorte-EstanciaelRoble",
        "_segmentIndex": 0,
        "_position": 2
      },
      "geometry": {
        "type": "Point",
        "coordinates": [
          -73.34902164232291,
          5.559676916246138
        ]
      }
    },
    {
      "type": "Feature",
      "properties": {
        "_source": "Ruta14-Paraiso-AvenidaNorte-EstanciaelRoble",
        "_segmentIndex": 0,
        "_position": 3
      },
      "geometry": {
        "type": "Point",
        "coordinates": [
          -73.34921127376256,
          5.559268788919777
        ]
      }
    },
    {
      "type": "Feature",
      "properties": {
        "_source": "Ruta14-Paraiso-AvenidaNorte-EstanciaelRoble",
        "_segmentIndex": 0,
        "_position": 4
      },
      "geometry": {
        "type": "Point",
        "coordinates": [
          -73.34940176604361,
          5.558861054330076
        ]
      }
    },
    {
      "type": "Feature",
      "properties": {
        "_source": "Ruta14-Paraiso-AvenidaNorte-EstanciaelRoble",
        "_segmentIndex": 0,
        "_position": 5
      },
      "geometry": {
        "type": "Point",
        "coordinates": [
          -73.34959111662522,
          5.558452797006679
        ]
      }
    },
    {
      "type": "Feature",
      "properties": {
        "_source": "Ruta14-Paraiso-AvenidaNorte-EstanciaelRoble",
        "_segmentIndex": 0,
        "_position": 6
      },
      "geometry": {
        "type": "Point",
        "coordinates": [
          -73.34977827646674,
          5.558043536585633
        ]
      }
    },
    {
      "type": "Feature",
      "properties": {
        "_source": "Ruta14-Paraiso-AvenidaNorte-EstanciaelRoble",
        "_segmentIndex": 0,
        "_position": 7
      },
      "geometry": {
        "type": "Point",
        "coordinates": [
          -73.34996543604805,
          5.557634276105649
        ]
      }
    },
    {
      "type": "Feature",
      "properties": {
        "_source": "Ruta14-Paraiso-AvenidaNorte-EstanciaelRoble",
        "_segmentIndex": 0,
        "_position": 8
      },
      "geometry": {
        "type": "Point",
        "coordinates": [
          -73.35015256478925,
          5.557225001716361
        ]
      }
    },
    {
      "type": "Feature",
      "properties": {
        "_source": "Ruta14-Paraiso-AvenidaNorte-EstanciaelRoble",
        "_segmentIndex": 0,
        "_position": 9
      },
      "geometry": {
        "type": "Point",
        "coordinates": [
          -73.35033965619505,
          5.5568157104759095
        ]
      }
    },
    {
      "type": "Feature",
      "properties": {
        "_source": "Ruta14-Paraiso-AvenidaNorte-EstanciaelRoble",
        "_segmentIndex": 0,
        "_position": 0
      },
      "geometry": {
        "type": "Point",
        "coordinates": [
          -73.350473,
          5.556524
        ]
      }
    },
    {
      "type": "Feature",
      "properties": {
        "_source": "Ruta14-Paraiso-AvenidaNorte-EstanciaelRoble",
        "_segmentIndex": 0,
        "_position": 1
      },
      "geometry": {
        "type": "Point",
        "coordinates": [
          -73.35088632366376,
          5.556701599309253
        ]
      }
    },
    {
      "type": "Feature",
      "properties": {
        "_source": "Ruta14-Paraiso-AvenidaNorte-EstanciaelRoble",
        "_segmentIndex": 0,
        "_position": 2
      },
      "geometry": {
        "type": "Point",
        "coordinates": [
          -73.35129348744584,
          5.5568964489857535
        ]
      }
    },
    {
      "type": "Feature",
      "properties": {
        "_source": "Ruta14-Paraiso-AvenidaNorte-EstanciaelRoble",
        "_segmentIndex": 0,
        "_position": 3
      },
      "geometry": {
        "type": "Point",
        "coordinates": [
          -73.35170065149738,
          5.557091298383389
        ]
      }
    },
    {
      "type": "Feature",
      "properties": {
        "_source": "Ruta14-Paraiso-AvenidaNorte-EstanciaelRoble",
        "_segmentIndex": 0,
        "_position": 4
      },
      "geometry": {
        "type": "Point",
        "coordinates": [
          -73.35210890295625,
          5.557283878835072
        ]
      }
    },
    {
      "type": "Feature",
      "properties": {
        "_source": "Ruta14-Paraiso-AvenidaNorte-EstanciaelRoble",
        "_segmentIndex": 0,
        "_position": 0
      },
      "geometry": {
        "type": "Point",
        "coordinates": [
          -73.352381,
          5.557412
        ]
      }
    },
    {
      "type": "Feature",
      "properties": {
        "_source": "Ruta14-Paraiso-AvenidaNorte-EstanciaelRoble",
        "_segmentIndex": 0,
        "_position": 1
      },
      "geometry": {
        "type": "Point",
        "coordinates": [
          -73.35224433329415,
          5.557840111313098
        ]
      }
    },
    {
      "type": "Feature",
      "properties": {
        "_source": "Ruta14-Paraiso-AvenidaNorte-EstanciaelRoble",
        "_segmentIndex": 0,
        "_position": 0
      },
      "geometry": {
        "type": "Point",
        "coordinates": [
          -73.352139,
          5.558121
        ]
      }
    },
    {
      "type": "Feature",
      "properties": {
        "_source": "Ruta14-Paraiso-AvenidaNorte-EstanciaelRoble",
        "_segmentIndex": 0,
        "_position": 1
      },
      "geometry": {
        "type": "Point",
        "coordinates": [
          -73.3525643392356,
          5.558271807461069
        ]
      }
    },
    {
      "type": "Feature",
      "properties": {
        "_source": "Ruta14-Paraiso-AvenidaNorte-EstanciaelRoble",
        "_segmentIndex": 0,
        "_position": 2
      },
      "geometry": {
        "type": "Point",
        "coordinates": [
          -73.35299180177836,
          5.558417269500402
        ]
      }
    },
    {
      "type": "Feature",
      "properties": {
        "_source": "Ruta14-Paraiso-AvenidaNorte-EstanciaelRoble",
        "_segmentIndex": 0,
        "_position": 3
      },
      "geometry": {
        "type": "Point",
        "coordinates": [
          -73.35289516052299,
          5.5588105793251215
        ]
      }
    },
    {
      "type": "Feature",
      "properties": {
        "_source": "Ruta14-Paraiso-AvenidaNorte-EstanciaelRoble",
        "_segmentIndex": 0,
        "_position": 4
      },
      "geometry": {
        "type": "Point",
        "coordinates": [
          -73.35268081289806,
          5.559206402912009
        ]
      }
    },
    {
      "type": "Feature",
      "properties": {
        "_source": "Ruta14-Paraiso-AvenidaNorte-EstanciaelRoble",
        "_segmentIndex": 0,
        "_position": 5
      },
      "geometry": {
        "type": "Point",
        "coordinates": [
          -73.3527134394142,
          5.559574788625861
        ]
      }
    },
    {
      "type": "Feature",
      "properties": {
        "_source": "Ruta14-Paraiso-AvenidaNorte-EstanciaelRoble",
        "_segmentIndex": 0,
        "_position": 6
      },
      "geometry": {
        "type": "Point",
        "coordinates": [
          -73.35313906627596,
          5.5597255746559675
        ]
      }
    },
    {
      "type": "Feature",
      "properties": {
        "_source": "Ruta14-Paraiso-AvenidaNorte-EstanciaelRoble",
        "_segmentIndex": 0,
        "_position": 7
      },
      "geometry": {
        "type": "Point",
        "coordinates": [
          -73.35356469335578,
          5.559876360381187
        ]
      }
    },
    {
      "type": "Feature",
      "properties": {
        "_source": "Ruta14-Paraiso-AvenidaNorte-EstanciaelRoble",
        "_segmentIndex": 0,
        "_position": 8
      },
      "geometry": {
        "type": "Point",
        "coordinates": [
          -73.35399032065368,
          5.560027145801513
        ]
      }
    },
    {
      "type": "Feature",
      "properties": {
        "_source": "Ruta14-Paraiso-AvenidaNorte-EstanciaelRoble",
        "_segmentIndex": 0,
        "_position": 9
      },
      "geometry": {
        "type": "Point",
        "coordinates": [
          -73.35441594816967,
          5.560177930916937
        ]
      }
    },
    {
      "type": "Feature",
      "properties": {
        "_source": "Ruta14-Paraiso-AvenidaNorte-EstanciaelRoble",
        "_segmentIndex": 0,
        "_position": 0
      },
      "geometry": {
        "type": "Point",
        "coordinates": [
          -73.354721,
          5.560286
        ]
      }
    },
    {
      "type": "Feature",
      "properties": {
        "_source": "Ruta14-Paraiso-AvenidaNorte-EstanciaelRoble",
        "_segmentIndex": 0,
        "_position": 1
      },
      "geometry": {
        "type": "Point",
        "coordinates": [
          -73.35494244039224,
          5.559942575730806
        ]
      }
    },
    {
      "type": "Feature",
      "properties": {
        "_source": "Ruta14-Paraiso-AvenidaNorte-EstanciaelRoble",
        "_segmentIndex": 0,
        "_position": 2
      },
      "geometry": {
        "type": "Point",
        "coordinates": [
          -73.35517402492546,
          5.559586447580986
        ]
      }
    },
    {
      "type": "Feature",
      "properties": {
        "_source": "Ruta14-Paraiso-AvenidaNorte-EstanciaelRoble",
        "_segmentIndex": 0,
        "_position": 0
      },
      "geometry": {
        "type": "Point",
        "coordinates": [
          -73.355205,
          5.559593
        ]
      }
    },
    {
      "type": "Feature",
      "properties": {
        "_source": "Ruta14-Paraiso-AvenidaNorte-EstanciaelRoble",
        "_segmentIndex": 0,
        "_position": 1
      },
      "geometry": {
        "type": "Point",
        "coordinates": [
          -73.35529562915828,
          5.56002595389702
        ]
      }
    },
    {
      "type": "Feature",
      "properties": {
        "_source": "Ruta14-Paraiso-AvenidaNorte-EstanciaelRoble",
        "_segmentIndex": 0,
        "_position": 2
      },
      "geometry": {
        "type": "Point",
        "coordinates": [
          -73.35548554172787,
          5.560433786521626
        ]
      }
    },
    {
      "type": "Feature",
      "properties": {
        "_source": "Ruta14-Paraiso-AvenidaNorte-EstanciaelRoble",
        "_segmentIndex": 0,
        "_position": 3
      },
      "geometry": {
        "type": "Point",
        "coordinates": [
          -73.35557265139808,
          5.560870118596956
        ]
      }
    },
    {
      "type": "Feature",
      "properties": {
        "_source": "Ruta14-Paraiso-AvenidaNorte-EstanciaelRoble",
        "_segmentIndex": 0,
        "_position": 4
      },
      "geometry": {
        "type": "Point",
        "coordinates": [
          -73.35555891268736,
          5.56131957081861
        ]
      }
    },
    {
      "type": "Feature",
      "properties": {
        "_source": "Ruta14-Paraiso-AvenidaNorte-EstanciaelRoble",
        "_segmentIndex": 0,
        "_position": 5
      },
      "geometry": {
        "type": "Point",
        "coordinates": [
          -73.35553773189343,
          5.561768690326767
        ]
      }
    },
    {
      "type": "Feature",
      "properties": {
        "_source": "Ruta14-Paraiso-AvenidaNorte-EstanciaelRoble",
        "_segmentIndex": 0,
        "_position": 6
      },
      "geometry": {
        "type": "Point",
        "coordinates": [
          -73.35551092847516,
          5.562217558464193
        ]
      }
    },
    {
      "type": "Feature",
      "properties": {
        "_source": "Ruta14-Paraiso-AvenidaNorte-EstanciaelRoble",
        "_segmentIndex": 0,
        "_position": 7
      },
      "geometry": {
        "type": "Point",
        "coordinates": [
          -73.35548412501599,
          5.562666426600409
        ]
      }
    },
    {
      "type": "Feature",
      "properties": {
        "_source": "Ruta14-Paraiso-AvenidaNorte-EstanciaelRoble",
        "_segmentIndex": 0,
        "_position": 8
      },
      "geometry": {
        "type": "Point",
        "coordinates": [
          -73.35545824630576,
          5.563115348211588
        ]
      }
    },
    {
      "type": "Feature",
      "properties": {
        "_source": "Ruta14-Paraiso-AvenidaNorte-EstanciaelRoble",
        "_segmentIndex": 0,
        "_position": 9
      },
      "geometry": {
        "type": "Point",
        "coordinates": [
          -73.35538664719172,
          5.563557715904004
        ]
      }
    }
  ]
}