{
  "type": "FeatureCollection",
  "features": [
    {
      "type": "Feature",
      "properties": {
        "_source": "Ruta8-Cooservicios-LaFuente",
        "_segmentIndex": 0,
        "_position": 0
      },
      "geometry": {
        "type": "Point",
        "coordinates": [
          -73.354063,
          5.515138
        ]
      }
    },
    {
      "type": "Feature",
      "properties": {
        "_source": "Ruta8-Cooservicios-LaFuente",
        "_segmentIndex": 0,
        "_position": 1
      },
      "geometry": {
        "type": "Point",
        "coordinates": [
          -73.35430116577648,
          5.51475590675299
        ]
      }
    },
    {
      "type": "Feature",
      "properties": {
        "_source": "Ruta8-Cooservicios-LaFuente",
        "_segmentIndex": 0,
        "_position": 2
      },
      "geometry": {
        "type": "Point",
        "coordinates": [
          -73.35453606985595,
          5.514371822094753
        ]
      }
    },
    {
      "type": "Feature",
      "properties": {
        "_source": "Ruta8-Cooservicios-LaFuente",
        "_segmentIndex": 0,
        "_position": 3
      },
      "geometry": {
        "type": "Point",
        "coordinates": [
          -73.35493274693805,
          5.514410724210651
        ]
      }
    },
    {
      "type": "Feature",
      "properties": {
        "_source": "Ruta8-Cooservicios-LaFuente",
        "_segmentIndex": 0,
        "_position": 4
      },
      "geometry": {
        "type": "Point",
        "coordinates": [
          -73.35536235858075,
          5.514549749411787
        ]
      }
    },
    {
      "type": "Feature",
      "properties": {
        "_source": "Ruta8-Cooservicios-LaFuente",
        "_segmentIndex": 0,
        "_position": 5
      },
      "geometry": {
        "type": "Point",
        "coordinates": [
          -73.35579180354883,
          5.514689300384753
        ]
      }
    },
    {
      "type": "Feature",
      "properties": {
        "_source": "Ruta8-Cooservicios-LaFuente",
        "_segmentIndex": 0,
        "_position": 6
      },
      "geometry": {
        "type": "Point",
        "coordinates": [
          -73.35622166104199,
          5.514827567868446
        ]
      }
    },
    {
      "type": "Feature",
      "properties": {
        "_source": "Ruta8-Cooservicios-LaFuente",
        "_segmentIndex": 0,
        "_position": 7
      },
      "geometry": {
        "type": "Point",
        "coordinates": [
          -73.35665275743375,
          5.514961980110157
        ]
      }
    },
    {
      "type": "Feature",
      "properties": {
        "_source": "Ruta8-Cooservicios-LaFuente",
        "_segmentIndex": 0,
        "_position": 0
      },
      "geometry": {
        "type": "Point",
        "coordinates": [
          -73.356996,
          5.515069
        ]
      }
    },
    {
      "type": "Feature",
      "properties": {
        "_source": "Ruta8-Cooservicios-LaFuente",
        "_segmentIndex": 0,
        "_position": 1
      },
      "geometry": {
        "type": "Point",
        "coordinates": [
          -73.35742473085932,
          5.515210710848852
        ]
      }
    },
    {
      "type": "Feature",
      "properties": {
        "_source": "Ruta8-Cooservicios-LaFuente",
        "_segmentIndex": 0,
        "_position": 2
      },
      "geometry": {
        "type": "Point",
        "coordinates": [
          -73.35785346192345,
          5.515352421390805
        ]
      }
    },
    {
      "type": "Feature",
      "properties": {
        "_source": "Ruta8-Cooservicios-LaFuente",
        "_segmentIndex": 0,
        "_position": 0
      },
      "geometry": {
        "type": "Point",
        "coordinates": [
          -73.357949,
          5.515384
        ]
      }
    },
    {
      "type": "Feature",
      "properties": {
        "_source": "Ruta8-Cooservicios-LaFuente",
        "_segmentIndex": 0,
        "_position": 1
      },
      "geometry": {
        "type": "Point",
        "coordinates": [
          -73.35782310565209,
          5.515815845526227
        ]
      }
    },
    {
      "type": "Feature",
      "properties": {
        "_source": "Ruta8-Cooservicios-LaFuente",
        "_segmentIndex": 0,
        "_position": 0
      },
      "geometry": {
        "type": "Point",
        "coordinates": [
          -73.357803,
          5.51604
        ]
      }
    },
    {
      "type": "Feature",
      "properties": {
        "_source": "Ruta8-Cooservicios-LaFuente",
        "_segmentIndex": 0,
        "_position": 1
      },
      "geometry": {
        "type": "Point",
        "coordinates": [
          -73.35823529219962,
          5.516170554567471
        ]
      }
    },
    {
      "type": "Feature",
      "properties": {
        "_source": "Ruta8-Cooservicios-LaFuente",
        "_segmentIndex": 0,
        "_position": 2
      },
      "geometry": {
        "type": "Point",
        "coordinates": [
          -73.35866694459638,
          5.5163030997456435
        ]
      }
    },
    {
      "type": "Feature",
      "properties": {
        "_source": "Ruta8-Cooservicios-LaFuente",
        "_segmentIndex": 0,
        "_position": 3
      },
      "geometry": {
        "type": "Point",
        "coordinates": [
          -73.35909508210764,
          5.516446579520034
        ]
      }
    },
    {
      "type": "Feature",
      "properties": {
        "_source": "Ruta8-Cooservicios-LaFuente",
        "_segmentIndex": 0,
        "_position": 4
      },
      "geometry": {
        "type": "Point",
        "coordinates": [
          -73.35952662243217,
          5.516579495453966
        ]
      }
    },
    {
      "type": "Feature",
      "properties": {
        "_source": "Ruta8-Cooservicios-LaFuente",
        "_segmentIndex": 0,
        "_position": 5
      },
      "geometry": {
        "type": "Point",
        "coordinates": [
          -73.35995876008128,
          5.516710557253668
        ]
      }
    },
    {
      "type": "Feature",
      "properties": {
        "_source": "Ruta8-Cooservicios-LaFuente",
        "_segmentIndex": 0,
        "_position": 0
      },
      "geometry": {
        "type": "Point",
        "coordinates": [
          -73.360102,
          5.516754
        ]
      }
    },
    {
      "type": "Feature",
      "properties": {
        "_source": "Ruta8-Cooservicios-LaFuente",
        "_segmentIndex": 0,
        "_position": 1
      },
      "geometry": {
        "type": "Point",
        "coordinates": [
          -73.36008647287885,
          5.51720153010959
        ]
      }
    },
    {
      "type": "Feature",
      "properties": {
        "_source": "Ruta8-Cooservicios-LaFuente",
        "_segmentIndex": 0,
        "_position": 2
      },
      "geometry": {
        "type": "Point",
        "coordinates": [
          -73.36017075771606,
          5.517643015229595
        ]
      }
    },
    {
      "type": "Feature",
      "properties": {
        "_source": "Ruta8-Cooservicios-LaFuente",
        "_segmentIndex": 0,
        "_position": 3
      },
      "geometry": {
        "type": "Point",
        "coordinates": [
          -73.36027302770904,
          5.518080893609562
        ]
      }
    },
    {
      "type": "Feature",
      "properties": {
        "_source": "Ruta8-Cooservicios-LaFuente",
        "_segmentIndex": 0,
        "_position": 4
      },
      "geometry": {
        "type": "Point",
        "coordinates": [
          -73.36038309143593,
          5.518516550068973
        ]
      }
    },
    {
      "type": "Feature",
      "properties": {
        "_source": "Ruta8-Cooservicios-LaFuente",
        "_segmentIndex": 0,
        "_position": 5
      },
      "geometry": {
        "type": "Point",
        "coordinates": [
          -73.36024378397765,
          5.518936650670017
        ]
      }
    },
    {
      "type": "Feature",
      "properties": {
        "_source": "Ruta8-Cooservicios-LaFuente",
        "_segmentIndex": 0,
        "_position": 6
      },
      "geometry": {
        "type": "Point",
        "coordinates": [
          -73.36006068501241,
          5.519347706481842
        ]
      }
    },
    {
      "type": "Feature",
      "properties": {
        "_source": "Ruta8-Cooservicios-LaFuente",
        "_segmentIndex": 0,
        "_position": 7
      },
      "geometry": {
        "type": "Point",
        "coordinates": [
          -73.35987432296282,
          5.519757319268561
        ]
      }
    },
    {
      "type": "Feature",
      "properties": {
        "_source": "Ruta8-Cooservicios-LaFuente",
        "_segmentIndex": 0,
        "_position": 8
      },
      "geometry": {
        "type": "Point",
        "coordinates": [
          -73.35974675320408,
          5.52017615660187
        ]
      }
    },
    {
      "type": "Feature",
      "properties": {
        "_source": "Ruta8-Cooservicios-LaFuente",
        "_segmentIndex": 0,
        "_position": 9
      },
      "geometry": {
        "type": "Point",
        "coordinates": [
          -73.35978779565222,
          5.520617696745
        ]
      }
    },
    {
      "type": "Feature",
      "properties": {
        "_source": "Ruta8-Cooservicios-LaFuente",
        "_segmentIndex": 0,
        "_position": 10
      },
      "geometry": {
        "type": "Point",
        "coordinates": [
          -73.35970757737803,
          5.521059617520366
        ]
      }
    },
    {
      "type": "Feature",
      "properties": {
        "_source": "Ruta8-Cooservicios-LaFuente",
        "_segmentIndex": 0,
        "_position": 11
      },
      "geometry": {
        "type": "Point",
        "coordinates": [
          -73.35954405901178,
          5.52147492048874
        ]
      }
    },
    {
      "type": "Feature",
      "properties": {
        "_source": "Ruta8-Cooservicios-LaFuente",
        "_segmentIndex": 0,
        "_position": 12
      },
      "geometry": {
        "type": "Point",
        "coordinates": [
          -73.3592809477817,
          5.5218368503208
        ]
      }
    },
    {
      "type": "Feature",
      "properties": {
        "_source": "Ruta8-Cooservicios-LaFuente",
        "_segmentIndex": 0,
        "_position": 13
      },
      "geometry": {
        "type": "Point",
        "coordinates": [
          -73.359010648314,
          5.52218636235644
        ]
      }
    },
    {
      "type": "Feature",
      "properties": {
        "_source": "Ruta8-Cooservicios-LaFuente",
        "_segmentIndex": 0,
        "_position": 0
      },
      "geometry": {
        "type": "Point",
        "coordinates": [
          -73.359015,
          5.522219
        ]
      }
    },
    {
      "type": "Feature",
      "properties": {
        "_source": "Ruta8-Cooservicios-LaFuente",
        "_segmentIndex": 0,
        "_position": 1
      },
      "geometry": {
        "type": "Point",
        "coordinates": [
          -73.35938000935055,
          5.522483922916295
        ]
      }
    },
    {
      "type": "Feature",
      "properties": {
        "_source": "Ruta8-Cooservicios-LaFuente",
        "_segmentIndex": 0,
        "_position": 0
      },
      "geometry": {
        "type": "Point",
        "coordinates": [
          -73.359669,
          5.52265
        ]
      }
    },
    {
      "type": "Feature",
      "properties": {
        "_source": "Ruta8-Cooservicios-LaFuente",
        "_segmentIndex": 0,
        "_position": 0
      },
      "geometry": {
        "type": "Point",
        "coordinates": [
          -73.359904,
          5.522422
        ]
      }
    },
    {
      "type": "Feature",
      "properties": {
        "_source": "Ruta8-Cooservicios-LaFuente",
        "_segmentIndex": 0,
        "_position": 1
      },
      "geometry": {
        "type": "Point",
        "coordinates": [
          -73.36015167312075,
          5.522797948494276
        ]
      }
    },
    {
      "type": "Feature",
      "properties": {
        "_source": "Ruta8-Cooservicios-LaFuente",
        "_segmentIndex": 0,
        "_position": 0
      },
      "geometry": {
        "type": "Point",
        "coordinates": [
          -73.360155,
          5.522883
        ]
      }
    },
    {
      "type": "Feature",
      "properties": {
        "_source": "Ruta8-Cooservicios-LaFuente",
        "_segmentIndex": 0,
        "_position": 1
      },
      "geometry": {
        "type": "Point",
        "coordinates": [
          -73.3598742349907,
          5.523235257249939
        ]
      }
    },
    {
      "type": "Feature",
      "properties": {
        "_source": "Ruta8-Cooservicios-LaFuente",
        "_segmentIndex": 0,
        "_position": 2
      },
      "geometry": {
        "type": "Point",
        "coordinates": [
          -73.35960063169826,
          5.5235930630236245
        ]
      }
    },
    {
      "type": "Feature",
      "properties": {
        "_source": "Ruta8-Cooservicios-LaFuente",
        "_segmentIndex": 0,
        "_position": 3
      },
      "geometry": {
        "type": "Point",
        "coordinates": [
          -73.35936094496888,
          5.523973110112444
        ]
      }
    },
    {
      "type": "Feature",
      "properties": {
        "_source": "Ruta8-Cooservicios-LaFuente",
        "_segmentIndex": 0,
        "_position": 4
      },
      "geometry": {
        "type": "Point",
        "coordinates": [
          -73.3592807148808,
          5.5243765579784485
        ]
      }
    },
    {
      "type": "Feature",
      "properties": {
        "_source": "Ruta8-Cooservicios-LaFuente",
        "_segmentIndex": 0,
        "_position": 5
      },
      "geometry": {
        "type": "Point",
        "coordinates": [
          -73.3592008918004,
          5.524816635431415
        ]
      }
    },
    {
      "type": "Feature",
      "properties": {
        "_source": "Ruta8-Cooservicios-LaFuente",
        "_segmentIndex": 0,
        "_position": 6
      },
      "geometry": {
        "type": "Point",
        "coordinates": [
          -73.35912447033168,
          5.525259364745996
        ]
      }
    },
    {
      "type": "Feature",
      "properties": {
        "_source": "Ruta8-Cooservicios-LaFuente",
        "_segmentIndex": 0,
        "_position": 0
      },
      "geometry": {
        "type": "Point",
        "coordinates": [
          -73.35918,
          5.52542
        ]
      }
    },
    {
      "type": "Feature",
      "properties": {
        "_source": "Ruta8-Cooservicios-LaFuente",
        "_segmentIndex": 0,
        "_position": 1
      },
      "geometry": {
        "type": "Point",
        "coordinates": [
          -73.35960137481541,
          5.525582121034251
        ]
      }
    },
    {
      "type": "Feature",
      "properties": {
        "_source": "Ruta8-Cooservicios-LaFuente",
        "_segmentIndex": 0,
        "_position": 2
      },
      "geometry": {
        "type": "Point",
        "coordinates": [
          -73.36002981882346,
          5.525724601882831
        ]
      }
    },
    {
      "type": "Feature",
      "properties": {
        "_source": "Ruta8-Cooservicios-LaFuente",
        "_segmentIndex": 0,
        "_position": 3
      },
      "geometry": {
        "type": "Point",
        "coordinates": [
          -73.36046388842128,
          5.525845399763713
        ]
      }
    },
    {
      "type": "Feature",
      "properties": {
        "_source": "Ruta8-Cooservicios-LaFuente",
        "_segmentIndex": 0,
        "_position": 4
      },
      "geometry": {
        "type": "Point",
        "coordinates": [
          -73.36091108143427,
          5.52590917338536
        ]
      }
    },
    {
      "type": "Feature",
      "properties": {
        "_source": "Ruta8-Cooservicios-LaFuente",
        "_segmentIndex": 0,
        "_position": 0
      },
      "geometry": {
        "type": "Point",
        "coordinates": [
          -73.361032,
          5.525954
        ]
      }
    },
    {
      "type": "Feature",
      "properties": {
        "_source": "Ruta8-Cooservicios-LaFuente",
        "_segmentIndex": 0,
        "_position": 1
      },
      "geometry": {
        "type": "Point",
        "coordinates": [
          -73.3607724294094,
          5.526321918027941
        ]
      }
    },
    {
      "type": "Feature",
      "properties": {
        "_source": "Ruta8-Cooservicios-LaFuente",
        "_segmentIndex": 0,
        "_position": 2
      },
      "geometry": {
        "type": "Point",
        "coordinates": [
          -73.36049040946635,
          5.526673129860843
        ]
      }
    },
    {
      "type": "Feature",
      "properties": {
        "_source": "Ruta8-Cooservicios-LaFuente",
        "_segmentIndex": 0,
        "_position": 3
      },
      "geometry": {
        "type": "Point",
        "coordinates": [
          -73.36023307158389,
          5.527035606660792
        ]
      }
    },
    {
      "type": "Feature",
      "properties": {
        "_source": "Ruta8-Cooservicios-LaFuente",
        "_segmentIndex": 0,
        "_position": 4
      },
      "geometry": {
        "type": "Point",
        "coordinates": [
          -73.35995401161662,
          5.527382883843214
        ]
      }
    },
    {
      "type": "Feature",
      "properties": {
        "_source": "Ruta8-Cooservicios-LaFuente",
        "_segmentIndex": 0,
        "_position": 5
      },
      "geometry": {
        "type": "Point",
        "coordinates": [
          -73.3598025809253,
          5.527715006982126
        ]
      }
    },
    {
      "type": "Feature",
      "properties": {
        "_source": "Ruta8-Cooservicios-LaFuente",
        "_segmentIndex": 0,
        "_position": 0
      },
      "geometry": {
        "type": "Point",
        "coordinates": [
          -73.360105,
          5.527925
        ]
      }
    },
    {
      "type": "Feature",
      "properties": {
        "_source": "Ruta8-Cooservicios-LaFuente",
        "_segmentIndex": 0,
        "_position": 1
      },
      "geometry": {
        "type": "Point",
        "coordinates": [
          -73.35997767202726,
          5.528356426732082
        ]
      }
    },
    {
      "type": "Feature",
      "properties": {
        "_source": "Ruta8-Cooservicios-LaFuente",
        "_segmentIndex": 0,
        "_position": 2
      },
      "geometry": {
        "type": "Point",
        "coordinates": [
          -73.35984841354872,
          5.5287872881981865
        ]
      }
    },
    {
      "type": "Feature",
      "properties": {
        "_source": "Ruta8-Cooservicios-LaFuente",
        "_segmentIndex": 0,
        "_position": 3
      },
      "geometry": {
        "type": "Point",
        "coordinates": [
          -73.35972655330964,
          5.529220096511795
        ]
      }
    },
    {
      "type": "Feature",
      "properties": {
        "_source": "Ruta8-Cooservicios-LaFuente",
        "_segmentIndex": 0,
        "_position": 4
      },
      "geometry": {
        "type": "Point",
        "coordinates": [
          -73.35961977806187,
          5.529656968674622
        ]
      }
    },
    {
      "type": "Feature",
      "properties": {
        "_source": "Ruta8-Cooservicios-LaFuente",
        "_segmentIndex": 0,
        "_position": 5
      },
      "geometry": {
        "type": "Point",
        "coordinates": [
          -73.35951303119808,
          5.530093866747352
        ]
      }
    },
    {
      "type": "Feature",
      "properties": {
        "_source": "Ruta8-Cooservicios-LaFuente",
        "_segmentIndex": 0,
        "_position": 6
      },
      "geometry": {
        "type": "Point",
        "coordinates": [
          -73.35939541848005,
          5.530527996367275
        ]
      }
    },
    {
      "type": "Feature",
      "properties": {
        "_source": "Ruta8-Cooservicios-LaFuente",
        "_segmentIndex": 0,
        "_position": 7
      },
      "geometry": {
        "type": "Point",
        "coordinates": [
          -73.35926781586676,
          5.530959346640954
        ]
      }
    },
    {
      "type": "Feature",
      "properties": {
        "_source": "Ruta8-Cooservicios-LaFuente",
        "_segmentIndex": 0,
        "_position": 0
      },
      "geometry": {
        "type": "Point",
        "coordinates": [
          -73.359226,
          5.5311
        ]
      }
    },
    {
      "type": "Feature",
      "properties": {
        "_source": "Ruta8-Cooservicios-LaFuente",
        "_segmentIndex": 0,
        "_position": 1
      },
      "geometry": {
        "type": "Point",
        "coordinates": [
          -73.35964636672061,
          5.531254487615923
        ]
      }
    },
    {
      "type": "Feature",
      "properties": {
        "_source": "Ruta8-Cooservicios-LaFuente",
        "_segmentIndex": 0,
        "_position": 2
      },
      "geometry": {
        "type": "Point",
        "coordinates": [
          -73.36007458057651,
          5.531397566119674
        ]
      }
    },
    {
      "type": "Feature",
      "properties": {
        "_source": "Ruta8-Cooservicios-LaFuente",
        "_segmentIndex": 0,
        "_position": 0
      },
      "geometry": {
        "type": "Point",
        "coordinates": [
          -73.360218,
          5.531447
        ]
      }
    },
    {
      "type": "Feature",
      "properties": {
        "_source": "Ruta8-Cooservicios-LaFuente",
        "_segmentIndex": 0,
        "_position": 1
      },
      "geometry": {
        "type": "Point",
        "coordinates": [
          -73.36008838969171,
          5.531877740474161
        ]
      }
    },
    {
      "type": "Feature",
      "properties": {
        "_source": "Ruta8-Cooservicios-LaFuente",
        "_segmentIndex": 0,
        "_position": 2
      },
      "geometry": {
        "type": "Point",
        "coordinates": [
          -73.3599513956389,
          5.532306222782959
        ]
      }
    },
    {
      "type": "Feature",
      "properties": {
        "_source": "Ruta8-Cooservicios-LaFuente",
        "_segmentIndex": 0,
        "_position": 3
      },
      "geometry": {
        "type": "Point",
        "coordinates": [
          -73.35982320444646,
          5.5327372511377355
        ]
      }
    },
    {
      "type": "Feature",
      "properties": {
        "_source": "Ruta8-Cooservicios-LaFuente",
        "_segmentIndex": 0,
        "_position": 4
      },
      "geometry": {
        "type": "Point",
        "coordinates": [
          -73.35970082879355,
          5.533170099247062
        ]
      }
    },
    {
      "type": "Feature",
      "properties": {
        "_source": "Ruta8-Cooservicios-LaFuente",
        "_segmentIndex": 0,
        "_position": 0
      },
      "geometry": {
        "type": "Point",
        "coordinates": [
          -73.359654,
          5.533469
        ]
      }
    },
    {
      "type": "Feature",
      "properties": {
        "_source": "Ruta8-Cooservicios-LaFuente",
        "_segmentIndex": 0,
        "_position": 1
      },
      "geometry": {
        "type": "Point",
        "coordinates": [
          -73.36008291671693,
          5.533610192630325
        ]
      }
    },
    {
      "type": "Feature",
      "properties": {
        "_source": "Ruta8-Cooservicios-LaFuente",
        "_segmentIndex": 0,
        "_position": 2
      },
      "geometry": {
        "type": "Point",
        "coordinates": [
          -73.36051272293527,
          5.533748613174429
        ]
      }
    },
    {
      "type": "Feature",
      "properties": {
        "_source": "Ruta8-Cooservicios-LaFuente",
        "_segmentIndex": 0,
        "_position": 3
      },
      "geometry": {
        "type": "Point",
        "coordinates": [
          -73.36093845920085,
          5.533898788954257
        ]
      }
    },
    {
      "type": "Feature",
      "properties": {
        "_source": "Ruta8-Cooservicios-LaFuente",
        "_segmentIndex": 0,
        "_position": 4
      },
      "geometry": {
        "type": "Point",
        "coordinates": [
          -73.36136290609727,
          5.5340527842026335
        ]
      }
    },
    {
      "type": "Feature",
      "properties": {
        "_source": "Ruta8-Cooservicios-LaFuente",
        "_segmentIndex": 0,
        "_position": 5
      },
      "geometry": {
        "type": "Point",
        "coordinates": [
          -73.36178997227866,
          5.534199191263314
        ]
      }
    },
    {
      "type": "Feature",
      "properties": {
        "_source": "Ruta8-Cooservicios-LaFuente",
        "_segmentIndex": 0,
        "_position": 6
      },
      "geometry": {
        "type": "Point",
        "coordinates": [
          -73.36221988621998,
          5.5343373481554625
        ]
      }
    },
    {
      "type": "Feature",
      "properties": {
        "_source": "Ruta8-Cooservicios-LaFuente",
        "_segmentIndex": 0,
        "_position": 7
      },
      "geometry": {
        "type": "Point",
        "coordinates": [
          -73.36265005062158,
          5.534474702563428
        ]
      }
    },
    {
      "type": "Feature",
      "properties": {
        "_source": "Ruta8-Cooservicios-LaFuente",
        "_segmentIndex": 0,
        "_position": 8
      },
      "geometry": {
        "type": "Point",
        "coordinates": [
          -73.36308297023693,
          5.534603225795943
        ]
      }
    },
    {
      "type": "Feature",
      "properties": {
        "_source": "Ruta8-Cooservicios-LaFuente",
        "_segmentIndex": 0,
        "_position": 9
      },
      "geometry": {
        "type": "Point",
        "coordinates": [
          -73.36351589004049,
          5.534731748714442
        ]
      }
    },
    {
      "type": "Feature",
      "properties": {
        "_source": "Ruta8-Cooservicios-LaFuente",
        "_segmentIndex": 0,
        "_position": 0
      },
      "geometry": {
        "type": "Point",
        "coordinates": [
          -73.363638,
          5.534768
        ]
      }
    },
    {
      "type": "Feature",
      "properties": {
        "_source": "Ruta8-Cooservicios-LaFuente",
        "_segmentIndex": 0,
        "_position": 1
      },
      "geometry": {
        "type": "Point",
        "coordinates": [
          -73.36352784952408,
          5.5352020974026015
        ]
      }
    },
    {
      "type": "Feature",
      "properties": {
        "_source": "Ruta8-Cooservicios-LaFuente",
        "_segmentIndex": 0,
        "_position": 2
      },
      "geometry": {
        "type": "Point",
        "coordinates": [
          -73.36338770400089,
          5.53562951077831
        ]
      }
    },
    {
      "type": "Feature",
      "properties": {
        "_source": "Ruta8-Cooservicios-LaFuente",
        "_segmentIndex": 0,
        "_position": 3
      },
      "geometry": {
        "type": "Point",
        "coordinates": [
          -73.36333963906145,
          5.536069009434693
        ]
      }
    },
    {
      "type": "Feature",
      "properties": {
        "_source": "Ruta8-Cooservicios-LaFuente",
        "_segmentIndex": 0,
        "_position": 0
      },
      "geometry": {
        "type": "Point",
        "coordinates": [
          -73.363334,
          5.536367
        ]
      }
    },
    {
      "type": "Feature",
      "properties": {
        "_source": "Ruta8-Cooservicios-LaFuente",
        "_segmentIndex": 0,
        "_position": 1
      },
      "geometry": {
        "type": "Point",
        "coordinates": [
          -73.36378476596674,
          5.536337073640668
        ]
      }
    },
    {
      "type": "Feature",
      "properties": {
        "_source": "Ruta8-Cooservicios-LaFuente",
        "_segmentIndex": 0,
        "_position": 2
      },
      "geometry": {
        "type": "Point",
        "coordinates": [
          -73.36423456879754,
          5.5362953081474915
        ]
      }
    },
    {
      "type": "Feature",
      "properties": {
        "_source": "Ruta8-Cooservicios-LaFuente",
        "_segmentIndex": 0,
        "_position": 3
      },
      "geometry": {
        "type": "Point",
        "coordinates": [
          -73.36467718803235,
          5.536217442079468
        ]
      }
    },
    {
      "type": "Feature",
      "properties": {
        "_source": "Ruta8-Cooservicios-LaFuente",
        "_segmentIndex": 0,
        "_position": 4
      },
      "geometry": {
        "type": "Point",
        "coordinates": [
          -73.36510097523983,
          5.536336119966225
        ]
      }
    },
    {
      "type": "Feature",
      "properties": {
        "_source": "Ruta8-Cooservicios-LaFuente",
        "_segmentIndex": 0,
        "_position": 5
      },
      "geometry": {
        "type": "Point",
        "coordinates": [
          -73.36551881747009,
          5.53650671893158
        ]
      }
    },
    {
      "type": "Feature",
      "properties": {
        "_source": "Ruta8-Cooservicios-LaFuente",
        "_segmentIndex": 0,
        "_position": 6
      },
      "geometry": {
        "type": "Point",
        "coordinates": [
          -73.36593441019848,
          5.536683025367536
        ]
      }
    },
    {
      "type": "Feature",
      "properties": {
        "_source": "Ruta8-Cooservicios-LaFuente",
        "_segmentIndex": 0,
        "_position": 7
      },
      "geometry": {
        "type": "Point",
        "coordinates": [
          -73.36635086562008,
          5.5368573059305755
        ]
      }
    },
    {
      "type": "Feature",
      "properties": {
        "_source": "Ruta8-Cooservicios-LaFuente",
        "_segmentIndex": 0,
        "_position": 8
      },
      "geometry": {
        "type": "Point",
        "coordinates": [
          -73.36676836462632,
          5.537029034836037
        ]
      }
    },
    {
      "type": "Feature",
      "properties": {
        "_source": "Ruta8-Cooservicios-LaFuente",
        "_segmentIndex": 0,
        "_position": 9
      },
      "geometry": {
        "type": "Point",
        "coordinates": [
          -73.36718832725933,
          5.537194686056178
        ]
      }
    },
    {
      "type": "Feature",
      "properties": {
        "_source": "Ruta8-Cooservicios-LaFuente",
        "_segmentIndex": 0,
        "_position": 10
      },
      "geometry": {
        "type": "Point",
        "coordinates": [
          -73.36753467590461,
          5.5374760185196275
        ]
      }
    },
    {
      "type": "Feature",
      "properties": {
        "_source": "Ruta8-Cooservicios-LaFuente",
        "_segmentIndex": 0,
        "_position": 0
      },
      "geometry": {
        "type": "Point",
        "coordinates": [
          -73.367683,
          5.537655
        ]
      }
    },
    {
      "type": "Feature",
      "properties": {
        "_source": "Ruta8-Cooservicios-LaFuente",
        "_segmentIndex": 0,
        "_position": 1
      },
      "geometry": {
        "type": "Point",
        "coordinates": [
          -73.3678646616742,
          5.5380654460602745
        ]
      }
    },
    {
      "type": "Feature",
      "properties": {
        "_source": "Ruta8-Cooservicios-LaFuente",
        "_segmentIndex": 0,
        "_position": 2
      },
      "geometry": {
        "type": "Point",
        "coordinates": [
          -73.367934835756,
          5.5385088659075254
        ]
      }
    },
    {
      "type": "Feature",
      "properties": {
        "_source": "Ruta8-Cooservicios-LaFuente",
        "_segmentIndex": 0,
        "_position": 3
      },
      "geometry": {
        "type": "Point",
        "coordinates": [
          -73.36798137232712,
          5.538956134061529
        ]
      }
    },
    {
      "type": "Feature",
      "properties": {
        "_source": "Ruta8-Cooservicios-LaFuente",
        "_segmentIndex": 0,
        "_position": 4
      },
      "geometry": {
        "type": "Point",
        "coordinates": [
          -73.36802477955113,
          5.539403712902938
        ]
      }
    },
    {
      "type": "Feature",
      "properties": {
        "_source": "Ruta8-Cooservicios-LaFuente",
        "_segmentIndex": 0,
        "_position": 5
      },
      "geometry": {
        "type": "Point",
        "coordinates": [
          -73.36806798185694,
          5.539851312313294
        ]
      }
    },
    {
      "type": "Feature",
      "properties": {
        "_source": "Ruta8-Cooservicios-LaFuente",
        "_segmentIndex": 0,
        "_position": 6
      },
      "geometry": {
        "type": "Point",
        "coordinates": [
          -73.36811090123052,
          5.540298938271692
        ]
      }
    },
    {
      "type": "Feature",
      "properties": {
        "_source": "Ruta8-Cooservicios-LaFuente",
        "_segmentIndex": 0,
        "_position": 7
      },
      "geometry": {
        "type": "Point",
        "coordinates": [
          -73.3681440420812,
          5.540747220382799
        ]
      }
    },
    {
      "type": "Feature",
      "properties": {
        "_source": "Ruta8-Cooservicios-LaFuente",
        "_segmentIndex": 0,
        "_position": 8
      },
      "geometry": {
        "type": "Point",
        "coordinates": [
          -73.36813787490271,
          5.541196661276981
        ]
      }
    },
    {
      "type": "Feature",
      "properties": {
        "_source": "Ruta8-Cooservicios-LaFuente",
        "_segmentIndex": 0,
        "_position": 9
      },
      "geometry": {
        "type": "Point",
        "coordinates": [
          -73.36812357584748,
          5.541646095151441
        ]
      }
    },
    {
      "type": "Feature",
      "properties": {
        "_source": "Ruta8-Cooservicios-LaFuente",
        "_segmentIndex": 0,
        "_position": 10
      },
      "geometry": {
        "type": "Point",
        "coordinates": [
          -73.36809582173565,
          5.542094225485967
        ]
      }
    },
    {
      "type": "Feature",
      "properties": {
        "_source": "Ruta8-Cooservicios-LaFuente",
        "_segmentIndex": 0,
        "_position": 11
      },
      "geometry": {
        "type": "Point",
        "coordinates": [
          -73.36800349482974,
          5.54253422866715
        ]
      }
    },
    {
      "type": "Feature",
      "properties": {
        "_source": "Ruta8-Cooservicios-LaFuente",
        "_segmentIndex": 0,
        "_position": 12
      },
      "geometry": {
        "type": "Point",
        "coordinates": [
          -73.3679036621727,
          5.542972766346457
        ]
      }
    },
    {
      "type": "Feature",
      "properties": {
        "_source": "Ruta8-Cooservicios-LaFuente",
        "_segmentIndex": 0,
        "_position": 13
      },
      "geometry": {
        "type": "Point",
        "coordinates": [
          -73.36780599332936,
          5.54341179263799
        ]
      }
    },
    {
      "type": "Feature",
      "properties": {
        "_source": "Ruta8-Cooservicios-LaFuente",
        "_segmentIndex": 0,
        "_position": 14
      },
      "geometry": {
        "type": "Point",
        "coordinates": [
          -73.3677248148179,
          5.543853760969663
        ]
      }
    },
    {
      "type": "Feature",
      "properties": {
        "_source": "Ruta8-Cooservicios-LaFuente",
        "_segmentIndex": 0,
        "_position": 15
      },
      "geometry": {
        "type": "Point",
        "coordinates": [
          -73.36766319687166,
          5.544299219100202
        ]
      }
    },
    {
      "type": "Feature",
      "properties": {
        "_source": "Ruta8-Cooservicios-LaFuente",
        "_segmentIndex": 0,
        "_position": 16
      },
      "geometry": {
        "type": "Point",
        "coordinates": [
          -73.36760271151776,
          5.544744830330115
        ]
      }
    },
    {
      "type": "Feature",
      "properties": {
        "_source": "Ruta8-Cooservicios-LaFuente",
        "_segmentIndex": 0,
        "_position": 17
      },
      "geometry": {
        "type": "Point",
        "coordinates": [
          -73.36754273864796,
          5.5451905108390065
        ]
      }
    },
    {
      "type": "Feature",
      "properties": {
        "_source": "Ruta8-Cooservicios-LaFuente",
        "_segmentIndex": 0,
        "_position": 18
      },
      "geometry": {
        "type": "Point",
        "coordinates": [
          -73.36747800370586,
          5.545635530517092
        ]
      }
    },
    {
      "type": "Feature",
      "properties": {
        "_source": "Ruta8-Cooservicios-LaFuente",
        "_segmentIndex": 0,
        "_position": 19
      },
      "geometry": {
        "type": "Point",
        "coordinates": [
          -73.36741320928445,
          5.5460805419476875
        ]
      }
    },
    {
      "type": "Feature",
      "properties": {
        "_source": "Ruta8-Cooservicios-LaFuente",
        "_segmentIndex": 0,
        "_position": 20
      },
      "geometry": {
        "type": "Point",
        "coordinates": [
          -73.36735039164348,
          5.54652583272098
        ]
      }
    },
    {
      "type": "Feature",
      "properties": {
        "_source": "Ruta8-Cooservicios-LaFuente",
        "_segmentIndex": 0,
        "_position": 21
      },
      "geometry": {
        "type": "Point",
        "coordinates": [
          -73.36729196413106,
          5.546971686643902
        ]
      }
    },
    {
      "type": "Feature",
      "properties": {
        "_source": "Ruta8-Cooservicios-LaFuente",
        "_segmentIndex": 0,
        "_position": 22
      },
      "geometry": {
        "type": "Point",
        "coordinates": [
          -73.367327450046,
          5.5474154213084885
        ]
      }
    },
    {
      "type": "Feature",
      "properties": {
        "_source": "Ruta8-Cooservicios-LaFuente",
        "_segmentIndex": 0,
        "_position": 0
      },
      "geometry": {
        "type": "Point",
        "coordinates": [
          -73.36731,
          5.54747
        ]
      }
    },
    {
      "type": "Feature",
      "properties": {
        "_source": "Ruta8-Cooservicios-LaFuente",
        "_segmentIndex": 0,
        "_position": 1
      },
      "geometry": {
        "type": "Point",
        "coordinates": [
          -73.36725614819568,
          5.547900271948238
        ]
      }
    },
    {
      "type": "Feature",
      "properties": {
        "_source": "Ruta8-Cooservicios-LaFuente",
        "_segmentIndex": 0,
        "_position": 2
      },
      "geometry": {
        "type": "Point",
        "coordinates": [
          -73.36704312290682,
          5.547576598920657
        ]
      }
    },
    {
      "type": "Feature",
      "properties": {
        "_source": "Ruta8-Cooservicios-LaFuente",
        "_segmentIndex": 0,
        "_position": 3
      },
      "geometry": {
        "type": "Point",
        "coordinates": [
          -73.3668725334605,
          5.547160262108671
        ]
      }
    },
    {
      "type": "Feature",
      "properties": {
        "_source": "Ruta8-Cooservicios-LaFuente",
        "_segmentIndex": 0,
        "_position": 4
      },
      "geometry": {
        "type": "Point",
        "coordinates": [
          -73.36668144297121,
          5.546753006861705
        ]
      }
    },
    {
      "type": "Feature",
      "properties": {
        "_source": "Ruta8-Cooservicios-LaFuente",
        "_segmentIndex": 0,
        "_position": 0
      },
      "geometry": {
        "type": "Point",
        "coordinates": [
          -73.36656,
          5.54659
        ]
      }
    },
    {
      "type": "Feature",
      "properties": {
        "_source": "Ruta8-Cooservicios-LaFuente",
        "_segmentIndex": 0,
        "_position": 1
      },
      "geometry": {
        "type": "Point",
        "coordinates": [
          -73.36617840472982,
          5.546821244203898
        ]
      }
    },
    {
      "type": "Feature",
      "properties": {
        "_source": "Ruta8-Cooservicios-LaFuente",
        "_segmentIndex": 0,
        "_position": 0
      },
      "geometry": {
        "type": "Point",
        "coordinates": [
          -73.366039,
          5.546921
        ]
      }
    },
    {
      "type": "Feature",
      "properties": {
        "_source": "Ruta8-Cooservicios-LaFuente",
        "_segmentIndex": 0,
        "_position": 1
      },
      "geometry": {
        "type": "Point",
        "coordinates": [
          -73.36615793375763,
          5.5473546706708765
        ]
      }
    },
    {
      "type": "Feature",
      "properties": {
        "_source": "Ruta8-Cooservicios-LaFuente",
        "_segmentIndex": 0,
        "_position": 2
      },
      "geometry": {
        "type": "Point",
        "coordinates": [
          -73.36626563098422,
          5.547791360504425
        ]
      }
    },
    {
      "type": "Feature",
      "properties": {
        "_source": "Ruta8-Cooservicios-LaFuente",
        "_segmentIndex": 0,
        "_position": 3
      },
      "geometry": {
        "type": "Point",
        "coordinates": [
          -73.36639157642408,
          5.548189803237159
        ]
      }
    },
    {
      "type": "Feature",
      "properties": {
        "_source": "Ruta8-Cooservicios-LaFuente",
        "_segmentIndex": 0,
        "_position": 4
      },
      "geometry": {
        "type": "Point",
        "coordinates": [
          -73.3663100723478,
          5.548632044544441
        ]
      }
    },
    {
      "type": "Feature",
      "properties": {
        "_source": "Ruta8-Cooservicios-LaFuente",
        "_segmentIndex": 0,
        "_position": 5
      },
      "geometry": {
        "type": "Point",
        "coordinates": [
          -73.36622410191417,
          5.549073488161878
        ]
      }
    },
    {
      "type": "Feature",
      "properties": {
        "_source": "Ruta8-Cooservicios-LaFuente",
        "_segmentIndex": 0,
        "_position": 0
      },
      "geometry": {
        "type": "Point",
        "coordinates": [
          -73.366173,
          5.549354
        ]
      }
    },
    {
      "type": "Feature",
      "properties": {
        "_source": "Ruta8-Cooservicios-LaFuente",
        "_segmentIndex": 0,
        "_position": 1
      },
      "geometry": {
        "type": "Point",
        "coordinates": [
          -73.36645970994789,
          5.549583355316437
        ]
      }
    }
  ]
}