{
  "type": "FeatureCollection",
  "features": [
    {
      "type": "Feature",
      "properties": {
        "_source": "Ruta9-LaFuente-AvenidaNorte-Arboleda",
        "_segmentIndex": 0,
        "_position": 0
      },
      "geometry": {
        "type": "Point",
        "coordinates": [
          -73.36612,
          5.549292
        ]
      }
    },
    {
      "type": "Feature",
      "properties": {
        "_source": "Ruta9-LaFuente-AvenidaNorte-Arboleda",
        "_segmentIndex": 0,
        "_position": 1
      },
      "geometry": {
        "type": "Point",
        "coordinates": [
          -73.36567393358563,
          5.5492257437580745
        ]
      }
    },
    {
      "type": "Feature",
      "properties": {
        "_source": "Ruta9-LaFuente-AvenidaNorte-Arboleda",
        "_segmentIndex": 0,
        "_position": 2
      },
      "geometry": {
        "type": "Point",
        "coordinates": [
          -73.36551381494515,
          5.548888862932634
        ]
      }
    },
    {
      "type": "Feature",
      "properties": {
        "_source": "Ruta9-LaFuente-AvenidaNorte-Arboleda",
        "_segmentIndex": 0,
        "_position": 3
      },
      "geometry": {
        "type": "Point",
        "coordinates": [
          -73.36541673228943,
          5.548452681792546
        ]
      }
    },
    {
      "type": "Feature",
      "properties": {
        "_source": "Ruta9-LaFuente-AvenidaNorte-Arboleda",
        "_segmentIndex": 0,
        "_position": 4
      },
      "geometry": {
        "type": "Point",
        "coordinates": [
          -73.36528748953904,
          5.54802201645864
        ]
      }
    },
    {
      "type": "Feature",
      "properties": {
        "_source": "Ruta9-LaFuente-AvenidaNorte-Arboleda",
        "_segmentIndex": 0,
        "_position": 5
      },
      "geometry": {
        "type": "Point",
        "coordinates": [
          -73.36518966263377,
          5.54758740860663
        ]
      }
    },
    {
      "type": "Feature",
      "properties": {
        "_source": "Ruta9-LaFuente-AvenidaNorte-Arboleda",
        "_segmentIndex": 0,
        "_position": 6
      },
      "geometry": {
        "type": "Point",
        "coordinates": [
          -73.36551871610317,
          5.547296448733249
        ]
      }
    },
    {
      "type": "Feature",
      "properties": {
        "_source": "Ruta9-LaFuente-AvenidaNorte-Arboleda",
        "_segmentIndex": 0,
        "_position": 7
      },
      "geometry": {
        "type": "Point",
        "coordinates": [
          -73.36588639973408,
          5.547035170618648
        ]
      }
    },
    {
      "type": "Feature",
      "properties": {
        "_source": "Ruta9-LaFuente-AvenidaNorte-Arboleda",
        "_segmentIndex": 0,
        "_position": 8
      },
      "geometry": {
        "type": "Point",
        "coordinates": [
          -73.36613850387509,
          5.54719105225267
        ]
      }
    },
    {
      "type": "Feature",
      "properties": {
        "_source": "Ruta9-LaFuente-AvenidaNorte-Arboleda",
        "_segmentIndex": 0,
        "_position": 9
      },
      "geometry": {
        "type": "Point",
        "coordinates": [
          -73.36624215155685,
          5.547628715648531
        ]
      }
    },
    {
      "type": "Feature",
      "properties": {
        "_source": "Ruta9-LaFuente-AvenidaNorte-Arboleda",
        "_segmentIndex": 0,
        "_position": 10
      },
      "geometry": {
        "type": "Point",
        "coordinates": [
          -73.36634931430505,
          5.548065506955101
        ]
      }
    },
    {
      "type": "Feature",
      "properties": {
        "_source": "Ruta9-LaFuente-AvenidaNorte-Arboleda",
        "_segmentIndex": 0,
        "_position": 0
      },
      "geometry": {
        "type": "Point",
        "coordinates": [
          -73.366415,
          5.548115
        ]
      }
    },
    {
      "type": "Feature",
      "properties": {
        "_source": "Ruta9-LaFuente-AvenidaNorte-Arboleda",
        "_segmentIndex": 0,
        "_position": 1
      },
      "geometry": {
        "type": "Point",
        "coordinates": [
          -73.36685784082782,
          5.5482037177766275
        ]
      }
    },
    {
      "type": "Feature",
      "properties": {
        "_source": "Ruta9-LaFuente-AvenidaNorte-Arboleda",
        "_segmentIndex": 0,
        "_position": 2
      },
      "geometry": {
        "type": "Point",
        "coordinates": [
          -73.36727666835193,
          5.548226720729644
        ]
      }
    },
    {
      "type": "Feature",
      "properties": {
        "_source": "Ruta9-LaFuente-AvenidaNorte-Arboleda",
        "_segmentIndex": 0,
        "_position": 3
      },
      "geometry": {
        "type": "Point",
        "coordinates": [
          -73.36729475958917,
          5.547780041097476
        ]
      }
    },
    {
      "type": "Feature",
      "properties": {
        "_source": "Ruta9-LaFuente-AvenidaNorte-Arboleda",
        "_segmentIndex": 0,
        "_position": 0
      },
      "geometry": {
        "type": "Point",
        "coordinates": [
          -73.367382,
          5.547437
        ]
      }
    },
    {
      "type": "Feature",
      "properties": {
        "_source": "Ruta9-LaFuente-AvenidaNorte-Arboleda",
        "_segmentIndex": 0,
        "_position": 1
      },
      "geometry": {
        "type": "Point",
        "coordinates": [
          -73.36734702422012,
          5.546995605876105
        ]
      }
    },
    {
      "type": "Feature",
      "properties": {
        "_source": "Ruta9-LaFuente-AvenidaNorte-Arboleda",
        "_segmentIndex": 0,
        "_position": 2
      },
      "geometry": {
        "type": "Point",
        "coordinates": [
          -73.36739784359463,
          5.546548807839681
        ]
      }
    },
    {
      "type": "Feature",
      "properties": {
        "_source": "Ruta9-LaFuente-AvenidaNorte-Arboleda",
        "_segmentIndex": 0,
        "_position": 3
      },
      "geometry": {
        "type": "Point",
        "coordinates": [
          -73.36745853942307,
          5.546103232940059
        ]
      }
    },
    {
      "type": "Feature",
      "properties": {
        "_source": "Ruta9-LaFuente-AvenidaNorte-Arboleda",
        "_segmentIndex": 0,
        "_position": 4
      },
      "geometry": {
        "type": "Point",
        "coordinates": [
          -73.36752361541734,
          5.5456582622137915
        ]
      }
    },
    {
      "type": "Feature",
      "properties": {
        "_source": "Ruta9-LaFuente-AvenidaNorte-Arboleda",
        "_segmentIndex": 0,
        "_position": 5
      },
      "geometry": {
        "type": "Point",
        "coordinates": [
          -73.3675886913135,
          5.545213291480415
        ]
      }
    },
    {
      "type": "Feature",
      "properties": {
        "_source": "Ruta9-LaFuente-AvenidaNorte-Arboleda",
        "_segmentIndex": 0,
        "_position": 6
      },
      "geometry": {
        "type": "Point",
        "coordinates": [
          -73.36765376711149,
          5.544768320739929
        ]
      }
    },
    {
      "type": "Feature",
      "properties": {
        "_source": "Ruta9-LaFuente-AvenidaNorte-Arboleda",
        "_segmentIndex": 0,
        "_position": 7
      },
      "geometry": {
        "type": "Point",
        "coordinates": [
          -73.36771619808728,
          5.544322976985736
        ]
      }
    },
    {
      "type": "Feature",
      "properties": {
        "_source": "Ruta9-LaFuente-AvenidaNorte-Arboleda",
        "_segmentIndex": 0,
        "_position": 8
      },
      "geometry": {
        "type": "Point",
        "coordinates": [
          -73.36777788860842,
          5.543877528806038
        ]
      }
    },
    {
      "type": "Feature",
      "properties": {
        "_source": "Ruta9-LaFuente-AvenidaNorte-Arboleda",
        "_segmentIndex": 0,
        "_position": 9
      },
      "geometry": {
        "type": "Point",
        "coordinates": [
          -73.36784440508701,
          5.543432999810989
        ]
      }
    },
    {
      "type": "Feature",
      "properties": {
        "_source": "Ruta9-LaFuente-AvenidaNorte-Arboleda",
        "_segmentIndex": 0,
        "_position": 10
      },
      "geometry": {
        "type": "Point",
        "coordinates": [
          -73.3679448637354,
          5.542994605030508
        ]
      }
    },
    {
      "type": "Feature",
      "properties": {
        "_source": "Ruta9-LaFuente-AvenidaNorte-Arboleda",
        "_segmentIndex": 0,
        "_position": 11
      },
      "geometry": {
        "type": "Point",
        "coordinates": [
          -73.36804970822155,
          5.542557242529669
        ]
      }
    },
    {
      "type": "Feature",
      "properties": {
        "_source": "Ruta9-LaFuente-AvenidaNorte-Arboleda",
        "_segmentIndex": 0,
        "_position": 12
      },
      "geometry": {
        "type": "Point",
        "coordinates": [
          -73.36813787427172,
          5.542116293941326
        ]
      }
    },
    {
      "type": "Feature",
      "properties": {
        "_source": "Ruta9-LaFuente-AvenidaNorte-Arboleda",
        "_segmentIndex": 0,
        "_position": 13
      },
      "geometry": {
        "type": "Point",
        "coordinates": [
          -73.36817304139367,
          5.541668779386083
        ]
      }
    },
    {
      "type": "Feature",
      "properties": {
        "_source": "Ruta9-LaFuente-AvenidaNorte-Arboleda",
        "_segmentIndex": 0,
        "_position": 14
      },
      "geometry": {
        "type": "Point",
        "coordinates": [
          -73.3681885003211,
          5.541219384442014
        ]
      }
    },
    {
      "type": "Feature",
      "properties": {
        "_source": "Ruta9-LaFuente-AvenidaNorte-Arboleda",
        "_segmentIndex": 0,
        "_position": 15
      },
      "geometry": {
        "type": "Point",
        "coordinates": [
          -73.36820112809633,
          5.54076996419897
        ]
      }
    },
    {
      "type": "Feature",
      "properties": {
        "_source": "Ruta9-LaFuente-AvenidaNorte-Arboleda",
        "_segmentIndex": 0,
        "_position": 16
      },
      "geometry": {
        "type": "Point",
        "coordinates": [
          -73.36816538893858,
          5.540321716329993
        ]
      }
    },
    {
      "type": "Feature",
      "properties": {
        "_source": "Ruta9-LaFuente-AvenidaNorte-Arboleda",
        "_segmentIndex": 0,
        "_position": 17
      },
      "geometry": {
        "type": "Point",
        "coordinates": [
          -73.36812111498655,
          5.53987422066961
        ]
      }
    },
    {
      "type": "Feature",
      "properties": {
        "_source": "Ruta9-LaFuente-AvenidaNorte-Arboleda",
        "_segmentIndex": 0,
        "_position": 18
      },
      "geometry": {
        "type": "Point",
        "coordinates": [
          -73.36807684110161,
          5.5394267250059395
        ]
      }
    },
    {
      "type": "Feature",
      "properties": {
        "_source": "Ruta9-LaFuente-AvenidaNorte-Arboleda",
        "_segmentIndex": 0,
        "_position": 19
      },
      "geometry": {
        "type": "Point",
        "coordinates": [
          -73.36803078804714,
          5.538979415407985
        ]
      }
    },
    {
      "type": "Feature",
      "properties": {
        "_source": "Ruta9-LaFuente-AvenidaNorte-Arboleda",
        "_segmentIndex": 0,
        "_position": 20
      },
      "geometry": {
        "type": "Point",
        "coordinates": [
          -73.36798064999628,
          5.538532533014503
        ]
      }
    },
    {
      "type": "Feature",
      "properties": {
        "_source": "Ruta9-LaFuente-AvenidaNorte-Arboleda",
        "_segmentIndex": 0,
        "_position": 21
      },
      "geometry": {
        "type": "Point",
        "coordinates": [
          -73.36792936504378,
          5.538085937383351
        ]
      }
    },
    {
      "type": "Feature",
      "properties": {
        "_source": "Ruta9-LaFuente-AvenidaNorte-Arboleda",
        "_segmentIndex": 0,
        "_position": 22
      },
      "geometry": {
        "type": "Point",
        "coordinates": [
          -73.36775068929468,
          5.5376731653987505
        ]
      }
    },
    {
      "type": "Feature",
      "properties": {
        "_source": "Ruta9-LaFuente-AvenidaNorte-Arboleda",
        "_segmentIndex": 0,
        "_position": 0
      },
      "geometry": {
        "type": "Point",
        "coordinates": [
          -73.367733,
          5.537636
        ]
      }
    },
    {
      "type": "Feature",
      "properties": {
        "_source": "Ruta9-LaFuente-AvenidaNorte-Arboleda",
        "_segmentIndex": 0,
        "_position": 1
      },
      "geometry": {
        "type": "Point",
        "coordinates": [
          -73.36744915790932,
          5.537290615077752
        ]
      }
    },
    {
      "type": "Feature",
      "properties": {
        "_source": "Ruta9-LaFuente-AvenidaNorte-Arboleda",
        "_segmentIndex": 0,
        "_position": 2
      },
      "geometry": {
        "type": "Point",
        "coordinates": [
          -73.36705638232881,
          5.537075127246963
        ]
      }
    },
    {
      "type": "Feature",
      "properties": {
        "_source": "Ruta9-LaFuente-AvenidaNorte-Arboleda",
        "_segmentIndex": 0,
        "_position": 3
      },
      "geometry": {
        "type": "Point",
        "coordinates": [
          -73.36663223618592,
          5.536920380522179
        ]
      }
    },
    {
      "type": "Feature",
      "properties": {
        "_source": "Ruta9-LaFuente-AvenidaNorte-Arboleda",
        "_segmentIndex": 0,
        "_position": 4
      },
      "geometry": {
        "type": "Point",
        "coordinates": [
          -73.36621484297102,
          5.53674833676577
        ]
      }
    },
    {
      "type": "Feature",
      "properties": {
        "_source": "Ruta9-LaFuente-AvenidaNorte-Arboleda",
        "_segmentIndex": 0,
        "_position": 5
      },
      "geometry": {
        "type": "Point",
        "coordinates": [
          -73.36580082778812,
          5.5365684651904195
        ]
      }
    },
    {
      "type": "Feature",
      "properties": {
        "_source": "Ruta9-LaFuente-AvenidaNorte-Arboleda",
        "_segmentIndex": 0,
        "_position": 6
      },
      "geometry": {
        "type": "Point",
        "coordinates": [
          -73.36539088340257,
          5.536379541204592
        ]
      }
    },
    {
      "type": "Feature",
      "properties": {
        "_source": "Ruta9-LaFuente-AvenidaNorte-Arboleda",
        "_segmentIndex": 0,
        "_position": 0
      },
      "geometry": {
        "type": "Point",
        "coordinates": [
          -73.36519,
          5.536286
        ]
      }
    },
    {
      "type": "Feature",
      "properties": {
        "_source": "Ruta9-LaFuente-AvenidaNorte-Arboleda",
        "_segmentIndex": 0,
        "_position": 1
      },
      "geometry": {
        "type": "Point",
        "coordinates": [
          -73.36534258198029,
          5.535862832399928
        ]
      }
    },
    {
      "type": "Feature",
      "properties": {
        "_source": "Ruta9-LaFuente-AvenidaNorte-Arboleda",
        "_segmentIndex": 0,
        "_position": 2
      },
      "geometry": {
        "type": "Point",
        "coordinates": [
          -73.36550845483707,
          5.53544486166092
        ]
      }
    },
    {
      "type": "Feature",
      "properties": {
        "_source": "Ruta9-LaFuente-AvenidaNorte-Arboleda",
        "_segmentIndex": 0,
        "_position": 3
      },
      "geometry": {
        "type": "Point",
        "coordinates": [
          -73.3656877811292,
          5.53503295588283
        ]
      }
    },
    {
      "type": "Feature",
      "properties": {
        "_source": "Ruta9-LaFuente-AvenidaNorte-Arboleda",
        "_segmentIndex": 0,
        "_position": 4
      },
      "geometry": {
        "type": "Point",
        "coordinates": [
          -73.36585918463199,
          5.534616929842589
        ]
      }
    },
    {
      "type": "Feature",
      "properties": {
        "_source": "Ruta9-LaFuente-AvenidaNorte-Arboleda",
        "_segmentIndex": 0,
        "_position": 5
      },
      "geometry": {
        "type": "Point",
        "coordinates": [
          -73.36605690574028,
          5.534212824601912
        ]
      }
    },
    {
      "type": "Feature",
      "properties": {
        "_source": "Ruta9-LaFuente-AvenidaNorte-Arboleda",
        "_segmentIndex": 0,
        "_position": 6
      },
      "geometry": {
        "type": "Point",
        "coordinates": [
          -73.36623778405342,
          5.533800778994098
        ]
      }
    },
    {
      "type": "Feature",
      "properties": {
        "_source": "Ruta9-LaFuente-AvenidaNorte-Arboleda",
        "_segmentIndex": 0,
        "_position": 7
      },
      "geometry": {
        "type": "Point",
        "coordinates": [
          -73.36643792811425,
          5.53339783047317
        ]
      }
    },
    {
      "type": "Feature",
      "properties": {
        "_source": "Ruta9-LaFuente-AvenidaNorte-Arboleda",
        "_segmentIndex": 0,
        "_position": 8
      },
      "geometry": {
        "type": "Point",
        "coordinates": [
          -73.36659399509861,
          5.532976362248975
        ]
      }
    },
    {
      "type": "Feature",
      "properties": {
        "_source": "Ruta9-LaFuente-AvenidaNorte-Arboleda",
        "_segmentIndex": 0,
        "_position": 9
      },
      "geometry": {
        "type": "Point",
        "coordinates": [
          -73.3667154991373,
          5.532543725133815
        ]
      }
    },
    {
      "type": "Feature",
      "properties": {
        "_source": "Ruta9-LaFuente-AvenidaNorte-Arboleda",
        "_segmentIndex": 0,
        "_position": 0
      },
      "geometry": {
        "type": "Point",
        "coordinates": [
          -73.366736,
          5.532286
        ]
      }
    },
    {
      "type": "Feature",
      "properties": {
        "_source": "Ruta9-LaFuente-AvenidaNorte-Arboleda",
        "_segmentIndex": 0,
        "_position": 1
      },
      "geometry": {
        "type": "Point",
        "coordinates": [
          -73.36629733965572,
          5.532179140045952
        ]
      }
    },
    {
      "type": "Feature",
      "properties": {
        "_source": "Ruta9-LaFuente-AvenidaNorte-Arboleda",
        "_segmentIndex": 0,
        "_position": 2
      },
      "geometry": {
        "type": "Point",
        "coordinates": [
          -73.36585920281635,
          5.532069740152304
        ]
      }
    },
    {
      "type": "Feature",
      "properties": {
        "_source": "Ruta9-LaFuente-AvenidaNorte-Arboleda",
        "_segmentIndex": 0,
        "_position": 3
      },
      "geometry": {
        "type": "Point",
        "coordinates": [
          -73.36542240350792,
          5.531955135825687
        ]
      }
    },
    {
      "type": "Feature",
      "properties": {
        "_source": "Ruta9-LaFuente-AvenidaNorte-Arboleda",
        "_segmentIndex": 0,
        "_position": 4
      },
      "geometry": {
        "type": "Point",
        "coordinates": [
          -73.36498793121714,
          5.531831923662724
        ]
      }
    },
    {
      "type": "Feature",
      "properties": {
        "_source": "Ruta9-LaFuente-AvenidaNorte-Arboleda",
        "_segmentIndex": 0,
        "_position": 0
      },
      "geometry": {
        "type": "Point",
        "coordinates": [
          -73.364557,
          5.531724
        ]
      }
    },
    {
      "type": "Feature",
      "properties": {
        "_source": "Ruta9-LaFuente-AvenidaNorte-Arboleda",
        "_segmentIndex": 0,
        "_position": 1
      },
      "geometry": {
        "type": "Point",
        "coordinates": [
          -73.36442826397023,
          5.53215499425887
        ]
      }
    },
    {
      "type": "Feature",
      "properties": {
        "_source": "Ruta9-LaFuente-AvenidaNorte-Arboleda",
        "_segmentIndex": 0,
        "_position": 2
      },
      "geometry": {
        "type": "Point",
        "coordinates": [
          -73.3642902289226,
          5.532583099160563
        ]
      }
    },
    {
      "type": "Feature",
      "properties": {
        "_source": "Ruta9-LaFuente-AvenidaNorte-Arboleda",
        "_segmentIndex": 0,
        "_position": 3
      },
      "geometry": {
        "type": "Point",
        "coordinates": [
          -73.364148295442,
          5.533009971793656
        ]
      }
    },
    {
      "type": "Feature",
      "properties": {
        "_source": "Ruta9-LaFuente-AvenidaNorte-Arboleda",
        "_segmentIndex": 0,
        "_position": 4
      },
      "geometry": {
        "type": "Point",
        "coordinates": [
          -73.36401425507536,
          5.53343932703781
        ]
      }
    },
    {
      "type": "Feature",
      "properties": {
        "_source": "Ruta9-LaFuente-AvenidaNorte-Arboleda",
        "_segmentIndex": 0,
        "_position": 5
      },
      "geometry": {
        "type": "Point",
        "coordinates": [
          -73.3638893372654,
          5.533871455401936
        ]
      }
    },
    {
      "type": "Feature",
      "properties": {
        "_source": "Ruta9-LaFuente-AvenidaNorte-Arboleda",
        "_segmentIndex": 0,
        "_position": 6
      },
      "geometry": {
        "type": "Point",
        "coordinates": [
          -73.36378883594355,
          5.534309827867736
        ]
      }
    },
    {
      "type": "Feature",
      "properties": {
        "_source": "Ruta9-LaFuente-AvenidaNorte-Arboleda",
        "_segmentIndex": 0,
        "_position": 7
      },
      "geometry": {
        "type": "Point",
        "coordinates": [
          -73.36365901855557,
          5.534740327938877
        ]
      }
    },
    {
      "type": "Feature",
      "properties": {
        "_source": "Ruta9-LaFuente-AvenidaNorte-Arboleda",
        "_segmentIndex": 0,
        "_position": 8
      },
      "geometry": {
        "type": "Point",
        "coordinates": [
          -73.36352141955474,
          5.535168612745501
        ]
      }
    },
    {
      "type": "Feature",
      "properties": {
        "_source": "Ruta9-LaFuente-AvenidaNorte-Arboleda",
        "_segmentIndex": 0,
        "_position": 9
      },
      "geometry": {
        "type": "Point",
        "coordinates": [
          -73.36337167057981,
          5.535591744042341
        ]
      }
    },
    {
      "type": "Feature",
      "properties": {
        "_source": "Ruta9-LaFuente-AvenidaNorte-Arboleda",
        "_segmentIndex": 0,
        "_position": 10
      },
      "geometry": {
        "type": "Point",
        "coordinates": [
          -73.36332471892023,
          5.536020647647359
        ]
      }
    },
    {
      "type": "Feature",
      "properties": {
        "_source": "Ruta9-LaFuente-AvenidaNorte-Arboleda",
        "_segmentIndex": 0,
        "_position": 0
      },
      "geometry": {
        "type": "Point",
        "coordinates": [
          -73.363259,
          5.536297
        ]
      }
    },
    {
      "type": "Feature",
      "properties": {
        "_source": "Ruta9-LaFuente-AvenidaNorte-Arboleda",
        "_segmentIndex": 0,
        "_position": 1
      },
      "geometry": {
        "type": "Point",
        "coordinates": [
          -73.36282741235414,
          5.536378443319979
        ]
      }
    },
    {
      "type": "Feature",
      "properties": {
        "_source": "Ruta9-LaFuente-AvenidaNorte-Arboleda",
        "_segmentIndex": 0,
        "_position": 2
      },
      "geometry": {
        "type": "Point",
        "coordinates": [
          -73.36237840307045,
          5.536428017226359
        ]
      }
    },
    {
      "type": "Feature",
      "properties": {
        "_source": "Ruta9-LaFuente-AvenidaNorte-Arboleda",
        "_segmentIndex": 0,
        "_position": 3
      },
      "geometry": {
        "type": "Point",
        "coordinates": [
          -73.36193287426615,
          5.53649703742779
        ]
      }
    },
    {
      "type": "Feature",
      "properties": {
        "_source": "Ruta9-LaFuente-AvenidaNorte-Arboleda",
        "_segmentIndex": 0,
        "_position": 4
      },
      "geometry": {
        "type": "Point",
        "coordinates": [
          -73.36156508151264,
          5.536750273087741
        ]
      }
    },
    {
      "type": "Feature",
      "properties": {
        "_source": "Ruta9-LaFuente-AvenidaNorte-Arboleda",
        "_segmentIndex": 0,
        "_position": 5
      },
      "geometry": {
        "type": "Point",
        "coordinates": [
          -73.36131431301787,
          5.537122339765533
        ]
      }
    },
    {
      "type": "Feature",
      "properties": {
        "_source": "Ruta9-LaFuente-AvenidaNorte-Arboleda",
        "_segmentIndex": 0,
        "_position": 6
      },
      "geometry": {
        "type": "Point",
        "coordinates": [
          -73.36107143056238,
          5.537499115232287
        ]
      }
    },
    {
      "type": "Feature",
      "properties": {
        "_source": "Ruta9-LaFuente-AvenidaNorte-Arboleda",
        "_segmentIndex": 0,
        "_position": 7
      },
      "geometry": {
        "type": "Point",
        "coordinates": [
          -73.36069033144521,
          5.537732825571168
        ]
      }
    },
    {
      "type": "Feature",
      "properties": {
        "_source": "Ruta9-LaFuente-AvenidaNorte-Arboleda",
        "_segmentIndex": 0,
        "_position": 0
      },
      "geometry": {
        "type": "Point",
        "coordinates": [
          -73.360596,
          5.537768
        ]
      }
    },
    {
      "type": "Feature",
      "properties": {
        "_source": "Ruta9-LaFuente-AvenidaNorte-Arboleda",
        "_segmentIndex": 0,
        "_position": 1
      },
      "geometry": {
        "type": "Point",
        "coordinates": [
          -73.36030388080168,
          5.538106369528117
        ]
      }
    },
    {
      "type": "Feature",
      "properties": {
        "_source": "Ruta9-LaFuente-AvenidaNorte-Arboleda",
        "_segmentIndex": 0,
        "_position": 2
      },
      "geometry": {
        "type": "Point",
        "coordinates": [
          -73.36017156758543,
          5.538533826761797
        ]
      }
    },
    {
      "type": "Feature",
      "properties": {
        "_source": "Ruta9-LaFuente-AvenidaNorte-Arboleda",
        "_segmentIndex": 0,
        "_position": 0
      },
      "geometry": {
        "type": "Point",
        "coordinates": [
          -73.360147,
          5.538682
        ]
      }
    },
    {
      "type": "Feature",
      "properties": {
        "_source": "Ruta9-LaFuente-AvenidaNorte-Arboleda",
        "_segmentIndex": 0,
        "_position": 1
      },
      "geometry": {
        "type": "Point",
        "coordinates": [
          -73.36004896165215,
          5.539120944536776
        ]
      }
    },
    {
      "type": "Feature",
      "properties": {
        "_source": "Ruta9-LaFuente-AvenidaNorte-Arboleda",
        "_segmentIndex": 0,
        "_position": 2
      },
      "geometry": {
        "type": "Point",
        "coordinates": [
          -73.35993381235998,
          5.539555564861617
        ]
      }
    },
    {
      "type": "Feature",
      "properties": {
        "_source": "Ruta9-LaFuente-AvenidaNorte-Arboleda",
        "_segmentIndex": 0,
        "_position": 3
      },
      "geometry": {
        "type": "Point",
        "coordinates": [
          -73.35981434308891,
          5.539989211652612
        ]
      }
    },
    {
      "type": "Feature",
      "properties": {
        "_source": "Ruta9-LaFuente-AvenidaNorte-Arboleda",
        "_segmentIndex": 0,
        "_position": 4
      },
      "geometry": {
        "type": "Point",
        "coordinates": [
          -73.35965881111517,
          5.540410898297211
        ]
      }
    },
    {
      "type": "Feature",
      "properties": {
        "_source": "Ruta9-LaFuente-AvenidaNorte-Arboleda",
        "_segmentIndex": 0,
        "_position": 5
      },
      "geometry": {
        "type": "Point",
        "coordinates": [
          -73.35948517287179,
          5.54082598947041
        ]
      }
    },
    {
      "type": "Feature",
      "properties": {
        "_source": "Ruta9-LaFuente-AvenidaNorte-Arboleda",
        "_segmentIndex": 0,
        "_position": 6
      },
      "geometry": {
        "type": "Point",
        "coordinates": [
          -73.35930446450725,
          5.541238040239402
        ]
      }
    },
    {
      "type": "Feature",
      "properties": {
        "_source": "Ruta9-LaFuente-AvenidaNorte-Arboleda",
        "_segmentIndex": 0,
        "_position": 7
      },
      "geometry": {
        "type": "Point",
        "coordinates": [
          -73.35911287469597,
          5.5416452624274655
        ]
      }
    },
    {
      "type": "Feature",
      "properties": {
        "_source": "Ruta9-LaFuente-AvenidaNorte-Arboleda",
        "_segmentIndex": 0,
        "_position": 8
      },
      "geometry": {
        "type": "Point",
        "coordinates": [
          -73.35892283102599,
          5.542053201630397
        ]
      }
    },
    {
      "type": "Feature",
      "properties": {
        "_source": "Ruta9-LaFuente-AvenidaNorte-Arboleda",
        "_segmentIndex": 0,
        "_position": 9
      },
      "geometry": {
        "type": "Point",
        "coordinates": [
          -73.358837,
          5.542489513717952
        ]
      }
    },
    {
      "type": "Feature",
      "properties": {
        "_source": "Ruta9-LaFuente-AvenidaNorte-Arboleda",
        "_segmentIndex": 0,
        "_position": 0
      },
      "geometry": {
        "type": "Point",
        "coordinates": [
          -73.358784,
          5.542906
        ]
      }
    },
    {
      "type": "Feature",
      "properties": {
        "_source": "Ruta9-LaFuente-AvenidaNorte-Arboleda",
        "_segmentIndex": 0,
        "_position": 1
      },
      "geometry": {
        "type": "Point",
        "coordinates": [
          -73.35851792703093,
          5.543269376342819
        ]
      }
    },
    {
      "type": "Feature",
      "properties": {
        "_source": "Ruta9-LaFuente-AvenidaNorte-Arboleda",
        "_segmentIndex": 0,
        "_position": 2
      },
      "geometry": {
        "type": "Point",
        "coordinates": [
          -73.35824978489117,
          5.543631267214158
        ]
      }
    },
    {
      "type": "Feature",
      "properties": {
        "_source": "Ruta9-LaFuente-AvenidaNorte-Arboleda",
        "_segmentIndex": 0,
        "_position": 3
      },
      "geometry": {
        "type": "Point",
        "coordinates": [
          -73.35797229738164,
          5.543985572903234
        ]
      }
    },
    {
      "type": "Feature",
      "properties": {
        "_source": "Ruta9-LaFuente-AvenidaNorte-Arboleda",
        "_segmentIndex": 0,
        "_position": 4
      },
      "geometry": {
        "type": "Point",
        "coordinates": [
          -73.3576276208152,
          5.54425586665459
        ]
      }
    },
    {
      "type": "Feature",
      "properties": {
        "_source": "Ruta9-LaFuente-AvenidaNorte-Arboleda",
        "_segmentIndex": 0,
        "_position": 5
      },
      "geometry": {
        "type": "Point",
        "coordinates": [
          -73.35729180616217,
          5.544488760099323
        ]
      }
    },
    {
      "type": "Feature",
      "properties": {
        "_source": "Ruta9-LaFuente-AvenidaNorte-Arboleda",
        "_segmentIndex": 0,
        "_position": 0
      },
      "geometry": {
        "type": "Point",
        "coordinates": [
          -73.35724,
          5.544852
        ]
      }
    },
    {
      "type": "Feature",
      "properties": {
        "_source": "Ruta9-LaFuente-AvenidaNorte-Arboleda",
        "_segmentIndex": 0,
        "_position": 1
      },
      "geometry": {
        "type": "Point",
        "coordinates": [
          -73.35701512731897,
          5.5452386651280845
        ]
      }
    },
    {
      "type": "Feature",
      "properties": {
        "_source": "Ruta9-LaFuente-AvenidaNorte-Arboleda",
        "_segmentIndex": 0,
        "_position": 2
      },
      "geometry": {
        "type": "Point",
        "coordinates": [
          -73.35675339401521,
          5.545605174830041
        ]
      }
    },
    {
      "type": "Feature",
      "properties": {
        "_source": "Ruta9-LaFuente-AvenidaNorte-Arboleda",
        "_segmentIndex": 0,
        "_position": 3
      },
      "geometry": {
        "type": "Point",
        "coordinates": [
          -73.35648583981903,
          5.545967497342088
        ]
      }
    },
    {
      "type": "Feature",
      "properties": {
        "_source": "Ruta9-LaFuente-AvenidaNorte-Arboleda",
        "_segmentIndex": 0,
        "_position": 4
      },
      "geometry": {
        "type": "Point",
        "coordinates": [
          -73.35621828529426,
          5.546329819733951
        ]
      }
    },
    {
      "type": "Feature",
      "properties": {
        "_source": "Ruta9-LaFuente-AvenidaNorte-Arboleda",
        "_segmentIndex": 0,
        "_position": 5
      },
      "geometry": {
        "type": "Point",
        "coordinates": [
          -73.35594699328021,
          5.546689367799719
        ]
      }
    },
    {
      "type": "Feature",
      "properties": {
        "_source": "Ruta9-LaFuente-AvenidaNorte-Arboleda",
        "_segmentIndex": 0,
        "_position": 6
      },
      "geometry": {
        "type": "Point",
        "coordinates": [
          -73.35567436941903,
          5.5470479273171405
        ]
      }
    },
    {
      "type": "Feature",
      "properties": {
        "_source": "Ruta9-LaFuente-AvenidaNorte-Arboleda",
        "_segmentIndex": 0,
        "_position": 7
      },
      "geometry": {
        "type": "Point",
        "coordinates": [
          -73.35541611125214,
          5.547416703196142
        ]
      }
    },
    {
      "type": "Feature",
      "properties": {
        "_source": "Ruta9-LaFuente-AvenidaNorte-Arboleda",
        "_segmentIndex": 0,
        "_position": 8
      },
      "geometry": {
        "type": "Point",
        "coordinates": [
          -73.355159274366,
          5.547786423182708
        ]
      }
    },
    {
      "type": "Feature",
      "properties": {
        "_source": "Ruta9-LaFuente-AvenidaNorte-Arboleda",
        "_segmentIndex": 0,
        "_position": 9
      },
      "geometry": {
        "type": "Point",
        "coordinates": [
          -73.35487944385885,
          5.548139440279402
        ]
      }
    },
    {
      "type": "Feature",
      "properties": {
        "_source": "Ruta9-LaFuente-AvenidaNorte-Arboleda",
        "_segmentIndex": 0,
        "_position": 10
      },
      "geometry": {
        "type": "Point",
        "coordinates": [
          -73.35460619073798,
          5.548497310614951
        ]
      }
    },
    {
      "type": "Feature",
      "properties": {
        "_source": "Ruta9-LaFuente-AvenidaNorte-Arboleda",
        "_segmentIndex": 0,
        "_position": 11
      },
      "geometry": {
        "type": "Point",
        "coordinates": [
          -73.35434817158257,
          5.548866421451657
        ]
      }
    },
    {
      "type": "Feature",
      "properties": {
        "_source": "Ruta9-LaFuente-AvenidaNorte-Arboleda",
        "_segmentIndex": 0,
        "_position": 12
      },
      "geometry": {
        "type": "Point",
        "coordinates": [
          -73.35407783226204,
          5.549226067369212
        ]
      }
    },
    {
      "type": "Feature",
      "properties": {
        "_source": "Ruta9-LaFuente-AvenidaNorte-Arboleda",
        "_segmentIndex": 0,
        "_position": 13
      },
      "geometry": {
        "type": "Point",
        "coordinates": [
          -73.35378443309469,
          5.549567997516785
        ]
      }
    },
    {
      "type": "Feature",
      "properties": {
        "_source": "Ruta9-LaFuente-AvenidaNorte-Arboleda",
        "_segmentIndex": 0,
        "_position": 14
      },
      "geometry": {
        "type": "Point",
        "coordinates": [
          -73.35349103358708,
          5.549909927519743
        ]
      }
    },
    {
      "type": "Feature",
      "properties": {
        "_source": "Ruta9-LaFuente-AvenidaNorte-Arboleda",
        "_segmentIndex": 0,
        "_position": 15
      },
      "geometry": {
        "type": "Point",
        "coordinates": [
          -73.3531976337392,
          5.550251857378078
        ]
      }
    },
    {
      "type": "Feature",
      "properties": {
        "_source": "Ruta9-LaFuente-AvenidaNorte-Arboleda",
        "_segmentIndex": 0,
        "_position": 16
      },
      "geometry": {
        "type": "Point",
        "coordinates": [
          -73.35290830379554,
          5.550597108091349
        ]
      }
    },
    {
      "type": "Feature",
      "properties": {
        "_source": "Ruta9-LaFuente-AvenidaNorte-Arboleda",
        "_segmentIndex": 0,
        "_position": 17
      },
      "geometry": {
        "type": "Point",
        "coordinates": [
          -73.35262899152147,
          5.550950532574397
        ]
      }
    },
    {
      "type": "Feature",
      "properties": {
        "_source": "Ruta9-LaFuente-AvenidaNorte-Arboleda",
        "_segmentIndex": 0,
        "_position": 18
      },
      "geometry": {
        "type": "Point",
        "coordinates": [
          -73.35234967891249,
          5.551303956926352
        ]
      }
    },
    {
      "type": "Feature",
      "properties": {
        "_source": "Ruta9-LaFuente-AvenidaNorte-Arboleda",
        "_segmentIndex": 0,
        "_position": 19
      },
      "geometry": {
        "type": "Point",
        "coordinates": [
          -73.35215886992472,
          5.551710923311364
        ]
      }
    },
    {
      "type": "Feature",
      "properties": {
        "_source": "Ruta9-LaFuente-AvenidaNorte-Arboleda",
        "_segmentIndex": 0,
        "_position": 20
      },
      "geometry": {
        "type": "Point",
        "coordinates": [
          -73.35203241711537,
          5.552142430156778
        ]
      }
    },
    {
      "type": "Feature",
      "properties": {
        "_source": "Ruta9-LaFuente-AvenidaNorte-Arboleda",
        "_segmentIndex": 0,
        "_position": 21
      },
      "geometry": {
        "type": "Point",
        "coordinates": [
          -73.35190826318284,
          5.552574777680964
        ]
      }
    },
    {
      "type": "Feature",
      "properties": {
        "_source": "Ruta9-LaFuente-AvenidaNorte-Arboleda",
        "_segmentIndex": 0,
        "_position": 22
      },
      "geometry": {
        "type": "Point",
        "coordinates": [
          -73.35176670894603,
          5.553001757178148
        ]
      }
    },
    {
      "type": "Feature",
      "properties": {
        "_source": "Ruta9-LaFuente-AvenidaNorte-Arboleda",
        "_segmentIndex": 0,
        "_position": 23
      },
      "geometry": {
        "type": "Point",
        "coordinates": [
          -73.35162341848314,
          5.553428201072752
        ]
      }
    },
    {
      "type": "Feature",
      "properties": {
        "_source": "Ruta9-LaFuente-AvenidaNorte-Arboleda",
        "_segmentIndex": 0,
        "_position": 24
      },
      "geometry": {
        "type": "Point",
        "coordinates": [
          -73.35148012781288,
          5.55385464493284
        ]
      }
    },
    {
      "type": "Feature",
      "properties": {
        "_source": "Ruta9-LaFuente-AvenidaNorte-Arboleda",
        "_segmentIndex": 0,
        "_position": 25
      },
      "geometry": {
        "type": "Point",
        "coordinates": [
          -73.35133683693519,
          5.554281088758407
        ]
      }
    },
    {
      "type": "Feature",
      "properties": {
        "_source": "Ruta9-LaFuente-AvenidaNorte-Arboleda",
        "_segmentIndex": 0,
        "_position": 26
      },
      "geometry": {
        "type": "Point",
        "coordinates": [
          -73.35117459593717,
          5.554700329015676
        ]
      }
    },
    {
      "type": "Feature",
      "properties": {
        "_source": "Ruta9-LaFuente-AvenidaNorte-Arboleda",
        "_segmentIndex": 0,
        "_position": 27
      },
      "geometry": {
        "type": "Point",
        "coordinates": [
          -73.35099578849491,
          5.555113271822298
        ]
      }
    },
    {
      "type": "Feature",
      "properties": {
        "_source": "Ruta9-LaFuente-AvenidaNorte-Arboleda",
        "_segmentIndex": 0,
        "_position": 28
      },
      "geometry": {
        "type": "Point",
        "coordinates": [
          -73.35081698080198,
          5.5555262145751545
        ]
      }
    },
    {
      "type": "Feature",
      "properties": {
        "_source": "Ruta9-LaFuente-AvenidaNorte-Arboleda",
        "_segmentIndex": 0,
        "_position": 29
      },
      "geometry": {
        "type": "Point",
        "coordinates": [
          -73.35063294341336,
          5.555936865414046
        ]
      }
    },
    {
      "type": "Feature",
      "properties": {
        "_source": "Ruta9-LaFuente-AvenidaNorte-Arboleda",
        "_segmentIndex": 0,
        "_position": 30
      },
      "geometry": {
        "type": "Point",
        "coordinates": [
          -73.35044763389126,
          5.5563469587822585
        ]
      }
    },
    {
      "type": "Feature",
      "properties": {
        "_source": "Ruta9-LaFuente-AvenidaNorte-Arboleda",
        "_segmentIndex": 0,
        "_position": 31
      },
      "geometry": {
        "type": "Point",
        "coordinates": [
          -73.35026232411113,
          5.556757052092711
        ]
      }
    },
    {
      "type": "Feature",
      "properties": {
        "_source": "Ruta9-LaFuente-AvenidaNorte-Arboleda",
        "_segmentIndex": 0,
        "_position": 32
      },
      "geometry": {
        "type": "Point",
        "coordinates": [
          -73.3500770140729,
          5.557167145345401
        ]
      }
    },
    {
      "type": "Feature",
      "properties": {
        "_source": "Ruta9-LaFuente-AvenidaNorte-Arboleda",
        "_segmentIndex": 0,
        "_position": 33
      },
      "geometry": {
        "type": "Point",
        "coordinates": [
          -73.34989170377658,
          5.557577238540323
        ]
      }
    },
    {
      "type": "Feature",
      "properties": {
        "_source": "Ruta9-LaFuente-AvenidaNorte-Arboleda",
        "_segmentIndex": 0,
        "_position": 34
      },
      "geometry": {
        "type": "Point",
        "coordinates": [
          -73.34970639322214,
          5.557987331677477
        ]
      }
    },
    {
      "type": "Feature",
      "properties": {
        "_source": "Ruta9-LaFuente-AvenidaNorte-Arboleda",
        "_segmentIndex": 0,
        "_position": 35
      },
      "geometry": {
        "type": "Point",
        "coordinates": [
          -73.34951668254331,
          5.558395417475546
        ]
      }
    },
    {
      "type": "Feature",
      "properties": {
        "_source": "Ruta9-LaFuente-AvenidaNorte-Arboleda",
        "_segmentIndex": 0,
        "_position": 36
      },
      "geometry": {
        "type": "Point",
        "coordinates": [
          -73.3493255022107,
          5.558802832856065
        ]
      }
    },
    {
      "type": "Feature",
      "properties": {
        "_source": "Ruta9-LaFuente-AvenidaNorte-Arboleda",
        "_segmentIndex": 0,
        "_position": 37
      },
      "geometry": {
        "type": "Point",
        "coordinates": [
          -73.34913432161349,
          5.559210248175083
        ]
      }
    },
    {
      "type": "Feature",
      "properties": {
        "_source": "Ruta9-LaFuente-AvenidaNorte-Arboleda",
        "_segmentIndex": 0,
        "_position": 38
      },
      "geometry": {
        "type": "Point",
        "coordinates": [
          -73.34894314075166,
          5.559617663432594
        ]
      }
    },
    {
      "type": "Feature",
      "properties": {
        "_source": "Ruta9-LaFuente-AvenidaNorte-Arboleda",
        "_segmentIndex": 0,
        "_position": 39
      },
      "geometry": {
        "type": "Point",
        "coordinates": [
          -73.34875195962515,
          5.56002507862859
        ]
      }
    },
    {
      "type": "Feature",
      "properties": {
        "_source": "Ruta9-LaFuente-AvenidaNorte-Arboleda",
        "_segmentIndex": 0,
        "_position": 40
      },
      "geometry": {
        "type": "Point",
        "coordinates": [
          -73.34856128195592,
          5.5604327272484815
        ]
      }
    },
    {
      "type": "Feature",
      "properties": {
        "_source": "Ruta9-LaFuente-AvenidaNorte-Arboleda",
        "_segmentIndex": 0,
        "_position": 41
      },
      "geometry": {
        "type": "Point",
        "coordinates": [
          -73.34837099846071,
          5.560840558637345
        ]
      }
    },
    {
      "type": "Feature",
      "properties": {
        "_source": "Ruta9-LaFuente-AvenidaNorte-Arboleda",
        "_segmentIndex": 0,
        "_position": 42
      },
      "geometry": {
        "type": "Point",
        "coordinates": [
          -73.34818071470178,
          5.561248389965259
        ]
      }
    },
    {
      "type": "Feature",
      "properties": {
        "_source": "Ruta9-LaFuente-AvenidaNorte-Arboleda",
        "_segmentIndex": 0,
        "_position": 43
      },
      "geometry": {
        "type": "Point",
        "coordinates": [
          -73.34799043067909,
          5.5616562212322185
        ]
      }
    },
    {
      "type": "Feature",
      "properties": {
        "_source": "Ruta9-LaFuente-AvenidaNorte-Arboleda",
        "_segmentIndex": 0,
        "_position": 44
      },
      "geometry": {
        "type": "Point",
        "coordinates": [
          -73.34780014639261,
          5.562064052438221
        ]
      }
    },
    {
      "type": "Feature",
      "properties": {
        "_source": "Ruta9-LaFuente-AvenidaNorte-Arboleda",
        "_segmentIndex": 0,
        "_position": 45
      },
      "geometry": {
        "type": "Point",
        "coordinates": [
          -73.34761115566187,
          5.562472469646585
        ]
      }
    },
    {
      "type": "Feature",
      "properties": {
        "_source": "Ruta9-LaFuente-AvenidaNorte-Arboleda",
        "_segmentIndex": 0,
        "_position": 46
      },
      "geometry": {
        "type": "Point",
        "coordinates": [
          -73.34742716123498,
          5.562883150097066
        ]
      }
    },
    {
      "type": "Feature",
      "properties": {
        "_source": "Ruta9-LaFuente-AvenidaNorte-Arboleda",
        "_segmentIndex": 0,
        "_position": 47
      },
      "geometry": {
        "type": "Point",
        "coordinates": [
          -73.34724125015607,
          5.563292970144031
        ]
      }
    },
    {
      "type": "Feature",
      "properties": {
        "_source": "Ruta9-LaFuente-AvenidaNorte-Arboleda",
        "_segmentIndex": 0,
        "_position": 48
      },
      "geometry": {
        "type": "Point",
        "coordinates": [
          -73.34705372326361,
          5.563702064845552
        ]
      }
    },
    {
      "type": "Feature",
      "properties": {
        "_source": "Ruta9-LaFuente-AvenidaNorte-Arboleda",
        "_segmentIndex": 0,
        "_position": 49
      },
      "geometry": {
        "type": "Point",
        "coordinates": [
          -73.34686619611028,
          5.564111159487849
        ]
      }
    },
    {
      "type": "Feature",
      "properties": {
        "_source": "Ruta9-LaFuente-AvenidaNorte-Arboleda",
        "_segmentIndex": 0,
        "_position": 50
      },
      "geometry": {
        "type": "Point",
        "coordinates": [
          -73.3466770186064,
          5.564519488891266
        ]
      }
    },
    {
      "type": "Feature",
      "properties": {
        "_source": "Ruta9-LaFuente-AvenidaNorte-Arboleda",
        "_segmentIndex": 0,
        "_position": 51
      },
      "geometry": {
        "type": "Point",
        "coordinates": [
          -73.34648295324067,
          5.564925551756382
        ]
      }
    },
    {
      "type": "Feature",
      "properties": {
        "_source": "Ruta9-LaFuente-AvenidaNorte-Arboleda",
        "_segmentIndex": 0,
        "_position": 52
      },
      "geometry": {
        "type": "Point",
        "coordinates": [
          -73.34628888760689,
          5.5653316145580565
        ]
      }
    },
    {
      "type": "Feature",
      "properties": {
        "_source": "Ruta9-LaFuente-AvenidaNorte-Arboleda",
        "_segmentIndex": 0,
        "_position": 53
      },
      "geometry": {
        "type": "Point",
        "coordinates": [
          -73.34609482170511,
          5.565737677296284
        ]
      }
    },
    {
      "type": "Feature",
      "properties": {
        "_source": "Ruta9-LaFuente-AvenidaNorte-Arboleda",
        "_segmentIndex": 0,
        "_position": 54
      },
      "geometry": {
        "type": "Point",
        "coordinates": [
          -73.3458968632505,
          5.566141868587573
        ]
      }
    },
    {
      "type": "Feature",
      "properties": {
        "_source": "Ruta9-LaFuente-AvenidaNorte-Arboleda",
        "_segmentIndex": 0,
        "_position": 55
      },
      "geometry": {
        "type": "Point",
        "coordinates": [
          -73.34569789964094,
          5.566545576672098
        ]
      }
    },
    {
      "type": "Feature",
      "properties": {
        "_source": "Ruta9-LaFuente-AvenidaNorte-Arboleda",
        "_segmentIndex": 0,
        "_position": 56
      },
      "geometry": {
        "type": "Point",
        "coordinates": [
          -73.34546298594871,
          5.566928806420384
        ]
      }
    },
    {
      "type": "Feature",
      "properties": {
        "_source": "Ruta9-LaFuente-AvenidaNorte-Arboleda",
        "_segmentIndex": 0,
        "_position": 57
      },
      "geometry": {
        "type": "Point",
        "coordinates": [
          -73.3452140252286,
          5.567304034568341
        ]
      }
    },
    {
      "type": "Feature",
      "properties": {
        "_source": "Ruta9-LaFuente-AvenidaNorte-Arboleda",
        "_segmentIndex": 0,
        "_position": 58
      },
      "geometry": {
        "type": "Point",
        "coordinates": [
          -73.34496506419066,
          5.567679262611847
        ]
      }
    },
    {
      "type": "Feature",
      "properties": {
        "_source": "Ruta9-LaFuente-AvenidaNorte-Arboleda",
        "_segmentIndex": 0,
        "_position": 59
      },
      "geometry": {
        "type": "Point",
        "coordinates": [
          -73.34471580426995,
          5.568054293851152
        ]
      }
    },
    {
      "type": "Feature",
      "properties": {
        "_source": "Ruta9-LaFuente-AvenidaNorte-Arboleda",
        "_segmentIndex": 0,
        "_position": 60
      },
      "geometry": {
        "type": "Point",
        "coordinates": [
          -73.34446601574942,
          5.568428976944462
        ]
      }
    },
    {
      "type": "Feature",
      "properties": {
        "_source": "Ruta9-LaFuente-AvenidaNorte-Arboleda",
        "_segmentIndex": 0,
        "_position": 61
      },
      "geometry": {
        "type": "Point",
        "coordinates": [
          -73.34421622691039,
          5.568803659932601
        ]
      }
    },
    {
      "type": "Feature",
      "properties": {
        "_source": "Ruta9-LaFuente-AvenidaNorte-Arboleda",
        "_segmentIndex": 0,
        "_position": 62
      },
      "geometry": {
        "type": "Point",
        "coordinates": [
          -73.34396322144235,
          5.569176183690611
        ]
      }
    },
    {
      "type": "Feature",
      "properties": {
        "_source": "Ruta9-LaFuente-AvenidaNorte-Arboleda",
        "_segmentIndex": 0,
        "_position": 63
      },
      "geometry": {
        "type": "Point",
        "coordinates": [
          -73.34370775672333,
          5.569547056648346
        ]
      }
    },
    {
      "type": "Feature",
      "properties": {
        "_source": "Ruta9-LaFuente-AvenidaNorte-Arboleda",
        "_segmentIndex": 0,
        "_position": 64
      },
      "geometry": {
        "type": "Point",
        "coordinates": [
          -73.3434522916818,
          5.569917929496052
        ]
      }
    },
    {
      "type": "Feature",
      "properties": {
        "_source": "Ruta9-LaFuente-AvenidaNorte-Arboleda",
        "_segmentIndex": 0,
        "_position": 65
      },
      "geometry": {
        "type": "Point",
        "coordinates": [
          -73.34319682631774,
          5.570288802233727
        ]
      }
    },
    {
      "type": "Feature",
      "properties": {
        "_source": "Ruta9-LaFuente-AvenidaNorte-Arboleda",
        "_segmentIndex": 0,
        "_position": 66
      },
      "geometry": {
        "type": "Point",
        "coordinates": [
          -73.34294136063116,
          5.57065967486136
        ]
      }
    },
    {
      "type": "Feature",
      "properties": {
        "_source": "Ruta9-LaFuente-AvenidaNorte-Arboleda",
        "_segmentIndex": 0,
        "_position": 67
      },
      "geometry": {
        "type": "Point",
        "coordinates": [
          -73.34268693334822,
          5.571031246223886
        ]
      }
    },
    {
      "type": "Feature",
      "properties": {
        "_source": "Ruta9-LaFuente-AvenidaNorte-Arboleda",
        "_segmentIndex": 0,
        "_position": 0
      },
      "geometry": {
        "type": "Point",
        "coordinates": [
          -73.34259,
          5.571176
        ]
      }
    },
    {
      "type": "Feature",
      "properties": {
        "_source": "Ruta9-LaFuente-AvenidaNorte-Arboleda",
        "_segmentIndex": 0,
        "_position": 1
      },
      "geometry": {
        "type": "Point",
        "coordinates": [
          -73.3421859779709,
          5.570986733391431
        ]
      }
    },
    {
      "type": "Feature",
      "properties": {
        "_source": "Ruta9-LaFuente-AvenidaNorte-Arboleda",
        "_segmentIndex": 0,
        "_position": 2
      },
      "geometry": {
        "type": "Point",
        "coordinates": [
          -73.34182551143414,
          5.570715987567018
        ]
      }
    },
    {
      "type": "Feature",
      "properties": {
        "_source": "Ruta9-LaFuente-AvenidaNorte-Arboleda",
        "_segmentIndex": 0,
        "_position": 3
      },
      "geometry": {
        "type": "Point",
        "coordinates": [
          -73.34145874746689,
          5.570453411846794
        ]
      }
    },
    {
      "type": "Feature",
      "properties": {
        "_source": "Ruta9-LaFuente-AvenidaNorte-Arboleda",
        "_segmentIndex": 0,
        "_position": 4
      },
      "geometry": {
        "type": "Point",
        "coordinates": [
          -73.34111163609,
          5.570166228827095
        ]
      }
    },
    {
      "type": "Feature",
      "properties": {
        "_source": "Ruta9-LaFuente-AvenidaNorte-Arboleda",
        "_segmentIndex": 0,
        "_position": 5
      },
      "geometry": {
        "type": "Point",
        "coordinates": [
          -73.34083092506985,
          5.569820554924781
        ]
      }
    },
    {
      "type": "Feature",
      "properties": {
        "_source": "Ruta9-LaFuente-AvenidaNorte-Arboleda",
        "_segmentIndex": 0,
        "_position": 6
      },
      "geometry": {
        "type": "Point",
        "coordinates": [
          -73.34063435146079,
          5.569420344340949
        ]
      }
    },
    {
      "type": "Feature",
      "properties": {
        "_source": "Ruta9-LaFuente-AvenidaNorte-Arboleda",
        "_segmentIndex": 0,
        "_position": 7
      },
      "geometry": {
        "type": "Point",
        "coordinates": [
          -73.34028504867554,
          5.569135158394213
        ]
      }
    },
    {
      "type": "Feature",
      "properties": {
        "_source": "Ruta9-LaFuente-AvenidaNorte-Arboleda",
        "_segmentIndex": 0,
        "_position": 8
      },
      "geometry": {
        "type": "Point",
        "coordinates": [
          -73.33992888098624,
          5.568858661057543
        ]
      }
    },
    {
      "type": "Feature",
      "properties": {
        "_source": "Ruta9-LaFuente-AvenidaNorte-Arboleda",
        "_segmentIndex": 0,
        "_position": 9
      },
      "geometry": {
        "type": "Point",
        "coordinates": [
          -73.33956806385653,
          5.568588048369354
        ]
      }
    },
    {
      "type": "Feature",
      "properties": {
        "_source": "Ruta9-LaFuente-AvenidaNorte-Arboleda",
        "_segmentIndex": 0,
        "_position": 10
      },
      "geometry": {
        "type": "Point",
        "coordinates": [
          -73.33920724705915,
          5.568317435461716
        ]
      }
    },
    {
      "type": "Feature",
      "properties": {
        "_source": "Ruta9-LaFuente-AvenidaNorte-Arboleda",
        "_segmentIndex": 0,
        "_position": 0
      },
      "geometry": {
        "type": "Point",
        "coordinates": [
          -73.338977,
          5.568214
        ]
      }
    },
    {
      "type": "Feature",
      "properties": {
        "_source": "Ruta9-LaFuente-AvenidaNorte-Arboleda",
        "_segmentIndex": 0,
        "_position": 1
      },
      "geometry": {
        "type": "Point",
        "coordinates": [
          -73.3385610607981,
          5.568375799931731
        ]
      }
    },
    {
      "type": "Feature",
      "properties": {
        "_source": "Ruta9-LaFuente-AvenidaNorte-Arboleda",
        "_segmentIndex": 0,
        "_position": 2
      },
      "geometry": {
        "type": "Point",
        "coordinates": [
          -73.33821137402175,
          5.5686488815340365
        ]
      }
    },
    {
      "type": "Feature",
      "properties": {
        "_source": "Ruta9-LaFuente-AvenidaNorte-Arboleda",
        "_segmentIndex": 0,
        "_position": 3
      },
      "geometry": {
        "type": "Point",
        "coordinates": [
          -73.33802680946782,
          5.569058969206184
        ]
      }
    },
    {
      "type": "Feature",
      "properties": {
        "_source": "Ruta9-LaFuente-AvenidaNorte-Arboleda",
        "_segmentIndex": 0,
        "_position": 4
      },
      "geometry": {
        "type": "Point",
        "coordinates": [
          -73.33785273010824,
          5.569470742817877
        ]
      }
    },
    {
      "type": "Feature",
      "properties": {
        "_source": "Ruta9-LaFuente-AvenidaNorte-Arboleda",
        "_segmentIndex": 0,
        "_position": 5
      },
      "geometry": {
        "type": "Point",
        "coordinates": [
          -73.33745844959232,
          5.569663628693039
        ]
      }
    },
    {
      "type": "Feature",
      "properties": {
        "_source": "Ruta9-LaFuente-AvenidaNorte-Arboleda",
        "_segmentIndex": 0,
        "_position": 6
      },
      "geometry": {
        "type": "Point",
        "coordinates": [
          -73.33701310710723,
          5.56972344971892
        ]
      }
    },
    {
      "type": "Feature",
      "properties": {
        "_source": "Ruta9-LaFuente-AvenidaNorte-Arboleda",
        "_segmentIndex": 0,
        "_position": 0
      },
      "geometry": {
        "type": "Point",
        "coordinates": [
          -73.336972,
          5.569731
        ]
      }
    },
    {
      "type": "Feature",
      "properties": {
        "_source": "Ruta9-LaFuente-AvenidaNorte-Arboleda",
        "_segmentIndex": 0,
        "_position": 1
      },
      "geometry": {
        "type": "Point",
        "coordinates": [
          -73.33658621817031,
          5.5699650196562605
        ]
      }
    },
    {
      "type": "Feature",
      "properties": {
        "_source": "Ruta9-LaFuente-AvenidaNorte-Arboleda",
        "_segmentIndex": 0,
        "_position": 2
      },
      "geometry": {
        "type": "Point",
        "coordinates": [
          -73.33620194610977,
          5.570201494717947
        ]
      }
    },
    {
      "type": "Feature",
      "properties": {
        "_source": "Ruta9-LaFuente-AvenidaNorte-Arboleda",
        "_segmentIndex": 0,
        "_position": 3
      },
      "geometry": {
        "type": "Point",
        "coordinates": [
          -73.33581101570144,
          5.570426877776798
        ]
      }
    },
    {
      "type": "Feature",
      "properties": {
        "_source": "Ruta9-LaFuente-AvenidaNorte-Arboleda",
        "_segmentIndex": 0,
        "_position": 4
      },
      "geometry": {
        "type": "Point",
        "coordinates": [
          -73.33541371393609,
          5.570640758801692
        ]
      }
    },
    {
      "type": "Feature",
      "properties": {
        "_source": "Ruta9-LaFuente-AvenidaNorte-Arboleda",
        "_segmentIndex": 0,
        "_position": 5
      },
      "geometry": {
        "type": "Point",
        "coordinates": [
          -73.33498694088951,
          5.5707861777592464
        ]
      }
    },
    {
      "type": "Feature",
      "properties": {
        "_source": "Ruta9-LaFuente-AvenidaNorte-Arboleda",
        "_segmentIndex": 0,
        "_position": 6
      },
      "geometry": {
        "type": "Point",
        "coordinates": [
          -73.33458334311534,
          5.570977209580626
        ]
      }
    },
    {
      "type": "Feature",
      "properties": {
        "_source": "Ruta9-LaFuente-AvenidaNorte-Arboleda",
        "_segmentIndex": 0,
        "_position": 7
      },
      "geometry": {
        "type": "Point",
        "coordinates": [
          -73.33426511536385,
          5.571296245039693
        ]
      }
    },
    {
      "type": "Feature",
      "properties": {
        "_source": "Ruta9-LaFuente-AvenidaNorte-Arboleda",
        "_segmentIndex": 0,
        "_position": 8
      },
      "geometry": {
        "type": "Point",
        "coordinates": [
          -73.33395971064226,
          5.571627312114003
        ]
      }
    },
    {
      "type": "Feature",
      "properties": {
        "_source": "Ruta9-LaFuente-AvenidaNorte-Arboleda",
        "_segmentIndex": 0,
        "_position": 9
      },
      "geometry": {
        "type": "Point",
        "coordinates": [
          -73.33367122504015,
          5.571973368314371
        ]
      }
    },
    {
      "type": "Feature",
      "properties": {
        "_source": "Ruta9-LaFuente-AvenidaNorte-Arboleda",
        "_segmentIndex": 0,
        "_position": 10
      },
      "geometry": {
        "type": "Point",
        "coordinates": [
          -73.33338333584244,
          5.572319915922857
        ]
      }
    },
    {
      "type": "Feature",
      "properties": {
        "_source": "Ruta9-LaFuente-AvenidaNorte-Arboleda",
        "_segmentIndex": 0,
        "_position": 11
      },
      "geometry": {
        "type": "Point",
        "coordinates": [
          -73.33309570492995,
          5.572666676425404
        ]
      }
    },
    {
      "type": "Feature",
      "properties": {
        "_source": "Ruta9-LaFuente-AvenidaNorte-Arboleda",
        "_segmentIndex": 0,
        "_position": 12
      },
      "geometry": {
        "type": "Point",
        "coordinates": [
          -73.33278863135885,
          5.572996000228534
        ]
      }
    },
    {
      "type": "Feature",
      "properties": {
        "_source": "Ruta9-LaFuente-AvenidaNorte-Arboleda",
        "_segmentIndex": 0,
        "_position": 13
      },
      "geometry": {
        "type": "Point",
        "coordinates": [
          -73.33244575669511,
          5.573286966660852
        ]
      }
    }
  ]
}