{
  "type": "FeatureCollection",
  "features": [
    {
      "type": "Feature",
      "properties": {
        "_source": "Ruta5-RetenSur-Paraiso-Muiscas-Arboleda",
        "_segmentIndex": 0,
        "_position": 0
      },
      "geometry": {
        "type": "Point",
        "coordinates": [
          -73.373411,
          5.509287
        ]
      }
    },
    {
      "type": "Feature",
      "properties": {
        "_source": "Ruta5-RetenSur-Paraiso-Muiscas-Arboleda",
        "_segmentIndex": 0,
        "_position": 1
      },
      "geometry": {
        "type": "Point",
        "coordinates": [
          -73.37321499055508,
          5.509692077173497
        ]
      }
    },
    {
      "type": "Feature",
      "properties": {
        "_source": "Ruta5-RetenSur-Paraiso-Muiscas-Arboleda",
        "_segmentIndex": 0,
        "_position": 2
      },
      "geometry": {
        "type": "Point",
        "coordinates": [
          -73.37303299363622,
          5.51010363126926
        ]
      }
    },
    {
      "type": "Feature",
      "properties": {
        "_source": "Ruta5-RetenSur-Paraiso-Muiscas-Arboleda",
        "_segmentIndex": 0,
        "_position": 3
      },
      "geometry": {
        "type": "Point",
        "coordinates": [
          -73.37285030725188,
          5.5105148821406695
        ]
      }
    },
    {
      "type": "Feature",
      "properties": {
        "_source": "Ruta5-RetenSur-Paraiso-Muiscas-Arboleda",
        "_segmentIndex": 0,
        "_position": 4
      },
      "geometry": {
        "type": "Point",
        "coordinates": [
          -73.37266710376373,
          5.510925905605545
        ]
      }
    },
    {
      "type": "Feature",
      "properties": {
        "_source": "Ruta5-RetenSur-Paraiso-Muiscas-Arboleda",
        "_segmentIndex": 0,
        "_position": 5
      },
      "geometry": {
        "type": "Point",
        "coordinates": [
          -73.37248360253463,
          5.511336794317862
        ]
      }
    },
    {
      "type": "Feature",
      "properties": {
        "_source": "Ruta5-RetenSur-Paraiso-Muiscas-Arboleda",
        "_segmentIndex": 0,
        "_position": 6
      },
      "geometry": {
        "type": "Point",
        "coordinates": [
          -73.37229272233807,
          5.511744342033548
        ]
      }
    },
    {
      "type": "Feature",
      "properties": {
        "_source": "Ruta5-RetenSur-Paraiso-Muiscas-Arboleda",
        "_segmentIndex": 0,
        "_position": 7
      },
      "geometry": {
        "type": "Point",
        "coordinates": [
          -73.3721018418795,
          5.512151889688436
        ]
      }
    },
    {
      "type": "Feature",
      "properties": {
        "_source": "Ruta5-RetenSur-Paraiso-Muiscas-Arboleda",
        "_segmentIndex": 0,
        "_position": 8
      },
      "geometry": {
        "type": "Point",
        "coordinates": [
          -73.37191096115886,
          5.5125594372825235
        ]
      }
    },
    {
      "type": "Feature",
      "properties": {
        "_source": "Ruta5-RetenSur-Paraiso-Muiscas-Arboleda",
        "_segmentIndex": 0,
        "_position": 9
      },
      "geometry": {
        "type": "Point",
        "coordinates": [
          -73.37171274382001,
          5.512961766302166
        ]
      }
    },
    {
      "type": "Feature",
      "properties": {
        "_source": "Ruta5-RetenSur-Paraiso-Muiscas-Arboleda",
        "_segmentIndex": 0,
        "_position": 10
      },
      "geometry": {
        "type": "Point",
        "coordinates": [
          -73.37145757556186,
          5.513332208762742
        ]
      }
    },
    {
      "type": "Feature",
      "properties": {
        "_source": "Ruta5-RetenSur-Paraiso-Muiscas-Arboleda",
        "_segmentIndex": 0,
        "_position": 0
      },
      "geometry": {
        "type": "Point",
        "coordinates": [
          -73.371493,
          5.513545
        ]
      }
    },
    {
      "type": "Feature",
      "properties": {
        "_source": "Ruta5-RetenSur-Paraiso-Muiscas-Arboleda",
        "_segmentIndex": 0,
        "_position": 1
      },
      "geometry": {
        "type": "Point",
        "coordinates": [
          -73.37129033282378,
          5.513946870003614
        ]
      }
    },
    {
      "type": "Feature",
      "properties": {
        "_source": "Ruta5-RetenSur-Paraiso-Muiscas-Arboleda",
        "_segmentIndex": 0,
        "_position": 2
      },
      "geometry": {
        "type": "Point",
        "coordinates": [
          -73.37108067825264,
          5.51434514374726
        ]
      }
    },
    {
      "type": "Feature",
      "properties": {
        "_source": "Ruta5-RetenSur-Paraiso-Muiscas-Arboleda",
        "_segmentIndex": 0,
        "_position": 3
      },
      "geometry": {
        "type": "Point",
        "coordinates": [
          -73.37088017736669,
          5.51474807464005
        ]
      }
    },
    {
      "type": "Feature",
      "properties": {
        "_source": "Ruta5-RetenSur-Paraiso-Muiscas-Arboleda",
        "_segmentIndex": 0,
        "_position": 4
      },
      "geometry": {
        "type": "Point",
        "coordinates": [
          -73.37074667612312,
          5.515176844488732
        ]
      }
    },
    {
      "type": "Feature",
      "properties": {
        "_source": "Ruta5-RetenSur-Paraiso-Muiscas-Arboleda",
        "_segmentIndex": 0,
        "_position": 5
      },
      "geometry": {
        "type": "Point",
        "coordinates": [
          -73.37064795620458,
          5.515615409554364
        ]
      }
    },
    {
      "type": "Feature",
      "properties": {
        "_source": "Ruta5-RetenSur-Paraiso-Muiscas-Arboleda",
        "_segmentIndex": 0,
        "_position": 6
      },
      "geometry": {
        "type": "Point",
        "coordinates": [
          -73.370556800145,
          5.516055820299667
        ]
      }
    },
    {
      "type": "Feature",
      "properties": {
        "_source": "Ruta5-RetenSur-Paraiso-Muiscas-Arboleda",
        "_segmentIndex": 0,
        "_position": 7
      },
      "geometry": {
        "type": "Point",
        "coordinates": [
          -73.37046151738244,
          5.516495362106208
        ]
      }
    },
    {
      "type": "Feature",
      "properties": {
        "_source": "Ruta5-RetenSur-Paraiso-Muiscas-Arboleda",
        "_segmentIndex": 0,
        "_position": 8
      },
      "geometry": {
        "type": "Point",
        "coordinates": [
          -73.37036567985223,
          5.516934787110749
        ]
      }
    },
    {
      "type": "Feature",
      "properties": {
        "_source": "Ruta5-RetenSur-Paraiso-Muiscas-Arboleda",
        "_segmentIndex": 0,
        "_position": 9
      },
      "geometry": {
        "type": "Point",
        "coordinates": [
          -73.37025954663312,
          5.517371850615327
        ]
      }
    },
    {
      "type": "Feature",
      "properties": {
        "_source": "Ruta5-RetenSur-Paraiso-Muiscas-Arboleda",
        "_segmentIndex": 0,
        "_position": 10
      },
      "geometry": {
        "type": "Point",
        "coordinates": [
          -73.37010114147242,
          5.517789476878613
        ]
      }
    },
    {
      "type": "Feature",
      "properties": {
        "_source": "Ruta5-RetenSur-Paraiso-Muiscas-Arboleda",
        "_segmentIndex": 0,
        "_position": 11
      },
      "geometry": {
        "type": "Point",
        "coordinates": [
          -73.36999068074851,
          5.518219452147288
        ]
      }
    },
    {
      "type": "Feature",
      "properties": {
        "_source": "Ruta5-RetenSur-Paraiso-Muiscas-Arboleda",
        "_segmentIndex": 0,
        "_position": 12
      },
      "geometry": {
        "type": "Point",
        "coordinates": [
          -73.36993282407639,
          5.518665409366204
        ]
      }
    },
    {
      "type": "Feature",
      "properties": {
        "_source": "Ruta5-RetenSur-Paraiso-Muiscas-Arboleda",
        "_segmentIndex": 0,
        "_position": 13
      },
      "geometry": {
        "type": "Point",
        "coordinates": [
          -73.36987827666061,
          5.519111765530892
        ]
      }
    },
    {
      "type": "Feature",
      "properties": {
        "_source": "Ruta5-RetenSur-Paraiso-Muiscas-Arboleda",
        "_segmentIndex": 0,
        "_position": 14
      },
      "geometry": {
        "type": "Point",
        "coordinates": [
          -73.36982653171026,
          5.519558455296592
        ]
      }
    },
    {
      "type": "Feature",
      "properties": {
        "_source": "Ruta5-RetenSur-Paraiso-Muiscas-Arboleda",
        "_segmentIndex": 0,
        "_position": 15
      },
      "geometry": {
        "type": "Point",
        "coordinates": [
          -73.3697647958721,
          5.5200038969080785
        ]
      }
    },
    {
      "type": "Feature",
      "properties": {
        "_source": "Ruta5-RetenSur-Paraiso-Muiscas-Arboleda",
        "_segmentIndex": 0,
        "_position": 16
      },
      "geometry": {
        "type": "Point",
        "coordinates": [
          -73.36970305994117,
          5.520449338513197
        ]
      }
    },
    {
      "type": "Feature",
      "properties": {
        "_source": "Ruta5-RetenSur-Paraiso-Muiscas-Arboleda",
        "_segmentIndex": 0,
        "_position": 0
      },
      "geometry": {
        "type": "Point",
        "coordinates": [
          -73.369688,
          5.520558
        ]
      }
    },
    {
      "type": "Feature",
      "properties": {
        "_source": "Ruta5-RetenSur-Paraiso-Muiscas-Arboleda",
        "_segmentIndex": 0,
        "_position": 1
      },
      "geometry": {
        "type": "Point",
        "coordinates": [
          -73.37013488582383,
          5.5206238456443435
        ]
      }
    },
    {
      "type": "Feature",
      "properties": {
        "_source": "Ruta5-RetenSur-Paraiso-Muiscas-Arboleda",
        "_segmentIndex": 0,
        "_position": 0
      },
      "geometry": {
        "type": "Point",
        "coordinates": [
          -73.370516,
          5.52068
        ]
      }
    },
    {
      "type": "Feature",
      "properties": {
        "_source": "Ruta5-RetenSur-Paraiso-Muiscas-Arboleda",
        "_segmentIndex": 0,
        "_position": 1
      },
      "geometry": {
        "type": "Point",
        "coordinates": [
          -73.37043993545024,
          5.521123240361181
        ]
      }
    },
    {
      "type": "Feature",
      "properties": {
        "_source": "Ruta5-RetenSur-Paraiso-Muiscas-Arboleda",
        "_segmentIndex": 0,
        "_position": 2
      },
      "geometry": {
        "type": "Point",
        "coordinates": [
          -73.37038224799662,
          5.521569191233182
        ]
      }
    },
    {
      "type": "Feature",
      "properties": {
        "_source": "Ruta5-RetenSur-Paraiso-Muiscas-Arboleda",
        "_segmentIndex": 0,
        "_position": 3
      },
      "geometry": {
        "type": "Point",
        "coordinates": [
          -73.37032618481305,
          5.522015356763305
        ]
      }
    },
    {
      "type": "Feature",
      "properties": {
        "_source": "Ruta5-RetenSur-Paraiso-Muiscas-Arboleda",
        "_segmentIndex": 0,
        "_position": 4
      },
      "geometry": {
        "type": "Point",
        "coordinates": [
          -73.37027608237366,
          5.522461869801592
        ]
      }
    },
    {
      "type": "Feature",
      "properties": {
        "_source": "Ruta5-RetenSur-Paraiso-Muiscas-Arboleda",
        "_segmentIndex": 0,
        "_position": 5
      },
      "geometry": {
        "type": "Point",
        "coordinates": [
          -73.37034406635671,
          5.5229063396999445
        ]
      }
    },
    {
      "type": "Feature",
      "properties": {
        "_source": "Ruta5-RetenSur-Paraiso-Muiscas-Arboleda",
        "_segmentIndex": 0,
        "_position": 6
      },
      "geometry": {
        "type": "Point",
        "coordinates": [
          -73.37033343104504,
          5.523348925380093
        ]
      }
    },
    {
      "type": "Feature",
      "properties": {
        "_source": "Ruta5-RetenSur-Paraiso-Muiscas-Arboleda",
        "_segmentIndex": 0,
        "_position": 7
      },
      "geometry": {
        "type": "Point",
        "coordinates": [
          -73.37018157417857,
          5.523772275868349
        ]
      }
    },
    {
      "type": "Feature",
      "properties": {
        "_source": "Ruta5-RetenSur-Paraiso-Muiscas-Arboleda",
        "_segmentIndex": 0,
        "_position": 8
      },
      "geometry": {
        "type": "Point",
        "coordinates": [
          -73.37004993990176,
          5.524200581643477
        ]
      }
    },
    {
      "type": "Feature",
      "properties": {
        "_source": "Ruta5-RetenSur-Paraiso-Muiscas-Arboleda",
        "_segmentIndex": 0,
        "_position": 9
      },
      "geometry": {
        "type": "Point",
        "coordinates": [
          -73.369980248199,
          5.524642286121046
        ]
      }
    },
    {
      "type": "Feature",
      "properties": {
        "_source": "Ruta5-RetenSur-Paraiso-Muiscas-Arboleda",
        "_segmentIndex": 0,
        "_position": 10
      },
      "geometry": {
        "type": "Point",
        "coordinates": [
          -73.36983637043485,
          5.525068530708348
        ]
      }
    },
    {
      "type": "Feature",
      "properties": {
        "_source": "Ruta5-RetenSur-Paraiso-Muiscas-Arboleda",
        "_segmentIndex": 0,
        "_position": 11
      },
      "geometry": {
        "type": "Point",
        "coordinates": [
          -73.36969285590688,
          5.525494897624521
        ]
      }
    },
    {
      "type": "Feature",
      "properties": {
        "_source": "Ruta5-RetenSur-Paraiso-Muiscas-Arboleda",
        "_segmentIndex": 0,
        "_position": 12
      },
      "geometry": {
        "type": "Point",
        "coordinates": [
          -73.36954912012487,
          5.52592119079589
        ]
      }
    },
    {
      "type": "Feature",
      "properties": {
        "_source": "Ruta5-RetenSur-Paraiso-Muiscas-Arboleda",
        "_segmentIndex": 0,
        "_position": 13
      },
      "geometry": {
        "type": "Point",
        "coordinates": [
          -73.36940215339314,
          5.526346389461053
        ]
      }
    },
    {
      "type": "Feature",
      "properties": {
        "_source": "Ruta5-RetenSur-Paraiso-Muiscas-Arboleda",
        "_segmentIndex": 0,
        "_position": 14
      },
      "geometry": {
        "type": "Point",
        "coordinates": [
          -73.36925477835025,
          5.526771449838889
        ]
      }
    },
    {
      "type": "Feature",
      "properties": {
        "_source": "Ruta5-RetenSur-Paraiso-Muiscas-Arboleda",
        "_segmentIndex": 0,
        "_position": 15
      },
      "geometry": {
        "type": "Point",
        "coordinates": [
          -73.36913385717322,
          5.527203628183207
        ]
      }
    },
    {
      "type": "Feature",
      "properties": {
        "_source": "Ruta5-RetenSur-Paraiso-Muiscas-Arboleda",
        "_segmentIndex": 0,
        "_position": 16
      },
      "geometry": {
        "type": "Point",
        "coordinates": [
          -73.36905530525199,
          5.5276464386659425
        ]
      }
    },
    {
      "type": "Feature",
      "properties": {
        "_source": "Ruta5-RetenSur-Paraiso-Muiscas-Arboleda",
        "_segmentIndex": 0,
        "_position": 17
      },
      "geometry": {
        "type": "Point",
        "coordinates": [
          -73.36897413227094,
          5.52808877338627
        ]
      }
    },
    {
      "type": "Feature",
      "properties": {
        "_source": "Ruta5-RetenSur-Paraiso-Muiscas-Arboleda",
        "_segmentIndex": 0,
        "_position": 18
      },
      "geometry": {
        "type": "Point",
        "coordinates": [
          -73.36889453976825,
          5.52853139764369
        ]
      }
    },
    {
      "type": "Feature",
      "properties": {
        "_source": "Ruta5-RetenSur-Paraiso-Muiscas-Arboleda",
        "_segmentIndex": 0,
        "_position": 19
      },
      "geometry": {
        "type": "Point",
        "coordinates": [
          -73.36881114484945,
          5.5289733050892105
        ]
      }
    },
    {
      "type": "Feature",
      "properties": {
        "_source": "Ruta5-RetenSur-Paraiso-Muiscas-Arboleda",
        "_segmentIndex": 0,
        "_position": 20
      },
      "geometry": {
        "type": "Point",
        "coordinates": [
          -73.36873625126528,
          5.529416711382593
        ]
      }
    },
    {
      "type": "Feature",
      "properties": {
        "_source": "Ruta5-RetenSur-Paraiso-Muiscas-Arboleda",
        "_segmentIndex": 0,
        "_position": 21
      },
      "geometry": {
        "type": "Point",
        "coordinates": [
          -73.36865483256653,
          5.52985862975049
        ]
      }
    },
    {
      "type": "Feature",
      "properties": {
        "_source": "Ruta5-RetenSur-Paraiso-Muiscas-Arboleda",
        "_segmentIndex": 0,
        "_position": 22
      },
      "geometry": {
        "type": "Point",
        "coordinates": [
          -73.36857583499874,
          5.530301326124414
        ]
      }
    },
    {
      "type": "Feature",
      "properties": {
        "_source": "Ruta5-RetenSur-Paraiso-Muiscas-Arboleda",
        "_segmentIndex": 0,
        "_position": 23
      },
      "geometry": {
        "type": "Point",
        "coordinates": [
          -73.3684998694102,
          5.530744507889309
        ]
      }
    },
    {
      "type": "Feature",
      "properties": {
        "_source": "Ruta5-RetenSur-Paraiso-Muiscas-Arboleda",
        "_segmentIndex": 0,
        "_position": 24
      },
      "geometry": {
        "type": "Point",
        "coordinates": [
          -73.36846828015287,
          5.531192146771935
        ]
      }
    },
    {
      "type": "Feature",
      "properties": {
        "_source": "Ruta5-RetenSur-Paraiso-Muiscas-Arboleda",
        "_segmentIndex": 0,
        "_position": 0
      },
      "geometry": {
        "type": "Point",
        "coordinates": [
          -73.36842,
          5.53141
        ]
      }
    },
    {
      "type": "Feature",
      "properties": {
        "_source": "Ruta5-RetenSur-Paraiso-Muiscas-Arboleda",
        "_segmentIndex": 0,
        "_position": 1
      },
      "geometry": {
        "type": "Point",
        "coordinates": [
          -73.36797321251693,
          5.531343442970352
        ]
      }
    },
    {
      "type": "Feature",
      "properties": {
        "_source": "Ruta5-RetenSur-Paraiso-Muiscas-Arboleda",
        "_segmentIndex": 0,
        "_position": 2
      },
      "geometry": {
        "type": "Point",
        "coordinates": [
          -73.36753024701444,
          5.531258262706463
        ]
      }
    },
    {
      "type": "Feature",
      "properties": {
        "_source": "Ruta5-RetenSur-Paraiso-Muiscas-Arboleda",
        "_segmentIndex": 0,
        "_position": 3
      },
      "geometry": {
        "type": "Point",
        "coordinates": [
          -73.36709202517902,
          5.531149410579246
        ]
      }
    },
    {
      "type": "Feature",
      "properties": {
        "_source": "Ruta5-RetenSur-Paraiso-Muiscas-Arboleda",
        "_segmentIndex": 0,
        "_position": 4
      },
      "geometry": {
        "type": "Point",
        "coordinates": [
          -73.3666500789488,
          5.531056298648332
        ]
      }
    },
    {
      "type": "Feature",
      "properties": {
        "_source": "Ruta5-RetenSur-Paraiso-Muiscas-Arboleda",
        "_segmentIndex": 0,
        "_position": 5
      },
      "geometry": {
        "type": "Point",
        "coordinates": [
          -73.366209268255,
          5.530958936355921
        ]
      }
    },
    {
      "type": "Feature",
      "properties": {
        "_source": "Ruta5-RetenSur-Paraiso-Muiscas-Arboleda",
        "_segmentIndex": 0,
        "_position": 6
      },
      "geometry": {
        "type": "Point",
        "coordinates": [
          -73.36577036461276,
          5.530852823811594
        ]
      }
    },
    {
      "type": "Feature",
      "properties": {
        "_source": "Ruta5-RetenSur-Paraiso-Muiscas-Arboleda",
        "_segmentIndex": 0,
        "_position": 7
      },
      "geometry": {
        "type": "Point",
        "coordinates": [
          -73.36532883204389,
          5.530757671367007
        ]
      }
    },
    {
      "type": "Feature",
      "properties": {
        "_source": "Ruta5-RetenSur-Paraiso-Muiscas-Arboleda",
        "_segmentIndex": 0,
        "_position": 8
      },
      "geometry": {
        "type": "Point",
        "coordinates": [
          -73.36488666665542,
          5.530665475181843
        ]
      }
    },
    {
      "type": "Feature",
      "properties": {
        "_source": "Ruta5-RetenSur-Paraiso-Muiscas-Arboleda",
        "_segmentIndex": 0,
        "_position": 0
      },
      "geometry": {
        "type": "Point",
        "coordinates": [
          -73.36487,
          5.530662
        ]
      }
    },
    {
      "type": "Feature",
      "properties": {
        "_source": "Ruta5-RetenSur-Paraiso-Muiscas-Arboleda",
        "_segmentIndex": 0,
        "_position": 1
      },
      "geometry": {
        "type": "Point",
        "coordinates": [
          -73.36473877346057,
          5.531092271825515
        ]
      }
    },
    {
      "type": "Feature",
      "properties": {
        "_source": "Ruta5-RetenSur-Paraiso-Muiscas-Arboleda",
        "_segmentIndex": 0,
        "_position": 2
      },
      "geometry": {
        "type": "Point",
        "coordinates": [
          -73.36461319457611,
          5.531524154365963
        ]
      }
    },
    {
      "type": "Feature",
      "properties": {
        "_source": "Ruta5-RetenSur-Paraiso-Muiscas-Arboleda",
        "_segmentIndex": 0,
        "_position": 3
      },
      "geometry": {
        "type": "Point",
        "coordinates": [
          -73.36448989288333,
          5.5319565077297925
        ]
      }
    },
    {
      "type": "Feature",
      "properties": {
        "_source": "Ruta5-RetenSur-Paraiso-Muiscas-Arboleda",
        "_segmentIndex": 0,
        "_position": 4
      },
      "geometry": {
        "type": "Point",
        "coordinates": [
          -73.36434783986732,
          5.5323832231638415
        ]
      }
    },
    {
      "type": "Feature",
      "properties": {
        "_source": "Ruta5-RetenSur-Paraiso-Muiscas-Arboleda",
        "_segmentIndex": 0,
        "_position": 5
      },
      "geometry": {
        "type": "Point",
        "coordinates": [
          -73.36421269655216,
          5.53281229118757
        ]
      }
    },
    {
      "type": "Feature",
      "properties": {
        "_source": "Ruta5-RetenSur-Paraiso-Muiscas-Arboleda",
        "_segmentIndex": 0,
        "_position": 6
      },
      "geometry": {
        "type": "Point",
        "coordinates": [
          -73.36407765858912,
          5.533241386855658
        ]
      }
    },
    {
      "type": "Feature",
      "properties": {
        "_source": "Ruta5-RetenSur-Paraiso-Muiscas-Arboleda",
        "_segmentIndex": 0,
        "_position": 7
      },
      "geometry": {
        "type": "Point",
        "coordinates": [
          -73.36394765430636,
          5.533672011489587
        ]
      }
    },
    {
      "type": "Feature",
      "properties": {
        "_source": "Ruta5-RetenSur-Paraiso-Muiscas-Arboleda",
        "_segmentIndex": 0,
        "_position": 8
      },
      "geometry": {
        "type": "Point",
        "coordinates": [
          -73.36382535385847,
          5.534104880959014
        ]
      }
    },
    {
      "type": "Feature",
      "properties": {
        "_source": "Ruta5-RetenSur-Paraiso-Muiscas-Arboleda",
        "_segmentIndex": 0,
        "_position": 9
      },
      "geometry": {
        "type": "Point",
        "coordinates": [
          -73.36371625510897,
          5.534541184971515
        ]
      }
    },
    {
      "type": "Feature",
      "properties": {
        "_source": "Ruta5-RetenSur-Paraiso-Muiscas-Arboleda",
        "_segmentIndex": 0,
        "_position": 10
      },
      "geometry": {
        "type": "Point",
        "coordinates": [
          -73.36360531009693,
          5.534977050746913
        ]
      }
    },
    {
      "type": "Feature",
      "properties": {
        "_source": "Ruta5-RetenSur-Paraiso-Muiscas-Arboleda",
        "_segmentIndex": 0,
        "_position": 11
      },
      "geometry": {
        "type": "Point",
        "coordinates": [
          -73.3634626101711,
          5.5354036782282074
        ]
      }
    },
    {
      "type": "Feature",
      "properties": {
        "_source": "Ruta5-RetenSur-Paraiso-Muiscas-Arboleda",
        "_segmentIndex": 0,
        "_position": 0
      },
      "geometry": {
        "type": "Point",
        "coordinates": [
          -73.36331,
          5.535796
        ]
      }
    },
    {
      "type": "Feature",
      "properties": {
        "_source": "Ruta5-RetenSur-Paraiso-Muiscas-Arboleda",
        "_segmentIndex": 0,
        "_position": 1
      },
      "geometry": {
        "type": "Point",
        "coordinates": [
          -73.36333090911998,
          5.53622562263954
        ]
      }
    },
    {
      "type": "Feature",
      "properties": {
        "_source": "Ruta5-RetenSur-Paraiso-Muiscas-Arboleda",
        "_segmentIndex": 0,
        "_position": 0
      },
      "geometry": {
        "type": "Point",
        "coordinates": [
          -73.363343,
          5.536369
        ]
      }
    },
    {
      "type": "Feature",
      "properties": {
        "_source": "Ruta5-RetenSur-Paraiso-Muiscas-Arboleda",
        "_segmentIndex": 0,
        "_position": 1
      },
      "geometry": {
        "type": "Point",
        "coordinates": [
          -73.36379257423172,
          5.536324744340552
        ]
      }
    },
    {
      "type": "Feature",
      "properties": {
        "_source": "Ruta5-RetenSur-Paraiso-Muiscas-Arboleda",
        "_segmentIndex": 0,
        "_position": 2
      },
      "geometry": {
        "type": "Point",
        "coordinates": [
          -73.36424228085838,
          5.536281997691161
        ]
      }
    },
    {
      "type": "Feature",
      "properties": {
        "_source": "Ruta5-RetenSur-Paraiso-Muiscas-Arboleda",
        "_segmentIndex": 0,
        "_position": 3
      },
      "geometry": {
        "type": "Point",
        "coordinates": [
          -73.36468025435751,
          5.536208184962635
        ]
      }
    },
    {
      "type": "Feature",
      "properties": {
        "_source": "Ruta5-RetenSur-Paraiso-Muiscas-Arboleda",
        "_segmentIndex": 0,
        "_position": 4
      },
      "geometry": {
        "type": "Point",
        "coordinates": [
          -73.36509567240343,
          5.536337458348905
        ]
      }
    },
    {
      "type": "Feature",
      "properties": {
        "_source": "Ruta5-RetenSur-Paraiso-Muiscas-Arboleda",
        "_segmentIndex": 0,
        "_position": 5
      },
      "geometry": {
        "type": "Point",
        "coordinates": [
          -73.36551400393786,
          5.536507228593191
        ]
      }
    },
    {
      "type": "Feature",
      "properties": {
        "_source": "Ruta5-RetenSur-Paraiso-Muiscas-Arboleda",
        "_segmentIndex": 0,
        "_position": 6
      },
      "geometry": {
        "type": "Point",
        "coordinates": [
          -73.36593256375244,
          5.536676440077789
        ]
      }
    },
    {
      "type": "Feature",
      "properties": {
        "_source": "Ruta5-RetenSur-Paraiso-Muiscas-Arboleda",
        "_segmentIndex": 0,
        "_position": 7
      },
      "geometry": {
        "type": "Point",
        "coordinates": [
          -73.36635127532396,
          5.536845280204334
        ]
      }
    },
    {
      "type": "Feature",
      "properties": {
        "_source": "Ruta5-RetenSur-Paraiso-Muiscas-Arboleda",
        "_segmentIndex": 0,
        "_position": 8
      },
      "geometry": {
        "type": "Point",
        "coordinates": [
          -73.36676998713472,
          5.537014120037019
        ]
      }
    },
    {
      "type": "Feature",
      "properties": {
        "_source": "Ruta5-RetenSur-Paraiso-Muiscas-Arboleda",
        "_segmentIndex": 0,
        "_position": 0
      },
      "geometry": {
        "type": "Point",
        "coordinates": [
          -73.367164,
          5.537173
        ]
      }
    },
    {
      "type": "Feature",
      "properties": {
        "_source": "Ruta5-RetenSur-Paraiso-Muiscas-Arboleda",
        "_segmentIndex": 0,
        "_position": 1
      },
      "geometry": {
        "type": "Point",
        "coordinates": [
          -73.36713767245332,
          5.537615236833521
        ]
      }
    },
    {
      "type": "Feature",
      "properties": {
        "_source": "Ruta5-RetenSur-Paraiso-Muiscas-Arboleda",
        "_segmentIndex": 0,
        "_position": 2
      },
      "geometry": {
        "type": "Point",
        "coordinates": [
          -73.36696162797023,
          5.53802935183935
        ]
      }
    },
    {
      "type": "Feature",
      "properties": {
        "_source": "Ruta5-RetenSur-Paraiso-Muiscas-Arboleda",
        "_segmentIndex": 0,
        "_position": 3
      },
      "geometry": {
        "type": "Point",
        "coordinates": [
          -73.36674061436673,
          5.5384213442066645
        ]
      }
    },
    {
      "type": "Feature",
      "properties": {
        "_source": "Ruta5-RetenSur-Paraiso-Muiscas-Arboleda",
        "_segmentIndex": 0,
        "_position": 4
      },
      "geometry": {
        "type": "Point",
        "coordinates": [
          -73.36652091981526,
          5.538814244431946
        ]
      }
    },
    {
      "type": "Feature",
      "properties": {
        "_source": "Ruta5-RetenSur-Paraiso-Muiscas-Arboleda",
        "_segmentIndex": 0,
        "_position": 5
      },
      "geometry": {
        "type": "Point",
        "coordinates": [
          -73.36629616710289,
          5.539204232267192
        ]
      }
    },
    {
      "type": "Feature",
      "properties": {
        "_source": "Ruta5-RetenSur-Paraiso-Muiscas-Arboleda",
        "_segmentIndex": 0,
        "_position": 6
      },
      "geometry": {
        "type": "Point",
        "coordinates": [
          -73.36607593387632,
          5.539596576133307
        ]
      }
    },
    {
      "type": "Feature",
      "properties": {
        "_source": "Ruta5-RetenSur-Paraiso-Muiscas-Arboleda",
        "_segmentIndex": 0,
        "_position": 7
      },
      "geometry": {
        "type": "Point",
        "coordinates": [
          -73.36586079014138,
          5.5399918306107585
        ]
      }
    },
    {
      "type": "Feature",
      "properties": {
        "_source": "Ruta5-RetenSur-Paraiso-Muiscas-Arboleda",
        "_segmentIndex": 0,
        "_position": 8
      },
      "geometry": {
        "type": "Point",
        "coordinates": [
          -73.36563582286335,
          5.540381773846813
        ]
      }
    },
    {
      "type": "Feature",
      "properties": {
        "_source": "Ruta5-RetenSur-Paraiso-Muiscas-Arboleda",
        "_segmentIndex": 0,
        "_position": 9
      },
      "geometry": {
        "type": "Point",
        "coordinates": [
          -73.36539948958107,
          5.540764715696633
        ]
      }
    },
    {
      "type": "Feature",
      "properties": {
        "_source": "Ruta5-RetenSur-Paraiso-Muiscas-Arboleda",
        "_segmentIndex": 0,
        "_position": 10
      },
      "geometry": {
        "type": "Point",
        "coordinates": [
          -73.36516192880084,
          5.541146142503383
        ]
      }
    },
    {
      "type": "Feature",
      "properties": {
        "_source": "Ruta5-RetenSur-Paraiso-Muiscas-Arboleda",
        "_segmentIndex": 0,
        "_position": 11
      },
      "geometry": {
        "type": "Point",
        "coordinates": [
          -73.36496064685102,
          5.541548706333458
        ]
      }
    },
    {
      "type": "Feature",
      "properties": {
        "_source": "Ruta5-RetenSur-Paraiso-Muiscas-Arboleda",
        "_segmentIndex": 0,
        "_position": 12
      },
      "geometry": {
        "type": "Point",
        "coordinates": [
          -73.36473210407682,
          5.541936466288601
        ]
      }
    },
    {
      "type": "Feature",
      "properties": {
        "_source": "Ruta5-RetenSur-Paraiso-Muiscas-Arboleda",
        "_segmentIndex": 0,
        "_position": 13
      },
      "geometry": {
        "type": "Point",
        "coordinates": [
          -73.36450399690601,
          5.542324590459331
        ]
      }
    },
    {
      "type": "Feature",
      "properties": {
        "_source": "Ruta5-RetenSur-Paraiso-Muiscas-Arboleda",
        "_segmentIndex": 0,
        "_position": 14
      },
      "geometry": {
        "type": "Point",
        "coordinates": [
          -73.36427744865918,
          5.542713626383647
        ]
      }
    },
    {
      "type": "Feature",
      "properties": {
        "_source": "Ruta5-RetenSur-Paraiso-Muiscas-Arboleda",
        "_segmentIndex": 0,
        "_position": 15
      },
      "geometry": {
        "type": "Point",
        "coordinates": [
          -73.3640509001138,
          5.543102662221846
        ]
      }
    },
    {
      "type": "Feature",
      "properties": {
        "_source": "Ruta5-RetenSur-Paraiso-Muiscas-Arboleda",
        "_segmentIndex": 0,
        "_position": 16
      },
      "geometry": {
        "type": "Point",
        "coordinates": [
          -73.36382846215928,
          5.54349402670894
        ]
      }
    },
    {
      "type": "Feature",
      "properties": {
        "_source": "Ruta5-RetenSur-Paraiso-Muiscas-Arboleda",
        "_segmentIndex": 0,
        "_position": 17
      },
      "geometry": {
        "type": "Point",
        "coordinates": [
          -73.36360809506786,
          5.543886564381994
        ]
      }
    },
    {
      "type": "Feature",
      "properties": {
        "_source": "Ruta5-RetenSur-Paraiso-Muiscas-Arboleda",
        "_segmentIndex": 0,
        "_position": 18
      },
      "geometry": {
        "type": "Point",
        "coordinates": [
          -73.36338772768336,
          5.544279101973551
        ]
      }
    },
    {
      "type": "Feature",
      "properties": {
        "_source": "Ruta5-RetenSur-Paraiso-Muiscas-Arboleda",
        "_segmentIndex": 0,
        "_position": 19
      },
      "geometry": {
        "type": "Point",
        "coordinates": [
          -73.36316736000576,
          5.544671639483603
        ]
      }
    },
    {
      "type": "Feature",
      "properties": {
        "_source": "Ruta5-RetenSur-Paraiso-Muiscas-Arboleda",
        "_segmentIndex": 0,
        "_position": 20
      },
      "geometry": {
        "type": "Point",
        "coordinates": [
          -73.36294979523203,
          5.545065721989
        ]
      }
    },
    {
      "type": "Feature",
      "properties": {
        "_source": "Ruta5-RetenSur-Paraiso-Muiscas-Arboleda",
        "_segmentIndex": 0,
        "_position": 21
      },
      "geometry": {
        "type": "Point",
        "coordinates": [
          -73.36273244019456,
          5.545459920178345
        ]
      }
    },
    {
      "type": "Feature",
      "properties": {
        "_source": "Ruta5-RetenSur-Paraiso-Muiscas-Arboleda",
        "_segmentIndex": 0,
        "_position": 22
      },
      "geometry": {
        "type": "Point",
        "coordinates": [
          -73.36251193584252,
          5.545852211869081
        ]
      }
    },
    {
      "type": "Feature",
      "properties": {
        "_source": "Ruta5-RetenSur-Paraiso-Muiscas-Arboleda",
        "_segmentIndex": 0,
        "_position": 23
      },
      "geometry": {
        "type": "Point",
        "coordinates": [
          -73.36226021149065,
          5.546225603062491
        ]
      }
    },
    {
      "type": "Feature",
      "properties": {
        "_source": "Ruta5-RetenSur-Paraiso-Muiscas-Arboleda",
        "_segmentIndex": 0,
        "_position": 24
      },
      "geometry": {
        "type": "Point",
        "coordinates": [
          -73.3620269969819,
          5.54661040563122
        ]
      }
    },
    {
      "type": "Feature",
      "properties": {
        "_source": "Ruta5-RetenSur-Paraiso-Muiscas-Arboleda",
        "_segmentIndex": 0,
        "_position": 25
      },
      "geometry": {
        "type": "Point",
        "coordinates": [
          -73.36180325457326,
          5.547001047829926
        ]
      }
    },
    {
      "type": "Feature",
      "properties": {
        "_source": "Ruta5-RetenSur-Paraiso-Muiscas-Arboleda",
        "_segmentIndex": 0,
        "_position": 26
      },
      "geometry": {
        "type": "Point",
        "coordinates": [
          -73.36157959940009,
          5.547391739539402
        ]
      }
    },
    {
      "type": "Feature",
      "properties": {
        "_source": "Ruta5-RetenSur-Paraiso-Muiscas-Arboleda",
        "_segmentIndex": 0,
        "_position": 27
      },
      "geometry": {
        "type": "Point",
        "coordinates": [
          -73.36135634011148,
          5.547782655637876
        ]
      }
    },
    {
      "type": "Feature",
      "properties": {
        "_source": "Ruta5-RetenSur-Paraiso-Muiscas-Arboleda",
        "_segmentIndex": 0,
        "_position": 28
      },
      "geometry": {
        "type": "Point",
        "coordinates": [
          -73.36113308052695,
          5.548173571652639
        ]
      }
    },
    {
      "type": "Feature",
      "properties": {
        "_source": "Ruta5-RetenSur-Paraiso-Muiscas-Arboleda",
        "_segmentIndex": 0,
        "_position": 29
      },
      "geometry": {
        "type": "Point",
        "coordinates": [
          -73.3609098206465,
          5.548564487583687
        ]
      }
    },
    {
      "type": "Feature",
      "properties": {
        "_source": "Ruta5-RetenSur-Paraiso-Muiscas-Arboleda",
        "_segmentIndex": 0,
        "_position": 30
      },
      "geometry": {
        "type": "Point",
        "coordinates": [
          -73.3606862375414,
          5.548955220449804
        ]
      }
    },
    {
      "type": "Feature",
      "properties": {
        "_source": "Ruta5-RetenSur-Paraiso-Muiscas-Arboleda",
        "_segmentIndex": 0,
        "_position": 31
      },
      "geometry": {
        "type": "Point",
        "coordinates": [
          -73.36046247090906,
          5.549345849407682
        ]
      }
    },
    {
      "type": "Feature",
      "properties": {
        "_source": "Ruta5-RetenSur-Paraiso-Muiscas-Arboleda",
        "_segmentIndex": 0,
        "_position": 0
      },
      "geometry": {
        "type": "Point",
        "coordinates": [
          -73.360306,
          5.549619
        ]
      }
    },
    {
      "type": "Feature",
      "properties": {
        "_source": "Ruta5-RetenSur-Paraiso-Muiscas-Arboleda",
        "_segmentIndex": 0,
        "_position": 1
      },
      "geometry": {
        "type": "Point",
        "coordinates": [
          -73.36008474111206,
          5.549240056819552
        ]
      }
    },
    {
      "type": "Feature",
      "properties": {
        "_source": "Ruta5-RetenSur-Paraiso-Muiscas-Arboleda",
        "_segmentIndex": 0,
        "_position": 2
      },
      "geometry": {
        "type": "Point",
        "coordinates": [
          -73.35987757547979,
          5.548840459549117
        ]
      }
    },
    {
      "type": "Feature",
      "properties": {
        "_source": "Ruta5-RetenSur-Paraiso-Muiscas-Arboleda",
        "_segmentIndex": 0,
        "_position": 3
      },
      "geometry": {
        "type": "Point",
        "coordinates": [
          -73.35967041447388,
          5.5484408599851145
        ]
      }
    },
    {
      "type": "Feature",
      "properties": {
        "_source": "Ruta5-RetenSur-Paraiso-Muiscas-Arboleda",
        "_segmentIndex": 0,
        "_position": 4
      },
      "geometry": {
        "type": "Point",
        "coordinates": [
          -73.3594647756088,
          5.548040482378169
        ]
      }
    },
    {
      "type": "Feature",
      "properties": {
        "_source": "Ruta5-RetenSur-Paraiso-Muiscas-Arboleda",
        "_segmentIndex": 0,
        "_position": 5
      },
      "geometry": {
        "type": "Point",
        "coordinates": [
          -73.3592591370229,
          5.547640104700203
        ]
      }
    },
    {
      "type": "Feature",
      "properties": {
        "_source": "Ruta5-RetenSur-Paraiso-Muiscas-Arboleda",
        "_segmentIndex": 0,
        "_position": 6
      },
      "geometry": {
        "type": "Point",
        "coordinates": [
          -73.35905502119917,
          5.547238966627966
        ]
      }
    },
    {
      "type": "Feature",
      "properties": {
        "_source": "Ruta5-RetenSur-Paraiso-Muiscas-Arboleda",
        "_segmentIndex": 0,
        "_position": 7
      },
      "geometry": {
        "type": "Point",
        "coordinates": [
          -73.35885546225248,
          5.546835552934656
        ]
      }
    },
    {
      "type": "Feature",
      "properties": {
        "_source": "Ruta5-RetenSur-Paraiso-Muiscas-Arboleda",
        "_segmentIndex": 0,
        "_position": 8
      },
      "geometry": {
        "type": "Point",
        "coordinates": [
          -73.35865590357868,
          5.546432139174477
        ]
      }
    },
    {
      "type": "Feature",
      "properties": {
        "_source": "Ruta5-RetenSur-Paraiso-Muiscas-Arboleda",
        "_segmentIndex": 0,
        "_position": 9
      },
      "geometry": {
        "type": "Point",
        "coordinates": [
          -73.35845634517779,
          5.5460287253474325
        ]
      }
    },
    {
      "type": "Feature",
      "properties": {
        "_source": "Ruta5-RetenSur-Paraiso-Muiscas-Arboleda",
        "_segmentIndex": 0,
        "_position": 10
      },
      "geometry": {
        "type": "Point",
        "coordinates": [
          -73.35825678704975,
          5.545625311453531
        ]
      }
    },
    {
      "type": "Feature",
      "properties": {
        "_source": "Ruta5-RetenSur-Paraiso-Muiscas-Arboleda",
        "_segmentIndex": 0,
        "_position": 11
      },
      "geometry": {
        "type": "Point",
        "coordinates": [
          -73.35805722919454,
          5.545221897492774
        ]
      }
    },
    {
      "type": "Feature",
      "properties": {
        "_source": "Ruta5-RetenSur-Paraiso-Muiscas-Arboleda",
        "_segmentIndex": 0,
        "_position": 0
      },
      "geometry": {
        "type": "Point",
        "coordinates": [
          -73.357944,
          5.544993
        ]
      }
    },
    {
      "type": "Feature",
      "properties": {
        "_source": "Ruta5-RetenSur-Paraiso-Muiscas-Arboleda",
        "_segmentIndex": 0,
        "_position": 1
      },
      "geometry": {
        "type": "Point",
        "coordinates": [
          -73.35784472929124,
          5.544575068242067
        ]
      }
    },
    {
      "type": "Feature",
      "properties": {
        "_source": "Ruta5-RetenSur-Paraiso-Muiscas-Arboleda",
        "_segmentIndex": 0,
        "_position": 2
      },
      "geometry": {
        "type": "Point",
        "coordinates": [
          -73.35758909642527,
          5.5442771188995215
        ]
      }
    },
    {
      "type": "Feature",
      "properties": {
        "_source": "Ruta5-RetenSur-Paraiso-Muiscas-Arboleda",
        "_segmentIndex": 0,
        "_position": 3
      },
      "geometry": {
        "type": "Point",
        "coordinates": [
          -73.35730304069091,
          5.544517418819372
        ]
      }
    },
    {
      "type": "Feature",
      "properties": {
        "_source": "Ruta5-RetenSur-Paraiso-Muiscas-Arboleda",
        "_segmentIndex": 0,
        "_position": 0
      },
      "geometry": {
        "type": "Point",
        "coordinates": [
          -73.357285,
          5.544803
        ]
      }
    },
    {
      "type": "Feature",
      "properties": {
        "_source": "Ruta5-RetenSur-Paraiso-Muiscas-Arboleda",
        "_segmentIndex": 0,
        "_position": 1
      },
      "geometry": {
        "type": "Point",
        "coordinates": [
          -73.35705597686945,
          5.545188122549865
        ]
      }
    },
    {
      "type": "Feature",
      "properties": {
        "_source": "Ruta5-RetenSur-Paraiso-Muiscas-Arboleda",
        "_segmentIndex": 0,
        "_position": 2
      },
      "geometry": {
        "type": "Point",
        "coordinates": [
          -73.35678971403033,
          5.545551386075657
        ]
      }
    },
    {
      "type": "Feature",
      "properties": {
        "_source": "Ruta5-RetenSur-Paraiso-Muiscas-Arboleda",
        "_segmentIndex": 0,
        "_position": 3
      },
      "geometry": {
        "type": "Point",
        "coordinates": [
          -73.35652364119895,
          5.545914787649033
        ]
      }
    },
    {
      "type": "Feature",
      "properties": {
        "_source": "Ruta5-RetenSur-Paraiso-Muiscas-Arboleda",
        "_segmentIndex": 0,
        "_position": 4
      },
      "geometry": {
        "type": "Point",
        "coordinates": [
          -73.35625756803985,
          5.546278189103556
        ]
      }
    },
    {
      "type": "Feature",
      "properties": {
        "_source": "Ruta5-RetenSur-Paraiso-Muiscas-Arboleda",
        "_segmentIndex": 0,
        "_position": 5
      },
      "geometry": {
        "type": "Point",
        "coordinates": [
          -73.35599134309969,
          5.546641480253253
        ]
      }
    },
    {
      "type": "Feature",
      "properties": {
        "_source": "Ruta5-RetenSur-Paraiso-Muiscas-Arboleda",
        "_segmentIndex": 0,
        "_position": 6
      },
      "geometry": {
        "type": "Point",
        "coordinates": [
          -73.35572422273837,
          5.547004120081658
        ]
      }
    },
    {
      "type": "Feature",
      "properties": {
        "_source": "Ruta5-RetenSur-Paraiso-Muiscas-Arboleda",
        "_segmentIndex": 0,
        "_position": 7
      },
      "geometry": {
        "type": "Point",
        "coordinates": [
          -73.35545710204867,
          5.547366759790247
        ]
      }
    },
    {
      "type": "Feature",
      "properties": {
        "_source": "Ruta5-RetenSur-Paraiso-Muiscas-Arboleda",
        "_segmentIndex": 0,
        "_position": 8
      },
      "geometry": {
        "type": "Point",
        "coordinates": [
          -73.35518998103056,
          5.547729399379014
        ]
      }
    },
    {
      "type": "Feature",
      "properties": {
        "_source": "Ruta5-RetenSur-Paraiso-Muiscas-Arboleda",
        "_segmentIndex": 0,
        "_position": 9
      },
      "geometry": {
        "type": "Point",
        "coordinates": [
          -73.35492285968404,
          5.54809203884795
        ]
      }
    },
    {
      "type": "Feature",
      "properties": {
        "_source": "Ruta5-RetenSur-Paraiso-Muiscas-Arboleda",
        "_segmentIndex": 0,
        "_position": 10
      },
      "geometry": {
        "type": "Point",
        "coordinates": [
          -73.35464960874556,
          5.548450119164606
        ]
      }
    },
    {
      "type": "Feature",
      "properties": {
        "_source": "Ruta5-RetenSur-Paraiso-Muiscas-Arboleda",
        "_segmentIndex": 0,
        "_position": 11
      },
      "geometry": {
        "type": "Point",
        "coordinates": [
          -73.35437586518233,
          5.548807833181269
        ]
      }
    },
    {
      "type": "Feature",
      "properties": {
        "_source": "Ruta5-RetenSur-Paraiso-Muiscas-Arboleda",
        "_segmentIndex": 0,
        "_position": 12
      },
      "geometry": {
        "type": "Point",
        "coordinates": [
          -73.35410212128703,
          5.54916554707206
        ]
      }
    },
    {
      "type": "Feature",
      "properties": {
        "_source": "Ruta5-RetenSur-Paraiso-Muiscas-Arboleda",
        "_segmentIndex": 0,
        "_position": 13
      },
      "geometry": {
        "type": "Point",
        "coordinates": [
          -73.35381728821407,
          5.549514563320442
        ]
      }
    },
    {
      "type": "Feature",
      "properties": {
        "_source": "Ruta5-RetenSur-Paraiso-Muiscas-Arboleda",
        "_segmentIndex": 0,
        "_position": 14
      },
      "geometry": {
        "type": "Point",
        "coordinates": [
          -73.35353185166427,
          5.549863106360789
        ]
      }
    },
    {
      "type": "Feature",
      "properties": {
        "_source": "Ruta5-RetenSur-Paraiso-Muiscas-Arboleda",
        "_segmentIndex": 0,
        "_position": 15
      },
      "geometry": {
        "type": "Point",
        "coordinates": [
          -73.35324142747636,
          5.550207536043944
        ]
      }
    },
    {
      "type": "Feature",
      "properties": {
        "_source": "Ruta5-RetenSur-Paraiso-Muiscas-Arboleda",
        "_segmentIndex": 0,
        "_position": 16
      },
      "geometry": {
        "type": "Point",
        "coordinates": [
          -73.35295037651699,
          5.550551448942233
        ]
      }
    },
    {
      "type": "Feature",
      "properties": {
        "_source": "Ruta5-RetenSur-Paraiso-Muiscas-Arboleda",
        "_segmentIndex": 0,
        "_position": 17
      },
      "geometry": {
        "type": "Point",
        "coordinates": [
          -73.35265932521804,
          5.550895361698189
        ]
      }
    },
    {
      "type": "Feature",
      "properties": {
        "_source": "Ruta5-RetenSur-Paraiso-Muiscas-Arboleda",
        "_segmentIndex": 0,
        "_position": 18
      },
      "geometry": {
        "type": "Point",
        "coordinates": [
          -73.35240095052947,
          5.55126315055618
        ]
      }
    },
    {
      "type": "Feature",
      "properties": {
        "_source": "Ruta5-RetenSur-Paraiso-Muiscas-Arboleda",
        "_segmentIndex": 0,
        "_position": 19
      },
      "geometry": {
        "type": "Point",
        "coordinates": [
          -73.35217558761934,
          5.551650254088987
        ]
      }
    },
    {
      "type": "Feature",
      "properties": {
        "_source": "Ruta5-RetenSur-Paraiso-Muiscas-Arboleda",
        "_segmentIndex": 0,
        "_position": 20
      },
      "geometry": {
        "type": "Point",
        "coordinates": [
          -73.35204986775528,
          5.552082153074061
        ]
      }
    },
    {
      "type": "Feature",
      "properties": {
        "_source": "Ruta5-RetenSur-Paraiso-Muiscas-Arboleda",
        "_segmentIndex": 0,
        "_position": 21
      },
      "geometry": {
        "type": "Point",
        "coordinates": [
          -73.3519165382482,
          5.55251170741275
        ]
      }
    },
    {
      "type": "Feature",
      "properties": {
        "_source": "Ruta5-RetenSur-Paraiso-Muiscas-Arboleda",
        "_segmentIndex": 0,
        "_position": 22
      },
      "geometry": {
        "type": "Point",
        "coordinates": [
          -73.35177509695123,
          5.552938762383473
        ]
      }
    },
    {
      "type": "Feature",
      "properties": {
        "_source": "Ruta5-RetenSur-Paraiso-Muiscas-Arboleda",
        "_segmentIndex": 0,
        "_position": 23
      },
      "geometry": {
        "type": "Point",
        "coordinates": [
          -73.35163365544926,
          5.553365817320567
        ]
      }
    },
    {
      "type": "Feature",
      "properties": {
        "_source": "Ruta5-RetenSur-Paraiso-Muiscas-Arboleda",
        "_segmentIndex": 0,
        "_position": 24
      },
      "geometry": {
        "type": "Point",
        "coordinates": [
          -73.35149221374229,
          5.553792872224031
        ]
      }
    },
    {
      "type": "Feature",
      "properties": {
        "_source": "Ruta5-RetenSur-Paraiso-Muiscas-Arboleda",
        "_segmentIndex": 0,
        "_position": 25
      },
      "geometry": {
        "type": "Point",
        "coordinates": [
          -73.35134995060959,
          5.554219656594618
        ]
      }
    },
    {
      "type": "Feature",
      "properties": {
        "_source": "Ruta5-RetenSur-Paraiso-Muiscas-Arboleda",
        "_segmentIndex": 0,
        "_position": 26
      },
      "geometry": {
        "type": "Point",
        "coordinates": [
          -73.35120089324084,
          5.554643806282332
        ]
      }
    },
    {
      "type": "Feature",
      "properties": {
        "_source": "Ruta5-RetenSur-Paraiso-Muiscas-Arboleda",
        "_segmentIndex": 0,
        "_position": 27
      },
      "geometry": {
        "type": "Point",
        "coordinates": [
          -73.35101460145574,
          5.555053458367881
        ]
      }
    },
    {
      "type": "Feature",
      "properties": {
        "_source": "Ruta5-RetenSur-Paraiso-Muiscas-Arboleda",
        "_segmentIndex": 0,
        "_position": 28
      },
      "geometry": {
        "type": "Point",
        "coordinates": [
          -73.35082828660848,
          5.555463100106133
        ]
      }
    },
    {
      "type": "Feature",
      "properties": {
        "_source": "Ruta5-RetenSur-Paraiso-Muiscas-Arboleda",
        "_segmentIndex": 0,
        "_position": 29
      },
      "geometry": {
        "type": "Point",
        "coordinates": [
          -73.35064150549567,
          5.555872531520348
        ]
      }
    },
    {
      "type": "Feature",
      "properties": {
        "_source": "Ruta5-RetenSur-Paraiso-Muiscas-Arboleda",
        "_segmentIndex": 0,
        "_position": 30
      },
      "geometry": {
        "type": "Point",
        "coordinates": [
          -73.35045472412322,
          5.556281962875888
        ]
      }
    },
    {
      "type": "Feature",
      "properties": {
        "_source": "Ruta5-RetenSur-Paraiso-Muiscas-Arboleda",
        "_segmentIndex": 0,
        "_position": 31
      },
      "geometry": {
        "type": "Point",
        "coordinates": [
          -73.35026794249109,
          5.556691394172751
        ]
      }
    },
    {
      "type": "Feature",
      "properties": {
        "_source": "Ruta5-RetenSur-Paraiso-Muiscas-Arboleda",
        "_segmentIndex": 0,
        "_position": 32
      },
      "geometry": {
        "type": "Point",
        "coordinates": [
          -73.35008246442949,
          5.557101405914483
        ]
      }
    },
    {
      "type": "Feature",
      "properties": {
        "_source": "Ruta5-RetenSur-Paraiso-Muiscas-Arboleda",
        "_segmentIndex": 0,
        "_position": 33
      },
      "geometry": {
        "type": "Point",
        "coordinates": [
          -73.34990029119042,
          5.557512889117672
        ]
      }
    },
    {
      "type": "Feature",
      "properties": {
        "_source": "Ruta5-RetenSur-Paraiso-Muiscas-Arboleda",
        "_segmentIndex": 0,
        "_position": 34
      },
      "geometry": {
        "type": "Point",
        "coordinates": [
          -73.34971811769675,
          5.557924372265032
        ]
      }
    },
    {
      "type": "Feature",
      "properties": {
        "_source": "Ruta5-RetenSur-Paraiso-Muiscas-Arboleda",
        "_segmentIndex": 0,
        "_position": 35
      },
      "geometry": {
        "type": "Point",
        "coordinates": [
          -73.34953594394845,
          5.558335855356554
        ]
      }
    },
    {
      "type": "Feature",
      "properties": {
        "_source": "Ruta5-RetenSur-Paraiso-Muiscas-Arboleda",
        "_segmentIndex": 0,
        "_position": 36
      },
      "geometry": {
        "type": "Point",
        "coordinates": [
          -73.34935376994551,
          5.558747338392237
        ]
      }
    },
    {
      "type": "Feature",
      "properties": {
        "_source": "Ruta5-RetenSur-Paraiso-Muiscas-Arboleda",
        "_segmentIndex": 0,
        "_position": 37
      },
      "geometry": {
        "type": "Point",
        "coordinates": [
          -73.3491641576886,
          5.559155418525428
        ]
      }
    },
    {
      "type": "Feature",
      "properties": {
        "_source": "Ruta5-RetenSur-Paraiso-Muiscas-Arboleda",
        "_segmentIndex": 0,
        "_position": 38
      },
      "geometry": {
        "type": "Point",
        "coordinates": [
          -73.3489690046552,
          5.559560963840982
        ]
      }
    },
    {
      "type": "Feature",
      "properties": {
        "_source": "Ruta5-RetenSur-Paraiso-Muiscas-Arboleda",
        "_segmentIndex": 0,
        "_position": 39
      },
      "geometry": {
        "type": "Point",
        "coordinates": [
          -73.34877385135287,
          5.559966509092442
        ]
      }
    },
    {
      "type": "Feature",
      "properties": {
        "_source": "Ruta5-RetenSur-Paraiso-Muiscas-Arboleda",
        "_segmentIndex": 0,
        "_position": 40
      },
      "geometry": {
        "type": "Point",
        "coordinates": [
          -73.34857869778163,
          5.560372054279803
        ]
      }
    },
    {
      "type": "Feature",
      "properties": {
        "_source": "Ruta5-RetenSur-Paraiso-Muiscas-Arboleda",
        "_segmentIndex": 0,
        "_position": 41
      },
      "geometry": {
        "type": "Point",
        "coordinates": [
          -73.34838599970655,
          5.560778752207736
        ]
      }
    },
    {
      "type": "Feature",
      "properties": {
        "_source": "Ruta5-RetenSur-Paraiso-Muiscas-Arboleda",
        "_segmentIndex": 0,
        "_position": 42
      },
      "geometry": {
        "type": "Point",
        "coordinates": [
          -73.34819571327695,
          5.561186582292041
        ]
      }
    },
    {
      "type": "Feature",
      "properties": {
        "_source": "Ruta5-RetenSur-Paraiso-Muiscas-Arboleda",
        "_segmentIndex": 0,
        "_position": 43
      },
      "geometry": {
        "type": "Point",
        "coordinates": [
          -73.34800691163514,
          5.561595092911778
        ]
      }
    },
    {
      "type": "Feature",
      "properties": {
        "_source": "Ruta5-RetenSur-Paraiso-Muiscas-Arboleda",
        "_segmentIndex": 0,
        "_position": 44
      },
      "geometry": {
        "type": "Point",
        "coordinates": [
          -73.34781927623865,
          5.562004138079806
        ]
      }
    },
    {
      "type": "Feature",
      "properties": {
        "_source": "Ruta5-RetenSur-Paraiso-Muiscas-Arboleda",
        "_segmentIndex": 0,
        "_position": 45
      },
      "geometry": {
        "type": "Point",
        "coordinates": [
          -73.34763317572653,
          5.562413872748779
        ]
      }
    },
    {
      "type": "Feature",
      "properties": {
        "_source": "Ruta5-RetenSur-Paraiso-Muiscas-Arboleda",
        "_segmentIndex": 0,
        "_position": 46
      },
      "geometry": {
        "type": "Point",
        "coordinates": [
          -73.3474491243082,
          5.562824527892846
        ]
      }
    },
    {
      "type": "Feature",
      "properties": {
        "_source": "Ruta5-RetenSur-Paraiso-Muiscas-Arboleda",
        "_segmentIndex": 0,
        "_position": 47
      },
      "geometry": {
        "type": "Point",
        "coordinates": [
          -73.34726366908933,
          5.563234553854365
        ]
      }
    },
    {
      "type": "Feature",
      "properties": {
        "_source": "Ruta5-RetenSur-Paraiso-Muiscas-Arboleda",
        "_segmentIndex": 0,
        "_position": 48
      },
      "geometry": {
        "type": "Point",
        "coordinates": [
          -73.34707667922247,
          5.56364389198189
        ]
      }
    },
    {
      "type": "Feature",
      "properties": {
        "_source": "Ruta5-RetenSur-Paraiso-Muiscas-Arboleda",
        "_segmentIndex": 0,
        "_position": 49
      },
      "geometry": {
        "type": "Point",
        "coordinates": [
          -73.34688968909533,
          5.564053230050528
        ]
      }
    },
    {
      "type": "Feature",
      "properties": {
        "_source": "Ruta5-RetenSur-Paraiso-Muiscas-Arboleda",
        "_segmentIndex": 0,
        "_position": 50
      },
      "geometry": {
        "type": "Point",
        "coordinates": [
          -73.34670116131963,
          5.564461865911643
        ]
      }
    },
    {
      "type": "Feature",
      "properties": {
        "_source": "Ruta5-RetenSur-Paraiso-Muiscas-Arboleda",
        "_segmentIndex": 0,
        "_position": 51
      },
      "geometry": {
        "type": "Point",
        "coordinates": [
          -73.34651130453571,
          5.564869894854163
        ]
      }
    },
    {
      "type": "Feature",
      "properties": {
        "_source": "Ruta5-RetenSur-Paraiso-Muiscas-Arboleda",
        "_segmentIndex": 0,
        "_position": 52
      },
      "geometry": {
        "type": "Point",
        "coordinates": [
          -73.34632144748831,
          5.565277923735962
        ]
      }
    },
    {
      "type": "Feature",
      "properties": {
        "_source": "Ruta5-RetenSur-Paraiso-Muiscas-Arboleda",
        "_segmentIndex": 0,
        "_position": 53
      },
      "geometry": {
        "type": "Point",
        "coordinates": [
          -73.34612536759147,
          5.565683010702313
        ]
      }
    },
    {
      "type": "Feature",
      "properties": {
        "_source": "Ruta5-RetenSur-Paraiso-Muiscas-Arboleda",
        "_segmentIndex": 0,
        "_position": 54
      },
      "geometry": {
        "type": "Point",
        "coordinates": [
          -73.34592636913295,
          5.5660866960973765
        ]
      }
    },
    {
      "type": "Feature",
      "properties": {
        "_source": "Ruta5-RetenSur-Paraiso-Muiscas-Arboleda",
        "_segmentIndex": 0,
        "_position": 55
      },
      "geometry": {
        "type": "Point",
        "coordinates": [
          -73.34572426224635,
          5.566488854518159
        ]
      }
    },
    {
      "type": "Feature",
      "properties": {
        "_source": "Ruta5-RetenSur-Paraiso-Muiscas-Arboleda",
        "_segmentIndex": 0,
        "_position": 56
      },
      "geometry": {
        "type": "Point",
        "coordinates": [
          -73.34549388450388,
          5.5668753586402016
        ]
      }
    },
    {
      "type": "Feature",
      "properties": {
        "_source": "Ruta5-RetenSur-Paraiso-Muiscas-Arboleda",
        "_segmentIndex": 0,
        "_position": 57
      },
      "geometry": {
        "type": "Point",
        "coordinates": [
          -73.34525220485256,
          5.567255210269481
        ]
      }
    },
    {
      "type": "Feature",
      "properties": {
        "_source": "Ruta5-RetenSur-Paraiso-Muiscas-Arboleda",
        "_segmentIndex": 0,
        "_position": 58
      },
      "geometry": {
        "type": "Point",
        "coordinates": [
          -73.34500355653671,
          5.56763064364999
        ]
      }
    },
    {
      "type": "Feature",
      "properties": {
        "_source": "Ruta5-RetenSur-Paraiso-Muiscas-Arboleda",
        "_segmentIndex": 0,
        "_position": 59
      },
      "geometry": {
        "type": "Point",
        "coordinates": [
          -73.34475490790321,
          5.568006076926302
        ]
      }
    },
    {
      "type": "Feature",
      "properties": {
        "_source": "Ruta5-RetenSur-Paraiso-Muiscas-Arboleda",
        "_segmentIndex": 0,
        "_position": 60
      },
      "geometry": {
        "type": "Point",
        "coordinates": [
          -73.34450625895205,
          5.568381510098408
        ]
      }
    },
    {
      "type": "Feature",
      "properties": {
        "_source": "Ruta5-RetenSur-Paraiso-Muiscas-Arboleda",
        "_segmentIndex": 0,
        "_position": 61
      },
      "geometry": {
        "type": "Point",
        "coordinates": [
          -73.34425122033308,
          5.56875266980399
        ]
      }
    },
    {
      "type": "Feature",
      "properties": {
        "_source": "Ruta5-RetenSur-Paraiso-Muiscas-Arboleda",
        "_segmentIndex": 0,
        "_position": 62
      },
      "geometry": {
        "type": "Point",
        "coordinates": [
          -73.34399590643068,
          5.5691236454986885
        ]
      }
    },
    {
      "type": "Feature",
      "properties": {
        "_source": "Ruta5-RetenSur-Paraiso-Muiscas-Arboleda",
        "_segmentIndex": 0,
        "_position": 63
      },
      "geometry": {
        "type": "Point",
        "coordinates": [
          -73.34374059220592,
          5.569494621083496
        ]
      }
    },
    {
      "type": "Feature",
      "properties": {
        "_source": "Ruta5-RetenSur-Paraiso-Muiscas-Arboleda",
        "_segmentIndex": 0,
        "_position": 64
      },
      "geometry": {
        "type": "Point",
        "coordinates": [
          -73.34348527765876,
          5.569865596558409
        ]
      }
    },
    {
      "type": "Feature",
      "properties": {
        "_source": "Ruta5-RetenSur-Paraiso-Muiscas-Arboleda",
        "_segmentIndex": 0,
        "_position": 65
      },
      "geometry": {
        "type": "Point",
        "coordinates": [
          -73.34323521108477,
          5.5702400963330305
        ]
      }
    },
    {
      "type": "Feature",
      "properties": {
        "_source": "Ruta5-RetenSur-Paraiso-Muiscas-Arboleda",
        "_segmentIndex": 0,
        "_position": 66
      },
      "geometry": {
        "type": "Point",
        "coordinates": [
          -73.3429851499058,
          5.570614599839231
        ]
      }
    },
    {
      "type": "Feature",
      "properties": {
        "_source": "Ruta5-RetenSur-Paraiso-Muiscas-Arboleda",
        "_segmentIndex": 0,
        "_position": 67
      },
      "geometry": {
        "type": "Point",
        "coordinates": [
          -73.342735088408,
          5.57098910323999
        ]
      }
    },
    {
      "type": "Feature",
      "properties": {
        "_source": "Ruta5-RetenSur-Paraiso-Muiscas-Arboleda",
        "_segmentIndex": 0,
        "_position": 0
      },
      "geometry": {
        "type": "Point",
        "coordinates": [
          -73.342533,
          5.571208
        ]
      }
    },
    {
      "type": "Feature",
      "properties": {
        "_source": "Ruta5-RetenSur-Paraiso-Muiscas-Arboleda",
        "_segmentIndex": 0,
        "_position": 1
      },
      "geometry": {
        "type": "Point",
        "coordinates": [
          -73.34215922907829,
          5.570955617070096
        ]
      }
    },
    {
      "type": "Feature",
      "properties": {
        "_source": "Ruta5-RetenSur-Paraiso-Muiscas-Arboleda",
        "_segmentIndex": 0,
        "_position": 2
      },
      "geometry": {
        "type": "Point",
        "coordinates": [
          -73.34179507763609,
          5.570689463624595
        ]
      }
    },
    {
      "type": "Feature",
      "properties": {
        "_source": "Ruta5-RetenSur-Paraiso-Muiscas-Arboleda",
        "_segmentIndex": 0,
        "_position": 3
      },
      "geometry": {
        "type": "Point",
        "coordinates": [
          -73.3414321116921,
          5.57042171893113
        ]
      }
    },
    {
      "type": "Feature",
      "properties": {
        "_source": "Ruta5-RetenSur-Paraiso-Muiscas-Arboleda",
        "_segmentIndex": 0,
        "_position": 4
      },
      "geometry": {
        "type": "Point",
        "coordinates": [
          -73.34107423841996,
          5.570147739183174
        ]
      }
    },
    {
      "type": "Feature",
      "properties": {
        "_source": "Ruta5-RetenSur-Paraiso-Muiscas-Arboleda",
        "_segmentIndex": 0,
        "_position": 5
      },
      "geometry": {
        "type": "Point",
        "coordinates": [
          -73.34081451238542,
          5.5697914166640015
        ]
      }
    },
    {
      "type": "Feature",
      "properties": {
        "_source": "Ruta5-RetenSur-Paraiso-Muiscas-Arboleda",
        "_segmentIndex": 0,
        "_position": 6
      },
      "geometry": {
        "type": "Point",
        "coordinates": [
          -73.34059221713585,
          5.569406438897044
        ]
      }
    },
    {
      "type": "Feature",
      "properties": {
        "_source": "Ruta5-RetenSur-Paraiso-Muiscas-Arboleda",
        "_segmentIndex": 0,
        "_position": 7
      },
      "geometry": {
        "type": "Point",
        "coordinates": [
          -73.34025842310778,
          5.569106894810266
        ]
      }
    },
    {
      "type": "Feature",
      "properties": {
        "_source": "Ruta5-RetenSur-Paraiso-Muiscas-Arboleda",
        "_segmentIndex": 0,
        "_position": 8
      },
      "geometry": {
        "type": "Point",
        "coordinates": [
          -73.33989368904705,
          5.568841534362712
        ]
      }
    },
    {
      "type": "Feature",
      "properties": {
        "_source": "Ruta5-RetenSur-Paraiso-Muiscas-Arboleda",
        "_segmentIndex": 0,
        "_position": 9
      },
      "geometry": {
        "type": "Point",
        "coordinates": [
          -73.33953476456117,
          5.568568524160428
        ]
      }
    },
    {
      "type": "Feature",
      "properties": {
        "_source": "Ruta5-RetenSur-Paraiso-Muiscas-Arboleda",
        "_segmentIndex": 0,
        "_position": 10
      },
      "geometry": {
        "type": "Point",
        "coordinates": [
          -73.33917874901574,
          5.568291683732391
        ]
      }
    },
    {
      "type": "Feature",
      "properties": {
        "_source": "Ruta5-RetenSur-Paraiso-Muiscas-Arboleda",
        "_segmentIndex": 0,
        "_position": 0
      },
      "geometry": {
        "type": "Point",
        "coordinates": [
          -73.339016,
          5.56823
        ]
      }
    },
    {
      "type": "Feature",
      "properties": {
        "_source": "Ruta5-RetenSur-Paraiso-Muiscas-Arboleda",
        "_segmentIndex": 0,
        "_position": 1
      },
      "geometry": {
        "type": "Point",
        "coordinates": [
          -73.33858833673584,
          5.568360263007901
        ]
      }
    },
    {
      "type": "Feature",
      "properties": {
        "_source": "Ruta5-RetenSur-Paraiso-Muiscas-Arboleda",
        "_segmentIndex": 0,
        "_position": 2
      },
      "geometry": {
        "type": "Point",
        "coordinates": [
          -73.33824334776274,
          5.568642368071202
        ]
      }
    },
    {
      "type": "Feature",
      "properties": {
        "_source": "Ruta5-RetenSur-Paraiso-Muiscas-Arboleda",
        "_segmentIndex": 0,
        "_position": 3
      },
      "geometry": {
        "type": "Point",
        "coordinates": [
          -73.33803739202756,
          5.569039255858755
        ]
      }
    },
    {
      "type": "Feature",
      "properties": {
        "_source": "Ruta5-RetenSur-Paraiso-Muiscas-Arboleda",
        "_segmentIndex": 0,
        "_position": 4
      },
      "geometry": {
        "type": "Point",
        "coordinates": [
          -73.33787124580823,
          5.569453476646375
        ]
      }
    },
    {
      "type": "Feature",
      "properties": {
        "_source": "Ruta5-RetenSur-Paraiso-Muiscas-Arboleda",
        "_segmentIndex": 0,
        "_position": 5
      },
      "geometry": {
        "type": "Point",
        "coordinates": [
          -73.33747820286302,
          5.56965241794416
        ]
      }
    },
    {
      "type": "Feature",
      "properties": {
        "_source": "Ruta5-RetenSur-Paraiso-Muiscas-Arboleda",
        "_segmentIndex": 0,
        "_position": 6
      },
      "geometry": {
        "type": "Point",
        "coordinates": [
          -73.33703194771128,
          5.569713578806061
        ]
      }
    },
    {
      "type": "Feature",
      "properties": {
        "_source": "Ruta5-RetenSur-Paraiso-Muiscas-Arboleda",
        "_segmentIndex": 0,
        "_position": 0
      },
      "geometry": {
        "type": "Point",
        "coordinates": [
          -73.336973,
          5.569738
        ]
      }
    },
    {
      "type": "Feature",
      "properties": {
        "_source": "Ruta5-RetenSur-Paraiso-Muiscas-Arboleda",
        "_segmentIndex": 0,
        "_position": 1
      },
      "geometry": {
        "type": "Point",
        "coordinates": [
          -73.33658396985669,
          5.569966635803078
        ]
      }
    },
    {
      "type": "Feature",
      "properties": {
        "_source": "Ruta5-RetenSur-Paraiso-Muiscas-Arboleda",
        "_segmentIndex": 0,
        "_position": 2
      },
      "geometry": {
        "type": "Point",
        "coordinates": [
          -73.33619311184461,
          5.570192165355493
        ]
      }
    },
    {
      "type": "Feature",
      "properties": {
        "_source": "Ruta5-RetenSur-Paraiso-Muiscas-Arboleda",
        "_segmentIndex": 0,
        "_position": 3
      },
      "geometry": {
        "type": "Point",
        "coordinates": [
          -73.33581013951448,
          5.570430707281524
        ]
      }
    },
    {
      "type": "Feature",
      "properties": {
        "_source": "Ruta5-RetenSur-Paraiso-Muiscas-Arboleda",
        "_segmentIndex": 0,
        "_position": 4
      },
      "geometry": {
        "type": "Point",
        "coordinates": [
          -73.33541033778164,
          5.57063883250503
        ]
      }
    },
    {
      "type": "Feature",
      "properties": {
        "_source": "Ruta5-RetenSur-Paraiso-Muiscas-Arboleda",
        "_segmentIndex": 0,
        "_position": 5
      },
      "geometry": {
        "type": "Point",
        "coordinates": [
          -73.334980175506,
          5.570776303860443
        ]
      }
    },
    {
      "type": "Feature",
      "properties": {
        "_source": "Ruta5-RetenSur-Paraiso-Muiscas-Arboleda",
        "_segmentIndex": 0,
        "_position": 6
      },
      "geometry": {
        "type": "Point",
        "coordinates": [
          -73.33457659817265,
          5.570973049609867
        ]
      }
    },
    {
      "type": "Feature",
      "properties": {
        "_source": "Ruta5-RetenSur-Paraiso-Muiscas-Arboleda",
        "_segmentIndex": 0,
        "_position": 7
      },
      "geometry": {
        "type": "Point",
        "coordinates": [
          -73.33426122896294,
          5.571293946308384
        ]
      }
    },
    {
      "type": "Feature",
      "properties": {
        "_source": "Ruta5-RetenSur-Paraiso-Muiscas-Arboleda",
        "_segmentIndex": 0,
        "_position": 8
      },
      "geometry": {
        "type": "Point",
        "coordinates": [
          -73.3339580337104,
          5.571627009835775
        ]
      }
    },
    {
      "type": "Feature",
      "properties": {
        "_source": "Ruta5-RetenSur-Paraiso-Muiscas-Arboleda",
        "_segmentIndex": 0,
        "_position": 9
      },
      "geometry": {
        "type": "Point",
        "coordinates": [
          -73.33366939913935,
          5.571972942966903
        ]
      }
    },
    {
      "type": "Feature",
      "properties": {
        "_source": "Ruta5-RetenSur-Paraiso-Muiscas-Arboleda",
        "_segmentIndex": 0,
        "_position": 10
      },
      "geometry": {
        "type": "Point",
        "coordinates": [
          -73.33338139865684,
          5.572319398300662
        ]
      }
    },
    {
      "type": "Feature",
      "properties": {
        "_source": "Ruta5-RetenSur-Paraiso-Muiscas-Arboleda",
        "_segmentIndex": 0,
        "_position": 11
      },
      "geometry": {
        "type": "Point",
        "coordinates": [
          -73.33309407857303,
          5.572666413966207
        ]
      }
    }
  ]
}