{
  "type": "FeatureCollection",
  "features": [
    {
      "type": "Feature",
      "properties": {
        "_source": "Ruta15-Cooservicios-AvenidaNorte-Muiscas",
        "_segmentIndex": 0,
        "_position": 0
      },
      "geometry": {
        "type": "Point",
        "coordinates": [
          -73.353884,
          5.515832
        ]
      }
    },
    {
      "type": "Feature",
      "properties": {
        "_source": "Ruta15-Cooservicios-AvenidaNorte-Muiscas",
        "_segmentIndex": 0,
        "_position": 1
      },
      "geometry": {
        "type": "Point",
        "coordinates": [
          -73.35413674656812,
          5.515524059981995
        ]
      }
    },
    {
      "type": "Feature",
      "properties": {
        "_source": "Ruta15-Cooservicios-AvenidaNorte-Muiscas",
        "_segmentIndex": 0,
        "_position": 2
      },
      "geometry": {
        "type": "Point",
        "coordinates": [
          -73.35404546543957,
          5.515164913437108
        ]
      }
    },
    {
      "type": "Feature",
      "properties": {
        "_source": "Ruta15-Cooservicios-AvenidaNorte-Muiscas",
        "_segmentIndex": 0,
        "_position": 3
      },
      "geometry": {
        "type": "Point",
        "coordinates": [
          -73.35428508471277,
          5.514783835702353
        ]
      }
    },
    {
      "type": "Feature",
      "properties": {
        "_source": "Ruta15-Cooservicios-AvenidaNorte-Muiscas",
        "_segmentIndex": 0,
        "_position": 4
      },
      "geometry": {
        "type": "Point",
        "coordinates": [
          -73.35452185912847,
          5.514400886759598
        ]
      }
    },
    {
      "type": "Feature",
      "properties": {
        "_source": "Ruta15-Cooservicios-AvenidaNorte-Muiscas",
        "_segmentIndex": 0,
        "_position": 5
      },
      "geometry": {
        "type": "Point",
        "coordinates": [
          -73.35490198265937,
          5.514404192127771
        ]
      }
    },
    {
      "type": "Feature",
      "properties": {
        "_source": "Ruta15-Cooservicios-AvenidaNorte-Muiscas",
        "_segmentIndex": 0,
        "_position": 6
      },
      "geometry": {
        "type": "Point",
        "coordinates": [
          -73.35533200862642,
          5.5145419587547355
        ]
      }
    },
    {
      "type": "Feature",
      "properties": {
        "_source": "Ruta15-Cooservicios-AvenidaNorte-Muiscas",
        "_segmentIndex": 0,
        "_position": 7
      },
      "geometry": {
        "type": "Point",
        "coordinates": [
          -73.3557620347931,
          5.514679725072976
        ]
      }
    },
    {
      "type": "Feature",
      "properties": {
        "_source": "Ruta15-Cooservicios-AvenidaNorte-Muiscas",
        "_segmentIndex": 0,
        "_position": 8
      },
      "geometry": {
        "type": "Point",
        "coordinates": [
          -73.35619206115945,
          5.514817491082487
        ]
      }
    },
    {
      "type": "Feature",
      "properties": {
        "_source": "Ruta15-Cooservicios-AvenidaNorte-Muiscas",
        "_segmentIndex": 0,
        "_position": 9
      },
      "geometry": {
        "type": "Point",
        "coordinates": [
          -73.35662238242443,
          5.51495433767112
        ]
      }
    },
    {
      "type": "Feature",
      "properties": {
        "_source": "Ruta15-Cooservicios-AvenidaNorte-Muiscas",
        "_segmentIndex": 0,
        "_position": 10
      },
      "geometry": {
        "type": "Point",
        "coordinates": [
          -73.35705308296102,
          5.515090001688281
        ]
      }
    },
    {
      "type": "Feature",
      "properties": {
        "_source": "Ruta15-Cooservicios-AvenidaNorte-Muiscas",
        "_segmentIndex": 0,
        "_position": 11
      },
      "geometry": {
        "type": "Point",
        "coordinates": [
          -73.35748150472736,
          5.515232619185517
        ]
      }
    },
    {
      "type": "Feature",
      "properties": {
        "_source": "Ruta15-Cooservicios-AvenidaNorte-Muiscas",
        "_segmentIndex": 0,
        "_position": 12
      },
      "geometry": {
        "type": "Point",
        "coordinates": [
          -73.35790972564371,
          5.515375849857506
        ]
      }
    },
    {
      "type": "Feature",
      "properties": {
        "_source": "Ruta15-Cooservicios-AvenidaNorte-Muiscas",
        "_segmentIndex": 0,
        "_position": 0
      },
      "geometry": {
        "type": "Point",
        "coordinates": [
          -73.357961,
          5.515393
        ]
      }
    },
    {
      "type": "Feature",
      "properties": {
        "_source": "Ruta15-Cooservicios-AvenidaNorte-Muiscas",
        "_segmentIndex": 0,
        "_position": 1
      },
      "geometry": {
        "type": "Point",
        "coordinates": [
          -73.35811581576523,
          5.514972754177765
        ]
      }
    },
    {
      "type": "Feature",
      "properties": {
        "_source": "Ruta15-Cooservicios-AvenidaNorte-Muiscas",
        "_segmentIndex": 0,
        "_position": 2
      },
      "geometry": {
        "type": "Point",
        "coordinates": [
          -73.35825254101525,
          5.514544250185363
        ]
      }
    },
    {
      "type": "Feature",
      "properties": {
        "_source": "Ruta15-Cooservicios-AvenidaNorte-Muiscas",
        "_segmentIndex": 0,
        "_position": 0
      },
      "geometry": {
        "type": "Point",
        "coordinates": [
          -73.358319,
          5.514313
        ]
      }
    },
    {
      "type": "Feature",
      "properties": {
        "_source": "Ruta15-Cooservicios-AvenidaNorte-Muiscas",
        "_segmentIndex": 0,
        "_position": 1
      },
      "geometry": {
        "type": "Point",
        "coordinates": [
          -73.35875024810473,
          5.514446928005092
        ]
      }
    },
    {
      "type": "Feature",
      "properties": {
        "_source": "Ruta15-Cooservicios-AvenidaNorte-Muiscas",
        "_segmentIndex": 0,
        "_position": 2
      },
      "geometry": {
        "type": "Point",
        "coordinates": [
          -73.35918178560479,
          5.514579929075418
        ]
      }
    },
    {
      "type": "Feature",
      "properties": {
        "_source": "Ruta15-Cooservicios-AvenidaNorte-Muiscas",
        "_segmentIndex": 0,
        "_position": 3
      },
      "geometry": {
        "type": "Point",
        "coordinates": [
          -73.3596150812458,
          5.514707129136819
        ]
      }
    },
    {
      "type": "Feature",
      "properties": {
        "_source": "Ruta15-Cooservicios-AvenidaNorte-Muiscas",
        "_segmentIndex": 0,
        "_position": 4
      },
      "geometry": {
        "type": "Point",
        "coordinates": [
          -73.36004759856083,
          5.514836939687715
        ]
      }
    },
    {
      "type": "Feature",
      "properties": {
        "_source": "Ruta15-Cooservicios-AvenidaNorte-Muiscas",
        "_segmentIndex": 0,
        "_position": 5
      },
      "geometry": {
        "type": "Point",
        "coordinates": [
          -73.36047946703468,
          5.514968826336194
        ]
      }
    },
    {
      "type": "Feature",
      "properties": {
        "_source": "Ruta15-Cooservicios-AvenidaNorte-Muiscas",
        "_segmentIndex": 0,
        "_position": 0
      },
      "geometry": {
        "type": "Point",
        "coordinates": [
          -73.360683,
          5.515093
        ]
      }
    },
    {
      "type": "Feature",
      "properties": {
        "_source": "Ruta15-Cooservicios-AvenidaNorte-Muiscas",
        "_segmentIndex": 0,
        "_position": 1
      },
      "geometry": {
        "type": "Point",
        "coordinates": [
          -73.36051193555097,
          5.515507916983735
        ]
      }
    },
    {
      "type": "Feature",
      "properties": {
        "_source": "Ruta15-Cooservicios-AvenidaNorte-Muiscas",
        "_segmentIndex": 0,
        "_position": 2
      },
      "geometry": {
        "type": "Point",
        "coordinates": [
          -73.360371752673,
          5.515935372209751
        ]
      }
    },
    {
      "type": "Feature",
      "properties": {
        "_source": "Ruta15-Cooservicios-AvenidaNorte-Muiscas",
        "_segmentIndex": 0,
        "_position": 3
      },
      "geometry": {
        "type": "Point",
        "coordinates": [
          -73.36022388267594,
          5.516360247173275
        ]
      }
    },
    {
      "type": "Feature",
      "properties": {
        "_source": "Ruta15-Cooservicios-AvenidaNorte-Muiscas",
        "_segmentIndex": 0,
        "_position": 4
      },
      "geometry": {
        "type": "Point",
        "coordinates": [
          -73.36010758383898,
          5.516793199932289
        ]
      }
    },
    {
      "type": "Feature",
      "properties": {
        "_source": "Ruta15-Cooservicios-AvenidaNorte-Muiscas",
        "_segmentIndex": 0,
        "_position": 5
      },
      "geometry": {
        "type": "Point",
        "coordinates": [
          -73.36008987591259,
          5.51723614374295
        ]
      }
    },
    {
      "type": "Feature",
      "properties": {
        "_source": "Ruta15-Cooservicios-AvenidaNorte-Muiscas",
        "_segmentIndex": 0,
        "_position": 6
      },
      "geometry": {
        "type": "Point",
        "coordinates": [
          -73.36018412541095,
          5.5176759001908415
        ]
      }
    },
    {
      "type": "Feature",
      "properties": {
        "_source": "Ruta15-Cooservicios-AvenidaNorte-Muiscas",
        "_segmentIndex": 0,
        "_position": 7
      },
      "geometry": {
        "type": "Point",
        "coordinates": [
          -73.36028512560284,
          5.518114176254568
        ]
      }
    },
    {
      "type": "Feature",
      "properties": {
        "_source": "Ruta15-Cooservicios-AvenidaNorte-Muiscas",
        "_segmentIndex": 0,
        "_position": 8
      },
      "geometry": {
        "type": "Point",
        "coordinates": [
          -73.36038425278771,
          5.5185524535055075
        ]
      }
    },
    {
      "type": "Feature",
      "properties": {
        "_source": "Ruta15-Cooservicios-AvenidaNorte-Muiscas",
        "_segmentIndex": 0,
        "_position": 9
      },
      "geometry": {
        "type": "Point",
        "coordinates": [
          -73.36022899938112,
          5.518970071586965
        ]
      }
    },
    {
      "type": "Feature",
      "properties": {
        "_source": "Ruta15-Cooservicios-AvenidaNorte-Muiscas",
        "_segmentIndex": 0,
        "_position": 10
      },
      "geometry": {
        "type": "Point",
        "coordinates": [
          -73.36004302741158,
          5.519379862552261
        ]
      }
    },
    {
      "type": "Feature",
      "properties": {
        "_source": "Ruta15-Cooservicios-AvenidaNorte-Muiscas",
        "_segmentIndex": 0,
        "_position": 11
      },
      "geometry": {
        "type": "Point",
        "coordinates": [
          -73.35986228081146,
          5.519791934581056
        ]
      }
    },
    {
      "type": "Feature",
      "properties": {
        "_source": "Ruta15-Cooservicios-AvenidaNorte-Muiscas",
        "_segmentIndex": 0,
        "_position": 12
      },
      "geometry": {
        "type": "Point",
        "coordinates": [
          -73.35975694474669,
          5.520205507079611
        ]
      }
    },
    {
      "type": "Feature",
      "properties": {
        "_source": "Ruta15-Cooservicios-AvenidaNorte-Muiscas",
        "_segmentIndex": 0,
        "_position": 13
      },
      "geometry": {
        "type": "Point",
        "coordinates": [
          -73.3597835354331,
          5.520649116827667
        ]
      }
    },
    {
      "type": "Feature",
      "properties": {
        "_source": "Ruta15-Cooservicios-AvenidaNorte-Muiscas",
        "_segmentIndex": 0,
        "_position": 14
      },
      "geometry": {
        "type": "Point",
        "coordinates": [
          -73.35969914566294,
          5.521090298160846
        ]
      }
    },
    {
      "type": "Feature",
      "properties": {
        "_source": "Ruta15-Cooservicios-AvenidaNorte-Muiscas",
        "_segmentIndex": 0,
        "_position": 15
      },
      "geometry": {
        "type": "Point",
        "coordinates": [
          -73.35953126258211,
          5.521503552571074
        ]
      }
    },
    {
      "type": "Feature",
      "properties": {
        "_source": "Ruta15-Cooservicios-AvenidaNorte-Muiscas",
        "_segmentIndex": 0,
        "_position": 16
      },
      "geometry": {
        "type": "Point",
        "coordinates": [
          -73.3592618767394,
          5.521862726376025
        ]
      }
    },
    {
      "type": "Feature",
      "properties": {
        "_source": "Ruta15-Cooservicios-AvenidaNorte-Muiscas",
        "_segmentIndex": 0,
        "_position": 17
      },
      "geometry": {
        "type": "Point",
        "coordinates": [
          -73.35900309182104,
          5.52220248296845
        ]
      }
    },
    {
      "type": "Feature",
      "properties": {
        "_source": "Ruta15-Cooservicios-AvenidaNorte-Muiscas",
        "_segmentIndex": 0,
        "_position": 0
      },
      "geometry": {
        "type": "Point",
        "coordinates": [
          -73.359012,
          5.522217
        ]
      }
    },
    {
      "type": "Feature",
      "properties": {
        "_source": "Ruta15-Cooservicios-AvenidaNorte-Muiscas",
        "_segmentIndex": 0,
        "_position": 1
      },
      "geometry": {
        "type": "Point",
        "coordinates": [
          -73.35937612390792,
          5.522483120815453
        ]
      }
    },
    {
      "type": "Feature",
      "properties": {
        "_source": "Ruta15-Cooservicios-AvenidaNorte-Muiscas",
        "_segmentIndex": 0,
        "_position": 0
      },
      "geometry": {
        "type": "Point",
        "coordinates": [
          -73.359666,
          5.522642
        ]
      }
    },
    {
      "type": "Feature",
      "properties": {
        "_source": "Ruta15-Cooservicios-AvenidaNorte-Muiscas",
        "_segmentIndex": 0,
        "_position": 0
      },
      "geometry": {
        "type": "Point",
        "coordinates": [
          -73.359875,
          5.522392
        ]
      }
    },
    {
      "type": "Feature",
      "properties": {
        "_source": "Ruta15-Cooservicios-AvenidaNorte-Muiscas",
        "_segmentIndex": 0,
        "_position": 1
      },
      "geometry": {
        "type": "Point",
        "coordinates": [
          -73.36012619002739,
          5.522765718579765
        ]
      }
    },
    {
      "type": "Feature",
      "properties": {
        "_source": "Ruta15-Cooservicios-AvenidaNorte-Muiscas",
        "_segmentIndex": 0,
        "_position": 0
      },
      "geometry": {
        "type": "Point",
        "coordinates": [
          -73.360179,
          5.522847
        ]
      }
    },
    {
      "type": "Feature",
      "properties": {
        "_source": "Ruta15-Cooservicios-AvenidaNorte-Muiscas",
        "_segmentIndex": 0,
        "_position": 1
      },
      "geometry": {
        "type": "Point",
        "coordinates": [
          -73.35990545447714,
          5.523204797167345
        ]
      }
    },
    {
      "type": "Feature",
      "properties": {
        "_source": "Ruta15-Cooservicios-AvenidaNorte-Muiscas",
        "_segmentIndex": 0,
        "_position": 2
      },
      "geometry": {
        "type": "Point",
        "coordinates": [
          -73.35962693988454,
          5.52355882523585
        ]
      }
    },
    {
      "type": "Feature",
      "properties": {
        "_source": "Ruta15-Cooservicios-AvenidaNorte-Muiscas",
        "_segmentIndex": 0,
        "_position": 3
      },
      "geometry": {
        "type": "Point",
        "coordinates": [
          -73.35937832758651,
          5.523933082569635
        ]
      }
    },
    {
      "type": "Feature",
      "properties": {
        "_source": "Ruta15-Cooservicios-AvenidaNorte-Muiscas",
        "_segmentIndex": 0,
        "_position": 0
      },
      "geometry": {
        "type": "Point",
        "coordinates": [
          -73.359265,
          5.524299
        ]
      }
    },
    {
      "type": "Feature",
      "properties": {
        "_source": "Ruta15-Cooservicios-AvenidaNorte-Muiscas",
        "_segmentIndex": 0,
        "_position": 1
      },
      "geometry": {
        "type": "Point",
        "coordinates": [
          -73.35922460506183,
          5.524742944579269
        ]
      }
    },
    {
      "type": "Feature",
      "properties": {
        "_source": "Ruta15-Cooservicios-AvenidaNorte-Muiscas",
        "_segmentIndex": 0,
        "_position": 2
      },
      "geometry": {
        "type": "Point",
        "coordinates": [
          -73.35913918874472,
          5.525184227851408
        ]
      }
    },
    {
      "type": "Feature",
      "properties": {
        "_source": "Ruta15-Cooservicios-AvenidaNorte-Muiscas",
        "_segmentIndex": 0,
        "_position": 3
      },
      "geometry": {
        "type": "Point",
        "coordinates": [
          -73.35936666709351,
          5.525496590676387
        ]
      }
    },
    {
      "type": "Feature",
      "properties": {
        "_source": "Ruta15-Cooservicios-AvenidaNorte-Muiscas",
        "_segmentIndex": 0,
        "_position": 4
      },
      "geometry": {
        "type": "Point",
        "coordinates": [
          -73.35979369244818,
          5.525643336500054
        ]
      }
    },
    {
      "type": "Feature",
      "properties": {
        "_source": "Ruta15-Cooservicios-AvenidaNorte-Muiscas",
        "_segmentIndex": 0,
        "_position": 5
      },
      "geometry": {
        "type": "Point",
        "coordinates": [
          -73.36022324882909,
          5.52578129930237
        ]
      }
    },
    {
      "type": "Feature",
      "properties": {
        "_source": "Ruta15-Cooservicios-AvenidaNorte-Muiscas",
        "_segmentIndex": 0,
        "_position": 6
      },
      "geometry": {
        "type": "Point",
        "coordinates": [
          -73.36066606091005,
          5.525869928613791
        ]
      }
    },
    {
      "type": "Feature",
      "properties": {
        "_source": "Ruta15-Cooservicios-AvenidaNorte-Muiscas",
        "_segmentIndex": 0,
        "_position": 0
      },
      "geometry": {
        "type": "Point",
        "coordinates": [
          -73.361042,
          5.52594
        ]
      }
    },
    {
      "type": "Feature",
      "properties": {
        "_source": "Ruta15-Cooservicios-AvenidaNorte-Muiscas",
        "_segmentIndex": 0,
        "_position": 1
      },
      "geometry": {
        "type": "Point",
        "coordinates": [
          -73.3607808134339,
          5.52630677186708
        ]
      }
    },
    {
      "type": "Feature",
      "properties": {
        "_source": "Ruta15-Cooservicios-AvenidaNorte-Muiscas",
        "_segmentIndex": 0,
        "_position": 2
      },
      "geometry": {
        "type": "Point",
        "coordinates": [
          -73.36050728675659,
          5.526664633606243
        ]
      }
    },
    {
      "type": "Feature",
      "properties": {
        "_source": "Ruta15-Cooservicios-AvenidaNorte-Muiscas",
        "_segmentIndex": 0,
        "_position": 3
      },
      "geometry": {
        "type": "Point",
        "coordinates": [
          -73.3602235059804,
          5.527014424214088
        ]
      }
    },
    {
      "type": "Feature",
      "properties": {
        "_source": "Ruta15-Cooservicios-AvenidaNorte-Muiscas",
        "_segmentIndex": 0,
        "_position": 4
      },
      "geometry": {
        "type": "Point",
        "coordinates": [
          -73.35993281378967,
          5.527358142081403
        ]
      }
    },
    {
      "type": "Feature",
      "properties": {
        "_source": "Ruta15-Cooservicios-AvenidaNorte-Muiscas",
        "_segmentIndex": 0,
        "_position": 0
      },
      "geometry": {
        "type": "Point",
        "coordinates": [
          -73.359744,
          5.527675
        ]
      }
    },
    {
      "type": "Feature",
      "properties": {
        "_source": "Ruta15-Cooservicios-AvenidaNorte-Muiscas",
        "_segmentIndex": 0,
        "_position": 1
      },
      "geometry": {
        "type": "Point",
        "coordinates": [
          -73.36010480341938,
          5.527921837613848
        ]
      }
    },
    {
      "type": "Feature",
      "properties": {
        "_source": "Ruta15-Cooservicios-AvenidaNorte-Muiscas",
        "_segmentIndex": 0,
        "_position": 0
      },
      "geometry": {
        "type": "Point",
        "coordinates": [
          -73.360096,
          5.528149
        ]
      }
    },
    {
      "type": "Feature",
      "properties": {
        "_source": "Ruta15-Cooservicios-AvenidaNorte-Muiscas",
        "_segmentIndex": 0,
        "_position": 1
      },
      "geometry": {
        "type": "Point",
        "coordinates": [
          -73.3605324999785,
          5.528264889162335
        ]
      }
    },
    {
      "type": "Feature",
      "properties": {
        "_source": "Ruta15-Cooservicios-AvenidaNorte-Muiscas",
        "_segmentIndex": 0,
        "_position": 2
      },
      "geometry": {
        "type": "Point",
        "coordinates": [
          -73.36096900012792,
          5.528380778005802
        ]
      }
    },
    {
      "type": "Feature",
      "properties": {
        "_source": "Ruta15-Cooservicios-AvenidaNorte-Muiscas",
        "_segmentIndex": 0,
        "_position": 0
      },
      "geometry": {
        "type": "Point",
        "coordinates": [
          -73.361064,
          5.528406
        ]
      }
    },
    {
      "type": "Feature",
      "properties": {
        "_source": "Ruta15-Cooservicios-AvenidaNorte-Muiscas",
        "_segmentIndex": 0,
        "_position": 1
      },
      "geometry": {
        "type": "Point",
        "coordinates": [
          -73.36095926291705,
          5.528839723727543
        ]
      }
    },
    {
      "type": "Feature",
      "properties": {
        "_source": "Ruta15-Cooservicios-AvenidaNorte-Muiscas",
        "_segmentIndex": 0,
        "_position": 2
      },
      "geometry": {
        "type": "Point",
        "coordinates": [
          -73.36083398411614,
          5.529271748257348
        ]
      }
    },
    {
      "type": "Feature",
      "properties": {
        "_source": "Ruta15-Cooservicios-AvenidaNorte-Muiscas",
        "_segmentIndex": 0,
        "_position": 3
      },
      "geometry": {
        "type": "Point",
        "coordinates": [
          -73.36070885543958,
          5.529703815917318
        ]
      }
    },
    {
      "type": "Feature",
      "properties": {
        "_source": "Ruta15-Cooservicios-AvenidaNorte-Muiscas",
        "_segmentIndex": 0,
        "_position": 4
      },
      "geometry": {
        "type": "Point",
        "coordinates": [
          -73.36058327602521,
          5.5301357540341805
        ]
      }
    },
    {
      "type": "Feature",
      "properties": {
        "_source": "Ruta15-Cooservicios-AvenidaNorte-Muiscas",
        "_segmentIndex": 0,
        "_position": 5
      },
      "geometry": {
        "type": "Point",
        "coordinates": [
          -73.36046097300822,
          5.530568612805641
        ]
      }
    },
    {
      "type": "Feature",
      "properties": {
        "_source": "Ruta15-Cooservicios-AvenidaNorte-Muiscas",
        "_segmentIndex": 0,
        "_position": 6
      },
      "geometry": {
        "type": "Point",
        "coordinates": [
          -73.3603419565478,
          5.531002387715086
        ]
      }
    },
    {
      "type": "Feature",
      "properties": {
        "_source": "Ruta15-Cooservicios-AvenidaNorte-Muiscas",
        "_segmentIndex": 0,
        "_position": 7
      },
      "geometry": {
        "type": "Point",
        "coordinates": [
          -73.3602220023825,
          5.531435897675044
        ]
      }
    },
    {
      "type": "Feature",
      "properties": {
        "_source": "Ruta15-Cooservicios-AvenidaNorte-Muiscas",
        "_segmentIndex": 0,
        "_position": 8
      },
      "geometry": {
        "type": "Point",
        "coordinates": [
          -73.36009589944263,
          5.531867684764349
        ]
      }
    },
    {
      "type": "Feature",
      "properties": {
        "_source": "Ruta15-Cooservicios-AvenidaNorte-Muiscas",
        "_segmentIndex": 0,
        "_position": 9
      },
      "geometry": {
        "type": "Point",
        "coordinates": [
          -73.35996851738845,
          5.532299098661613
        ]
      }
    },
    {
      "type": "Feature",
      "properties": {
        "_source": "Ruta15-Cooservicios-AvenidaNorte-Muiscas",
        "_segmentIndex": 0,
        "_position": 10
      },
      "geometry": {
        "type": "Point",
        "coordinates": [
          -73.3598406092122,
          5.532730358593706
        ]
      }
    },
    {
      "type": "Feature",
      "properties": {
        "_source": "Ruta15-Cooservicios-AvenidaNorte-Muiscas",
        "_segmentIndex": 0,
        "_position": 11
      },
      "geometry": {
        "type": "Point",
        "coordinates": [
          -73.35971696640256,
          5.533162850044156
        ]
      }
    },
    {
      "type": "Feature",
      "properties": {
        "_source": "Ruta15-Cooservicios-AvenidaNorte-Muiscas",
        "_segmentIndex": 0,
        "_position": 12
      },
      "geometry": {
        "type": "Point",
        "coordinates": [
          -73.35959239953141,
          5.533595069430995
        ]
      }
    },
    {
      "type": "Feature",
      "properties": {
        "_source": "Ruta15-Cooservicios-AvenidaNorte-Muiscas",
        "_segmentIndex": 0,
        "_position": 13
      },
      "geometry": {
        "type": "Point",
        "coordinates": [
          -73.35945974513977,
          5.534024907463119
        ]
      }
    },
    {
      "type": "Feature",
      "properties": {
        "_source": "Ruta15-Cooservicios-AvenidaNorte-Muiscas",
        "_segmentIndex": 0,
        "_position": 14
      },
      "geometry": {
        "type": "Point",
        "coordinates": [
          -73.35932709055528,
          5.534454745465761
        ]
      }
    },
    {
      "type": "Feature",
      "properties": {
        "_source": "Ruta15-Cooservicios-AvenidaNorte-Muiscas",
        "_segmentIndex": 0,
        "_position": 15
      },
      "geometry": {
        "type": "Point",
        "coordinates": [
          -73.35920200646578,
          5.534886823961286
        ]
      }
    },
    {
      "type": "Feature",
      "properties": {
        "_source": "Ruta15-Cooservicios-AvenidaNorte-Muiscas",
        "_segmentIndex": 0,
        "_position": 16
      },
      "geometry": {
        "type": "Point",
        "coordinates": [
          -73.35907827750711,
          5.5353192888926
        ]
      }
    },
    {
      "type": "Feature",
      "properties": {
        "_source": "Ruta15-Cooservicios-AvenidaNorte-Muiscas",
        "_segmentIndex": 0,
        "_position": 0
      },
      "geometry": {
        "type": "Point",
        "coordinates": [
          -73.359029,
          5.535494
        ]
      }
    },
    {
      "type": "Feature",
      "properties": {
        "_source": "Ruta15-Cooservicios-AvenidaNorte-Muiscas",
        "_segmentIndex": 0,
        "_position": 1
      },
      "geometry": {
        "type": "Point",
        "coordinates": [
          -73.35945389825453,
          5.535646172726257
        ]
      }
    },
    {
      "type": "Feature",
      "properties": {
        "_source": "Ruta15-Cooservicios-AvenidaNorte-Muiscas",
        "_segmentIndex": 0,
        "_position": 2
      },
      "geometry": {
        "type": "Point",
        "coordinates": [
          -73.35987943628851,
          5.535791066942538
        ]
      }
    },
    {
      "type": "Feature",
      "properties": {
        "_source": "Ruta15-Cooservicios-AvenidaNorte-Muiscas",
        "_segmentIndex": 0,
        "_position": 3
      },
      "geometry": {
        "type": "Point",
        "coordinates": [
          -73.35975081118941,
          5.536222078857636
        ]
      }
    },
    {
      "type": "Feature",
      "properties": {
        "_source": "Ruta15-Cooservicios-AvenidaNorte-Muiscas",
        "_segmentIndex": 0,
        "_position": 4
      },
      "geometry": {
        "type": "Point",
        "coordinates": [
          -73.35938052770965,
          5.536215244569452
        ]
      }
    },
    {
      "type": "Feature",
      "properties": {
        "_source": "Ruta15-Cooservicios-AvenidaNorte-Muiscas",
        "_segmentIndex": 0,
        "_position": 5
      },
      "geometry": {
        "type": "Point",
        "coordinates": [
          -73.35894545857671,
          5.536094121309763
        ]
      }
    },
    {
      "type": "Feature",
      "properties": {
        "_source": "Ruta15-Cooservicios-AvenidaNorte-Muiscas",
        "_segmentIndex": 0,
        "_position": 0
      },
      "geometry": {
        "type": "Point",
        "coordinates": [
          -73.358796,
          5.536123
        ]
      }
    },
    {
      "type": "Feature",
      "properties": {
        "_source": "Ruta15-Cooservicios-AvenidaNorte-Muiscas",
        "_segmentIndex": 0,
        "_position": 1
      },
      "geometry": {
        "type": "Point",
        "coordinates": [
          -73.35868696442469,
          5.536559205362932
        ]
      }
    },
    {
      "type": "Feature",
      "properties": {
        "_source": "Ruta15-Cooservicios-AvenidaNorte-Muiscas",
        "_segmentIndex": 0,
        "_position": 2
      },
      "geometry": {
        "type": "Point",
        "coordinates": [
          -73.35858710976183,
          5.536997717697738
        ]
      }
    },
    {
      "type": "Feature",
      "properties": {
        "_source": "Ruta15-Cooservicios-AvenidaNorte-Muiscas",
        "_segmentIndex": 0,
        "_position": 0
      },
      "geometry": {
        "type": "Point",
        "coordinates": [
          -73.358647,
          5.537135
        ]
      }
    },
    {
      "type": "Feature",
      "properties": {
        "_source": "Ruta15-Cooservicios-AvenidaNorte-Muiscas",
        "_segmentIndex": 0,
        "_position": 1
      },
      "geometry": {
        "type": "Point",
        "coordinates": [
          -73.35907755376776,
          5.537271175331419
        ]
      }
    },
    {
      "type": "Feature",
      "properties": {
        "_source": "Ruta15-Cooservicios-AvenidaNorte-Muiscas",
        "_segmentIndex": 0,
        "_position": 2
      },
      "geometry": {
        "type": "Point",
        "coordinates": [
          -73.35950806322633,
          5.537407467408937
        ]
      }
    },
    {
      "type": "Feature",
      "properties": {
        "_source": "Ruta15-Cooservicios-AvenidaNorte-Muiscas",
        "_segmentIndex": 0,
        "_position": 3
      },
      "geometry": {
        "type": "Point",
        "coordinates": [
          -73.35992184751153,
          5.537587937515091
        ]
      }
    },
    {
      "type": "Feature",
      "properties": {
        "_source": "Ruta15-Cooservicios-AvenidaNorte-Muiscas",
        "_segmentIndex": 0,
        "_position": 4
      },
      "geometry": {
        "type": "Point",
        "coordinates": [
          -73.36032024925743,
          5.537784998731109
        ]
      }
    },
    {
      "type": "Feature",
      "properties": {
        "_source": "Ruta15-Cooservicios-AvenidaNorte-Muiscas",
        "_segmentIndex": 0,
        "_position": 0
      },
      "geometry": {
        "type": "Point",
        "coordinates": [
          -73.360349,
          5.537955
        ]
      }
    },
    {
      "type": "Feature",
      "properties": {
        "_source": "Ruta15-Cooservicios-AvenidaNorte-Muiscas",
        "_segmentIndex": 0,
        "_position": 1
      },
      "geometry": {
        "type": "Point",
        "coordinates": [
          -73.36020987058171,
          5.5383825460491245
        ]
      }
    },
    {
      "type": "Feature",
      "properties": {
        "_source": "Ruta15-Cooservicios-AvenidaNorte-Muiscas",
        "_segmentIndex": 0,
        "_position": 0
      },
      "geometry": {
        "type": "Point",
        "coordinates": [
          -73.360135,
          5.538705
        ]
      }
    },
    {
      "type": "Feature",
      "properties": {
        "_source": "Ruta15-Cooservicios-AvenidaNorte-Muiscas",
        "_segmentIndex": 0,
        "_position": 1
      },
      "geometry": {
        "type": "Point",
        "coordinates": [
          -73.36004231256582,
          5.539144970926857
        ]
      }
    },
    {
      "type": "Feature",
      "properties": {
        "_source": "Ruta15-Cooservicios-AvenidaNorte-Muiscas",
        "_segmentIndex": 0,
        "_position": 2
      },
      "geometry": {
        "type": "Point",
        "coordinates": [
          -73.3599288395676,
          5.539580212899795
        ]
      }
    },
    {
      "type": "Feature",
      "properties": {
        "_source": "Ruta15-Cooservicios-AvenidaNorte-Muiscas",
        "_segmentIndex": 0,
        "_position": 3
      },
      "geometry": {
        "type": "Point",
        "coordinates": [
          -73.35981271688686,
          5.540014236761968
        ]
      }
    },
    {
      "type": "Feature",
      "properties": {
        "_source": "Ruta15-Cooservicios-AvenidaNorte-Muiscas",
        "_segmentIndex": 0,
        "_position": 4
      },
      "geometry": {
        "type": "Point",
        "coordinates": [
          -73.35965958671989,
          5.540437278124483
        ]
      }
    },
    {
      "type": "Feature",
      "properties": {
        "_source": "Ruta15-Cooservicios-AvenidaNorte-Muiscas",
        "_segmentIndex": 0,
        "_position": 5
      },
      "geometry": {
        "type": "Point",
        "coordinates": [
          -73.35947625775579,
          5.540848174283508
        ]
      }
    },
    {
      "type": "Feature",
      "properties": {
        "_source": "Ruta15-Cooservicios-AvenidaNorte-Muiscas",
        "_segmentIndex": 0,
        "_position": 6
      },
      "geometry": {
        "type": "Point",
        "coordinates": [
          -73.35929097658186,
          5.5412582758879205
        ]
      }
    },
    {
      "type": "Feature",
      "properties": {
        "_source": "Ruta15-Cooservicios-AvenidaNorte-Muiscas",
        "_segmentIndex": 0,
        "_position": 7
      },
      "geometry": {
        "type": "Point",
        "coordinates": [
          -73.35909567654913,
          5.541663747531443
        ]
      }
    },
    {
      "type": "Feature",
      "properties": {
        "_source": "Ruta15-Cooservicios-AvenidaNorte-Muiscas",
        "_segmentIndex": 0,
        "_position": 8
      },
      "geometry": {
        "type": "Point",
        "coordinates": [
          -73.35891697960493,
          5.542076736025869
        ]
      }
    },
    {
      "type": "Feature",
      "properties": {
        "_source": "Ruta15-Cooservicios-AvenidaNorte-Muiscas",
        "_segmentIndex": 0,
        "_position": 9
      },
      "geometry": {
        "type": "Point",
        "coordinates": [
          -73.3588291209005,
          5.542514953070766
        ]
      }
    },
    {
      "type": "Feature",
      "properties": {
        "_source": "Ruta15-Cooservicios-AvenidaNorte-Muiscas",
        "_segmentIndex": 0,
        "_position": 10
      },
      "geometry": {
        "type": "Point",
        "coordinates": [
          -73.35878318431274,
          5.5429398156894685
        ]
      }
    },
    {
      "type": "Feature",
      "properties": {
        "_source": "Ruta15-Cooservicios-AvenidaNorte-Muiscas",
        "_segmentIndex": 0,
        "_position": 11
      },
      "geometry": {
        "type": "Point",
        "coordinates": [
          -73.35850516308251,
          5.543293592170614
        ]
      }
    },
    {
      "type": "Feature",
      "properties": {
        "_source": "Ruta15-Cooservicios-AvenidaNorte-Muiscas",
        "_segmentIndex": 0,
        "_position": 12
      },
      "geometry": {
        "type": "Point",
        "coordinates": [
          -73.35823368921909,
          5.54365301386237
        ]
      }
    },
    {
      "type": "Feature",
      "properties": {
        "_source": "Ruta15-Cooservicios-AvenidaNorte-Muiscas",
        "_segmentIndex": 0,
        "_position": 13
      },
      "geometry": {
        "type": "Point",
        "coordinates": [
          -73.35794883624857,
          5.544001295148018
        ]
      }
    },
    {
      "type": "Feature",
      "properties": {
        "_source": "Ruta15-Cooservicios-AvenidaNorte-Muiscas",
        "_segmentIndex": 0,
        "_position": 0
      },
      "geometry": {
        "type": "Point",
        "coordinates": [
          -73.357712,
          5.544255
        ]
      }
    },
    {
      "type": "Feature",
      "properties": {
        "_source": "Ruta15-Cooservicios-AvenidaNorte-Muiscas",
        "_segmentIndex": 0,
        "_position": 1
      },
      "geometry": {
        "type": "Point",
        "coordinates": [
          -73.35732475610828,
          5.544398563520089
        ]
      }
    },
    {
      "type": "Feature",
      "properties": {
        "_source": "Ruta15-Cooservicios-AvenidaNorte-Muiscas",
        "_segmentIndex": 0,
        "_position": 2
      },
      "geometry": {
        "type": "Point",
        "coordinates": [
          -73.35726634350246,
          5.5448380274583595
        ]
      }
    },
    {
      "type": "Feature",
      "properties": {
        "_source": "Ruta15-Cooservicios-AvenidaNorte-Muiscas",
        "_segmentIndex": 0,
        "_position": 0
      },
      "geometry": {
        "type": "Point",
        "coordinates": [
          -73.357186,
          5.544998
        ]
      }
    },
    {
      "type": "Feature",
      "properties": {
        "_source": "Ruta15-Cooservicios-AvenidaNorte-Muiscas",
        "_segmentIndex": 0,
        "_position": 1
      },
      "geometry": {
        "type": "Point",
        "coordinates": [
          -73.35692570107915,
          5.545365520635046
        ]
      }
    },
    {
      "type": "Feature",
      "properties": {
        "_source": "Ruta15-Cooservicios-AvenidaNorte-Muiscas",
        "_segmentIndex": 0,
        "_position": 2
      },
      "geometry": {
        "type": "Point",
        "coordinates": [
          -73.35666007506332,
          5.5457291906979025
        ]
      }
    },
    {
      "type": "Feature",
      "properties": {
        "_source": "Ruta15-Cooservicios-AvenidaNorte-Muiscas",
        "_segmentIndex": 0,
        "_position": 3
      },
      "geometry": {
        "type": "Point",
        "coordinates": [
          -73.35638947405022,
          5.546089264698896
        ]
      }
    },
    {
      "type": "Feature",
      "properties": {
        "_source": "Ruta15-Cooservicios-AvenidaNorte-Muiscas",
        "_segmentIndex": 0,
        "_position": 4
      },
      "geometry": {
        "type": "Point",
        "coordinates": [
          -73.35612073966232,
          5.546450695966344
        ]
      }
    },
    {
      "type": "Feature",
      "properties": {
        "_source": "Ruta15-Cooservicios-AvenidaNorte-Muiscas",
        "_segmentIndex": 0,
        "_position": 5
      },
      "geometry": {
        "type": "Point",
        "coordinates": [
          -73.35585840272687,
          5.546816778687752
        ]
      }
    },
    {
      "type": "Feature",
      "properties": {
        "_source": "Ruta15-Cooservicios-AvenidaNorte-Muiscas",
        "_segmentIndex": 0,
        "_position": 6
      },
      "geometry": {
        "type": "Point",
        "coordinates": [
          -73.35559606546582,
          5.547182861293601
        ]
      }
    },
    {
      "type": "Feature",
      "properties": {
        "_source": "Ruta15-Cooservicios-AvenidaNorte-Muiscas",
        "_segmentIndex": 0,
        "_position": 7
      },
      "geometry": {
        "type": "Point",
        "coordinates": [
          -73.35533231492347,
          5.5475479199686095
        ]
      }
    },
    {
      "type": "Feature",
      "properties": {
        "_source": "Ruta15-Cooservicios-AvenidaNorte-Muiscas",
        "_segmentIndex": 0,
        "_position": 8
      },
      "geometry": {
        "type": "Point",
        "coordinates": [
          -73.35506288581794,
          5.547908864125148
        ]
      }
    },
    {
      "type": "Feature",
      "properties": {
        "_source": "Ruta15-Cooservicios-AvenidaNorte-Muiscas",
        "_segmentIndex": 0,
        "_position": 9
      },
      "geometry": {
        "type": "Point",
        "coordinates": [
          -73.35479267895008,
          5.548269230327175
        ]
      }
    },
    {
      "type": "Feature",
      "properties": {
        "_source": "Ruta15-Cooservicios-AvenidaNorte-Muiscas",
        "_segmentIndex": 0,
        "_position": 10
      },
      "geometry": {
        "type": "Point",
        "coordinates": [
          -73.35452148221196,
          5.548628860923276
        ]
      }
    },
    {
      "type": "Feature",
      "properties": {
        "_source": "Ruta15-Cooservicios-AvenidaNorte-Muiscas",
        "_segmentIndex": 0,
        "_position": 11
      },
      "geometry": {
        "type": "Point",
        "coordinates": [
          -73.35424918001179,
          5.548987624044701
        ]
      }
    },
    {
      "type": "Feature",
      "properties": {
        "_source": "Ruta15-Cooservicios-AvenidaNorte-Muiscas",
        "_segmentIndex": 0,
        "_position": 12
      },
      "geometry": {
        "type": "Point",
        "coordinates": [
          -73.35396177427641,
          5.5493345475267475
        ]
      }
    },
    {
      "type": "Feature",
      "properties": {
        "_source": "Ruta15-Cooservicios-AvenidaNorte-Muiscas",
        "_segmentIndex": 0,
        "_position": 13
      },
      "geometry": {
        "type": "Point",
        "coordinates": [
          -73.35368186336743,
          5.549687502048521
        ]
      }
    },
    {
      "type": "Feature",
      "properties": {
        "_source": "Ruta15-Cooservicios-AvenidaNorte-Muiscas",
        "_segmentIndex": 0,
        "_position": 14
      },
      "geometry": {
        "type": "Point",
        "coordinates": [
          -73.35339775635275,
          5.550036960929336
        ]
      }
    },
    {
      "type": "Feature",
      "properties": {
        "_source": "Ruta15-Cooservicios-AvenidaNorte-Muiscas",
        "_segmentIndex": 0,
        "_position": 15
      },
      "geometry": {
        "type": "Point",
        "coordinates": [
          -73.35309842378702,
          5.5503737525191275
        ]
      }
    },
    {
      "type": "Feature",
      "properties": {
        "_source": "Ruta15-Cooservicios-AvenidaNorte-Muiscas",
        "_segmentIndex": 0,
        "_position": 16
      },
      "geometry": {
        "type": "Point",
        "coordinates": [
          -73.35280381793825,
          5.550714653767237
        ]
      }
    },
    {
      "type": "Feature",
      "properties": {
        "_source": "Ruta15-Cooservicios-AvenidaNorte-Muiscas",
        "_segmentIndex": 0,
        "_position": 17
      },
      "geometry": {
        "type": "Point",
        "coordinates": [
          -73.35252050104708,
          5.551063724889198
        ]
      }
    },
    {
      "type": "Feature",
      "properties": {
        "_source": "Ruta15-Cooservicios-AvenidaNorte-Muiscas",
        "_segmentIndex": 0,
        "_position": 18
      },
      "geometry": {
        "type": "Point",
        "coordinates": [
          -73.35228551100926,
          5.551447770077724
        ]
      }
    },
    {
      "type": "Feature",
      "properties": {
        "_source": "Ruta15-Cooservicios-AvenidaNorte-Muiscas",
        "_segmentIndex": 0,
        "_position": 0
      },
      "geometry": {
        "type": "Point",
        "coordinates": [
          -73.352256,
          5.551496
        ]
      }
    },
    {
      "type": "Feature",
      "properties": {
        "_source": "Ruta15-Cooservicios-AvenidaNorte-Muiscas",
        "_segmentIndex": 0,
        "_position": 1
      },
      "geometry": {
        "type": "Point",
        "coordinates": [
          -73.35212232139764,
          5.551925524810596
        ]
      }
    },
    {
      "type": "Feature",
      "properties": {
        "_source": "Ruta15-Cooservicios-AvenidaNorte-Muiscas",
        "_segmentIndex": 0,
        "_position": 2
      },
      "geometry": {
        "type": "Point",
        "coordinates": [
          -73.35198590953482,
          5.5523541919484565
        ]
      }
    },
    {
      "type": "Feature",
      "properties": {
        "_source": "Ruta15-Cooservicios-AvenidaNorte-Muiscas",
        "_segmentIndex": 0,
        "_position": 3
      },
      "geometry": {
        "type": "Point",
        "coordinates": [
          -73.3518478995248,
          5.552782357614748
        ]
      }
    },
    {
      "type": "Feature",
      "properties": {
        "_source": "Ruta15-Cooservicios-AvenidaNorte-Muiscas",
        "_segmentIndex": 0,
        "_position": 4
      },
      "geometry": {
        "type": "Point",
        "coordinates": [
          -73.35170988931425,
          5.553210523249024
        ]
      }
    },
    {
      "type": "Feature",
      "properties": {
        "_source": "Ruta15-Cooservicios-AvenidaNorte-Muiscas",
        "_segmentIndex": 0,
        "_position": 5
      },
      "geometry": {
        "type": "Point",
        "coordinates": [
          -73.35157187890317,
          5.55363868885128
        ]
      }
    },
    {
      "type": "Feature",
      "properties": {
        "_source": "Ruta15-Cooservicios-AvenidaNorte-Muiscas",
        "_segmentIndex": 0,
        "_position": 6
      },
      "geometry": {
        "type": "Point",
        "coordinates": [
          -73.3514270678934,
          5.554064602687153
        ]
      }
    },
    {
      "type": "Feature",
      "properties": {
        "_source": "Ruta15-Cooservicios-AvenidaNorte-Muiscas",
        "_segmentIndex": 0,
        "_position": 7
      },
      "geometry": {
        "type": "Point",
        "coordinates": [
          -73.35127986768889,
          5.554489725451564
        ]
      }
    },
    {
      "type": "Feature",
      "properties": {
        "_source": "Ruta15-Cooservicios-AvenidaNorte-Muiscas",
        "_segmentIndex": 0,
        "_position": 8
      },
      "geometry": {
        "type": "Point",
        "coordinates": [
          -73.35110306354295,
          5.554903415995887
        ]
      }
    },
    {
      "type": "Feature",
      "properties": {
        "_source": "Ruta15-Cooservicios-AvenidaNorte-Muiscas",
        "_segmentIndex": 0,
        "_position": 9
      },
      "geometry": {
        "type": "Point",
        "coordinates": [
          -73.35092366311518,
          5.555316103967322
        ]
      }
    },
    {
      "type": "Feature",
      "properties": {
        "_source": "Ruta15-Cooservicios-AvenidaNorte-Muiscas",
        "_segmentIndex": 0,
        "_position": 10
      },
      "geometry": {
        "type": "Point",
        "coordinates": [
          -73.35074426243605,
          5.555728791884634
        ]
      }
    },
    {
      "type": "Feature",
      "properties": {
        "_source": "Ruta15-Cooservicios-AvenidaNorte-Muiscas",
        "_segmentIndex": 0,
        "_position": 11
      },
      "geometry": {
        "type": "Point",
        "coordinates": [
          -73.35054972486589,
          5.556134604693773
        ]
      }
    },
    {
      "type": "Feature",
      "properties": {
        "_source": "Ruta15-Cooservicios-AvenidaNorte-Muiscas",
        "_segmentIndex": 0,
        "_position": 12
      },
      "geometry": {
        "type": "Point",
        "coordinates": [
          -73.35035407649768,
          5.556539913037007
        ]
      }
    },
    {
      "type": "Feature",
      "properties": {
        "_source": "Ruta15-Cooservicios-AvenidaNorte-Muiscas",
        "_segmentIndex": 0,
        "_position": 13
      },
      "geometry": {
        "type": "Point",
        "coordinates": [
          -73.3501584278602,
          5.556945221315856
        ]
      }
    },
    {
      "type": "Feature",
      "properties": {
        "_source": "Ruta15-Cooservicios-AvenidaNorte-Muiscas",
        "_segmentIndex": 0,
        "_position": 14
      },
      "geometry": {
        "type": "Point",
        "coordinates": [
          -73.34996290011259,
          5.557350584006361
        ]
      }
    },
    {
      "type": "Feature",
      "properties": {
        "_source": "Ruta15-Cooservicios-AvenidaNorte-Muiscas",
        "_segmentIndex": 0,
        "_position": 15
      },
      "geometry": {
        "type": "Point",
        "coordinates": [
          -73.34978666435813,
          5.557764620892674
        ]
      }
    },
    {
      "type": "Feature",
      "properties": {
        "_source": "Ruta15-Cooservicios-AvenidaNorte-Muiscas",
        "_segmentIndex": 0,
        "_position": 16
      },
      "geometry": {
        "type": "Point",
        "coordinates": [
          -73.34961042835583,
          5.558178657726732
        ]
      }
    },
    {
      "type": "Feature",
      "properties": {
        "_source": "Ruta15-Cooservicios-AvenidaNorte-Muiscas",
        "_segmentIndex": 0,
        "_position": 17
      },
      "geometry": {
        "type": "Point",
        "coordinates": [
          -73.34942148022401,
          5.558587070866716
        ]
      }
    },
    {
      "type": "Feature",
      "properties": {
        "_source": "Ruta15-Cooservicios-AvenidaNorte-Muiscas",
        "_segmentIndex": 0,
        "_position": 18
      },
      "geometry": {
        "type": "Point",
        "coordinates": [
          -73.34923077226173,
          5.5589947055265565
        ]
      }
    },
    {
      "type": "Feature",
      "properties": {
        "_source": "Ruta15-Cooservicios-AvenidaNorte-Muiscas",
        "_segmentIndex": 0,
        "_position": 19
      },
      "geometry": {
        "type": "Point",
        "coordinates": [
          -73.34904006403535,
          5.559402340125193
        ]
      }
    },
    {
      "type": "Feature",
      "properties": {
        "_source": "Ruta15-Cooservicios-AvenidaNorte-Muiscas",
        "_segmentIndex": 0,
        "_position": 20
      },
      "geometry": {
        "type": "Point",
        "coordinates": [
          -73.34884935554481,
          5.559809974662625
        ]
      }
    },
    {
      "type": "Feature",
      "properties": {
        "_source": "Ruta15-Cooservicios-AvenidaNorte-Muiscas",
        "_segmentIndex": 0,
        "_position": 21
      },
      "geometry": {
        "type": "Point",
        "coordinates": [
          -73.34865864679014,
          5.560217609138846
        ]
      }
    },
    {
      "type": "Feature",
      "properties": {
        "_source": "Ruta15-Cooservicios-AvenidaNorte-Muiscas",
        "_segmentIndex": 0,
        "_position": 22
      },
      "geometry": {
        "type": "Point",
        "coordinates": [
          -73.34846877748518,
          5.560625629363971
        ]
      }
    },
    {
      "type": "Feature",
      "properties": {
        "_source": "Ruta15-Cooservicios-AvenidaNorte-Muiscas",
        "_segmentIndex": 0,
        "_position": 23
      },
      "geometry": {
        "type": "Point",
        "coordinates": [
          -73.34828077960006,
          5.561034509481292
        ]
      }
    },
    {
      "type": "Feature",
      "properties": {
        "_source": "Ruta15-Cooservicios-AvenidaNorte-Muiscas",
        "_segmentIndex": 0,
        "_position": 24
      },
      "geometry": {
        "type": "Point",
        "coordinates": [
          -73.34809278145367,
          5.56144338953912
        ]
      }
    },
    {
      "type": "Feature",
      "properties": {
        "_source": "Ruta15-Cooservicios-AvenidaNorte-Muiscas",
        "_segmentIndex": 0,
        "_position": 25
      },
      "geometry": {
        "type": "Point",
        "coordinates": [
          -73.34790478304603,
          5.561852269537446
        ]
      }
    },
    {
      "type": "Feature",
      "properties": {
        "_source": "Ruta15-Cooservicios-AvenidaNorte-Muiscas",
        "_segmentIndex": 0,
        "_position": 26
      },
      "geometry": {
        "type": "Point",
        "coordinates": [
          -73.34771678437707,
          5.562261149476268
        ]
      }
    },
    {
      "type": "Feature",
      "properties": {
        "_source": "Ruta15-Cooservicios-AvenidaNorte-Muiscas",
        "_segmentIndex": 0,
        "_position": 27
      },
      "geometry": {
        "type": "Point",
        "coordinates": [
          -73.34752940185088,
          5.562670309300133
        ]
      }
    },
    {
      "type": "Feature",
      "properties": {
        "_source": "Ruta15-Cooservicios-AvenidaNorte-Muiscas",
        "_segmentIndex": 0,
        "_position": 28
      },
      "geometry": {
        "type": "Point",
        "coordinates": [
          -73.34734229948887,
          5.563079596421967
        ]
      }
    },
    {
      "type": "Feature",
      "properties": {
        "_source": "Ruta15-Cooservicios-AvenidaNorte-Muiscas",
        "_segmentIndex": 0,
        "_position": 29
      },
      "geometry": {
        "type": "Point",
        "coordinates": [
          -73.34715519686652,
          5.563488883484848
        ]
      }
    },
    {
      "type": "Feature",
      "properties": {
        "_source": "Ruta15-Cooservicios-AvenidaNorte-Muiscas",
        "_segmentIndex": 0,
        "_position": 30
      },
      "geometry": {
        "type": "Point",
        "coordinates": [
          -73.34696809398376,
          5.563898170488773
        ]
      }
    },
    {
      "type": "Feature",
      "properties": {
        "_source": "Ruta15-Cooservicios-AvenidaNorte-Muiscas",
        "_segmentIndex": 0,
        "_position": 31
      },
      "geometry": {
        "type": "Point",
        "coordinates": [
          -73.346780477633,
          5.564307219450195
        ]
      }
    },
    {
      "type": "Feature",
      "properties": {
        "_source": "Ruta15-Cooservicios-AvenidaNorte-Muiscas",
        "_segmentIndex": 0,
        "_position": 32
      },
      "geometry": {
        "type": "Point",
        "coordinates": [
          -73.34658599305479,
          5.564713083553097
        ]
      }
    },
    {
      "type": "Feature",
      "properties": {
        "_source": "Ruta15-Cooservicios-AvenidaNorte-Muiscas",
        "_segmentIndex": 0,
        "_position": 33
      },
      "geometry": {
        "type": "Point",
        "coordinates": [
          -73.34639150820811,
          5.565118947592285
        ]
      }
    },
    {
      "type": "Feature",
      "properties": {
        "_source": "Ruta15-Cooservicios-AvenidaNorte-Muiscas",
        "_segmentIndex": 0,
        "_position": 34
      },
      "geometry": {
        "type": "Point",
        "coordinates": [
          -73.346197023093,
          5.565524811567753
        ]
      }
    },
    {
      "type": "Feature",
      "properties": {
        "_source": "Ruta15-Cooservicios-AvenidaNorte-Muiscas",
        "_segmentIndex": 0,
        "_position": 35
      },
      "geometry": {
        "type": "Point",
        "coordinates": [
          -73.34600253770938,
          5.565930675479499
        ]
      }
    },
    {
      "type": "Feature",
      "properties": {
        "_source": "Ruta15-Cooservicios-AvenidaNorte-Muiscas",
        "_segmentIndex": 0,
        "_position": 36
      },
      "geometry": {
        "type": "Point",
        "coordinates": [
          -73.34580880110846,
          5.566336891007096
        ]
      }
    },
    {
      "type": "Feature",
      "properties": {
        "_source": "Ruta15-Cooservicios-AvenidaNorte-Muiscas",
        "_segmentIndex": 0,
        "_position": 37
      },
      "geometry": {
        "type": "Point",
        "coordinates": [
          -73.34559223024439,
          5.566730090586187
        ]
      }
    },
    {
      "type": "Feature",
      "properties": {
        "_source": "Ruta15-Cooservicios-AvenidaNorte-Muiscas",
        "_segmentIndex": 0,
        "_position": 38
      },
      "geometry": {
        "type": "Point",
        "coordinates": [
          -73.3453418352704,
          5.567104372109183
        ]
      }
    },
    {
      "type": "Feature",
      "properties": {
        "_source": "Ruta15-Cooservicios-AvenidaNorte-Muiscas",
        "_segmentIndex": 0,
        "_position": 39
      },
      "geometry": {
        "type": "Point",
        "coordinates": [
          -73.34509143997755,
          5.567478653526521
        ]
      }
    },
    {
      "type": "Feature",
      "properties": {
        "_source": "Ruta15-Cooservicios-AvenidaNorte-Muiscas",
        "_segmentIndex": 0,
        "_position": 40
      },
      "geometry": {
        "type": "Point",
        "coordinates": [
          -73.34484104436581,
          5.567852934838197
        ]
      }
    },
    {
      "type": "Feature",
      "properties": {
        "_source": "Ruta15-Cooservicios-AvenidaNorte-Muiscas",
        "_segmentIndex": 0,
        "_position": 41
      },
      "geometry": {
        "type": "Point",
        "coordinates": [
          -73.34459064843514,
          5.5682272160442
        ]
      }
    },
    {
      "type": "Feature",
      "properties": {
        "_source": "Ruta15-Cooservicios-AvenidaNorte-Muiscas",
        "_segmentIndex": 0,
        "_position": 42
      },
      "geometry": {
        "type": "Point",
        "coordinates": [
          -73.34434023019725,
          5.56860148256298
        ]
      }
    },
    {
      "type": "Feature",
      "properties": {
        "_source": "Ruta15-Cooservicios-AvenidaNorte-Muiscas",
        "_segmentIndex": 0,
        "_position": 43
      },
      "geometry": {
        "type": "Point",
        "coordinates": [
          -73.34408960178445,
          5.568975609810084
        ]
      }
    },
    {
      "type": "Feature",
      "properties": {
        "_source": "Ruta15-Cooservicios-AvenidaNorte-Muiscas",
        "_segmentIndex": 0,
        "_position": 44
      },
      "geometry": {
        "type": "Point",
        "coordinates": [
          -73.34383897305251,
          5.569349736951299
        ]
      }
    },
    {
      "type": "Feature",
      "properties": {
        "_source": "Ruta15-Cooservicios-AvenidaNorte-Muiscas",
        "_segmentIndex": 0,
        "_position": 45
      },
      "geometry": {
        "type": "Point",
        "coordinates": [
          -73.3435883440014,
          5.569723863986617
        ]
      }
    },
    {
      "type": "Feature",
      "properties": {
        "_source": "Ruta15-Cooservicios-AvenidaNorte-Muiscas",
        "_segmentIndex": 0,
        "_position": 46
      },
      "geometry": {
        "type": "Point",
        "coordinates": [
          -73.34333502398303,
          5.570096146676085
        ]
      }
    },
    {
      "type": "Feature",
      "properties": {
        "_source": "Ruta15-Cooservicios-AvenidaNorte-Muiscas",
        "_segmentIndex": 0,
        "_position": 47
      },
      "geometry": {
        "type": "Point",
        "coordinates": [
          -73.34307320822884,
          5.570462606277995
        ]
      }
    },
    {
      "type": "Feature",
      "properties": {
        "_source": "Ruta15-Cooservicios-AvenidaNorte-Muiscas",
        "_segmentIndex": 0,
        "_position": 48
      },
      "geometry": {
        "type": "Point",
        "coordinates": [
          -73.34281139214804,
          5.570829065764322
        ]
      }
    },
    {
      "type": "Feature",
      "properties": {
        "_source": "Ruta15-Cooservicios-AvenidaNorte-Muiscas",
        "_segmentIndex": 0,
        "_position": 0
      },
      "geometry": {
        "type": "Point",
        "coordinates": [
          -73.342572,
          5.571188
        ]
      }
    },
    {
      "type": "Feature",
      "properties": {
        "_source": "Ruta15-Cooservicios-AvenidaNorte-Muiscas",
        "_segmentIndex": 0,
        "_position": 1
      },
      "geometry": {
        "type": "Point",
        "coordinates": [
          -73.34217524050267,
          5.570977064026166
        ]
      }
    },
    {
      "type": "Feature",
      "properties": {
        "_source": "Ruta15-Cooservicios-AvenidaNorte-Muiscas",
        "_segmentIndex": 0,
        "_position": 2
      },
      "geometry": {
        "type": "Point",
        "coordinates": [
          -73.3418116354275,
          5.570710461804737
        ]
      }
    },
    {
      "type": "Feature",
      "properties": {
        "_source": "Ruta15-Cooservicios-AvenidaNorte-Muiscas",
        "_segmentIndex": 0,
        "_position": 3
      },
      "geometry": {
        "type": "Point",
        "coordinates": [
          -73.3414523629734,
          5.570437849268858
        ]
      }
    },
    {
      "type": "Feature",
      "properties": {
        "_source": "Ruta15-Cooservicios-AvenidaNorte-Muiscas",
        "_segmentIndex": 0,
        "_position": 4
      },
      "geometry": {
        "type": "Point",
        "coordinates": [
          -73.34109747842936,
          5.570159572653622
        ]
      }
    },
    {
      "type": "Feature",
      "properties": {
        "_source": "Ruta15-Cooservicios-AvenidaNorte-Muiscas",
        "_segmentIndex": 0,
        "_position": 5
      },
      "geometry": {
        "type": "Point",
        "coordinates": [
          -73.3408223828094,
          5.569818802657262
        ]
      }
    },
    {
      "type": "Feature",
      "properties": {
        "_source": "Ruta15-Cooservicios-AvenidaNorte-Muiscas",
        "_segmentIndex": 0,
        "_position": 6
      },
      "geometry": {
        "type": "Point",
        "coordinates": [
          -73.34061358439011,
          5.569428099818741
        ]
      }
    },
    {
      "type": "Feature",
      "properties": {
        "_source": "Ruta15-Cooservicios-AvenidaNorte-Muiscas",
        "_segmentIndex": 0,
        "_position": 7
      },
      "geometry": {
        "type": "Point",
        "coordinates": [
          -73.34027289093078,
          5.569132777151464
        ]
      }
    },
    {
      "type": "Feature",
      "properties": {
        "_source": "Ruta15-Cooservicios-AvenidaNorte-Muiscas",
        "_segmentIndex": 0,
        "_position": 8
      },
      "geometry": {
        "type": "Point",
        "coordinates": [
          -73.33991443621622,
          5.568859215118891
        ]
      }
    },
    {
      "type": "Feature",
      "properties": {
        "_source": "Ruta15-Cooservicios-AvenidaNorte-Muiscas",
        "_segmentIndex": 0,
        "_position": 9
      },
      "geometry": {
        "type": "Point",
        "coordinates": [
          -73.33955421079503,
          5.568587822678901
        ]
      }
    },
    {
      "type": "Feature",
      "properties": {
        "_source": "Ruta15-Cooservicios-AvenidaNorte-Muiscas",
        "_segmentIndex": 0,
        "_position": 10
      },
      "geometry": {
        "type": "Point",
        "coordinates": [
          -73.33919675508373,
          5.568312933334395
        ]
      }
    },
    {
      "type": "Feature",
      "properties": {
        "_source": "Ruta15-Cooservicios-AvenidaNorte-Muiscas",
        "_segmentIndex": 0,
        "_position": 11
      },
      "geometry": {
        "type": "Point",
        "coordinates": [
          -73.33877707435988,
          5.568270363136004
        ]
      }
    }
  ]
}