{
  "type": "FeatureCollection",
  "features": [
    {
      "type": "Feature",
      "properties": {
        "_source": "Ruta20-Arboleda-AvenidaNorte-Terminal-Pirgua",
        "_segmentIndex": 0,
        "_position": 0
      },
      "geometry": {
        "type": "Point",
        "coordinates": [
          -73.332278,
          5.57345
        ]
      }
    },
    {
      "type": "Feature",
      "properties": {
        "_source": "Ruta20-Arboleda-AvenidaNorte-Terminal-Pirgua",
        "_segmentIndex": 0,
        "_position": 1
      },
      "geometry": {
        "type": "Point",
        "coordinates": [
          -73.33265238673596,
          5.573200192385126
        ]
      }
    },
    {
      "type": "Feature",
      "properties": {
        "_source": "Ruta20-Arboleda-AvenidaNorte-Terminal-Pirgua",
        "_segmentIndex": 0,
        "_position": 2
      },
      "geometry": {
        "type": "Point",
        "coordinates": [
          -73.33297284335542,
          5.572883893407962
        ]
      }
    },
    {
      "type": "Feature",
      "properties": {
        "_source": "Ruta20-Arboleda-AvenidaNorte-Terminal-Pirgua",
        "_segmentIndex": 0,
        "_position": 3
      },
      "geometry": {
        "type": "Point",
        "coordinates": [
          -73.33326955396814,
          5.572544795641877
        ]
      }
    },
    {
      "type": "Feature",
      "properties": {
        "_source": "Ruta20-Arboleda-AvenidaNorte-Terminal-Pirgua",
        "_segmentIndex": 0,
        "_position": 4
      },
      "geometry": {
        "type": "Point",
        "coordinates": [
          -73.33356166847739,
          5.572201826364667
        ]
      }
    },
    {
      "type": "Feature",
      "properties": {
        "_source": "Ruta20-Arboleda-AvenidaNorte-Terminal-Pirgua",
        "_segmentIndex": 0,
        "_position": 5
      },
      "geometry": {
        "type": "Point",
        "coordinates": [
          -73.33384865669174,
          5.571854538960347
        ]
      }
    },
    {
      "type": "Feature",
      "properties": {
        "_source": "Ruta20-Arboleda-AvenidaNorte-Terminal-Pirgua",
        "_segmentIndex": 0,
        "_position": 6
      },
      "geometry": {
        "type": "Point",
        "coordinates": [
          -73.33413791448272,
          5.571509156606601
        ]
      }
    },
    {
      "type": "Feature",
      "properties": {
        "_source": "Ruta20-Arboleda-AvenidaNorte-Terminal-Pirgua",
        "_segmentIndex": 0,
        "_position": 7
      },
      "geometry": {
        "type": "Point",
        "coordinates": [
          -73.33444834923817,
          5.571182803047452
        ]
      }
    },
    {
      "type": "Feature",
      "properties": {
        "_source": "Ruta20-Arboleda-AvenidaNorte-Terminal-Pirgua",
        "_segmentIndex": 0,
        "_position": 8
      },
      "geometry": {
        "type": "Point",
        "coordinates": [
          -73.33480603143008,
          5.5709111625543555
        ]
      }
    },
    {
      "type": "Feature",
      "properties": {
        "_source": "Ruta20-Arboleda-AvenidaNorte-Terminal-Pirgua",
        "_segmentIndex": 0,
        "_position": 9
      },
      "geometry": {
        "type": "Point",
        "coordinates": [
          -73.33523253789447,
          5.570767319480253
        ]
      }
    },
    {
      "type": "Feature",
      "properties": {
        "_source": "Ruta20-Arboleda-AvenidaNorte-Terminal-Pirgua",
        "_segmentIndex": 0,
        "_position": 10
      },
      "geometry": {
        "type": "Point",
        "coordinates": [
          -73.33564896900239,
          5.57059633944564
        ]
      }
    },
    {
      "type": "Feature",
      "properties": {
        "_source": "Ruta20-Arboleda-AvenidaNorte-Terminal-Pirgua",
        "_segmentIndex": 0,
        "_position": 11
      },
      "geometry": {
        "type": "Point",
        "coordinates": [
          -73.33603629512547,
          5.570365895795543
        ]
      }
    },
    {
      "type": "Feature",
      "properties": {
        "_source": "Ruta20-Arboleda-AvenidaNorte-Terminal-Pirgua",
        "_segmentIndex": 0,
        "_position": 12
      },
      "geometry": {
        "type": "Point",
        "coordinates": [
          -73.33642124114445,
          5.570130577711683
        ]
      }
    },
    {
      "type": "Feature",
      "properties": {
        "_source": "Ruta20-Arboleda-AvenidaNorte-Terminal-Pirgua",
        "_segmentIndex": 0,
        "_position": 13
      },
      "geometry": {
        "type": "Point",
        "coordinates": [
          -73.33681001968404,
          5.569901535537379
        ]
      }
    },
    {
      "type": "Feature",
      "properties": {
        "_source": "Ruta20-Arboleda-AvenidaNorte-Terminal-Pirgua",
        "_segmentIndex": 0,
        "_position": 0
      },
      "geometry": {
        "type": "Point",
        "coordinates": [
          -73.337026,
          5.569776
        ]
      }
    },
    {
      "type": "Feature",
      "properties": {
        "_source": "Ruta20-Arboleda-AvenidaNorte-Terminal-Pirgua",
        "_segmentIndex": 0,
        "_position": 1
      },
      "geometry": {
        "type": "Point",
        "coordinates": [
          -73.33747336721214,
          5.569723022533966
        ]
      }
    },
    {
      "type": "Feature",
      "properties": {
        "_source": "Ruta20-Arboleda-AvenidaNorte-Terminal-Pirgua",
        "_segmentIndex": 0,
        "_position": 2
      },
      "geometry": {
        "type": "Point",
        "coordinates": [
          -73.33788126822913,
          5.569543150543506
        ]
      }
    },
    {
      "type": "Feature",
      "properties": {
        "_source": "Ruta20-Arboleda-AvenidaNorte-Terminal-Pirgua",
        "_segmentIndex": 0,
        "_position": 3
      },
      "geometry": {
        "type": "Point",
        "coordinates": [
          -73.33806316049,
          5.569134942324222
        ]
      }
    },
    {
      "type": "Feature",
      "properties": {
        "_source": "Ruta20-Arboleda-AvenidaNorte-Terminal-Pirgua",
        "_segmentIndex": 0,
        "_position": 4
      },
      "geometry": {
        "type": "Point",
        "coordinates": [
          -73.33823834847432,
          5.5687213030520475
        ]
      }
    },
    {
      "type": "Feature",
      "properties": {
        "_source": "Ruta20-Arboleda-AvenidaNorte-Terminal-Pirgua",
        "_segmentIndex": 0,
        "_position": 5
      },
      "geometry": {
        "type": "Point",
        "coordinates": [
          -73.33835543863935,
          5.568935770596211
        ]
      }
    },
    {
      "type": "Feature",
      "properties": {
        "_source": "Ruta20-Arboleda-AvenidaNorte-Terminal-Pirgua",
        "_segmentIndex": 0,
        "_position": 6
      },
      "geometry": {
        "type": "Point",
        "coordinates": [
          -73.33851282314616,
          5.569353960779101
        ]
      }
    },
    {
      "type": "Feature",
      "properties": {
        "_source": "Ruta20-Arboleda-AvenidaNorte-Terminal-Pirgua",
        "_segmentIndex": 0,
        "_position": 0
      },
      "geometry": {
        "type": "Point",
        "coordinates": [
          -73.338541,
          5.569402
        ]
      }
    },
    {
      "type": "Feature",
      "properties": {
        "_source": "Ruta20-Arboleda-AvenidaNorte-Terminal-Pirgua",
        "_segmentIndex": 0,
        "_position": 1
      },
      "geometry": {
        "type": "Point",
        "coordinates": [
          -73.33887943251828,
          5.569699886864787
        ]
      }
    },
    {
      "type": "Feature",
      "properties": {
        "_source": "Ruta20-Arboleda-AvenidaNorte-Terminal-Pirgua",
        "_segmentIndex": 0,
        "_position": 2
      },
      "geometry": {
        "type": "Point",
        "coordinates": [
          -73.3392388727433,
          5.569971770674979
        ]
      }
    },
    {
      "type": "Feature",
      "properties": {
        "_source": "Ruta20-Arboleda-AvenidaNorte-Terminal-Pirgua",
        "_segmentIndex": 0,
        "_position": 3
      },
      "geometry": {
        "type": "Point",
        "coordinates": [
          -73.33960384756217,
          5.570236803966958
        ]
      }
    },
    {
      "type": "Feature",
      "properties": {
        "_source": "Ruta20-Arboleda-AvenidaNorte-Terminal-Pirgua",
        "_segmentIndex": 0,
        "_position": 4
      },
      "geometry": {
        "type": "Point",
        "coordinates": [
          -73.33996882271036,
          5.570501837034333
        ]
      }
    },
    {
      "type": "Feature",
      "properties": {
        "_source": "Ruta20-Arboleda-AvenidaNorte-Terminal-Pirgua",
        "_segmentIndex": 0,
        "_position": 5
      },
      "geometry": {
        "type": "Point",
        "coordinates": [
          -73.34033379818786,
          5.570766869877097
        ]
      }
    },
    {
      "type": "Feature",
      "properties": {
        "_source": "Ruta20-Arboleda-AvenidaNorte-Terminal-Pirgua",
        "_segmentIndex": 0,
        "_position": 6
      },
      "geometry": {
        "type": "Point",
        "coordinates": [
          -73.34069215647521,
          5.571040495154095
        ]
      }
    },
    {
      "type": "Feature",
      "properties": {
        "_source": "Ruta20-Arboleda-AvenidaNorte-Terminal-Pirgua",
        "_segmentIndex": 0,
        "_position": 7
      },
      "geometry": {
        "type": "Point",
        "coordinates": [
          -73.34104413168593,
          5.571322408895832
        ]
      }
    },
    {
      "type": "Feature",
      "properties": {
        "_source": "Ruta20-Arboleda-AvenidaNorte-Terminal-Pirgua",
        "_segmentIndex": 0,
        "_position": 8
      },
      "geometry": {
        "type": "Point",
        "coordinates": [
          -73.34139339797706,
          5.5716076277004
        ]
      }
    },
    {
      "type": "Feature",
      "properties": {
        "_source": "Ruta20-Arboleda-AvenidaNorte-Terminal-Pirgua",
        "_segmentIndex": 0,
        "_position": 9
      },
      "geometry": {
        "type": "Point",
        "coordinates": [
          -73.34175522428673,
          5.571872467855882
        ]
      }
    },
    {
      "type": "Feature",
      "properties": {
        "_source": "Ruta20-Arboleda-AvenidaNorte-Terminal-Pirgua",
        "_segmentIndex": 0,
        "_position": 0
      },
      "geometry": {
        "type": "Point",
        "coordinates": [
          -73.342192,
          5.571933
        ]
      }
    },
    {
      "type": "Feature",
      "properties": {
        "_source": "Ruta20-Arboleda-AvenidaNorte-Terminal-Pirgua",
        "_segmentIndex": 0,
        "_position": 1
      },
      "geometry": {
        "type": "Point",
        "coordinates": [
          -73.34245491768428,
          5.571567322257839
        ]
      }
    },
    {
      "type": "Feature",
      "properties": {
        "_source": "Ruta20-Arboleda-AvenidaNorte-Terminal-Pirgua",
        "_segmentIndex": 0,
        "_position": 2
      },
      "geometry": {
        "type": "Point",
        "coordinates": [
          -73.34270735019356,
          5.571194416528876
        ]
      }
    },
    {
      "type": "Feature",
      "properties": {
        "_source": "Ruta20-Arboleda-AvenidaNorte-Terminal-Pirgua",
        "_segmentIndex": 0,
        "_position": 3
      },
      "geometry": {
        "type": "Point",
        "coordinates": [
          -73.34295886835164,
          5.5708208805932875
        ]
      }
    },
    {
      "type": "Feature",
      "properties": {
        "_source": "Ruta20-Arboleda-AvenidaNorte-Terminal-Pirgua",
        "_segmentIndex": 0,
        "_position": 4
      },
      "geometry": {
        "type": "Point",
        "coordinates": [
          -73.34321038618985,
          5.570447344551022
        ]
      }
    },
    {
      "type": "Feature",
      "properties": {
        "_source": "Ruta20-Arboleda-AvenidaNorte-Terminal-Pirgua",
        "_segmentIndex": 0,
        "_position": 5
      },
      "geometry": {
        "type": "Point",
        "coordinates": [
          -73.34346245669674,
          5.570074178567707
        ]
      }
    },
    {
      "type": "Feature",
      "properties": {
        "_source": "Ruta20-Arboleda-AvenidaNorte-Terminal-Pirgua",
        "_segmentIndex": 0,
        "_position": 6
      },
      "geometry": {
        "type": "Point",
        "coordinates": [
          -73.34371521680481,
          5.56970147430438
        ]
      }
    },
    {
      "type": "Feature",
      "properties": {
        "_source": "Ruta20-Arboleda-AvenidaNorte-Terminal-Pirgua",
        "_segmentIndex": 0,
        "_position": 7
      },
      "geometry": {
        "type": "Point",
        "coordinates": [
          -73.34396797659221,
          5.569328769933341
        ]
      }
    },
    {
      "type": "Feature",
      "properties": {
        "_source": "Ruta20-Arboleda-AvenidaNorte-Terminal-Pirgua",
        "_segmentIndex": 0,
        "_position": 8
      },
      "geometry": {
        "type": "Point",
        "coordinates": [
          -73.34422073605894,
          5.568956065454595
        ]
      }
    },
    {
      "type": "Feature",
      "properties": {
        "_source": "Ruta20-Arboleda-AvenidaNorte-Terminal-Pirgua",
        "_segmentIndex": 0,
        "_position": 9
      },
      "geometry": {
        "type": "Point",
        "coordinates": [
          -73.34447150164316,
          5.568582031262875
        ]
      }
    },
    {
      "type": "Feature",
      "properties": {
        "_source": "Ruta20-Arboleda-AvenidaNorte-Terminal-Pirgua",
        "_segmentIndex": 0,
        "_position": 10
      },
      "geometry": {
        "type": "Point",
        "coordinates": [
          -73.34472174723835,
          5.568207650371715
        ]
      }
    },
    {
      "type": "Feature",
      "properties": {
        "_source": "Ruta20-Arboleda-AvenidaNorte-Terminal-Pirgua",
        "_segmentIndex": 0,
        "_position": 11
      },
      "geometry": {
        "type": "Point",
        "coordinates": [
          -73.34497199251473,
          5.5678332693750034
        ]
      }
    },
    {
      "type": "Feature",
      "properties": {
        "_source": "Ruta20-Arboleda-AvenidaNorte-Terminal-Pirgua",
        "_segmentIndex": 0,
        "_position": 12
      },
      "geometry": {
        "type": "Point",
        "coordinates": [
          -73.3452222374723,
          5.567458888272748
        ]
      }
    },
    {
      "type": "Feature",
      "properties": {
        "_source": "Ruta20-Arboleda-AvenidaNorte-Terminal-Pirgua",
        "_segmentIndex": 0,
        "_position": 13
      },
      "geometry": {
        "type": "Point",
        "coordinates": [
          -73.34547248211109,
          5.567084507064954
        ]
      }
    },
    {
      "type": "Feature",
      "properties": {
        "_source": "Ruta20-Arboleda-AvenidaNorte-Terminal-Pirgua",
        "_segmentIndex": 0,
        "_position": 14
      },
      "geometry": {
        "type": "Point",
        "coordinates": [
          -73.34571513983786,
          5.566705576980882
        ]
      }
    },
    {
      "type": "Feature",
      "properties": {
        "_source": "Ruta20-Arboleda-AvenidaNorte-Terminal-Pirgua",
        "_segmentIndex": 0,
        "_position": 15
      },
      "geometry": {
        "type": "Point",
        "coordinates": [
          -73.34592850557652,
          5.566309224097958
        ]
      }
    },
    {
      "type": "Feature",
      "properties": {
        "_source": "Ruta20-Arboleda-AvenidaNorte-Terminal-Pirgua",
        "_segmentIndex": 0,
        "_position": 16
      },
      "geometry": {
        "type": "Point",
        "coordinates": [
          -73.3461298120894,
          5.565906730037541
        ]
      }
    },
    {
      "type": "Feature",
      "properties": {
        "_source": "Ruta20-Arboleda-AvenidaNorte-Terminal-Pirgua",
        "_segmentIndex": 0,
        "_position": 17
      },
      "geometry": {
        "type": "Point",
        "coordinates": [
          -73.34632544266476,
          5.5655014303649155
        ]
      }
    },
    {
      "type": "Feature",
      "properties": {
        "_source": "Ruta20-Arboleda-AvenidaNorte-Terminal-Pirgua",
        "_segmentIndex": 0,
        "_position": 18
      },
      "geometry": {
        "type": "Point",
        "coordinates": [
          -73.34651528220947,
          5.565093393382851
        ]
      }
    },
    {
      "type": "Feature",
      "properties": {
        "_source": "Ruta20-Arboleda-AvenidaNorte-Terminal-Pirgua",
        "_segmentIndex": 0,
        "_position": 19
      },
      "geometry": {
        "type": "Point",
        "coordinates": [
          -73.34670512149073,
          5.564685356340077
        ]
      }
    },
    {
      "type": "Feature",
      "properties": {
        "_source": "Ruta20-Arboleda-AvenidaNorte-Terminal-Pirgua",
        "_segmentIndex": 0,
        "_position": 20
      },
      "geometry": {
        "type": "Point",
        "coordinates": [
          -73.34689496050855,
          5.564277319236596
        ]
      }
    },
    {
      "type": "Feature",
      "properties": {
        "_source": "Ruta20-Arboleda-AvenidaNorte-Terminal-Pirgua",
        "_segmentIndex": 0,
        "_position": 21
      },
      "geometry": {
        "type": "Point",
        "coordinates": [
          -73.34708476754128,
          5.563869267802088
        ]
      }
    },
    {
      "type": "Feature",
      "properties": {
        "_source": "Ruta20-Arboleda-AvenidaNorte-Terminal-Pirgua",
        "_segmentIndex": 0,
        "_position": 22
      },
      "geometry": {
        "type": "Point",
        "coordinates": [
          -73.34726707159942,
          5.56345784113274
        ]
      }
    },
    {
      "type": "Feature",
      "properties": {
        "_source": "Ruta20-Arboleda-AvenidaNorte-Terminal-Pirgua",
        "_segmentIndex": 0,
        "_position": 23
      },
      "geometry": {
        "type": "Point",
        "coordinates": [
          -73.34744937540255,
          5.563046414407422
        ]
      }
    },
    {
      "type": "Feature",
      "properties": {
        "_source": "Ruta20-Arboleda-AvenidaNorte-Terminal-Pirgua",
        "_segmentIndex": 0,
        "_position": 24
      },
      "geometry": {
        "type": "Point",
        "coordinates": [
          -73.34763516304719,
          5.56263654666742
        ]
      }
    },
    {
      "type": "Feature",
      "properties": {
        "_source": "Ruta20-Arboleda-AvenidaNorte-Terminal-Pirgua",
        "_segmentIndex": 0,
        "_position": 25
      },
      "geometry": {
        "type": "Point",
        "coordinates": [
          -73.34782336500864,
          5.56222775932804
        ]
      }
    },
    {
      "type": "Feature",
      "properties": {
        "_source": "Ruta20-Arboleda-AvenidaNorte-Terminal-Pirgua",
        "_segmentIndex": 0,
        "_position": 26
      },
      "geometry": {
        "type": "Point",
        "coordinates": [
          -73.34801156670856,
          5.561818971929021
        ]
      }
    },
    {
      "type": "Feature",
      "properties": {
        "_source": "Ruta20-Arboleda-AvenidaNorte-Terminal-Pirgua",
        "_segmentIndex": 0,
        "_position": 27
      },
      "geometry": {
        "type": "Point",
        "coordinates": [
          -73.34819976814697,
          5.56141018447037
        ]
      }
    },
    {
      "type": "Feature",
      "properties": {
        "_source": "Ruta20-Arboleda-AvenidaNorte-Terminal-Pirgua",
        "_segmentIndex": 0,
        "_position": 28
      },
      "geometry": {
        "type": "Point",
        "coordinates": [
          -73.3483879693239,
          5.561001396952091
        ]
      }
    },
    {
      "type": "Feature",
      "properties": {
        "_source": "Ruta20-Arboleda-AvenidaNorte-Terminal-Pirgua",
        "_segmentIndex": 0,
        "_position": 29
      },
      "geometry": {
        "type": "Point",
        "coordinates": [
          -73.34857617023935,
          5.560592609374187
        ]
      }
    },
    {
      "type": "Feature",
      "properties": {
        "_source": "Ruta20-Arboleda-AvenidaNorte-Terminal-Pirgua",
        "_segmentIndex": 0,
        "_position": 30
      },
      "geometry": {
        "type": "Point",
        "coordinates": [
          -73.34876437089335,
          5.560183821736666
        ]
      }
    },
    {
      "type": "Feature",
      "properties": {
        "_source": "Ruta20-Arboleda-AvenidaNorte-Terminal-Pirgua",
        "_segmentIndex": 0,
        "_position": 31
      },
      "geometry": {
        "type": "Point",
        "coordinates": [
          -73.34895262868986,
          5.559775060228229
        ]
      }
    },
    {
      "type": "Feature",
      "properties": {
        "_source": "Ruta20-Arboleda-AvenidaNorte-Terminal-Pirgua",
        "_segmentIndex": 0,
        "_position": 32
      },
      "geometry": {
        "type": "Point",
        "coordinates": [
          -73.34914093313016,
          5.559366320059152
        ]
      }
    },
    {
      "type": "Feature",
      "properties": {
        "_source": "Ruta20-Arboleda-AvenidaNorte-Terminal-Pirgua",
        "_segmentIndex": 0,
        "_position": 33
      },
      "geometry": {
        "type": "Point",
        "coordinates": [
          -73.34932923730894,
          5.558957579830405
        ]
      }
    },
    {
      "type": "Feature",
      "properties": {
        "_source": "Ruta20-Arboleda-AvenidaNorte-Terminal-Pirgua",
        "_segmentIndex": 0,
        "_position": 34
      },
      "geometry": {
        "type": "Point",
        "coordinates": [
          -73.34951754122625,
          5.558548839541991
        ]
      }
    },
    {
      "type": "Feature",
      "properties": {
        "_source": "Ruta20-Arboleda-AvenidaNorte-Terminal-Pirgua",
        "_segmentIndex": 0,
        "_position": 35
      },
      "geometry": {
        "type": "Point",
        "coordinates": [
          -73.34970584488208,
          5.5581400991939125
        ]
      }
    },
    {
      "type": "Feature",
      "properties": {
        "_source": "Ruta20-Arboleda-AvenidaNorte-Terminal-Pirgua",
        "_segmentIndex": 0,
        "_position": 36
      },
      "geometry": {
        "type": "Point",
        "coordinates": [
          -73.34989414827646,
          5.557731358786176
        ]
      }
    },
    {
      "type": "Feature",
      "properties": {
        "_source": "Ruta20-Arboleda-AvenidaNorte-Terminal-Pirgua",
        "_segmentIndex": 0,
        "_position": 37
      },
      "geometry": {
        "type": "Point",
        "coordinates": [
          -73.35008245140942,
          5.5573226183187865
        ]
      }
    },
    {
      "type": "Feature",
      "properties": {
        "_source": "Ruta20-Arboleda-AvenidaNorte-Terminal-Pirgua",
        "_segmentIndex": 0,
        "_position": 38
      },
      "geometry": {
        "type": "Point",
        "coordinates": [
          -73.35027075428096,
          5.556913877791746
        ]
      }
    },
    {
      "type": "Feature",
      "properties": {
        "_source": "Ruta20-Arboleda-AvenidaNorte-Terminal-Pirgua",
        "_segmentIndex": 0,
        "_position": 39
      },
      "geometry": {
        "type": "Point",
        "coordinates": [
          -73.35045905689111,
          5.556505137205061
        ]
      }
    },
    {
      "type": "Feature",
      "properties": {
        "_source": "Ruta20-Arboleda-AvenidaNorte-Terminal-Pirgua",
        "_segmentIndex": 0,
        "_position": 40
      },
      "geometry": {
        "type": "Point",
        "coordinates": [
          -73.35064590090859,
          5.55609573821171
        ]
      }
    },
    {
      "type": "Feature",
      "properties": {
        "_source": "Ruta20-Arboleda-AvenidaNorte-Terminal-Pirgua",
        "_segmentIndex": 0,
        "_position": 41
      },
      "geometry": {
        "type": "Point",
        "coordinates": [
          -73.35083082775691,
          5.555685473792911
        ]
      }
    },
    {
      "type": "Feature",
      "properties": {
        "_source": "Ruta20-Arboleda-AvenidaNorte-Terminal-Pirgua",
        "_segmentIndex": 0,
        "_position": 42
      },
      "geometry": {
        "type": "Point",
        "coordinates": [
          -73.35101575434764,
          5.555275209316599
        ]
      }
    },
    {
      "type": "Feature",
      "properties": {
        "_source": "Ruta20-Arboleda-AvenidaNorte-Terminal-Pirgua",
        "_segmentIndex": 0,
        "_position": 43
      },
      "geometry": {
        "type": "Point",
        "coordinates": [
          -73.35120068068079,
          5.554864944782778
        ]
      }
    },
    {
      "type": "Feature",
      "properties": {
        "_source": "Ruta20-Arboleda-AvenidaNorte-Terminal-Pirgua",
        "_segmentIndex": 0,
        "_position": 44
      },
      "geometry": {
        "type": "Point",
        "coordinates": [
          -73.35138560675638,
          5.554454680191453
        ]
      }
    },
    {
      "type": "Feature",
      "properties": {
        "_source": "Ruta20-Arboleda-AvenidaNorte-Terminal-Pirgua",
        "_segmentIndex": 0,
        "_position": 45
      },
      "geometry": {
        "type": "Point",
        "coordinates": [
          -73.35154466975479,
          5.554033938177862
        ]
      }
    },
    {
      "type": "Feature",
      "properties": {
        "_source": "Ruta20-Arboleda-AvenidaNorte-Terminal-Pirgua",
        "_segmentIndex": 0,
        "_position": 46
      },
      "geometry": {
        "type": "Point",
        "coordinates": [
          -73.35168654094024,
          5.553607160855436
        ]
      }
    },
    {
      "type": "Feature",
      "properties": {
        "_source": "Ruta20-Arboleda-AvenidaNorte-Terminal-Pirgua",
        "_segmentIndex": 0,
        "_position": 47
      },
      "geometry": {
        "type": "Point",
        "coordinates": [
          -73.35182067077045,
          5.553177775302563
        ]
      }
    },
    {
      "type": "Feature",
      "properties": {
        "_source": "Ruta20-Arboleda-AvenidaNorte-Terminal-Pirgua",
        "_segmentIndex": 0,
        "_position": 48
      },
      "geometry": {
        "type": "Point",
        "coordinates": [
          -73.35195480040521,
          5.552748389719444
        ]
      }
    },
    {
      "type": "Feature",
      "properties": {
        "_source": "Ruta20-Arboleda-AvenidaNorte-Terminal-Pirgua",
        "_segmentIndex": 0,
        "_position": 49
      },
      "geometry": {
        "type": "Point",
        "coordinates": [
          -73.35208995266763,
          5.552319331833866
        ]
      }
    },
    {
      "type": "Feature",
      "properties": {
        "_source": "Ruta20-Arboleda-AvenidaNorte-Terminal-Pirgua",
        "_segmentIndex": 0,
        "_position": 50
      },
      "geometry": {
        "type": "Point",
        "coordinates": [
          -73.35223269407992,
          5.551892705657212
        ]
      }
    },
    {
      "type": "Feature",
      "properties": {
        "_source": "Ruta20-Arboleda-AvenidaNorte-Terminal-Pirgua",
        "_segmentIndex": 0,
        "_position": 0
      },
      "geometry": {
        "type": "Point",
        "coordinates": [
          -73.352341,
          5.551569
        ]
      }
    },
    {
      "type": "Feature",
      "properties": {
        "_source": "Ruta20-Arboleda-AvenidaNorte-Terminal-Pirgua",
        "_segmentIndex": 0,
        "_position": 1
      },
      "geometry": {
        "type": "Point",
        "coordinates": [
          -73.3525761729204,
          5.5511865083804075
        ]
      }
    },
    {
      "type": "Feature",
      "properties": {
        "_source": "Ruta20-Arboleda-AvenidaNorte-Terminal-Pirgua",
        "_segmentIndex": 0,
        "_position": 2
      },
      "geometry": {
        "type": "Point",
        "coordinates": [
          -73.35284740391205,
          5.550827134409215
        ]
      }
    },
    {
      "type": "Feature",
      "properties": {
        "_source": "Ruta20-Arboleda-AvenidaNorte-Terminal-Pirgua",
        "_segmentIndex": 0,
        "_position": 3
      },
      "geometry": {
        "type": "Point",
        "coordinates": [
          -73.35313294592584,
          5.550478676577293
        ]
      }
    },
    {
      "type": "Feature",
      "properties": {
        "_source": "Ruta20-Arboleda-AvenidaNorte-Terminal-Pirgua",
        "_segmentIndex": 0,
        "_position": 4
      },
      "geometry": {
        "type": "Point",
        "coordinates": [
          -73.35341848760211,
          5.550130218608375
        ]
      }
    },
    {
      "type": "Feature",
      "properties": {
        "_source": "Ruta20-Arboleda-AvenidaNorte-Terminal-Pirgua",
        "_segmentIndex": 0,
        "_position": 5
      },
      "geometry": {
        "type": "Point",
        "coordinates": [
          -73.3537054563612,
          5.549782924869454
        ]
      }
    },
    {
      "type": "Feature",
      "properties": {
        "_source": "Ruta20-Arboleda-AvenidaNorte-Terminal-Pirgua",
        "_segmentIndex": 0,
        "_position": 6
      },
      "geometry": {
        "type": "Point",
        "coordinates": [
          -73.35399265402665,
          5.54943581799001
        ]
      }
    },
    {
      "type": "Feature",
      "properties": {
        "_source": "Ruta20-Arboleda-AvenidaNorte-Terminal-Pirgua",
        "_segmentIndex": 0,
        "_position": 7
      },
      "geometry": {
        "type": "Point",
        "coordinates": [
          -73.35427331793865,
          5.549083503865357
        ]
      }
    },
    {
      "type": "Feature",
      "properties": {
        "_source": "Ruta20-Arboleda-AvenidaNorte-Terminal-Pirgua",
        "_segmentIndex": 0,
        "_position": 8
      },
      "geometry": {
        "type": "Point",
        "coordinates": [
          -73.35455083545774,
          5.548728682213624
        ]
      }
    },
    {
      "type": "Feature",
      "properties": {
        "_source": "Ruta20-Arboleda-AvenidaNorte-Terminal-Pirgua",
        "_segmentIndex": 0,
        "_position": 9
      },
      "geometry": {
        "type": "Point",
        "coordinates": [
          -73.35482835264291,
          5.548373860432529
        ]
      }
    },
    {
      "type": "Feature",
      "properties": {
        "_source": "Ruta20-Arboleda-AvenidaNorte-Terminal-Pirgua",
        "_segmentIndex": 0,
        "_position": 10
      },
      "geometry": {
        "type": "Point",
        "coordinates": [
          -73.35510492286508,
          5.548018329909234
        ]
      }
    },
    {
      "type": "Feature",
      "properties": {
        "_source": "Ruta20-Arboleda-AvenidaNorte-Terminal-Pirgua",
        "_segmentIndex": 0,
        "_position": 11
      },
      "geometry": {
        "type": "Point",
        "coordinates": [
          -73.35537042697348,
          5.547654515811098
        ]
      }
    },
    {
      "type": "Feature",
      "properties": {
        "_source": "Ruta20-Arboleda-AvenidaNorte-Terminal-Pirgua",
        "_segmentIndex": 0,
        "_position": 12
      },
      "geometry": {
        "type": "Point",
        "coordinates": [
          -73.35563534446474,
          5.5472902789542236
        ]
      }
    },
    {
      "type": "Feature",
      "properties": {
        "_source": "Ruta20-Arboleda-AvenidaNorte-Terminal-Pirgua",
        "_segmentIndex": 0,
        "_position": 13
      },
      "geometry": {
        "type": "Point",
        "coordinates": [
          -73.3559011421172,
          5.546926687336127
        ]
      }
    },
    {
      "type": "Feature",
      "properties": {
        "_source": "Ruta20-Arboleda-AvenidaNorte-Terminal-Pirgua",
        "_segmentIndex": 0,
        "_position": 14
      },
      "geometry": {
        "type": "Point",
        "coordinates": [
          -73.356170559573,
          5.546565734896806
        ]
      }
    },
    {
      "type": "Feature",
      "properties": {
        "_source": "Ruta20-Arboleda-AvenidaNorte-Terminal-Pirgua",
        "_segmentIndex": 0,
        "_position": 15
      },
      "geometry": {
        "type": "Point",
        "coordinates": [
          -73.35643997669916,
          5.54620478233561
        ]
      }
    },
    {
      "type": "Feature",
      "properties": {
        "_source": "Ruta20-Arboleda-AvenidaNorte-Terminal-Pirgua",
        "_segmentIndex": 0,
        "_position": 16
      },
      "geometry": {
        "type": "Point",
        "coordinates": [
          -73.35670939349569,
          5.545843829652547
        ]
      }
    },
    {
      "type": "Feature",
      "properties": {
        "_source": "Ruta20-Arboleda-AvenidaNorte-Terminal-Pirgua",
        "_segmentIndex": 0,
        "_position": 17
      },
      "geometry": {
        "type": "Point",
        "coordinates": [
          -73.35697880996263,
          5.545482876847626
        ]
      }
    },
    {
      "type": "Feature",
      "properties": {
        "_source": "Ruta20-Arboleda-AvenidaNorte-Terminal-Pirgua",
        "_segmentIndex": 0,
        "_position": 18
      },
      "geometry": {
        "type": "Point",
        "coordinates": [
          -73.35724822609998,
          5.545121923920856
        ]
      }
    },
    {
      "type": "Feature",
      "properties": {
        "_source": "Ruta20-Arboleda-AvenidaNorte-Terminal-Pirgua",
        "_segmentIndex": 0,
        "_position": 19
      },
      "geometry": {
        "type": "Point",
        "coordinates": [
          -73.35759616737307,
          5.544871187575344
        ]
      }
    },
    {
      "type": "Feature",
      "properties": {
        "_source": "Ruta20-Arboleda-AvenidaNorte-Terminal-Pirgua",
        "_segmentIndex": 0,
        "_position": 20
      },
      "geometry": {
        "type": "Point",
        "coordinates": [
          -73.35783448160834,
          5.544539184415986
        ]
      }
    },
    {
      "type": "Feature",
      "properties": {
        "_source": "Ruta20-Arboleda-AvenidaNorte-Terminal-Pirgua",
        "_segmentIndex": 0,
        "_position": 0
      },
      "geometry": {
        "type": "Point",
        "coordinates": [
          -73.357874,
          5.544378
        ]
      }
    },
    {
      "type": "Feature",
      "properties": {
        "_source": "Ruta20-Arboleda-AvenidaNorte-Terminal-Pirgua",
        "_segmentIndex": 0,
        "_position": 1
      },
      "geometry": {
        "type": "Point",
        "coordinates": [
          -73.35810473589719,
          5.543993306665904
        ]
      }
    },
    {
      "type": "Feature",
      "properties": {
        "_source": "Ruta20-Arboleda-AvenidaNorte-Terminal-Pirgua",
        "_segmentIndex": 0,
        "_position": 2
      },
      "geometry": {
        "type": "Point",
        "coordinates": [
          -73.35836717903148,
          5.543627300251114
        ]
      }
    },
    {
      "type": "Feature",
      "properties": {
        "_source": "Ruta20-Arboleda-AvenidaNorte-Terminal-Pirgua",
        "_segmentIndex": 0,
        "_position": 3
      },
      "geometry": {
        "type": "Point",
        "coordinates": [
          -73.35862962184031,
          5.543261293720735
        ]
      }
    },
    {
      "type": "Feature",
      "properties": {
        "_source": "Ruta20-Arboleda-AvenidaNorte-Terminal-Pirgua",
        "_segmentIndex": 0,
        "_position": 4
      },
      "geometry": {
        "type": "Point",
        "coordinates": [
          -73.35892392108659,
          5.542929177995414
        ]
      }
    },
    {
      "type": "Feature",
      "properties": {
        "_source": "Ruta20-Arboleda-AvenidaNorte-Terminal-Pirgua",
        "_segmentIndex": 0,
        "_position": 0
      },
      "geometry": {
        "type": "Point",
        "coordinates": [
          -73.35908,
          5.542801
        ]
      }
    },
    {
      "type": "Feature",
      "properties": {
        "_source": "Ruta20-Arboleda-AvenidaNorte-Terminal-Pirgua",
        "_segmentIndex": 0,
        "_position": 1
      },
      "geometry": {
        "type": "Point",
        "coordinates": [
          -73.35952376485501,
          5.5428849316783335
        ]
      }
    },
    {
      "type": "Feature",
      "properties": {
        "_source": "Ruta20-Arboleda-AvenidaNorte-Terminal-Pirgua",
        "_segmentIndex": 0,
        "_position": 2
      },
      "geometry": {
        "type": "Point",
        "coordinates": [
          -73.3599654983607,
          5.542979105398073
        ]
      }
    },
    {
      "type": "Feature",
      "properties": {
        "_source": "Ruta20-Arboleda-AvenidaNorte-Terminal-Pirgua",
        "_segmentIndex": 0,
        "_position": 3
      },
      "geometry": {
        "type": "Point",
        "coordinates": [
          -73.36040115692367,
          5.542945446805896
        ]
      }
    },
    {
      "type": "Feature",
      "properties": {
        "_source": "Ruta20-Arboleda-AvenidaNorte-Terminal-Pirgua",
        "_segmentIndex": 0,
        "_position": 4
      },
      "geometry": {
        "type": "Point",
        "coordinates": [
          -73.3606705463451,
          5.542587221242593
        ]
      }
    },
    {
      "type": "Feature",
      "properties": {
        "_source": "Ruta20-Arboleda-AvenidaNorte-Terminal-Pirgua",
        "_segmentIndex": 0,
        "_position": 5
      },
      "geometry": {
        "type": "Point",
        "coordinates": [
          -73.36084465788927,
          5.542176484266076
        ]
      }
    },
    {
      "type": "Feature",
      "properties": {
        "_source": "Ruta20-Arboleda-AvenidaNorte-Terminal-Pirgua",
        "_segmentIndex": 0,
        "_position": 6
      },
      "geometry": {
        "type": "Point",
        "coordinates": [
          -73.36080083469015,
          5.541730851293181
        ]
      }
    },
    {
      "type": "Feature",
      "properties": {
        "_source": "Ruta20-Arboleda-AvenidaNorte-Terminal-Pirgua",
        "_segmentIndex": 0,
        "_position": 7
      },
      "geometry": {
        "type": "Point",
        "coordinates": [
          -73.36070725755131,
          5.541291221067295
        ]
      }
    },
    {
      "type": "Feature",
      "properties": {
        "_source": "Ruta20-Arboleda-AvenidaNorte-Terminal-Pirgua",
        "_segmentIndex": 0,
        "_position": 8
      },
      "geometry": {
        "type": "Point",
        "coordinates": [
          -73.36066602865884,
          5.540849625039083
        ]
      }
    },
    {
      "type": "Feature",
      "properties": {
        "_source": "Ruta20-Arboleda-AvenidaNorte-Terminal-Pirgua",
        "_segmentIndex": 0,
        "_position": 9
      },
      "geometry": {
        "type": "Point",
        "coordinates": [
          -73.36082426286356,
          5.540429104184064
        ]
      }
    },
    {
      "type": "Feature",
      "properties": {
        "_source": "Ruta20-Arboleda-AvenidaNorte-Terminal-Pirgua",
        "_segmentIndex": 0,
        "_position": 0
      },
      "geometry": {
        "type": "Point",
        "coordinates": [
          -73.360895,
          5.540221
        ]
      }
    },
    {
      "type": "Feature",
      "properties": {
        "_source": "Ruta20-Arboleda-AvenidaNorte-Terminal-Pirgua",
        "_segmentIndex": 0,
        "_position": 1
      },
      "geometry": {
        "type": "Point",
        "coordinates": [
          -73.3610405089022,
          5.539795302017825
        ]
      }
    },
    {
      "type": "Feature",
      "properties": {
        "_source": "Ruta20-Arboleda-AvenidaNorte-Terminal-Pirgua",
        "_segmentIndex": 0,
        "_position": 2
      },
      "geometry": {
        "type": "Point",
        "coordinates": [
          -73.3611964134663,
          5.539373397384659
        ]
      }
    },
    {
      "type": "Feature",
      "properties": {
        "_source": "Ruta20-Arboleda-AvenidaNorte-Terminal-Pirgua",
        "_segmentIndex": 0,
        "_position": 3
      },
      "geometry": {
        "type": "Point",
        "coordinates": [
          -73.36135863219943,
          5.538953745737488
        ]
      }
    },
    {
      "type": "Feature",
      "properties": {
        "_source": "Ruta20-Arboleda-AvenidaNorte-Terminal-Pirgua",
        "_segmentIndex": 0,
        "_position": 4
      },
      "geometry": {
        "type": "Point",
        "coordinates": [
          -73.36151614582752,
          5.538532301947426
        ]
      }
    },
    {
      "type": "Feature",
      "properties": {
        "_source": "Ruta20-Arboleda-AvenidaNorte-Terminal-Pirgua",
        "_segmentIndex": 0,
        "_position": 0
      },
      "geometry": {
        "type": "Point",
        "coordinates": [
          -73.361668,
          5.538126
        ]
      }
    },
    {
      "type": "Feature",
      "properties": {
        "_source": "Ruta20-Arboleda-AvenidaNorte-Terminal-Pirgua",
        "_segmentIndex": 0,
        "_position": 1
      },
      "geometry": {
        "type": "Point",
        "coordinates": [
          -73.36209776695803,
          5.538264614038122
        ]
      }
    },
    {
      "type": "Feature",
      "properties": {
        "_source": "Ruta20-Arboleda-AvenidaNorte-Terminal-Pirgua",
        "_segmentIndex": 0,
        "_position": 2
      },
      "geometry": {
        "type": "Point",
        "coordinates": [
          -73.3625269553313,
          5.538404997004595
        ]
      }
    },
    {
      "type": "Feature",
      "properties": {
        "_source": "Ruta20-Arboleda-AvenidaNorte-Terminal-Pirgua",
        "_segmentIndex": 0,
        "_position": 3
      },
      "geometry": {
        "type": "Point",
        "coordinates": [
          -73.36295556683237,
          5.538547108520108
        ]
      }
    },
    {
      "type": "Feature",
      "properties": {
        "_source": "Ruta20-Arboleda-AvenidaNorte-Terminal-Pirgua",
        "_segmentIndex": 0,
        "_position": 4
      },
      "geometry": {
        "type": "Point",
        "coordinates": [
          -73.36338382849621,
          5.5386902684220605
        ]
      }
    },
    {
      "type": "Feature",
      "properties": {
        "_source": "Ruta20-Arboleda-AvenidaNorte-Terminal-Pirgua",
        "_segmentIndex": 0,
        "_position": 5
      },
      "geometry": {
        "type": "Point",
        "coordinates": [
          -73.36381536712402,
          5.538823314878216
        ]
      }
    },
    {
      "type": "Feature",
      "properties": {
        "_source": "Ruta20-Arboleda-AvenidaNorte-Terminal-Pirgua",
        "_segmentIndex": 0,
        "_position": 0
      },
      "geometry": {
        "type": "Point",
        "coordinates": [
          -73.364071,
          5.538902
        ]
      }
    },
    {
      "type": "Feature",
      "properties": {
        "_source": "Ruta20-Arboleda-AvenidaNorte-Terminal-Pirgua",
        "_segmentIndex": 0,
        "_position": 1
      },
      "geometry": {
        "type": "Point",
        "coordinates": [
          -73.36424379841361,
          5.538486532614851
        ]
      }
    },
    {
      "type": "Feature",
      "properties": {
        "_source": "Ruta20-Arboleda-AvenidaNorte-Terminal-Pirgua",
        "_segmentIndex": 0,
        "_position": 2
      },
      "geometry": {
        "type": "Point",
        "coordinates": [
          -73.36442126321161,
          5.5380730337948565
        ]
      }
    },
    {
      "type": "Feature",
      "properties": {
        "_source": "Ruta20-Arboleda-AvenidaNorte-Terminal-Pirgua",
        "_segmentIndex": 0,
        "_position": 3
      },
      "geometry": {
        "type": "Point",
        "coordinates": [
          -73.36459729698313,
          5.537658932668226
        ]
      }
    },
    {
      "type": "Feature",
      "properties": {
        "_source": "Ruta20-Arboleda-AvenidaNorte-Terminal-Pirgua",
        "_segmentIndex": 0,
        "_position": 4
      },
      "geometry": {
        "type": "Point",
        "coordinates": [
          -73.3647579405278,
          5.537238745653011
        ]
      }
    },
    {
      "type": "Feature",
      "properties": {
        "_source": "Ruta20-Arboleda-AvenidaNorte-Terminal-Pirgua",
        "_segmentIndex": 0,
        "_position": 5
      },
      "geometry": {
        "type": "Point",
        "coordinates": [
          -73.3649423581244,
          5.536828296690245
        ]
      }
    },
    {
      "type": "Feature",
      "properties": {
        "_source": "Ruta20-Arboleda-AvenidaNorte-Terminal-Pirgua",
        "_segmentIndex": 0,
        "_position": 6
      },
      "geometry": {
        "type": "Point",
        "coordinates": [
          -73.36512775165559,
          5.536418243684664
        ]
      }
    },
    {
      "type": "Feature",
      "properties": {
        "_source": "Ruta20-Arboleda-AvenidaNorte-Terminal-Pirgua",
        "_segmentIndex": 0,
        "_position": 7
      },
      "geometry": {
        "type": "Point",
        "coordinates": [
          -73.36529367887611,
          5.53600021280163
        ]
      }
    },
    {
      "type": "Feature",
      "properties": {
        "_source": "Ruta20-Arboleda-AvenidaNorte-Terminal-Pirgua",
        "_segmentIndex": 0,
        "_position": 8
      },
      "geometry": {
        "type": "Point",
        "coordinates": [
          -73.36544849728523,
          5.53557794868911
        ]
      }
    },
    {
      "type": "Feature",
      "properties": {
        "_source": "Ruta20-Arboleda-AvenidaNorte-Terminal-Pirgua",
        "_segmentIndex": 0,
        "_position": 9
      },
      "geometry": {
        "type": "Point",
        "coordinates": [
          -73.3656389865948,
          5.535170233352704
        ]
      }
    },
    {
      "type": "Feature",
      "properties": {
        "_source": "Ruta20-Arboleda-AvenidaNorte-Terminal-Pirgua",
        "_segmentIndex": 0,
        "_position": 10
      },
      "geometry": {
        "type": "Point",
        "coordinates": [
          -73.36580112915532,
          5.534750894906861
        ]
      }
    },
    {
      "type": "Feature",
      "properties": {
        "_source": "Ruta20-Arboleda-AvenidaNorte-Terminal-Pirgua",
        "_segmentIndex": 0,
        "_position": 11
      },
      "geometry": {
        "type": "Point",
        "coordinates": [
          -73.36599143045171,
          5.534344060343456
        ]
      }
    },
    {
      "type": "Feature",
      "properties": {
        "_source": "Ruta20-Arboleda-AvenidaNorte-Terminal-Pirgua",
        "_segmentIndex": 0,
        "_position": 12
      },
      "geometry": {
        "type": "Point",
        "coordinates": [
          -73.36617219103222,
          5.533932014909334
        ]
      }
    },
    {
      "type": "Feature",
      "properties": {
        "_source": "Ruta20-Arboleda-AvenidaNorte-Terminal-Pirgua",
        "_segmentIndex": 0,
        "_position": 13
      },
      "geometry": {
        "type": "Point",
        "coordinates": [
          -73.36636842792728,
          5.533526992239365
        ]
      }
    },
    {
      "type": "Feature",
      "properties": {
        "_source": "Ruta20-Arboleda-AvenidaNorte-Terminal-Pirgua",
        "_segmentIndex": 0,
        "_position": 14
      },
      "geometry": {
        "type": "Point",
        "coordinates": [
          -73.36654243720709,
          5.5331124940637535
        ]
      }
    },
    {
      "type": "Feature",
      "properties": {
        "_source": "Ruta20-Arboleda-AvenidaNorte-Terminal-Pirgua",
        "_segmentIndex": 0,
        "_position": 15
      },
      "geometry": {
        "type": "Point",
        "coordinates": [
          -73.36668086009058,
          5.532685062883635
        ]
      }
    },
    {
      "type": "Feature",
      "properties": {
        "_source": "Ruta20-Arboleda-AvenidaNorte-Terminal-Pirgua",
        "_segmentIndex": 0,
        "_position": 16
      },
      "geometry": {
        "type": "Point",
        "coordinates": [
          -73.36674131576424,
          5.532240526622768
        ]
      }
    },
    {
      "type": "Feature",
      "properties": {
        "_source": "Ruta20-Arboleda-AvenidaNorte-Terminal-Pirgua",
        "_segmentIndex": 0,
        "_position": 17
      },
      "geometry": {
        "type": "Point",
        "coordinates": [
          -73.36680305812658,
          5.531795554986777
        ]
      }
    },
    {
      "type": "Feature",
      "properties": {
        "_source": "Ruta20-Arboleda-AvenidaNorte-Terminal-Pirgua",
        "_segmentIndex": 0,
        "_position": 18
      },
      "geometry": {
        "type": "Point",
        "coordinates": [
          -73.36688448731678,
          5.531353259635486
        ]
      }
    },
    {
      "type": "Feature",
      "properties": {
        "_source": "Ruta20-Arboleda-AvenidaNorte-Terminal-Pirgua",
        "_segmentIndex": 0,
        "_position": 0
      },
      "geometry": {
        "type": "Point",
        "coordinates": [
          -73.366932,
          5.531123
        ]
      }
    },
    {
      "type": "Feature",
      "properties": {
        "_source": "Ruta20-Arboleda-AvenidaNorte-Terminal-Pirgua",
        "_segmentIndex": 0,
        "_position": 1
      },
      "geometry": {
        "type": "Point",
        "coordinates": [
          -73.36649166923152,
          5.531022479471245
        ]
      }
    },
    {
      "type": "Feature",
      "properties": {
        "_source": "Ruta20-Arboleda-AvenidaNorte-Terminal-Pirgua",
        "_segmentIndex": 0,
        "_position": 2
      },
      "geometry": {
        "type": "Point",
        "coordinates": [
          -73.36605134235474,
          5.530921942378418
        ]
      }
    },
    {
      "type": "Feature",
      "properties": {
        "_source": "Ruta20-Arboleda-AvenidaNorte-Terminal-Pirgua",
        "_segmentIndex": 0,
        "_position": 3
      },
      "geometry": {
        "type": "Point",
        "coordinates": [
          -73.36560988198856,
          5.530826492325328
        ]
      }
    },
    {
      "type": "Feature",
      "properties": {
        "_source": "Ruta20-Arboleda-AvenidaNorte-Terminal-Pirgua",
        "_segmentIndex": 0,
        "_position": 4
      },
      "geometry": {
        "type": "Point",
        "coordinates": [
          -73.3651681412566,
          5.530732300761533
        ]
      }
    },
    {
      "type": "Feature",
      "properties": {
        "_source": "Ruta20-Arboleda-AvenidaNorte-Terminal-Pirgua",
        "_segmentIndex": 0,
        "_position": 5
      },
      "geometry": {
        "type": "Point",
        "coordinates": [
          -73.36472925795397,
          5.530626359081266
        ]
      }
    },
    {
      "type": "Feature",
      "properties": {
        "_source": "Ruta20-Arboleda-AvenidaNorte-Terminal-Pirgua",
        "_segmentIndex": 0,
        "_position": 6
      },
      "geometry": {
        "type": "Point",
        "coordinates": [
          -73.36429468346536,
          5.530503627708081
        ]
      }
    },
    {
      "type": "Feature",
      "properties": {
        "_source": "Ruta20-Arboleda-AvenidaNorte-Terminal-Pirgua",
        "_segmentIndex": 0,
        "_position": 7
      },
      "geometry": {
        "type": "Point",
        "coordinates": [
          -73.36386136352644,
          5.530376478665781
        ]
      }
    },
    {
      "type": "Feature",
      "properties": {
        "_source": "Ruta20-Arboleda-AvenidaNorte-Terminal-Pirgua",
        "_segmentIndex": 0,
        "_position": 8
      },
      "geometry": {
        "type": "Point",
        "coordinates": [
          -73.36342924309574,
          5.530245649252863
        ]
      }
    },
    {
      "type": "Feature",
      "properties": {
        "_source": "Ruta20-Arboleda-AvenidaNorte-Terminal-Pirgua",
        "_segmentIndex": 0,
        "_position": 9
      },
      "geometry": {
        "type": "Point",
        "coordinates": [
          -73.36299949155047,
          5.530107001846284
        ]
      }
    },
    {
      "type": "Feature",
      "properties": {
        "_source": "Ruta20-Arboleda-AvenidaNorte-Terminal-Pirgua",
        "_segmentIndex": 0,
        "_position": 10
      },
      "geometry": {
        "type": "Point",
        "coordinates": [
          -73.36256901693528,
          5.529970602031238
        ]
      }
    },
    {
      "type": "Feature",
      "properties": {
        "_source": "Ruta20-Arboleda-AvenidaNorte-Terminal-Pirgua",
        "_segmentIndex": 0,
        "_position": 11
      },
      "geometry": {
        "type": "Point",
        "coordinates": [
          -73.3621438025515,
          5.529818824948934
        ]
      }
    },
    {
      "type": "Feature",
      "properties": {
        "_source": "Ruta20-Arboleda-AvenidaNorte-Terminal-Pirgua",
        "_segmentIndex": 0,
        "_position": 12
      },
      "geometry": {
        "type": "Point",
        "coordinates": [
          -73.36171726722787,
          5.529671018533623
        ]
      }
    },
    {
      "type": "Feature",
      "properties": {
        "_source": "Ruta20-Arboleda-AvenidaNorte-Terminal-Pirgua",
        "_segmentIndex": 0,
        "_position": 13
      },
      "geometry": {
        "type": "Point",
        "coordinates": [
          -73.361285125685,
          5.529539938577589
        ]
      }
    },
    {
      "type": "Feature",
      "properties": {
        "_source": "Ruta20-Arboleda-AvenidaNorte-Terminal-Pirgua",
        "_segmentIndex": 0,
        "_position": 14
      },
      "geometry": {
        "type": "Point",
        "coordinates": [
          -73.36085298433356,
          5.5294088583089485
        ]
      }
    },
    {
      "type": "Feature",
      "properties": {
        "_source": "Ruta20-Arboleda-AvenidaNorte-Terminal-Pirgua",
        "_segmentIndex": 0,
        "_position": 15
      },
      "geometry": {
        "type": "Point",
        "coordinates": [
          -73.36041598436552,
          5.529295028133832
        ]
      }
    },
    {
      "type": "Feature",
      "properties": {
        "_source": "Ruta20-Arboleda-AvenidaNorte-Terminal-Pirgua",
        "_segmentIndex": 0,
        "_position": 16
      },
      "geometry": {
        "type": "Point",
        "coordinates": [
          -73.3599783633943,
          5.529183403000481
        ]
      }
    },
    {
      "type": "Feature",
      "properties": {
        "_source": "Ruta20-Arboleda-AvenidaNorte-Terminal-Pirgua",
        "_segmentIndex": 0,
        "_position": 0
      },
      "geometry": {
        "type": "Point",
        "coordinates": [
          -73.359769,
          5.52913
        ]
      }
    },
    {
      "type": "Feature",
      "properties": {
        "_source": "Ruta20-Arboleda-AvenidaNorte-Terminal-Pirgua",
        "_segmentIndex": 0,
        "_position": 1
      },
      "geometry": {
        "type": "Point",
        "coordinates": [
          -73.35990290891124,
          5.528700547859693
        ]
      }
    },
    {
      "type": "Feature",
      "properties": {
        "_source": "Ruta20-Arboleda-AvenidaNorte-Terminal-Pirgua",
        "_segmentIndex": 0,
        "_position": 2
      },
      "geometry": {
        "type": "Point",
        "coordinates": [
          -73.36003361173849,
          5.5282701476551
        ]
      }
    },
    {
      "type": "Feature",
      "properties": {
        "_source": "Ruta20-Arboleda-AvenidaNorte-Terminal-Pirgua",
        "_segmentIndex": 0,
        "_position": 3
      },
      "geometry": {
        "type": "Point",
        "coordinates": [
          -73.3601588360887,
          5.527838110896485
        ]
      }
    },
    {
      "type": "Feature",
      "properties": {
        "_source": "Ruta20-Arboleda-AvenidaNorte-Terminal-Pirgua",
        "_segmentIndex": 0,
        "_position": 4
      },
      "geometry": {
        "type": "Point",
        "coordinates": [
          -73.3602965863745,
          5.527410097859871
        ]
      }
    },
    {
      "type": "Feature",
      "properties": {
        "_source": "Ruta20-Arboleda-AvenidaNorte-Terminal-Pirgua",
        "_segmentIndex": 0,
        "_position": 0
      },
      "geometry": {
        "type": "Point",
        "coordinates": [
          -73.360412,
          5.527128
        ]
      }
    },
    {
      "type": "Feature",
      "properties": {
        "_source": "Ruta20-Arboleda-AvenidaNorte-Terminal-Pirgua",
        "_segmentIndex": 0,
        "_position": 0
      },
      "geometry": {
        "type": "Point",
        "coordinates": [
          -73.360138,
          5.526948
        ]
      }
    },
    {
      "type": "Feature",
      "properties": {
        "_source": "Ruta20-Arboleda-AvenidaNorte-Terminal-Pirgua",
        "_segmentIndex": 0,
        "_position": 1
      },
      "geometry": {
        "type": "Point",
        "coordinates": [
          -73.35977429023696,
          5.52668397439511
        ]
      }
    },
    {
      "type": "Feature",
      "properties": {
        "_source": "Ruta20-Arboleda-AvenidaNorte-Terminal-Pirgua",
        "_segmentIndex": 0,
        "_position": 2
      },
      "geometry": {
        "type": "Point",
        "coordinates": [
          -73.35943343460805,
          5.526388866590202
        ]
      }
    },
    {
      "type": "Feature",
      "properties": {
        "_source": "Ruta20-Arboleda-AvenidaNorte-Terminal-Pirgua",
        "_segmentIndex": 0,
        "_position": 3
      },
      "geometry": {
        "type": "Point",
        "coordinates": [
          -73.35906452750298,
          5.526130640111359
        ]
      }
    },
    {
      "type": "Feature",
      "properties": {
        "_source": "Ruta20-Arboleda-AvenidaNorte-Terminal-Pirgua",
        "_segmentIndex": 0,
        "_position": 4
      },
      "geometry": {
        "type": "Point",
        "coordinates": [
          -73.35866983320732,
          5.525912807769812
        ]
      }
    },
    {
      "type": "Feature",
      "properties": {
        "_source": "Ruta20-Arboleda-AvenidaNorte-Terminal-Pirgua",
        "_segmentIndex": 0,
        "_position": 5
      },
      "geometry": {
        "type": "Point",
        "coordinates": [
          -73.35826497517937,
          5.525713656898578
        ]
      }
    },
    {
      "type": "Feature",
      "properties": {
        "_source": "Ruta20-Arboleda-AvenidaNorte-Terminal-Pirgua",
        "_segmentIndex": 0,
        "_position": 6
      },
      "geometry": {
        "type": "Point",
        "coordinates": [
          -73.35785326092684,
          5.525528569553284
        ]
      }
    },
    {
      "type": "Feature",
      "properties": {
        "_source": "Ruta20-Arboleda-AvenidaNorte-Terminal-Pirgua",
        "_segmentIndex": 0,
        "_position": 7
      },
      "geometry": {
        "type": "Point",
        "coordinates": [
          -73.35744636031907,
          5.525333574128969
        ]
      }
    },
    {
      "type": "Feature",
      "properties": {
        "_source": "Ruta20-Arboleda-AvenidaNorte-Terminal-Pirgua",
        "_segmentIndex": 0,
        "_position": 8
      },
      "geometry": {
        "type": "Point",
        "coordinates": [
          -73.35704483071027,
          5.525127509350912
        ]
      }
    },
    {
      "type": "Feature",
      "properties": {
        "_source": "Ruta20-Arboleda-AvenidaNorte-Terminal-Pirgua",
        "_segmentIndex": 0,
        "_position": 9
      },
      "geometry": {
        "type": "Point",
        "coordinates": [
          -73.35664288054964,
          5.524922258200821
        ]
      }
    },
    {
      "type": "Feature",
      "properties": {
        "_source": "Ruta20-Arboleda-AvenidaNorte-Terminal-Pirgua",
        "_segmentIndex": 0,
        "_position": 10
      },
      "geometry": {
        "type": "Point",
        "coordinates": [
          -73.35627601985482,
          5.52466178679119
        ]
      }
    },
    {
      "type": "Feature",
      "properties": {
        "_source": "Ruta20-Arboleda-AvenidaNorte-Terminal-Pirgua",
        "_segmentIndex": 0,
        "_position": 11
      },
      "geometry": {
        "type": "Point",
        "coordinates": [
          -73.35591745825437,
          5.524388255357587
        ]
      }
    },
    {
      "type": "Feature",
      "properties": {
        "_source": "Ruta20-Arboleda-AvenidaNorte-Terminal-Pirgua",
        "_segmentIndex": 0,
        "_position": 0
      },
      "geometry": {
        "type": "Point",
        "coordinates": [
          -73.355605,
          5.524348
        ]
      }
    },
    {
      "type": "Feature",
      "properties": {
        "_source": "Ruta20-Arboleda-AvenidaNorte-Terminal-Pirgua",
        "_segmentIndex": 0,
        "_position": 1
      },
      "geometry": {
        "type": "Point",
        "coordinates": [
          -73.35528605981754,
          5.524666394210656
        ]
      }
    },
    {
      "type": "Feature",
      "properties": {
        "_source": "Ruta20-Arboleda-AvenidaNorte-Terminal-Pirgua",
        "_segmentIndex": 0,
        "_position": 2
      },
      "geometry": {
        "type": "Point",
        "coordinates": [
          -73.35496258131425,
          5.5249802562864225
        ]
      }
    },
    {
      "type": "Feature",
      "properties": {
        "_source": "Ruta20-Arboleda-AvenidaNorte-Terminal-Pirgua",
        "_segmentIndex": 0,
        "_position": 3
      },
      "geometry": {
        "type": "Point",
        "coordinates": [
          -73.35463606903582,
          5.525290927458163
        ]
      }
    },
    {
      "type": "Feature",
      "properties": {
        "_source": "Ruta20-Arboleda-AvenidaNorte-Terminal-Pirgua",
        "_segmentIndex": 0,
        "_position": 4
      },
      "geometry": {
        "type": "Point",
        "coordinates": [
          -73.35431978187603,
          5.525611994734852
        ]
      }
    },
    {
      "type": "Feature",
      "properties": {
        "_source": "Ruta20-Arboleda-AvenidaNorte-Terminal-Pirgua",
        "_segmentIndex": 0,
        "_position": 5
      },
      "geometry": {
        "type": "Point",
        "coordinates": [
          -73.35400953327759,
          5.52593884208251
        ]
      }
    },
    {
      "type": "Feature",
      "properties": {
        "_source": "Ruta20-Arboleda-AvenidaNorte-Terminal-Pirgua",
        "_segmentIndex": 0,
        "_position": 6
      },
      "geometry": {
        "type": "Point",
        "coordinates": [
          -73.3537109136386,
          5.526276042343295
        ]
      }
    },
    {
      "type": "Feature",
      "properties": {
        "_source": "Ruta20-Arboleda-AvenidaNorte-Terminal-Pirgua",
        "_segmentIndex": 0,
        "_position": 7
      },
      "geometry": {
        "type": "Point",
        "coordinates": [
          -73.35346799296188,
          5.526653117804639
        ]
      }
    },
    {
      "type": "Feature",
      "properties": {
        "_source": "Ruta20-Arboleda-AvenidaNorte-Terminal-Pirgua",
        "_segmentIndex": 0,
        "_position": 8
      },
      "geometry": {
        "type": "Point",
        "coordinates": [
          -73.3532506316542,
          5.52704729615001
        ]
      }
    },
    {
      "type": "Feature",
      "properties": {
        "_source": "Ruta20-Arboleda-AvenidaNorte-Terminal-Pirgua",
        "_segmentIndex": 0,
        "_position": 9
      },
      "geometry": {
        "type": "Point",
        "coordinates": [
          -73.35303526456813,
          5.527442570243681
        ]
      }
    },
    {
      "type": "Feature",
      "properties": {
        "_source": "Ruta20-Arboleda-AvenidaNorte-Terminal-Pirgua",
        "_segmentIndex": 0,
        "_position": 10
      },
      "geometry": {
        "type": "Point",
        "coordinates": [
          -73.35281625813816,
          5.527835850809375
        ]
      }
    },
    {
      "type": "Feature",
      "properties": {
        "_source": "Ruta20-Arboleda-AvenidaNorte-Terminal-Pirgua",
        "_segmentIndex": 0,
        "_position": 0
      },
      "geometry": {
        "type": "Point",
        "coordinates": [
          -73.352787,
          5.527888
        ]
      }
    },
    {
      "type": "Feature",
      "properties": {
        "_source": "Ruta20-Arboleda-AvenidaNorte-Terminal-Pirgua",
        "_segmentIndex": 0,
        "_position": 1
      },
      "geometry": {
        "type": "Point",
        "coordinates": [
          -73.35233796474131,
          5.527838903852202
        ]
      }
    },
    {
      "type": "Feature",
      "properties": {
        "_source": "Ruta20-Arboleda-AvenidaNorte-Terminal-Pirgua",
        "_segmentIndex": 0,
        "_position": 2
      },
      "geometry": {
        "type": "Point",
        "coordinates": [
          -73.3518882221269,
          5.52779653093678
        ]
      }
    },
    {
      "type": "Feature",
      "properties": {
        "_source": "Ruta20-Arboleda-AvenidaNorte-Terminal-Pirgua",
        "_segmentIndex": 0,
        "_position": 3
      },
      "geometry": {
        "type": "Point",
        "coordinates": [
          -73.35143808205983,
          5.527758838940014
        ]
      }
    },
    {
      "type": "Feature",
      "properties": {
        "_source": "Ruta20-Arboleda-AvenidaNorte-Terminal-Pirgua",
        "_segmentIndex": 0,
        "_position": 0
      },
      "geometry": {
        "type": "Point",
        "coordinates": [
          -73.351143,
          5.527742
        ]
      }
    },
    {
      "type": "Feature",
      "properties": {
        "_source": "Ruta20-Arboleda-AvenidaNorte-Terminal-Pirgua",
        "_segmentIndex": 0,
        "_position": 1
      },
      "geometry": {
        "type": "Point",
        "coordinates": [
          -73.35108723760811,
          5.528188219549683
        ]
      }
    },
    {
      "type": "Feature",
      "properties": {
        "_source": "Ruta20-Arboleda-AvenidaNorte-Terminal-Pirgua",
        "_segmentIndex": 0,
        "_position": 2
      },
      "geometry": {
        "type": "Point",
        "coordinates": [
          -73.35104432284162,
          5.528635745505333
        ]
      }
    },
    {
      "type": "Feature",
      "properties": {
        "_source": "Ruta20-Arboleda-AvenidaNorte-Terminal-Pirgua",
        "_segmentIndex": 0,
        "_position": 3
      },
      "geometry": {
        "type": "Point",
        "coordinates": [
          -73.35101037937427,
          5.529084131212671
        ]
      }
    },
    {
      "type": "Feature",
      "properties": {
        "_source": "Ruta20-Arboleda-AvenidaNorte-Terminal-Pirgua",
        "_segmentIndex": 0,
        "_position": 0
      },
      "geometry": {
        "type": "Point",
        "coordinates": [
          -73.350988,
          5.5294
        ]
      }
    },
    {
      "type": "Feature",
      "properties": {
        "_source": "Ruta20-Arboleda-AvenidaNorte-Terminal-Pirgua",
        "_segmentIndex": 0,
        "_position": 1
      },
      "geometry": {
        "type": "Point",
        "coordinates": [
          -73.35059262817248,
          5.529616983236281
        ]
      }
    },
    {
      "type": "Feature",
      "properties": {
        "_source": "Ruta20-Arboleda-AvenidaNorte-Terminal-Pirgua",
        "_segmentIndex": 0,
        "_position": 2
      },
      "geometry": {
        "type": "Point",
        "coordinates": [
          -73.35015187228569,
          5.529703274484095
        ]
      }
    },
    {
      "type": "Feature",
      "properties": {
        "_source": "Ruta20-Arboleda-AvenidaNorte-Terminal-Pirgua",
        "_segmentIndex": 0,
        "_position": 3
      },
      "geometry": {
        "type": "Point",
        "coordinates": [
          -73.34970086621837,
          5.5296827125950605
        ]
      }
    },
    {
      "type": "Feature",
      "properties": {
        "_source": "Ruta20-Arboleda-AvenidaNorte-Terminal-Pirgua",
        "_segmentIndex": 0,
        "_position": 4
      },
      "geometry": {
        "type": "Point",
        "coordinates": [
          -73.34925080913503,
          5.529643680342844
        ]
      }
    },
    {
      "type": "Feature",
      "properties": {
        "_source": "Ruta20-Arboleda-AvenidaNorte-Terminal-Pirgua",
        "_segmentIndex": 0,
        "_position": 5
      },
      "geometry": {
        "type": "Point",
        "coordinates": [
          -73.34880026769024,
          5.529611078644657
        ]
      }
    },
    {
      "type": "Feature",
      "properties": {
        "_source": "Ruta20-Arboleda-AvenidaNorte-Terminal-Pirgua",
        "_segmentIndex": 0,
        "_position": 6
      },
      "geometry": {
        "type": "Point",
        "coordinates": [
          -73.34835028997364,
          5.529571808802542
        ]
      }
    },
    {
      "type": "Feature",
      "properties": {
        "_source": "Ruta20-Arboleda-AvenidaNorte-Terminal-Pirgua",
        "_segmentIndex": 0,
        "_position": 7
      },
      "geometry": {
        "type": "Point",
        "coordinates": [
          -73.34790178926104,
          5.529518101653968
        ]
      }
    },
    {
      "type": "Feature",
      "properties": {
        "_source": "Ruta20-Arboleda-AvenidaNorte-Terminal-Pirgua",
        "_segmentIndex": 0,
        "_position": 0
      },
      "geometry": {
        "type": "Point",
        "coordinates": [
          -73.347563,
          5.529458
        ]
      }
    },
    {
      "type": "Feature",
      "properties": {
        "_source": "Ruta20-Arboleda-AvenidaNorte-Terminal-Pirgua",
        "_segmentIndex": 0,
        "_position": 1
      },
      "geometry": {
        "type": "Point",
        "coordinates": [
          -73.34736337303612,
          5.529845317302362
        ]
      }
    },
    {
      "type": "Feature",
      "properties": {
        "_source": "Ruta20-Arboleda-AvenidaNorte-Terminal-Pirgua",
        "_segmentIndex": 0,
        "_position": 2
      },
      "geometry": {
        "type": "Point",
        "coordinates": [
          -73.34720810278137,
          5.53026747392486
        ]
      }
    },
    {
      "type": "Feature",
      "properties": {
        "_source": "Ruta20-Arboleda-AvenidaNorte-Terminal-Pirgua",
        "_segmentIndex": 0,
        "_position": 3
      },
      "geometry": {
        "type": "Point",
        "coordinates": [
          -73.34706155978036,
          5.530691753707529
        ]
      }
    },
    {
      "type": "Feature",
      "properties": {
        "_source": "Ruta20-Arboleda-AvenidaNorte-Terminal-Pirgua",
        "_segmentIndex": 0,
        "_position": 4
      },
      "geometry": {
        "type": "Point",
        "coordinates": [
          -73.34689614462414,
          5.53110986880016
        ]
      }
    },
    {
      "type": "Feature",
      "properties": {
        "_source": "Ruta20-Arboleda-AvenidaNorte-Terminal-Pirgua",
        "_segmentIndex": 0,
        "_position": 5
      },
      "geometry": {
        "type": "Point",
        "coordinates": [
          -73.34680229150652,
          5.531544291506572
        ]
      }
    },
    {
      "type": "Feature",
      "properties": {
        "_source": "Ruta20-Arboleda-AvenidaNorte-Terminal-Pirgua",
        "_segmentIndex": 0,
        "_position": 6
      },
      "geometry": {
        "type": "Point",
        "coordinates": [
          -73.34697823877626,
          5.5319085487703585
        ]
      }
    },
    {
      "type": "Feature",
      "properties": {
        "_source": "Ruta20-Arboleda-AvenidaNorte-Terminal-Pirgua",
        "_segmentIndex": 0,
        "_position": 7
      },
      "geometry": {
        "type": "Point",
        "coordinates": [
          -73.34710821589032,
          5.532311246399168
        ]
      }
    },
    {
      "type": "Feature",
      "properties": {
        "_source": "Ruta20-Arboleda-AvenidaNorte-Terminal-Pirgua",
        "_segmentIndex": 0,
        "_position": 8
      },
      "geometry": {
        "type": "Point",
        "coordinates": [
          -73.3470222162259,
          5.532748578270558
        ]
      }
    },
    {
      "type": "Feature",
      "properties": {
        "_source": "Ruta20-Arboleda-AvenidaNorte-Terminal-Pirgua",
        "_segmentIndex": 0,
        "_position": 9
      },
      "geometry": {
        "type": "Point",
        "coordinates": [
          -73.34710209245718,
          5.5331909472332805
        ]
      }
    },
    {
      "type": "Feature",
      "properties": {
        "_source": "Ruta20-Arboleda-AvenidaNorte-Terminal-Pirgua",
        "_segmentIndex": 0,
        "_position": 10
      },
      "geometry": {
        "type": "Point",
        "coordinates": [
          -73.34715572192849,
          5.533636926012691
        ]
      }
    },
    {
      "type": "Feature",
      "properties": {
        "_source": "Ruta20-Arboleda-AvenidaNorte-Terminal-Pirgua",
        "_segmentIndex": 0,
        "_position": 0
      },
      "geometry": {
        "type": "Point",
        "coordinates": [
          -73.347166,
          5.533875
        ]
      }
    },
    {
      "type": "Feature",
      "properties": {
        "_source": "Ruta20-Arboleda-AvenidaNorte-Terminal-Pirgua",
        "_segmentIndex": 0,
        "_position": 1
      },
      "geometry": {
        "type": "Point",
        "coordinates": [
          -73.34672046897907,
          5.533891878584826
        ]
      }
    },
    {
      "type": "Feature",
      "properties": {
        "_source": "Ruta20-Arboleda-AvenidaNorte-Terminal-Pirgua",
        "_segmentIndex": 0,
        "_position": 2
      },
      "geometry": {
        "type": "Point",
        "coordinates": [
          -73.34633187205532,
          5.534108391628407
        ]
      }
    },
    {
      "type": "Feature",
      "properties": {
        "_source": "Ruta20-Arboleda-AvenidaNorte-Terminal-Pirgua",
        "_segmentIndex": 0,
        "_position": 3
      },
      "geometry": {
        "type": "Point",
        "coordinates": [
          -73.34603157074135,
          5.534443686933065
        ]
      }
    },
    {
      "type": "Feature",
      "properties": {
        "_source": "Ruta20-Arboleda-AvenidaNorte-Terminal-Pirgua",
        "_segmentIndex": 0,
        "_position": 4
      },
      "geometry": {
        "type": "Point",
        "coordinates": [
          -73.34572795563587,
          5.534776653748409
        ]
      }
    },
    {
      "type": "Feature",
      "properties": {
        "_source": "Ruta20-Arboleda-AvenidaNorte-Terminal-Pirgua",
        "_segmentIndex": 0,
        "_position": 5
      },
      "geometry": {
        "type": "Point",
        "coordinates": [
          -73.34531778140081,
          5.534912026178012
        ]
      }
    },
    {
      "type": "Feature",
      "properties": {
        "_source": "Ruta20-Arboleda-AvenidaNorte-Terminal-Pirgua",
        "_segmentIndex": 0,
        "_position": 6
      },
      "geometry": {
        "type": "Point",
        "coordinates": [
          -73.34508905564516,
          5.534537982572047
        ]
      }
    },
    {
      "type": "Feature",
      "properties": {
        "_source": "Ruta20-Arboleda-AvenidaNorte-Terminal-Pirgua",
        "_segmentIndex": 0,
        "_position": 7
      },
      "geometry": {
        "type": "Point",
        "coordinates": [
          -73.34489733857014,
          5.534130938290403
        ]
      }
    },
    {
      "type": "Feature",
      "properties": {
        "_source": "Ruta20-Arboleda-AvenidaNorte-Terminal-Pirgua",
        "_segmentIndex": 0,
        "_position": 8
      },
      "geometry": {
        "type": "Point",
        "coordinates": [
          -73.34470557464549,
          5.533723824626358
        ]
      }
    },
    {
      "type": "Feature",
      "properties": {
        "_source": "Ruta20-Arboleda-AvenidaNorte-Terminal-Pirgua",
        "_segmentIndex": 0,
        "_position": 9
      },
      "geometry": {
        "type": "Point",
        "coordinates": [
          -73.34450740599887,
          5.533319734758156
        ]
      }
    },
    {
      "type": "Feature",
      "properties": {
        "_source": "Ruta20-Arboleda-AvenidaNorte-Terminal-Pirgua",
        "_segmentIndex": 0,
        "_position": 10
      },
      "geometry": {
        "type": "Point",
        "coordinates": [
          -73.34430923762304,
          5.532915644824173
        ]
      }
    },
    {
      "type": "Feature",
      "properties": {
        "_source": "Ruta20-Arboleda-AvenidaNorte-Terminal-Pirgua",
        "_segmentIndex": 0,
        "_position": 11
      },
      "geometry": {
        "type": "Point",
        "coordinates": [
          -73.34411380545609,
          5.5325103704046565
        ]
      }
    },
    {
      "type": "Feature",
      "properties": {
        "_source": "Ruta20-Arboleda-AvenidaNorte-Terminal-Pirgua",
        "_segmentIndex": 0,
        "_position": 0
      },
      "geometry": {
        "type": "Point",
        "coordinates": [
          -73.344075,
          5.532355
        ]
      }
    },
    {
      "type": "Feature",
      "properties": {
        "_source": "Ruta20-Arboleda-AvenidaNorte-Terminal-Pirgua",
        "_segmentIndex": 0,
        "_position": 1
      },
      "geometry": {
        "type": "Point",
        "coordinates": [
          -73.3441426208085,
          5.531919815028707
        ]
      }
    },
    {
      "type": "Feature",
      "properties": {
        "_source": "Ruta20-Arboleda-AvenidaNorte-Terminal-Pirgua",
        "_segmentIndex": 0,
        "_position": 2
      },
      "geometry": {
        "type": "Point",
        "coordinates": [
          -73.34375610520969,
          5.531907100149038
        ]
      }
    },
    {
      "type": "Feature",
      "properties": {
        "_source": "Ruta20-Arboleda-AvenidaNorte-Terminal-Pirgua",
        "_segmentIndex": 0,
        "_position": 0
      },
      "geometry": {
        "type": "Point",
        "coordinates": [
          -73.343483,
          5.531856
        ]
      }
    },
    {
      "type": "Feature",
      "properties": {
        "_source": "Ruta20-Arboleda-AvenidaNorte-Terminal-Pirgua",
        "_segmentIndex": 0,
        "_position": 1
      },
      "geometry": {
        "type": "Point",
        "coordinates": [
          -73.34314972083345,
          5.53155253767578
        ]
      }
    },
    {
      "type": "Feature",
      "properties": {
        "_source": "Ruta20-Arboleda-AvenidaNorte-Terminal-Pirgua",
        "_segmentIndex": 0,
        "_position": 2
      },
      "geometry": {
        "type": "Point",
        "coordinates": [
          -73.34281961951474,
          5.531245571886559
        ]
      }
    },
    {
      "type": "Feature",
      "properties": {
        "_source": "Ruta20-Arboleda-AvenidaNorte-Terminal-Pirgua",
        "_segmentIndex": 0,
        "_position": 3
      },
      "geometry": {
        "type": "Point",
        "coordinates": [
          -73.34258810455532,
          5.530888573503304
        ]
      }
    },
    {
      "type": "Feature",
      "properties": {
        "_source": "Ruta20-Arboleda-AvenidaNorte-Terminal-Pirgua",
        "_segmentIndex": 0,
        "_position": 4
      },
      "geometry": {
        "type": "Point",
        "coordinates": [
          -73.34261753293049,
          5.530499730755669
        ]
      }
    },
    {
      "type": "Feature",
      "properties": {
        "_source": "Ruta20-Arboleda-AvenidaNorte-Terminal-Pirgua",
        "_segmentIndex": 0,
        "_position": 5
      },
      "geometry": {
        "type": "Point",
        "coordinates": [
          -73.34219790636524,
          5.530577000002175
        ]
      }
    },
    {
      "type": "Feature",
      "properties": {
        "_source": "Ruta20-Arboleda-AvenidaNorte-Terminal-Pirgua",
        "_segmentIndex": 0,
        "_position": 6
      },
      "geometry": {
        "type": "Point",
        "coordinates": [
          -73.34183590242559,
          5.530326173646979
        ]
      }
    },
    {
      "type": "Feature",
      "properties": {
        "_source": "Ruta20-Arboleda-AvenidaNorte-Terminal-Pirgua",
        "_segmentIndex": 0,
        "_position": 7
      },
      "geometry": {
        "type": "Point",
        "coordinates": [
          -73.34147375601661,
          5.530059402809865
        ]
      }
    },
    {
      "type": "Feature",
      "properties": {
        "_source": "Ruta20-Arboleda-AvenidaNorte-Terminal-Pirgua",
        "_segmentIndex": 0,
        "_position": 8
      },
      "geometry": {
        "type": "Point",
        "coordinates": [
          -73.34104501398669,
          5.5299502209855085
        ]
      }
    },
    {
      "type": "Feature",
      "properties": {
        "_source": "Ruta20-Arboleda-AvenidaNorte-Terminal-Pirgua",
        "_segmentIndex": 0,
        "_position": 9
      },
      "geometry": {
        "type": "Point",
        "coordinates": [
          -73.34062708499282,
          5.530103540592872
        ]
      }
    },
    {
      "type": "Feature",
      "properties": {
        "_source": "Ruta20-Arboleda-AvenidaNorte-Terminal-Pirgua",
        "_segmentIndex": 0,
        "_position": 10
      },
      "geometry": {
        "type": "Point",
        "coordinates": [
          -73.3402413211377,
          5.530337554713493
        ]
      }
    },
    {
      "type": "Feature",
      "properties": {
        "_source": "Ruta20-Arboleda-AvenidaNorte-Terminal-Pirgua",
        "_segmentIndex": 0,
        "_position": 11
      },
      "geometry": {
        "type": "Point",
        "coordinates": [
          -73.33985993998769,
          5.530578550731433
        ]
      }
    },
    {
      "type": "Feature",
      "properties": {
        "_source": "Ruta20-Arboleda-AvenidaNorte-Terminal-Pirgua",
        "_segmentIndex": 0,
        "_position": 12
      },
      "geometry": {
        "type": "Point",
        "coordinates": [
          -73.33947950185278,
          5.530821049227707
        ]
      }
    },
    {
      "type": "Feature",
      "properties": {
        "_source": "Ruta20-Arboleda-AvenidaNorte-Terminal-Pirgua",
        "_segmentIndex": 0,
        "_position": 13
      },
      "geometry": {
        "type": "Point",
        "coordinates": [
          -73.33909548615338,
          5.531057869654437
        ]
      }
    },
    {
      "type": "Feature",
      "properties": {
        "_source": "Ruta20-Arboleda-AvenidaNorte-Terminal-Pirgua",
        "_segmentIndex": 0,
        "_position": 14
      },
      "geometry": {
        "type": "Point",
        "coordinates": [
          -73.33871204422607,
          5.531295339432047
        ]
      }
    },
    {
      "type": "Feature",
      "properties": {
        "_source": "Ruta20-Arboleda-AvenidaNorte-Terminal-Pirgua",
        "_segmentIndex": 0,
        "_position": 15
      },
      "geometry": {
        "type": "Point",
        "coordinates": [
          -73.33832871908733,
          5.531156578634861
        ]
      }
    },
    {
      "type": "Feature",
      "properties": {
        "_source": "Ruta20-Arboleda-AvenidaNorte-Terminal-Pirgua",
        "_segmentIndex": 0,
        "_position": 16
      },
      "geometry": {
        "type": "Point",
        "coordinates": [
          -73.33816588279865,
          5.53073943074477
        ]
      }
    },
    {
      "type": "Feature",
      "properties": {
        "_source": "Ruta20-Arboleda-AvenidaNorte-Terminal-Pirgua",
        "_segmentIndex": 0,
        "_position": 17
      },
      "geometry": {
        "type": "Point",
        "coordinates": [
          -73.33782152405252,
          5.530477946073524
        ]
      }
    },
    {
      "type": "Feature",
      "properties": {
        "_source": "Ruta20-Arboleda-AvenidaNorte-Terminal-Pirgua",
        "_segmentIndex": 0,
        "_position": 18
      },
      "geometry": {
        "type": "Point",
        "coordinates": [
          -73.33736983802372,
          5.530482124996938
        ]
      }
    },
    {
      "type": "Feature",
      "properties": {
        "_source": "Ruta20-Arboleda-AvenidaNorte-Terminal-Pirgua",
        "_segmentIndex": 0,
        "_position": 19
      },
      "geometry": {
        "type": "Point",
        "coordinates": [
          -73.33691817646375,
          5.530491658789924
        ]
      }
    },
    {
      "type": "Feature",
      "properties": {
        "_source": "Ruta20-Arboleda-AvenidaNorte-Terminal-Pirgua",
        "_segmentIndex": 0,
        "_position": 20
      },
      "geometry": {
        "type": "Point",
        "coordinates": [
          -73.33646650439701,
          5.530499502984692
        ]
      }
    },
    {
      "type": "Feature",
      "properties": {
        "_source": "Ruta20-Arboleda-AvenidaNorte-Terminal-Pirgua",
        "_segmentIndex": 0,
        "_position": 21
      },
      "geometry": {
        "type": "Point",
        "coordinates": [
          -73.33601483739173,
          5.530491693262427
        ]
      }
    },
    {
      "type": "Feature",
      "properties": {
        "_source": "Ruta20-Arboleda-AvenidaNorte-Terminal-Pirgua",
        "_segmentIndex": 0,
        "_position": 22
      },
      "geometry": {
        "type": "Point",
        "coordinates": [
          -73.33556813978575,
          5.5304322632327185
        ]
      }
    },
    {
      "type": "Feature",
      "properties": {
        "_source": "Ruta20-Arboleda-AvenidaNorte-Terminal-Pirgua",
        "_segmentIndex": 0,
        "_position": 23
      },
      "geometry": {
        "type": "Point",
        "coordinates": [
          -73.33513763279002,
          5.530296388334239
        ]
      }
    },
    {
      "type": "Feature",
      "properties": {
        "_source": "Ruta20-Arboleda-AvenidaNorte-Terminal-Pirgua",
        "_segmentIndex": 0,
        "_position": 24
      },
      "geometry": {
        "type": "Point",
        "coordinates": [
          -73.33470884736965,
          5.530154808376824
        ]
      }
    },
    {
      "type": "Feature",
      "properties": {
        "_source": "Ruta20-Arboleda-AvenidaNorte-Terminal-Pirgua",
        "_segmentIndex": 0,
        "_position": 25
      },
      "geometry": {
        "type": "Point",
        "coordinates": [
          -73.33428006215446,
          5.530013228111608
        ]
      }
    },
    {
      "type": "Feature",
      "properties": {
        "_source": "Ruta20-Arboleda-AvenidaNorte-Terminal-Pirgua",
        "_segmentIndex": 0,
        "_position": 26
      },
      "geometry": {
        "type": "Point",
        "coordinates": [
          -73.33384975819419,
          5.529876298202631
        ]
      }
    },
    {
      "type": "Feature",
      "properties": {
        "_source": "Ruta20-Arboleda-AvenidaNorte-Terminal-Pirgua",
        "_segmentIndex": 0,
        "_position": 27
      },
      "geometry": {
        "type": "Point",
        "coordinates": [
          -73.33342151244346,
          5.529733633336826
        ]
      }
    },
    {
      "type": "Feature",
      "properties": {
        "_source": "Ruta20-Arboleda-AvenidaNorte-Terminal-Pirgua",
        "_segmentIndex": 0,
        "_position": 28
      },
      "geometry": {
        "type": "Point",
        "coordinates": [
          -73.33300535572201,
          5.529558664469388
        ]
      }
    },
    {
      "type": "Feature",
      "properties": {
        "_source": "Ruta20-Arboleda-AvenidaNorte-Terminal-Pirgua",
        "_segmentIndex": 0,
        "_position": 29
      },
      "geometry": {
        "type": "Point",
        "coordinates": [
          -73.33258922973842,
          5.529383675760634
        ]
      }
    },
    {
      "type": "Feature",
      "properties": {
        "_source": "Ruta20-Arboleda-AvenidaNorte-Terminal-Pirgua",
        "_segmentIndex": 0,
        "_position": 30
      },
      "geometry": {
        "type": "Point",
        "coordinates": [
          -73.33217619642008,
          5.529201517554358
        ]
      }
    },
    {
      "type": "Feature",
      "properties": {
        "_source": "Ruta20-Arboleda-AvenidaNorte-Terminal-Pirgua",
        "_segmentIndex": 0,
        "_position": 31
      },
      "geometry": {
        "type": "Point",
        "coordinates": [
          -73.33175674177406,
          5.529036275349088
        ]
      }
    },
    {
      "type": "Feature",
      "properties": {
        "_source": "Ruta20-Arboleda-AvenidaNorte-Terminal-Pirgua",
        "_segmentIndex": 0,
        "_position": 32
      },
      "geometry": {
        "type": "Point",
        "coordinates": [
          -73.33130998259135,
          5.528991724267901
        ]
      }
    },
    {
      "type": "Feature",
      "properties": {
        "_source": "Ruta20-Arboleda-AvenidaNorte-Terminal-Pirgua",
        "_segmentIndex": 0,
        "_position": 33
      },
      "geometry": {
        "type": "Point",
        "coordinates": [
          -73.33085893074394,
          5.529015571373708
        ]
      }
    },
    {
      "type": "Feature",
      "properties": {
        "_source": "Ruta20-Arboleda-AvenidaNorte-Terminal-Pirgua",
        "_segmentIndex": 0,
        "_position": 34
      },
      "geometry": {
        "type": "Point",
        "coordinates": [
          -73.33041720960153,
          5.529099942889358
        ]
      }
    },
    {
      "type": "Feature",
      "properties": {
        "_source": "Ruta20-Arboleda-AvenidaNorte-Terminal-Pirgua",
        "_segmentIndex": 0,
        "_position": 35
      },
      "geometry": {
        "type": "Point",
        "coordinates": [
          -73.33000932568822,
          5.529292957937695
        ]
      }
    },
    {
      "type": "Feature",
      "properties": {
        "_source": "Ruta20-Arboleda-AvenidaNorte-Terminal-Pirgua",
        "_segmentIndex": 0,
        "_position": 36
      },
      "geometry": {
        "type": "Point",
        "coordinates": [
          -73.3295966241599,
          5.529475859800565
        ]
      }
    }
  ]
}