{
  "type": "FeatureCollection",
  "features": [
    {
      "type": "Feature",
      "properties": {
        "_source": "Ruta6-RetenSur-ViaMoniquira-EstanciaelRoble",
        "_segmentIndex": 0,
        "_position": 0
      },
      "geometry": {
        "type": "Point",
        "coordinates": [
          -73.373778,
          5.508494
        ]
      }
    },
    {
      "type": "Feature",
      "properties": {
        "_source": "Ruta6-RetenSur-ViaMoniquira-EstanciaelRoble",
        "_segmentIndex": 0,
        "_position": 1
      },
      "geometry": {
        "type": "Point",
        "coordinates": [
          -73.37359301273366,
          5.508904230842491
        ]
      }
    },
    {
      "type": "Feature",
      "properties": {
        "_source": "Ruta6-RetenSur-ViaMoniquira-EstanciaelRoble",
        "_segmentIndex": 0,
        "_position": 2
      },
      "geometry": {
        "type": "Point",
        "coordinates": [
          -73.37339847282686,
          5.509310053890636
        ]
      }
    },
    {
      "type": "Feature",
      "properties": {
        "_source": "Ruta6-RetenSur-ViaMoniquira-EstanciaelRoble",
        "_segmentIndex": 0,
        "_position": 3
      },
      "geometry": {
        "type": "Point",
        "coordinates": [
          -73.37320350015868,
          5.509715677310088
        ]
      }
    },
    {
      "type": "Feature",
      "properties": {
        "_source": "Ruta6-RetenSur-ViaMoniquira-EstanciaelRoble",
        "_segmentIndex": 0,
        "_position": 4
      },
      "geometry": {
        "type": "Point",
        "coordinates": [
          -73.37301413454084,
          5.5101238718929135
        ]
      }
    },
    {
      "type": "Feature",
      "properties": {
        "_source": "Ruta6-RetenSur-ViaMoniquira-EstanciaelRoble",
        "_segmentIndex": 0,
        "_position": 5
      },
      "geometry": {
        "type": "Point",
        "coordinates": [
          -73.37283111327041,
          5.510534975726764
        ]
      }
    },
    {
      "type": "Feature",
      "properties": {
        "_source": "Ruta6-RetenSur-ViaMoniquira-EstanciaelRoble",
        "_segmentIndex": 0,
        "_position": 6
      },
      "geometry": {
        "type": "Point",
        "coordinates": [
          -73.37264809174658,
          5.510946079504734
        ]
      }
    },
    {
      "type": "Feature",
      "properties": {
        "_source": "Ruta6-RetenSur-ViaMoniquira-EstanciaelRoble",
        "_segmentIndex": 0,
        "_position": 7
      },
      "geometry": {
        "type": "Point",
        "coordinates": [
          -73.37246401718629,
          5.511356711845543
        ]
      }
    },
    {
      "type": "Feature",
      "properties": {
        "_source": "Ruta6-RetenSur-ViaMoniquira-EstanciaelRoble",
        "_segmentIndex": 0,
        "_position": 8
      },
      "geometry": {
        "type": "Point",
        "coordinates": [
          -73.37227639982248,
          5.511765757961189
        ]
      }
    },
    {
      "type": "Feature",
      "properties": {
        "_source": "Ruta6-RetenSur-ViaMoniquira-EstanciaelRoble",
        "_segmentIndex": 0,
        "_position": 9
      },
      "geometry": {
        "type": "Point",
        "coordinates": [
          -73.37208878220017,
          5.512174804018098
        ]
      }
    },
    {
      "type": "Feature",
      "properties": {
        "_source": "Ruta6-RetenSur-ViaMoniquira-EstanciaelRoble",
        "_segmentIndex": 0,
        "_position": 10
      },
      "geometry": {
        "type": "Point",
        "coordinates": [
          -73.37189853534349,
          5.512582606987993
        ]
      }
    },
    {
      "type": "Feature",
      "properties": {
        "_source": "Ruta6-RetenSur-ViaMoniquira-EstanciaelRoble",
        "_segmentIndex": 0,
        "_position": 11
      },
      "geometry": {
        "type": "Point",
        "coordinates": [
          -73.37168380701956,
          5.51297724851862
        ]
      }
    },
    {
      "type": "Feature",
      "properties": {
        "_source": "Ruta6-RetenSur-ViaMoniquira-EstanciaelRoble",
        "_segmentIndex": 0,
        "_position": 12
      },
      "geometry": {
        "type": "Point",
        "coordinates": [
          -73.37140081237494,
          5.5133263286417895
        ]
      }
    },
    {
      "type": "Feature",
      "properties": {
        "_source": "Ruta6-RetenSur-ViaMoniquira-EstanciaelRoble",
        "_segmentIndex": 0,
        "_position": 13
      },
      "geometry": {
        "type": "Point",
        "coordinates": [
          -73.37114823436156,
          5.5136689910797525
        ]
      }
    },
    {
      "type": "Feature",
      "properties": {
        "_source": "Ruta6-RetenSur-ViaMoniquira-EstanciaelRoble",
        "_segmentIndex": 0,
        "_position": 0
      },
      "geometry": {
        "type": "Point",
        "coordinates": [
          -73.371196,
          5.513802
        ]
      }
    },
    {
      "type": "Feature",
      "properties": {
        "_source": "Ruta6-RetenSur-ViaMoniquira-EstanciaelRoble",
        "_segmentIndex": 0,
        "_position": 1
      },
      "geometry": {
        "type": "Point",
        "coordinates": [
          -73.37115067912208,
          5.5142164370803055
        ]
      }
    },
    {
      "type": "Feature",
      "properties": {
        "_source": "Ruta6-RetenSur-ViaMoniquira-EstanciaelRoble",
        "_segmentIndex": 0,
        "_position": 2
      },
      "geometry": {
        "type": "Point",
        "coordinates": [
          -73.370930607928,
          5.514609105755875
        ]
      }
    },
    {
      "type": "Feature",
      "properties": {
        "_source": "Ruta6-RetenSur-ViaMoniquira-EstanciaelRoble",
        "_segmentIndex": 0,
        "_position": 3
      },
      "geometry": {
        "type": "Point",
        "coordinates": [
          -73.37078881689214,
          5.515035154768237
        ]
      }
    },
    {
      "type": "Feature",
      "properties": {
        "_source": "Ruta6-RetenSur-ViaMoniquira-EstanciaelRoble",
        "_segmentIndex": 0,
        "_position": 4
      },
      "geometry": {
        "type": "Point",
        "coordinates": [
          -73.3706827227844,
          5.515472158705432
        ]
      }
    },
    {
      "type": "Feature",
      "properties": {
        "_source": "Ruta6-RetenSur-ViaMoniquira-EstanciaelRoble",
        "_segmentIndex": 0,
        "_position": 5
      },
      "geometry": {
        "type": "Point",
        "coordinates": [
          -73.37058242077721,
          5.515910556767922
        ]
      }
    },
    {
      "type": "Feature",
      "properties": {
        "_source": "Ruta6-RetenSur-ViaMoniquira-EstanciaelRoble",
        "_segmentIndex": 0,
        "_position": 6
      },
      "geometry": {
        "type": "Point",
        "coordinates": [
          -73.37049175048568,
          5.51635106686095
        ]
      }
    },
    {
      "type": "Feature",
      "properties": {
        "_source": "Ruta6-RetenSur-ViaMoniquira-EstanciaelRoble",
        "_segmentIndex": 0,
        "_position": 7
      },
      "geometry": {
        "type": "Point",
        "coordinates": [
          -73.37040108005954,
          5.516791576940249
        ]
      }
    },
    {
      "type": "Feature",
      "properties": {
        "_source": "Ruta6-RetenSur-ViaMoniquira-EstanciaelRoble",
        "_segmentIndex": 0,
        "_position": 8
      },
      "geometry": {
        "type": "Point",
        "coordinates": [
          -73.37029619880103,
          5.517228842755498
        ]
      }
    },
    {
      "type": "Feature",
      "properties": {
        "_source": "Ruta6-RetenSur-ViaMoniquira-EstanciaelRoble",
        "_segmentIndex": 0,
        "_position": 9
      },
      "geometry": {
        "type": "Point",
        "coordinates": [
          -73.37017963112635,
          5.517663106628213
        ]
      }
    },
    {
      "type": "Feature",
      "properties": {
        "_source": "Ruta6-RetenSur-ViaMoniquira-EstanciaelRoble",
        "_segmentIndex": 0,
        "_position": 0
      },
      "geometry": {
        "type": "Point",
        "coordinates": [
          -73.370078,
          5.517783
        ]
      }
    },
    {
      "type": "Feature",
      "properties": {
        "_source": "Ruta6-RetenSur-ViaMoniquira-EstanciaelRoble",
        "_segmentIndex": 0,
        "_position": 1
      },
      "geometry": {
        "type": "Point",
        "coordinates": [
          -73.36964770917456,
          5.517898344310257
        ]
      }
    },
    {
      "type": "Feature",
      "properties": {
        "_source": "Ruta6-RetenSur-ViaMoniquira-EstanciaelRoble",
        "_segmentIndex": 0,
        "_position": 2
      },
      "geometry": {
        "type": "Point",
        "coordinates": [
          -73.36919631164469,
          5.517916192002541
        ]
      }
    },
    {
      "type": "Feature",
      "properties": {
        "_source": "Ruta6-RetenSur-ViaMoniquira-EstanciaelRoble",
        "_segmentIndex": 0,
        "_position": 3
      },
      "geometry": {
        "type": "Point",
        "coordinates": [
          -73.36875834757669,
          5.5180173149806535
        ]
      }
    },
    {
      "type": "Feature",
      "properties": {
        "_source": "Ruta6-RetenSur-ViaMoniquira-EstanciaelRoble",
        "_segmentIndex": 0,
        "_position": 4
      },
      "geometry": {
        "type": "Point",
        "coordinates": [
          -73.36831950888754,
          5.518123263078327
        ]
      }
    },
    {
      "type": "Feature",
      "properties": {
        "_source": "Ruta6-RetenSur-ViaMoniquira-EstanciaelRoble",
        "_segmentIndex": 0,
        "_position": 5
      },
      "geometry": {
        "type": "Point",
        "coordinates": [
          -73.36787875063017,
          5.518221826535766
        ]
      }
    },
    {
      "type": "Feature",
      "properties": {
        "_source": "Ruta6-RetenSur-ViaMoniquira-EstanciaelRoble",
        "_segmentIndex": 0,
        "_position": 0
      },
      "geometry": {
        "type": "Point",
        "coordinates": [
          -73.367486,
          5.518347
        ]
      }
    },
    {
      "type": "Feature",
      "properties": {
        "_source": "Ruta6-RetenSur-ViaMoniquira-EstanciaelRoble",
        "_segmentIndex": 0,
        "_position": 1
      },
      "geometry": {
        "type": "Point",
        "coordinates": [
          -73.36743639975147,
          5.518793941659684
        ]
      }
    },
    {
      "type": "Feature",
      "properties": {
        "_source": "Ruta6-RetenSur-ViaMoniquira-EstanciaelRoble",
        "_segmentIndex": 0,
        "_position": 2
      },
      "geometry": {
        "type": "Point",
        "coordinates": [
          -73.3673849246934,
          5.519240649933513
        ]
      }
    },
    {
      "type": "Feature",
      "properties": {
        "_source": "Ruta6-RetenSur-ViaMoniquira-EstanciaelRoble",
        "_segmentIndex": 0,
        "_position": 3
      },
      "geometry": {
        "type": "Point",
        "coordinates": [
          -73.36732241037805,
          5.519685983958858
        ]
      }
    },
    {
      "type": "Feature",
      "properties": {
        "_source": "Ruta6-RetenSur-ViaMoniquira-EstanciaelRoble",
        "_segmentIndex": 0,
        "_position": 4
      },
      "geometry": {
        "type": "Point",
        "coordinates": [
          -73.3672200422106,
          5.52012265653487
        ]
      }
    },
    {
      "type": "Feature",
      "properties": {
        "_source": "Ruta6-RetenSur-ViaMoniquira-EstanciaelRoble",
        "_segmentIndex": 0,
        "_position": 5
      },
      "geometry": {
        "type": "Point",
        "coordinates": [
          -73.36709434281819,
          5.520554493957924
        ]
      }
    },
    {
      "type": "Feature",
      "properties": {
        "_source": "Ruta6-RetenSur-ViaMoniquira-EstanciaelRoble",
        "_segmentIndex": 0,
        "_position": 6
      },
      "geometry": {
        "type": "Point",
        "coordinates": [
          -73.36698202674913,
          5.520990035161121
        ]
      }
    },
    {
      "type": "Feature",
      "properties": {
        "_source": "Ruta6-RetenSur-ViaMoniquira-EstanciaelRoble",
        "_segmentIndex": 0,
        "_position": 7
      },
      "geometry": {
        "type": "Point",
        "coordinates": [
          -73.366869710515,
          5.5214255763432325
        ]
      }
    },
    {
      "type": "Feature",
      "properties": {
        "_source": "Ruta6-RetenSur-ViaMoniquira-EstanciaelRoble",
        "_segmentIndex": 0,
        "_position": 8
      },
      "geometry": {
        "type": "Point",
        "coordinates": [
          -73.36675129077588,
          5.5218594590782395
        ]
      }
    },
    {
      "type": "Feature",
      "properties": {
        "_source": "Ruta6-RetenSur-ViaMoniquira-EstanciaelRoble",
        "_segmentIndex": 0,
        "_position": 9
      },
      "geometry": {
        "type": "Point",
        "coordinates": [
          -73.36662569072419,
          5.522291390771026
        ]
      }
    },
    {
      "type": "Feature",
      "properties": {
        "_source": "Ruta6-RetenSur-ViaMoniquira-EstanciaelRoble",
        "_segmentIndex": 0,
        "_position": 10
      },
      "geometry": {
        "type": "Point",
        "coordinates": [
          -73.36650183908118,
          5.522723747227161
        ]
      }
    },
    {
      "type": "Feature",
      "properties": {
        "_source": "Ruta6-RetenSur-ViaMoniquira-EstanciaelRoble",
        "_segmentIndex": 0,
        "_position": 11
      },
      "geometry": {
        "type": "Point",
        "coordinates": [
          -73.36641340313692,
          5.52316470732498
        ]
      }
    },
    {
      "type": "Feature",
      "properties": {
        "_source": "Ruta6-RetenSur-ViaMoniquira-EstanciaelRoble",
        "_segmentIndex": 0,
        "_position": 12
      },
      "geometry": {
        "type": "Point",
        "coordinates": [
          -73.36632236398727,
          5.52360513070684
        ]
      }
    },
    {
      "type": "Feature",
      "properties": {
        "_source": "Ruta6-RetenSur-ViaMoniquira-EstanciaelRoble",
        "_segmentIndex": 0,
        "_position": 13
      },
      "geometry": {
        "type": "Point",
        "coordinates": [
          -73.3662190197565,
          5.524042600851763
        ]
      }
    },
    {
      "type": "Feature",
      "properties": {
        "_source": "Ruta6-RetenSur-ViaMoniquira-EstanciaelRoble",
        "_segmentIndex": 0,
        "_position": 0
      },
      "geometry": {
        "type": "Point",
        "coordinates": [
          -73.366155,
          5.524256
        ]
      }
    },
    {
      "type": "Feature",
      "properties": {
        "_source": "Ruta6-RetenSur-ViaMoniquira-EstanciaelRoble",
        "_segmentIndex": 0,
        "_position": 1
      },
      "geometry": {
        "type": "Point",
        "coordinates": [
          -73.3663816718282,
          5.524644960606056
        ]
      }
    },
    {
      "type": "Feature",
      "properties": {
        "_source": "Ruta6-RetenSur-ViaMoniquira-EstanciaelRoble",
        "_segmentIndex": 0,
        "_position": 2
      },
      "geometry": {
        "type": "Point",
        "coordinates": [
          -73.3665968348524,
          5.525038903127978
        ]
      }
    },
    {
      "type": "Feature",
      "properties": {
        "_source": "Ruta6-RetenSur-ViaMoniquira-EstanciaelRoble",
        "_segmentIndex": 0,
        "_position": 3
      },
      "geometry": {
        "type": "Point",
        "coordinates": [
          -73.36648438564148,
          5.525473275646055
        ]
      }
    },
    {
      "type": "Feature",
      "properties": {
        "_source": "Ruta6-RetenSur-ViaMoniquira-EstanciaelRoble",
        "_segmentIndex": 0,
        "_position": 4
      },
      "geometry": {
        "type": "Point",
        "coordinates": [
          -73.36637296733079,
          5.525909038331813
        ]
      }
    },
    {
      "type": "Feature",
      "properties": {
        "_source": "Ruta6-RetenSur-ViaMoniquira-EstanciaelRoble",
        "_segmentIndex": 0,
        "_position": 5
      },
      "geometry": {
        "type": "Point",
        "coordinates": [
          -73.36633567174898,
          5.526355831571801
        ]
      }
    },
    {
      "type": "Feature",
      "properties": {
        "_source": "Ruta6-RetenSur-ViaMoniquira-EstanciaelRoble",
        "_segmentIndex": 0,
        "_position": 6
      },
      "geometry": {
        "type": "Point",
        "coordinates": [
          -73.3663523986826,
          5.526804734821112
        ]
      }
    },
    {
      "type": "Feature",
      "properties": {
        "_source": "Ruta6-RetenSur-ViaMoniquira-EstanciaelRoble",
        "_segmentIndex": 0,
        "_position": 7
      },
      "geometry": {
        "type": "Point",
        "coordinates": [
          -73.36634789511119,
          5.527253664296438
        ]
      }
    },
    {
      "type": "Feature",
      "properties": {
        "_source": "Ruta6-RetenSur-ViaMoniquira-EstanciaelRoble",
        "_segmentIndex": 0,
        "_position": 8
      },
      "geometry": {
        "type": "Point",
        "coordinates": [
          -73.36630348026472,
          5.527700897925372
        ]
      }
    },
    {
      "type": "Feature",
      "properties": {
        "_source": "Ruta6-RetenSur-ViaMoniquira-EstanciaelRoble",
        "_segmentIndex": 0,
        "_position": 9
      },
      "geometry": {
        "type": "Point",
        "coordinates": [
          -73.3664136412643,
          5.528127731320377
        ]
      }
    },
    {
      "type": "Feature",
      "properties": {
        "_source": "Ruta6-RetenSur-ViaMoniquira-EstanciaelRoble",
        "_segmentIndex": 0,
        "_position": 0
      },
      "geometry": {
        "type": "Point",
        "coordinates": [
          -73.366393,
          5.528207
        ]
      }
    },
    {
      "type": "Feature",
      "properties": {
        "_source": "Ruta6-RetenSur-ViaMoniquira-EstanciaelRoble",
        "_segmentIndex": 0,
        "_position": 1
      },
      "geometry": {
        "type": "Point",
        "coordinates": [
          -73.36599283851798,
          5.528383138914984
        ]
      }
    },
    {
      "type": "Feature",
      "properties": {
        "_source": "Ruta6-RetenSur-ViaMoniquira-EstanciaelRoble",
        "_segmentIndex": 0,
        "_position": 2
      },
      "geometry": {
        "type": "Point",
        "coordinates": [
          -73.36566200270273,
          5.528689337942654
        ]
      }
    },
    {
      "type": "Feature",
      "properties": {
        "_source": "Ruta6-RetenSur-ViaMoniquira-EstanciaelRoble",
        "_segmentIndex": 0,
        "_position": 3
      },
      "geometry": {
        "type": "Point",
        "coordinates": [
          -73.36536690368298,
          5.529029602000347
        ]
      }
    },
    {
      "type": "Feature",
      "properties": {
        "_source": "Ruta6-RetenSur-ViaMoniquira-EstanciaelRoble",
        "_segmentIndex": 0,
        "_position": 4
      },
      "geometry": {
        "type": "Point",
        "coordinates": [
          -73.3652173146853,
          5.5294528989731075
        ]
      }
    },
    {
      "type": "Feature",
      "properties": {
        "_source": "Ruta6-RetenSur-ViaMoniquira-EstanciaelRoble",
        "_segmentIndex": 0,
        "_position": 5
      },
      "geometry": {
        "type": "Point",
        "coordinates": [
          -73.36508384013555,
          5.529882443482123
        ]
      }
    },
    {
      "type": "Feature",
      "properties": {
        "_source": "Ruta6-RetenSur-ViaMoniquira-EstanciaelRoble",
        "_segmentIndex": 0,
        "_position": 6
      },
      "geometry": {
        "type": "Point",
        "coordinates": [
          -73.36495763803129,
          5.530314168683158
        ]
      }
    },
    {
      "type": "Feature",
      "properties": {
        "_source": "Ruta6-RetenSur-ViaMoniquira-EstanciaelRoble",
        "_segmentIndex": 0,
        "_position": 7
      },
      "geometry": {
        "type": "Point",
        "coordinates": [
          -73.36483740950507,
          5.530747612616061
        ]
      }
    },
    {
      "type": "Feature",
      "properties": {
        "_source": "Ruta6-RetenSur-ViaMoniquira-EstanciaelRoble",
        "_segmentIndex": 0,
        "_position": 8
      },
      "geometry": {
        "type": "Point",
        "coordinates": [
          -73.36471629033628,
          5.531180806170992
        ]
      }
    },
    {
      "type": "Feature",
      "properties": {
        "_source": "Ruta6-RetenSur-ViaMoniquira-EstanciaelRoble",
        "_segmentIndex": 0,
        "_position": 9
      },
      "geometry": {
        "type": "Point",
        "coordinates": [
          -73.36459091909933,
          5.53161280428634
        ]
      }
    },
    {
      "type": "Feature",
      "properties": {
        "_source": "Ruta6-RetenSur-ViaMoniquira-EstanciaelRoble",
        "_segmentIndex": 0,
        "_position": 10
      },
      "geometry": {
        "type": "Point",
        "coordinates": [
          -73.36446554767927,
          5.532044802375364
        ]
      }
    },
    {
      "type": "Feature",
      "properties": {
        "_source": "Ruta6-RetenSur-ViaMoniquira-EstanciaelRoble",
        "_segmentIndex": 0,
        "_position": 11
      },
      "geometry": {
        "type": "Point",
        "coordinates": [
          -73.36433230468887,
          5.532474365397744
        ]
      }
    },
    {
      "type": "Feature",
      "properties": {
        "_source": "Ruta6-RetenSur-ViaMoniquira-EstanciaelRoble",
        "_segmentIndex": 0,
        "_position": 12
      },
      "geometry": {
        "type": "Point",
        "coordinates": [
          -73.3641895661017,
          5.532900990954849
        ]
      }
    },
    {
      "type": "Feature",
      "properties": {
        "_source": "Ruta6-RetenSur-ViaMoniquira-EstanciaelRoble",
        "_segmentIndex": 0,
        "_position": 13
      },
      "geometry": {
        "type": "Point",
        "coordinates": [
          -73.36404682730861,
          5.533327616477829
        ]
      }
    },
    {
      "type": "Feature",
      "properties": {
        "_source": "Ruta6-RetenSur-ViaMoniquira-EstanciaelRoble",
        "_segmentIndex": 0,
        "_position": 14
      },
      "geometry": {
        "type": "Point",
        "coordinates": [
          -73.36391343535965,
          5.533757160332008
        ]
      }
    },
    {
      "type": "Feature",
      "properties": {
        "_source": "Ruta6-RetenSur-ViaMoniquira-EstanciaelRoble",
        "_segmentIndex": 0,
        "_position": 15
      },
      "geometry": {
        "type": "Point",
        "coordinates": [
          -73.36380776738831,
          5.5341943472475
        ]
      }
    },
    {
      "type": "Feature",
      "properties": {
        "_source": "Ruta6-RetenSur-ViaMoniquira-EstanciaelRoble",
        "_segmentIndex": 0,
        "_position": 16
      },
      "geometry": {
        "type": "Point",
        "coordinates": [
          -73.36370167076917,
          5.534631430892938
        ]
      }
    },
    {
      "type": "Feature",
      "properties": {
        "_source": "Ruta6-RetenSur-ViaMoniquira-EstanciaelRoble",
        "_segmentIndex": 0,
        "_position": 17
      },
      "geometry": {
        "type": "Point",
        "coordinates": [
          -73.36357890337983,
          5.535064027699784
        ]
      }
    },
    {
      "type": "Feature",
      "properties": {
        "_source": "Ruta6-RetenSur-ViaMoniquira-EstanciaelRoble",
        "_segmentIndex": 0,
        "_position": 18
      },
      "geometry": {
        "type": "Point",
        "coordinates": [
          -73.36344644495014,
          5.535493795632
        ]
      }
    },
    {
      "type": "Feature",
      "properties": {
        "_source": "Ruta6-RetenSur-ViaMoniquira-EstanciaelRoble",
        "_segmentIndex": 0,
        "_position": 0
      },
      "geometry": {
        "type": "Point",
        "coordinates": [
          -73.363316,
          5.535805
        ]
      }
    },
    {
      "type": "Feature",
      "properties": {
        "_source": "Ruta6-RetenSur-ViaMoniquira-EstanciaelRoble",
        "_segmentIndex": 0,
        "_position": 1
      },
      "geometry": {
        "type": "Point",
        "coordinates": [
          -73.36328605717499,
          5.536241434485673
        ]
      }
    },
    {
      "type": "Feature",
      "properties": {
        "_source": "Ruta6-RetenSur-ViaMoniquira-EstanciaelRoble",
        "_segmentIndex": 0,
        "_position": 0
      },
      "geometry": {
        "type": "Point",
        "coordinates": [
          -73.363228,
          5.536335
        ]
      }
    },
    {
      "type": "Feature",
      "properties": {
        "_source": "Ruta6-RetenSur-ViaMoniquira-EstanciaelRoble",
        "_segmentIndex": 0,
        "_position": 1
      },
      "geometry": {
        "type": "Point",
        "coordinates": [
          -73.36277864365758,
          5.536381396285481
        ]
      }
    },
    {
      "type": "Feature",
      "properties": {
        "_source": "Ruta6-RetenSur-ViaMoniquira-EstanciaelRoble",
        "_segmentIndex": 0,
        "_position": 2
      },
      "geometry": {
        "type": "Point",
        "coordinates": [
          -73.36232926802542,
          5.5364276073765915
        ]
      }
    },
    {
      "type": "Feature",
      "properties": {
        "_source": "Ruta6-RetenSur-ViaMoniquira-EstanciaelRoble",
        "_segmentIndex": 0,
        "_position": 3
      },
      "geometry": {
        "type": "Point",
        "coordinates": [
          -73.36188928962979,
          5.536511062474943
        ]
      }
    },
    {
      "type": "Feature",
      "properties": {
        "_source": "Ruta6-RetenSur-ViaMoniquira-EstanciaelRoble",
        "_segmentIndex": 0,
        "_position": 4
      },
      "geometry": {
        "type": "Point",
        "coordinates": [
          -73.36153391619683,
          5.536783846905365
        ]
      }
    },
    {
      "type": "Feature",
      "properties": {
        "_source": "Ruta6-RetenSur-ViaMoniquira-EstanciaelRoble",
        "_segmentIndex": 0,
        "_position": 5
      },
      "geometry": {
        "type": "Point",
        "coordinates": [
          -73.36128543432812,
          5.537156486249446
        ]
      }
    },
    {
      "type": "Feature",
      "properties": {
        "_source": "Ruta6-RetenSur-ViaMoniquira-EstanciaelRoble",
        "_segmentIndex": 0,
        "_position": 6
      },
      "geometry": {
        "type": "Point",
        "coordinates": [
          -73.36103620572194,
          5.537528005107276
        ]
      }
    },
    {
      "type": "Feature",
      "properties": {
        "_source": "Ruta6-RetenSur-ViaMoniquira-EstanciaelRoble",
        "_segmentIndex": 0,
        "_position": 7
      },
      "geometry": {
        "type": "Point",
        "coordinates": [
          -73.3606418631858,
          5.537747249665074
        ]
      }
    },
    {
      "type": "Feature",
      "properties": {
        "_source": "Ruta6-RetenSur-ViaMoniquira-EstanciaelRoble",
        "_segmentIndex": 0,
        "_position": 8
      },
      "geometry": {
        "type": "Point",
        "coordinates": [
          -73.36031933627036,
          5.538048496409352
        ]
      }
    },
    {
      "type": "Feature",
      "properties": {
        "_source": "Ruta6-RetenSur-ViaMoniquira-EstanciaelRoble",
        "_segmentIndex": 0,
        "_position": 0
      },
      "geometry": {
        "type": "Point",
        "coordinates": [
          -73.36021,
          5.538295
        ]
      }
    },
    {
      "type": "Feature",
      "properties": {
        "_source": "Ruta6-RetenSur-ViaMoniquira-EstanciaelRoble",
        "_segmentIndex": 0,
        "_position": 1
      },
      "geometry": {
        "type": "Point",
        "coordinates": [
          -73.36011560890837,
          5.538734735824855
        ]
      }
    },
    {
      "type": "Feature",
      "properties": {
        "_source": "Ruta6-RetenSur-ViaMoniquira-EstanciaelRoble",
        "_segmentIndex": 0,
        "_position": 2
      },
      "geometry": {
        "type": "Point",
        "coordinates": [
          -73.36002121767628,
          5.53917447163477
        ]
      }
    },
    {
      "type": "Feature",
      "properties": {
        "_source": "Ruta6-RetenSur-ViaMoniquira-EstanciaelRoble",
        "_segmentIndex": 0,
        "_position": 3
      },
      "geometry": {
        "type": "Point",
        "coordinates": [
          -73.35991844083547,
          5.539612319677132
        ]
      }
    },
    {
      "type": "Feature",
      "properties": {
        "_source": "Ruta6-RetenSur-ViaMoniquira-EstanciaelRoble",
        "_segmentIndex": 0,
        "_position": 4
      },
      "geometry": {
        "type": "Point",
        "coordinates": [
          -73.35980582048609,
          5.540047667364002
        ]
      }
    },
    {
      "type": "Feature",
      "properties": {
        "_source": "Ruta6-RetenSur-ViaMoniquira-EstanciaelRoble",
        "_segmentIndex": 0,
        "_position": 5
      },
      "geometry": {
        "type": "Point",
        "coordinates": [
          -73.35964863808469,
          5.540468805970807
        ]
      }
    },
    {
      "type": "Feature",
      "properties": {
        "_source": "Ruta6-RetenSur-ViaMoniquira-EstanciaelRoble",
        "_segmentIndex": 0,
        "_position": 6
      },
      "geometry": {
        "type": "Point",
        "coordinates": [
          -73.35946529567612,
          5.540879669363487
        ]
      }
    },
    {
      "type": "Feature",
      "properties": {
        "_source": "Ruta6-RetenSur-ViaMoniquira-EstanciaelRoble",
        "_segmentIndex": 0,
        "_position": 7
      },
      "geometry": {
        "type": "Point",
        "coordinates": [
          -73.3592746937689,
          5.541287343063978
        ]
      }
    },
    {
      "type": "Feature",
      "properties": {
        "_source": "Ruta6-RetenSur-ViaMoniquira-EstanciaelRoble",
        "_segmentIndex": 0,
        "_position": 8
      },
      "geometry": {
        "type": "Point",
        "coordinates": [
          -73.35908774491162,
          5.5416966965970635
        ]
      }
    },
    {
      "type": "Feature",
      "properties": {
        "_source": "Ruta6-RetenSur-ViaMoniquira-EstanciaelRoble",
        "_segmentIndex": 0,
        "_position": 9
      },
      "geometry": {
        "type": "Point",
        "coordinates": [
          -73.35891344901263,
          5.542111457557874
        ]
      }
    },
    {
      "type": "Feature",
      "properties": {
        "_source": "Ruta6-RetenSur-ViaMoniquira-EstanciaelRoble",
        "_segmentIndex": 0,
        "_position": 10
      },
      "geometry": {
        "type": "Point",
        "coordinates": [
          -73.35883517777448,
          5.5425440666518515
        ]
      }
    },
    {
      "type": "Feature",
      "properties": {
        "_source": "Ruta6-RetenSur-ViaMoniquira-EstanciaelRoble",
        "_segmentIndex": 0,
        "_position": 0
      },
      "geometry": {
        "type": "Point",
        "coordinates": [
          -73.358848,
          5.542621
        ]
      }
    },
    {
      "type": "Feature",
      "properties": {
        "_source": "Ruta6-RetenSur-ViaMoniquira-EstanciaelRoble",
        "_segmentIndex": 0,
        "_position": 1
      },
      "geometry": {
        "type": "Point",
        "coordinates": [
          -73.35896501040055,
          5.542974060999864
        ]
      }
    },
    {
      "type": "Feature",
      "properties": {
        "_source": "Ruta6-RetenSur-ViaMoniquira-EstanciaelRoble",
        "_segmentIndex": 0,
        "_position": 0
      },
      "geometry": {
        "type": "Point",
        "coordinates": [
          -73.359027,
          5.543028
        ]
      }
    },
    {
      "type": "Feature",
      "properties": {
        "_source": "Ruta6-RetenSur-ViaMoniquira-EstanciaelRoble",
        "_segmentIndex": 0,
        "_position": 1
      },
      "geometry": {
        "type": "Point",
        "coordinates": [
          -73.35921933947962,
          5.543434872212002
        ]
      }
    },
    {
      "type": "Feature",
      "properties": {
        "_source": "Ruta6-RetenSur-ViaMoniquira-EstanciaelRoble",
        "_segmentIndex": 0,
        "_position": 2
      },
      "geometry": {
        "type": "Point",
        "coordinates": [
          -73.35940980386984,
          5.543842601260434
        ]
      }
    },
    {
      "type": "Feature",
      "properties": {
        "_source": "Ruta6-RetenSur-ViaMoniquira-EstanciaelRoble",
        "_segmentIndex": 0,
        "_position": 3
      },
      "geometry": {
        "type": "Point",
        "coordinates": [
          -73.35959441655244,
          5.5442530041667775
        ]
      }
    },
    {
      "type": "Feature",
      "properties": {
        "_source": "Ruta6-RetenSur-ViaMoniquira-EstanciaelRoble",
        "_segmentIndex": 0,
        "_position": 4
      },
      "geometry": {
        "type": "Point",
        "coordinates": [
          -73.35976086229056,
          5.544670908601694
        ]
      }
    },
    {
      "type": "Feature",
      "properties": {
        "_source": "Ruta6-RetenSur-ViaMoniquira-EstanciaelRoble",
        "_segmentIndex": 0,
        "_position": 5
      },
      "geometry": {
        "type": "Point",
        "coordinates": [
          -73.35992234981501,
          5.54509086042899
        ]
      }
    },
    {
      "type": "Feature",
      "properties": {
        "_source": "Ruta6-RetenSur-ViaMoniquira-EstanciaelRoble",
        "_segmentIndex": 0,
        "_position": 6
      },
      "geometry": {
        "type": "Point",
        "coordinates": [
          -73.3600683139653,
          5.545515962831756
        ]
      }
    },
    {
      "type": "Feature",
      "properties": {
        "_source": "Ruta6-RetenSur-ViaMoniquira-EstanciaelRoble",
        "_segmentIndex": 0,
        "_position": 7
      },
      "geometry": {
        "type": "Point",
        "coordinates": [
          -73.36018023002397,
          5.545951381306657
        ]
      }
    },
    {
      "type": "Feature",
      "properties": {
        "_source": "Ruta6-RetenSur-ViaMoniquira-EstanciaelRoble",
        "_segmentIndex": 0,
        "_position": 8
      },
      "geometry": {
        "type": "Point",
        "coordinates": [
          -73.36027967187671,
          5.546389997823583
        ]
      }
    },
    {
      "type": "Feature",
      "properties": {
        "_source": "Ruta6-RetenSur-ViaMoniquira-EstanciaelRoble",
        "_segmentIndex": 0,
        "_position": 9
      },
      "geometry": {
        "type": "Point",
        "coordinates": [
          -73.36041701937705,
          5.546815642284487
        ]
      }
    },
    {
      "type": "Feature",
      "properties": {
        "_source": "Ruta6-RetenSur-ViaMoniquira-EstanciaelRoble",
        "_segmentIndex": 0,
        "_position": 10
      },
      "geometry": {
        "type": "Point",
        "coordinates": [
          -73.36071333728627,
          5.5471453727424
        ]
      }
    },
    {
      "type": "Feature",
      "properties": {
        "_source": "Ruta6-RetenSur-ViaMoniquira-EstanciaelRoble",
        "_segmentIndex": 0,
        "_position": 11
      },
      "geometry": {
        "type": "Point",
        "coordinates": [
          -73.36098186931743,
          5.547492161697927
        ]
      }
    },
    {
      "type": "Feature",
      "properties": {
        "_source": "Ruta6-RetenSur-ViaMoniquira-EstanciaelRoble",
        "_segmentIndex": 0,
        "_position": 12
      },
      "geometry": {
        "type": "Point",
        "coordinates": [
          -73.36086811735045,
          5.547921524846741
        ]
      }
    },
    {
      "type": "Feature",
      "properties": {
        "_source": "Ruta6-RetenSur-ViaMoniquira-EstanciaelRoble",
        "_segmentIndex": 0,
        "_position": 13
      },
      "geometry": {
        "type": "Point",
        "coordinates": [
          -73.36071443499156,
          5.548344368530629
        ]
      }
    },
    {
      "type": "Feature",
      "properties": {
        "_source": "Ruta6-RetenSur-ViaMoniquira-EstanciaelRoble",
        "_segmentIndex": 0,
        "_position": 14
      },
      "geometry": {
        "type": "Point",
        "coordinates": [
          -73.36056442735023,
          5.548768414258504
        ]
      }
    },
    {
      "type": "Feature",
      "properties": {
        "_source": "Ruta6-RetenSur-ViaMoniquira-EstanciaelRoble",
        "_segmentIndex": 0,
        "_position": 15
      },
      "geometry": {
        "type": "Point",
        "coordinates": [
          -73.36043613043556,
          5.549199561665948
        ]
      }
    },
    {
      "type": "Feature",
      "properties": {
        "_source": "Ruta6-RetenSur-ViaMoniquira-EstanciaelRoble",
        "_segmentIndex": 0,
        "_position": 16
      },
      "geometry": {
        "type": "Point",
        "coordinates": [
          -73.36038608389549,
          5.549642191287769
        ]
      }
    },
    {
      "type": "Feature",
      "properties": {
        "_source": "Ruta6-RetenSur-ViaMoniquira-EstanciaelRoble",
        "_segmentIndex": 0,
        "_position": 0
      },
      "geometry": {
        "type": "Point",
        "coordinates": [
          -73.360328,
          5.549859
        ]
      }
    },
    {
      "type": "Feature",
      "properties": {
        "_source": "Ruta6-RetenSur-ViaMoniquira-EstanciaelRoble",
        "_segmentIndex": 0,
        "_position": 1
      },
      "geometry": {
        "type": "Point",
        "coordinates": [
          -73.36052111395225,
          5.550265509673602
        ]
      }
    },
    {
      "type": "Feature",
      "properties": {
        "_source": "Ruta6-RetenSur-ViaMoniquira-EstanciaelRoble",
        "_segmentIndex": 0,
        "_position": 2
      },
      "geometry": {
        "type": "Point",
        "coordinates": [
          -73.36071422817076,
          5.550672019284542
        ]
      }
    },
    {
      "type": "Feature",
      "properties": {
        "_source": "Ruta6-RetenSur-ViaMoniquira-EstanciaelRoble",
        "_segmentIndex": 0,
        "_position": 3
      },
      "geometry": {
        "type": "Point",
        "coordinates": [
          -73.36091179058411,
          5.551076395003622
        ]
      }
    },
    {
      "type": "Feature",
      "properties": {
        "_source": "Ruta6-RetenSur-ViaMoniquira-EstanciaelRoble",
        "_segmentIndex": 0,
        "_position": 4
      },
      "geometry": {
        "type": "Point",
        "coordinates": [
          -73.36111098248419,
          5.5514799890643785
        ]
      }
    },
    {
      "type": "Feature",
      "properties": {
        "_source": "Ruta6-RetenSur-ViaMoniquira-EstanciaelRoble",
        "_segmentIndex": 0,
        "_position": 5
      },
      "geometry": {
        "type": "Point",
        "coordinates": [
          -73.36130963398902,
          5.551883845530281
        ]
      }
    },
    {
      "type": "Feature",
      "properties": {
        "_source": "Ruta6-RetenSur-ViaMoniquira-EstanciaelRoble",
        "_segmentIndex": 0,
        "_position": 6
      },
      "geometry": {
        "type": "Point",
        "coordinates": [
          -73.36150654349356,
          5.552288547730778
        ]
      }
    },
    {
      "type": "Feature",
      "properties": {
        "_source": "Ruta6-RetenSur-ViaMoniquira-EstanciaelRoble",
        "_segmentIndex": 0,
        "_position": 7
      },
      "geometry": {
        "type": "Point",
        "coordinates": [
          -73.36170345326853,
          5.552693249866109
        ]
      }
    },
    {
      "type": "Feature",
      "properties": {
        "_source": "Ruta6-RetenSur-ViaMoniquira-EstanciaelRoble",
        "_segmentIndex": 0,
        "_position": 8
      },
      "geometry": {
        "type": "Point",
        "coordinates": [
          -73.36190249381794,
          5.55309690169294
        ]
      }
    },
    {
      "type": "Feature",
      "properties": {
        "_source": "Ruta6-RetenSur-ViaMoniquira-EstanciaelRoble",
        "_segmentIndex": 0,
        "_position": 9
      },
      "geometry": {
        "type": "Point",
        "coordinates": [
          -73.36209952063831,
          5.553501452996148
        ]
      }
    },
    {
      "type": "Feature",
      "properties": {
        "_source": "Ruta6-RetenSur-ViaMoniquira-EstanciaelRoble",
        "_segmentIndex": 0,
        "_position": 10
      },
      "geometry": {
        "type": "Point",
        "coordinates": [
          -73.36228768753236,
          5.553910255055143
        ]
      }
    },
    {
      "type": "Feature",
      "properties": {
        "_source": "Ruta6-RetenSur-ViaMoniquira-EstanciaelRoble",
        "_segmentIndex": 0,
        "_position": 11
      },
      "geometry": {
        "type": "Point",
        "coordinates": [
          -73.36247585468752,
          5.554319057054611
        ]
      }
    },
    {
      "type": "Feature",
      "properties": {
        "_source": "Ruta6-RetenSur-ViaMoniquira-EstanciaelRoble",
        "_segmentIndex": 0,
        "_position": 12
      },
      "geometry": {
        "type": "Point",
        "coordinates": [
          -73.36266675424056,
          5.554726598220778
        ]
      }
    },
    {
      "type": "Feature",
      "properties": {
        "_source": "Ruta6-RetenSur-ViaMoniquira-EstanciaelRoble",
        "_segmentIndex": 0,
        "_position": 13
      },
      "geometry": {
        "type": "Point",
        "coordinates": [
          -73.36285864668152,
          5.555133681268724
        ]
      }
    },
    {
      "type": "Feature",
      "properties": {
        "_source": "Ruta6-RetenSur-ViaMoniquira-EstanciaelRoble",
        "_segmentIndex": 0,
        "_position": 14
      },
      "geometry": {
        "type": "Point",
        "coordinates": [
          -73.36304639138939,
          5.555542633566305
        ]
      }
    },
    {
      "type": "Feature",
      "properties": {
        "_source": "Ruta6-RetenSur-ViaMoniquira-EstanciaelRoble",
        "_segmentIndex": 0,
        "_position": 15
      },
      "geometry": {
        "type": "Point",
        "coordinates": [
          -73.36309791044437,
          5.555971374124203
        ]
      }
    },
    {
      "type": "Feature",
      "properties": {
        "_source": "Ruta6-RetenSur-ViaMoniquira-EstanciaelRoble",
        "_segmentIndex": 0,
        "_position": 16
      },
      "geometry": {
        "type": "Point",
        "coordinates": [
          -73.36278805770276,
          5.55627579235659
        ]
      }
    },
    {
      "type": "Feature",
      "properties": {
        "_source": "Ruta6-RetenSur-ViaMoniquira-EstanciaelRoble",
        "_segmentIndex": 0,
        "_position": 17
      },
      "geometry": {
        "type": "Point",
        "coordinates": [
          -73.36235031734196,
          5.556211109818504
        ]
      }
    },
    {
      "type": "Feature",
      "properties": {
        "_source": "Ruta6-RetenSur-ViaMoniquira-EstanciaelRoble",
        "_segmentIndex": 0,
        "_position": 18
      },
      "geometry": {
        "type": "Point",
        "coordinates": [
          -73.36205386670544,
          5.5558832749148745
        ]
      }
    },
    {
      "type": "Feature",
      "properties": {
        "_source": "Ruta6-RetenSur-ViaMoniquira-EstanciaelRoble",
        "_segmentIndex": 0,
        "_position": 19
      },
      "geometry": {
        "type": "Point",
        "coordinates": [
          -73.36180242180549,
          5.555509770352304
        ]
      }
    },
    {
      "type": "Feature",
      "properties": {
        "_source": "Ruta6-RetenSur-ViaMoniquira-EstanciaelRoble",
        "_segmentIndex": 0,
        "_position": 20
      },
      "geometry": {
        "type": "Point",
        "coordinates": [
          -73.36145288300824,
          5.555230228289913
        ]
      }
    },
    {
      "type": "Feature",
      "properties": {
        "_source": "Ruta6-RetenSur-ViaMoniquira-EstanciaelRoble",
        "_segmentIndex": 0,
        "_position": 21
      },
      "geometry": {
        "type": "Point",
        "coordinates": [
          -73.36103004008633,
          5.555074504483525
        ]
      }
    },
    {
      "type": "Feature",
      "properties": {
        "_source": "Ruta6-RetenSur-ViaMoniquira-EstanciaelRoble",
        "_segmentIndex": 0,
        "_position": 22
      },
      "geometry": {
        "type": "Point",
        "coordinates": [
          -73.36058754878401,
          5.554984112345785
        ]
      }
    },
    {
      "type": "Feature",
      "properties": {
        "_source": "Ruta6-RetenSur-ViaMoniquira-EstanciaelRoble",
        "_segmentIndex": 0,
        "_position": 23
      },
      "geometry": {
        "type": "Point",
        "coordinates": [
          -73.36014417708381,
          5.554897754186017
        ]
      }
    },
    {
      "type": "Feature",
      "properties": {
        "_source": "Ruta6-RetenSur-ViaMoniquira-EstanciaelRoble",
        "_segmentIndex": 0,
        "_position": 24
      },
      "geometry": {
        "type": "Point",
        "coordinates": [
          -73.35969861889811,
          5.554824369417511
        ]
      }
    },
    {
      "type": "Feature",
      "properties": {
        "_source": "Ruta6-RetenSur-ViaMoniquira-EstanciaelRoble",
        "_segmentIndex": 0,
        "_position": 25
      },
      "geometry": {
        "type": "Point",
        "coordinates": [
          -73.35924905997778,
          5.554785240172611
        ]
      }
    },
    {
      "type": "Feature",
      "properties": {
        "_source": "Ruta6-RetenSur-ViaMoniquira-EstanciaelRoble",
        "_segmentIndex": 0,
        "_position": 26
      },
      "geometry": {
        "type": "Point",
        "coordinates": [
          -73.35879877839793,
          5.554798397123292
        ]
      }
    },
    {
      "type": "Feature",
      "properties": {
        "_source": "Ruta6-RetenSur-ViaMoniquira-EstanciaelRoble",
        "_segmentIndex": 0,
        "_position": 27
      },
      "geometry": {
        "type": "Point",
        "coordinates": [
          -73.3583962966312,
          5.55497773716304
        ]
      }
    },
    {
      "type": "Feature",
      "properties": {
        "_source": "Ruta6-RetenSur-ViaMoniquira-EstanciaelRoble",
        "_segmentIndex": 0,
        "_position": 28
      },
      "geometry": {
        "type": "Point",
        "coordinates": [
          -73.3581956860797,
          5.555363809133409
        ]
      }
    },
    {
      "type": "Feature",
      "properties": {
        "_source": "Ruta6-RetenSur-ViaMoniquira-EstanciaelRoble",
        "_segmentIndex": 0,
        "_position": 29
      },
      "geometry": {
        "type": "Point",
        "coordinates": [
          -73.35817639410065,
          5.555811210283536
        ]
      }
    },
    {
      "type": "Feature",
      "properties": {
        "_source": "Ruta6-RetenSur-ViaMoniquira-EstanciaelRoble",
        "_segmentIndex": 0,
        "_position": 30
      },
      "geometry": {
        "type": "Point",
        "coordinates": [
          -73.35818388546103,
          5.556260378881195
        ]
      }
    },
    {
      "type": "Feature",
      "properties": {
        "_source": "Ruta6-RetenSur-ViaMoniquira-EstanciaelRoble",
        "_segmentIndex": 0,
        "_position": 31
      },
      "geometry": {
        "type": "Point",
        "coordinates": [
          -73.3579689701623,
          5.556613844670406
        ]
      }
    },
    {
      "type": "Feature",
      "properties": {
        "_source": "Ruta6-RetenSur-ViaMoniquira-EstanciaelRoble",
        "_segmentIndex": 0,
        "_position": 32
      },
      "geometry": {
        "type": "Point",
        "coordinates": [
          -73.35753201192261,
          5.556535863448227
        ]
      }
    },
    {
      "type": "Feature",
      "properties": {
        "_source": "Ruta6-RetenSur-ViaMoniquira-EstanciaelRoble",
        "_segmentIndex": 0,
        "_position": 33
      },
      "geometry": {
        "type": "Point",
        "coordinates": [
          -73.35709176022746,
          5.556438626446148
        ]
      }
    },
    {
      "type": "Feature",
      "properties": {
        "_source": "Ruta6-RetenSur-ViaMoniquira-EstanciaelRoble",
        "_segmentIndex": 0,
        "_position": 34
      },
      "geometry": {
        "type": "Point",
        "coordinates": [
          -73.35664290517569,
          5.55641088915431
        ]
      }
    },
    {
      "type": "Feature",
      "properties": {
        "_source": "Ruta6-RetenSur-ViaMoniquira-EstanciaelRoble",
        "_segmentIndex": 0,
        "_position": 35
      },
      "geometry": {
        "type": "Point",
        "coordinates": [
          -73.35620829771831,
          5.556522641690209
        ]
      }
    },
    {
      "type": "Feature",
      "properties": {
        "_source": "Ruta6-RetenSur-ViaMoniquira-EstanciaelRoble",
        "_segmentIndex": 0,
        "_position": 36
      },
      "geometry": {
        "type": "Point",
        "coordinates": [
          -73.3558067525324,
          5.5567252713437805
        ]
      }
    },
    {
      "type": "Feature",
      "properties": {
        "_source": "Ruta6-RetenSur-ViaMoniquira-EstanciaelRoble",
        "_segmentIndex": 0,
        "_position": 37
      },
      "geometry": {
        "type": "Point",
        "coordinates": [
          -73.35552921192708,
          5.5570709645282115
        ]
      }
    },
    {
      "type": "Feature",
      "properties": {
        "_source": "Ruta6-RetenSur-ViaMoniquira-EstanciaelRoble",
        "_segmentIndex": 0,
        "_position": 38
      },
      "geometry": {
        "type": "Point",
        "coordinates": [
          -73.35548461173919,
          5.557513786833113
        ]
      }
    },
    {
      "type": "Feature",
      "properties": {
        "_source": "Ruta6-RetenSur-ViaMoniquira-EstanciaelRoble",
        "_segmentIndex": 0,
        "_position": 39
      },
      "geometry": {
        "type": "Point",
        "coordinates": [
          -73.35551859598375,
          5.557961567311132
        ]
      }
    },
    {
      "type": "Feature",
      "properties": {
        "_source": "Ruta6-RetenSur-ViaMoniquira-EstanciaelRoble",
        "_segmentIndex": 0,
        "_position": 40
      },
      "geometry": {
        "type": "Point",
        "coordinates": [
          -73.35552962448186,
          5.558409743774047
        ]
      }
    },
    {
      "type": "Feature",
      "properties": {
        "_source": "Ruta6-RetenSur-ViaMoniquira-EstanciaelRoble",
        "_segmentIndex": 0,
        "_position": 41
      },
      "geometry": {
        "type": "Point",
        "coordinates": [
          -73.35540060776427,
          5.558837983144945
        ]
      }
    },
    {
      "type": "Feature",
      "properties": {
        "_source": "Ruta6-RetenSur-ViaMoniquira-EstanciaelRoble",
        "_segmentIndex": 0,
        "_position": 42
      },
      "geometry": {
        "type": "Point",
        "coordinates": [
          -73.35524475870055,
          5.559259407706357
        ]
      }
    },
    {
      "type": "Feature",
      "properties": {
        "_source": "Ruta6-RetenSur-ViaMoniquira-EstanciaelRoble",
        "_segmentIndex": 0,
        "_position": 0
      },
      "geometry": {
        "type": "Point",
        "coordinates": [
          -73.355204,
          5.559517
        ]
      }
    },
    {
      "type": "Feature",
      "properties": {
        "_source": "Ruta6-RetenSur-ViaMoniquira-EstanciaelRoble",
        "_segmentIndex": 0,
        "_position": 1
      },
      "geometry": {
        "type": "Point",
        "coordinates": [
          -73.35494249572933,
          5.55986518474822
        ]
      }
    },
    {
      "type": "Feature",
      "properties": {
        "_source": "Ruta6-RetenSur-ViaMoniquira-EstanciaelRoble",
        "_segmentIndex": 0,
        "_position": 2
      },
      "geometry": {
        "type": "Point",
        "coordinates": [
          -73.35477667325085,
          5.56028250356401
        ]
      }
    },
    {
      "type": "Feature",
      "properties": {
        "_source": "Ruta6-RetenSur-ViaMoniquira-EstanciaelRoble",
        "_segmentIndex": 0,
        "_position": 3
      },
      "geometry": {
        "type": "Point",
        "coordinates": [
          -73.3546368257296,
          5.5607096191642675
        ]
      }
    },
    {
      "type": "Feature",
      "properties": {
        "_source": "Ruta6-RetenSur-ViaMoniquira-EstanciaelRoble",
        "_segmentIndex": 0,
        "_position": 4
      },
      "geometry": {
        "type": "Point",
        "coordinates": [
          -73.35449132233954,
          5.5611353203727845
        ]
      }
    },
    {
      "type": "Feature",
      "properties": {
        "_source": "Ruta6-RetenSur-ViaMoniquira-EstanciaelRoble",
        "_segmentIndex": 0,
        "_position": 5
      },
      "geometry": {
        "type": "Point",
        "coordinates": [
          -73.35446909570749,
          5.561241539787523
        ]
      }
    },
    {
      "type": "Feature",
      "properties": {
        "_source": "Ruta6-RetenSur-ViaMoniquira-EstanciaelRoble",
        "_segmentIndex": 0,
        "_position": 6
      },
      "geometry": {
        "type": "Point",
        "coordinates": [
          -73.35461355199763,
          5.560815491697407
        ]
      }
    },
    {
      "type": "Feature",
      "properties": {
        "_source": "Ruta6-RetenSur-ViaMoniquira-EstanciaelRoble",
        "_segmentIndex": 0,
        "_position": 7
      },
      "geometry": {
        "type": "Point",
        "coordinates": [
          -73.35475240100749,
          5.560387604626221
        ]
      }
    },
    {
      "type": "Feature",
      "properties": {
        "_source": "Ruta6-RetenSur-ViaMoniquira-EstanciaelRoble",
        "_segmentIndex": 0,
        "_position": 8
      },
      "geometry": {
        "type": "Point",
        "coordinates": [
          -73.35492271875712,
          5.559975726412702
        ]
      }
    },
    {
      "type": "Feature",
      "properties": {
        "_source": "Ruta6-RetenSur-ViaMoniquira-EstanciaelRoble",
        "_segmentIndex": 0,
        "_position": 9
      },
      "geometry": {
        "type": "Point",
        "coordinates": [
          -73.35513094599182,
          5.559584888004882
        ]
      }
    },
    {
      "type": "Feature",
      "properties": {
        "_source": "Ruta6-RetenSur-ViaMoniquira-EstanciaelRoble",
        "_segmentIndex": 0,
        "_position": 0
      },
      "geometry": {
        "type": "Point",
        "coordinates": [
          -73.355226,
          5.559532
        ]
      }
    },
    {
      "type": "Feature",
      "properties": {
        "_source": "Ruta6-RetenSur-ViaMoniquira-EstanciaelRoble",
        "_segmentIndex": 0,
        "_position": 1
      },
      "geometry": {
        "type": "Point",
        "coordinates": [
          -73.35531822951025,
          5.559094472731306
        ]
      }
    },
    {
      "type": "Feature",
      "properties": {
        "_source": "Ruta6-RetenSur-ViaMoniquira-EstanciaelRoble",
        "_segmentIndex": 0,
        "_position": 2
      },
      "geometry": {
        "type": "Point",
        "coordinates": [
          -73.35548469517585,
          5.558676914476809
        ]
      }
    },
    {
      "type": "Feature",
      "properties": {
        "_source": "Ruta6-RetenSur-ViaMoniquira-EstanciaelRoble",
        "_segmentIndex": 0,
        "_position": 3
      },
      "geometry": {
        "type": "Point",
        "coordinates": [
          -73.3555612271432,
          5.558238171008478
        ]
      }
    },
    {
      "type": "Feature",
      "properties": {
        "_source": "Ruta6-RetenSur-ViaMoniquira-EstanciaelRoble",
        "_segmentIndex": 0,
        "_position": 0
      },
      "geometry": {
        "type": "Point",
        "coordinates": [
          -73.355564,
          5.558178
        ]
      }
    },
    {
      "type": "Feature",
      "properties": {
        "_source": "Ruta6-RetenSur-ViaMoniquira-EstanciaelRoble",
        "_segmentIndex": 0,
        "_position": 1
      },
      "geometry": {
        "type": "Point",
        "coordinates": [
          -73.35596918205299,
          5.557986071586287
        ]
      }
    },
    {
      "type": "Feature",
      "properties": {
        "_source": "Ruta6-RetenSur-ViaMoniquira-EstanciaelRoble",
        "_segmentIndex": 0,
        "_position": 0
      },
      "geometry": {
        "type": "Point",
        "coordinates": [
          -73.356129,
          5.557896
        ]
      }
    },
    {
      "type": "Feature",
      "properties": {
        "_source": "Ruta6-RetenSur-ViaMoniquira-EstanciaelRoble",
        "_segmentIndex": 0,
        "_position": 1
      },
      "geometry": {
        "type": "Point",
        "coordinates": [
          -73.3564057384266,
          5.55825128258853
        ]
      }
    },
    {
      "type": "Feature",
      "properties": {
        "_source": "Ruta6-RetenSur-ViaMoniquira-EstanciaelRoble",
        "_segmentIndex": 0,
        "_position": 2
      },
      "geometry": {
        "type": "Point",
        "coordinates": [
          -73.35668678136744,
          5.558602515265925
        ]
      }
    },
    {
      "type": "Feature",
      "properties": {
        "_source": "Ruta6-RetenSur-ViaMoniquira-EstanciaelRoble",
        "_segmentIndex": 0,
        "_position": 3
      },
      "geometry": {
        "type": "Point",
        "coordinates": [
          -73.35710356914026,
          5.558747740839395
        ]
      }
    },
    {
      "type": "Feature",
      "properties": {
        "_source": "Ruta6-RetenSur-ViaMoniquira-EstanciaelRoble",
        "_segmentIndex": 0,
        "_position": 4
      },
      "geometry": {
        "type": "Point",
        "coordinates": [
          -73.35744717108292,
          5.558985934447494
        ]
      }
    },
    {
      "type": "Feature",
      "properties": {
        "_source": "Ruta6-RetenSur-ViaMoniquira-EstanciaelRoble",
        "_segmentIndex": 0,
        "_position": 5
      },
      "geometry": {
        "type": "Point",
        "coordinates": [
          -73.35743355655255,
          5.559374937162112
        ]
      }
    },
    {
      "type": "Feature",
      "properties": {
        "_source": "Ruta6-RetenSur-ViaMoniquira-EstanciaelRoble",
        "_segmentIndex": 0,
        "_position": 6
      },
      "geometry": {
        "type": "Point",
        "coordinates": [
          -73.35773853617525,
          5.559706170721393
        ]
      }
    },
    {
      "type": "Feature",
      "properties": {
        "_source": "Ruta6-RetenSur-ViaMoniquira-EstanciaelRoble",
        "_segmentIndex": 0,
        "_position": 7
      },
      "geometry": {
        "type": "Point",
        "coordinates": [
          -73.35766158782653,
          5.560118789443381
        ]
      }
    },
    {
      "type": "Feature",
      "properties": {
        "_source": "Ruta6-RetenSur-ViaMoniquira-EstanciaelRoble",
        "_segmentIndex": 0,
        "_position": 8
      },
      "geometry": {
        "type": "Point",
        "coordinates": [
          -73.35738436833076,
          5.559934730650633
        ]
      }
    },
    {
      "type": "Feature",
      "properties": {
        "_source": "Ruta6-RetenSur-ViaMoniquira-EstanciaelRoble",
        "_segmentIndex": 0,
        "_position": 9
      },
      "geometry": {
        "type": "Point",
        "coordinates": [
          -73.35705056441553,
          5.559652088690477
        ]
      }
    },
    {
      "type": "Feature",
      "properties": {
        "_source": "Ruta6-RetenSur-ViaMoniquira-EstanciaelRoble",
        "_segmentIndex": 0,
        "_position": 10
      },
      "geometry": {
        "type": "Point",
        "coordinates": [
          -73.35660667917209,
          5.5595707492785245
        ]
      }
    },
    {
      "type": "Feature",
      "properties": {
        "_source": "Ruta6-RetenSur-ViaMoniquira-EstanciaelRoble",
        "_segmentIndex": 0,
        "_position": 11
      },
      "geometry": {
        "type": "Point",
        "coordinates": [
          -73.35616294416216,
          5.559486789311009
        ]
      }
    },
    {
      "type": "Feature",
      "properties": {
        "_source": "Ruta6-RetenSur-ViaMoniquira-EstanciaelRoble",
        "_segmentIndex": 0,
        "_position": 12
      },
      "geometry": {
        "type": "Point",
        "coordinates": [
          -73.35607907086607,
          5.559833559065588
        ]
      }
    },
    {
      "type": "Feature",
      "properties": {
        "_source": "Ruta6-RetenSur-ViaMoniquira-EstanciaelRoble",
        "_segmentIndex": 0,
        "_position": 0
      },
      "geometry": {
        "type": "Point",
        "coordinates": [
          -73.356047,
          5.560091
        ]
      }
    },
    {
      "type": "Feature",
      "properties": {
        "_source": "Ruta6-RetenSur-ViaMoniquira-EstanciaelRoble",
        "_segmentIndex": 0,
        "_position": 1
      },
      "geometry": {
        "type": "Point",
        "coordinates": [
          -73.35588748425391,
          5.560511202003003
        ]
      }
    },
    {
      "type": "Feature",
      "properties": {
        "_source": "Ruta6-RetenSur-ViaMoniquira-EstanciaelRoble",
        "_segmentIndex": 0,
        "_position": 2
      },
      "geometry": {
        "type": "Point",
        "coordinates": [
          -73.35576311415463,
          5.560943257675577
        ]
      }
    },
    {
      "type": "Feature",
      "properties": {
        "_source": "Ruta6-RetenSur-ViaMoniquira-EstanciaelRoble",
        "_segmentIndex": 0,
        "_position": 0
      },
      "geometry": {
        "type": "Point",
        "coordinates": [
          -73.355598,
          5.561328
        ]
      }
    },
    {
      "type": "Feature",
      "properties": {
        "_source": "Ruta6-RetenSur-ViaMoniquira-EstanciaelRoble",
        "_segmentIndex": 0,
        "_position": 1
      },
      "geometry": {
        "type": "Point",
        "coordinates": [
          -73.35555210609405,
          5.561769130802373
        ]
      }
    },
    {
      "type": "Feature",
      "properties": {
        "_source": "Ruta6-RetenSur-ViaMoniquira-EstanciaelRoble",
        "_segmentIndex": 0,
        "_position": 2
      },
      "geometry": {
        "type": "Point",
        "coordinates": [
          -73.35552962050326,
          5.562218228787839
        ]
      }
    },
    {
      "type": "Feature",
      "properties": {
        "_source": "Ruta6-RetenSur-ViaMoniquira-EstanciaelRoble",
        "_segmentIndex": 0,
        "_position": 3
      },
      "geometry": {
        "type": "Point",
        "coordinates": [
          -73.35550639856413,
          5.562667294101894
        ]
      }
    },
    {
      "type": "Feature",
      "properties": {
        "_source": "Ruta6-RetenSur-ViaMoniquira-EstanciaelRoble",
        "_segmentIndex": 0,
        "_position": 4
      },
      "geometry": {
        "type": "Point",
        "coordinates": [
          -73.3554757194936,
          5.563115910631113
        ]
      }
    },
    {
      "type": "Feature",
      "properties": {
        "_source": "Ruta6-RetenSur-ViaMoniquira-EstanciaelRoble",
        "_segmentIndex": 0,
        "_position": 5
      },
      "geometry": {
        "type": "Point",
        "coordinates": [
          -73.3554069595657,
          5.563559313957058
        ]
      }
    },
    {
      "type": "Feature",
      "properties": {
        "_source": "Ruta6-RetenSur-ViaMoniquira-EstanciaelRoble",
        "_segmentIndex": 0,
        "_position": 6
      },
      "geometry": {
        "type": "Point",
        "coordinates": [
          -73.35527983218164,
          5.563990432521257
        ]
      }
    },
    {
      "type": "Feature",
      "properties": {
        "_source": "Ruta6-RetenSur-ViaMoniquira-EstanciaelRoble",
        "_segmentIndex": 0,
        "_position": 7
      },
      "geometry": {
        "type": "Point",
        "coordinates": [
          -73.35515270666023,
          5.5644219200493
        ]
      }
    },
    {
      "type": "Feature",
      "properties": {
        "_source": "Ruta6-RetenSur-ViaMoniquira-EstanciaelRoble",
        "_segmentIndex": 0,
        "_position": 0
      },
      "geometry": {
        "type": "Point",
        "coordinates": [
          -73.355118,
          5.564537
        ]
      }
    },
    {
      "type": "Feature",
      "properties": {
        "_source": "Ruta6-RetenSur-ViaMoniquira-EstanciaelRoble",
        "_segmentIndex": 0,
        "_position": 1
      },
      "geometry": {
        "type": "Point",
        "coordinates": [
          -73.35499724944174,
          5.564147959563598
        ]
      }
    },
    {
      "type": "Feature",
      "properties": {
        "_source": "Ruta6-RetenSur-ViaMoniquira-EstanciaelRoble",
        "_segmentIndex": 0,
        "_position": 2
      },
      "geometry": {
        "type": "Point",
        "coordinates": [
          -73.35464693013634,
          5.564257835055158
        ]
      }
    },
    {
      "type": "Feature",
      "properties": {
        "_source": "Ruta6-RetenSur-ViaMoniquira-EstanciaelRoble",
        "_segmentIndex": 0,
        "_position": 3
      },
      "geometry": {
        "type": "Point",
        "coordinates": [
          -73.35429322524435,
          5.564536881764429
        ]
      }
    },
    {
      "type": "Feature",
      "properties": {
        "_source": "Ruta6-RetenSur-ViaMoniquira-EstanciaelRoble",
        "_segmentIndex": 0,
        "_position": 4
      },
      "geometry": {
        "type": "Point",
        "coordinates": [
          -73.35393031332825,
          5.564804682059845
        ]
      }
    },
    {
      "type": "Feature",
      "properties": {
        "_source": "Ruta6-RetenSur-ViaMoniquira-EstanciaelRoble",
        "_segmentIndex": 0,
        "_position": 5
      },
      "geometry": {
        "type": "Point",
        "coordinates": [
          -73.35357258054124,
          5.565079316687043
        ]
      }
    },
    {
      "type": "Feature",
      "properties": {
        "_source": "Ruta6-RetenSur-ViaMoniquira-EstanciaelRoble",
        "_segmentIndex": 0,
        "_position": 6
      },
      "geometry": {
        "type": "Point",
        "coordinates": [
          -73.35321122978827,
          5.565348986090736
        ]
      }
    },
    {
      "type": "Feature",
      "properties": {
        "_source": "Ruta6-RetenSur-ViaMoniquira-EstanciaelRoble",
        "_segmentIndex": 0,
        "_position": 0
      },
      "geometry": {
        "type": "Point",
        "coordinates": [
          -73.353092,
          5.565419
        ]
      }
    },
    {
      "type": "Feature",
      "properties": {
        "_source": "Ruta6-RetenSur-ViaMoniquira-EstanciaelRoble",
        "_segmentIndex": 0,
        "_position": 1
      },
      "geometry": {
        "type": "Point",
        "coordinates": [
          -73.35268413933666,
          5.565225727781336
        ]
      }
    },
    {
      "type": "Feature",
      "properties": {
        "_source": "Ruta6-RetenSur-ViaMoniquira-EstanciaelRoble",
        "_segmentIndex": 0,
        "_position": 2
      },
      "geometry": {
        "type": "Point",
        "coordinates": [
          -73.3524541764331,
          5.565474790235407
        ]
      }
    },
    {
      "type": "Feature",
      "properties": {
        "_source": "Ruta6-RetenSur-ViaMoniquira-EstanciaelRoble",
        "_segmentIndex": 0,
        "_position": 3
      },
      "geometry": {
        "type": "Point",
        "coordinates": [
          -73.35233547113869,
          5.565908483236152
        ]
      }
    },
    {
      "type": "Feature",
      "properties": {
        "_source": "Ruta6-RetenSur-ViaMoniquira-EstanciaelRoble",
        "_segmentIndex": 0,
        "_position": 4
      },
      "geometry": {
        "type": "Point",
        "coordinates": [
          -73.3526011306817,
          5.565844977820621
        ]
      }
    },
    {
      "type": "Feature",
      "properties": {
        "_source": "Ruta6-RetenSur-ViaMoniquira-EstanciaelRoble",
        "_segmentIndex": 0,
        "_position": 5
      },
      "geometry": {
        "type": "Point",
        "coordinates": [
          -73.35295060262789,
          5.565560034279497
        ]
      }
    },
    {
      "type": "Feature",
      "properties": {
        "_source": "Ruta6-RetenSur-ViaMoniquira-EstanciaelRoble",
        "_segmentIndex": 0,
        "_position": 6
      },
      "geometry": {
        "type": "Point",
        "coordinates": [
          -73.35331243191534,
          5.565292919999577
        ]
      }
    },
    {
      "type": "Feature",
      "properties": {
        "_source": "Ruta6-RetenSur-ViaMoniquira-EstanciaelRoble",
        "_segmentIndex": 0,
        "_position": 7
      },
      "geometry": {
        "type": "Point",
        "coordinates": [
          -73.35367250310745,
          5.565021332637145
        ]
      }
    },
    {
      "type": "Feature",
      "properties": {
        "_source": "Ruta6-RetenSur-ViaMoniquira-EstanciaelRoble",
        "_segmentIndex": 0,
        "_position": 8
      },
      "geometry": {
        "type": "Point",
        "coordinates": [
          -73.35403274573193,
          5.5647499731686985
        ]
      }
    },
    {
      "type": "Feature",
      "properties": {
        "_source": "Ruta6-RetenSur-ViaMoniquira-EstanciaelRoble",
        "_segmentIndex": 0,
        "_position": 9
      },
      "geometry": {
        "type": "Point",
        "coordinates": [
          -73.35439504775789,
          5.564481336305672
        ]
      }
    },
    {
      "type": "Feature",
      "properties": {
        "_source": "Ruta6-RetenSur-ViaMoniquira-EstanciaelRoble",
        "_segmentIndex": 0,
        "_position": 10
      },
      "geometry": {
        "type": "Point",
        "coordinates": [
          -73.3547408947411,
          5.564192505429228
        ]
      }
    },
    {
      "type": "Feature",
      "properties": {
        "_source": "Ruta6-RetenSur-ViaMoniquira-EstanciaelRoble",
        "_segmentIndex": 0,
        "_position": 11
      },
      "geometry": {
        "type": "Point",
        "coordinates": [
          -73.35499148258234,
          5.564287462826865
        ]
      }
    },
    {
      "type": "Feature",
      "properties": {
        "_source": "Ruta6-RetenSur-ViaMoniquira-EstanciaelRoble",
        "_segmentIndex": 0,
        "_position": 0
      },
      "geometry": {
        "type": "Point",
        "coordinates": [
          -73.35513,
          5.564557
        ]
      }
    },
    {
      "type": "Feature",
      "properties": {
        "_source": "Ruta6-RetenSur-ViaMoniquira-EstanciaelRoble",
        "_segmentIndex": 0,
        "_position": 1
      },
      "geometry": {
        "type": "Point",
        "coordinates": [
          -73.35525557879527,
          5.56412513212065
        ]
      }
    }
  ]
}