{
  "type": "FeatureCollection",
  "features": [
    {
      "type": "Feature",
      "properties": {
        "_source": "Ruta8AF-RamalFlorencia-LaFuente-Runta",
        "_segmentIndex": 0,
        "_position": 0
      },
      "geometry": {
        "type": "Point",
        "coordinates": [
          -73.366183,
          5.549288
        ]
      }
    },
    {
      "type": "Feature",
      "properties": {
        "_source": "Ruta8AF-RamalFlorencia-LaFuente-Runta",
        "_segmentIndex": 0,
        "_position": 1
      },
      "geometry": {
        "type": "Point",
        "coordinates": [
          -73.36573468083125,
          5.549232852027057
        ]
      }
    },
    {
      "type": "Feature",
      "properties": {
        "_source": "Ruta8AF-RamalFlorencia-LaFuente-Runta",
        "_segmentIndex": 0,
        "_position": 0
      },
      "geometry": {
        "type": "Point",
        "coordinates": [
          -73.365578,
          5.549224
        ]
      }
    },
    {
      "type": "Feature",
      "properties": {
        "_source": "Ruta8AF-RamalFlorencia-LaFuente-Runta",
        "_segmentIndex": 0,
        "_position": 1
      },
      "geometry": {
        "type": "Point",
        "coordinates": [
          -73.36566402122891,
          5.549660479859067
        ]
      }
    },
    {
      "type": "Feature",
      "properties": {
        "_source": "Ruta8AF-RamalFlorencia-LaFuente-Runta",
        "_segmentIndex": 0,
        "_position": 0
      },
      "geometry": {
        "type": "Point",
        "coordinates": [
          -73.365665,
          5.549665
        ]
      }
    },
    {
      "type": "Feature",
      "properties": {
        "_source": "Ruta8AF-RamalFlorencia-LaFuente-Runta",
        "_segmentIndex": 0,
        "_position": 1
      },
      "geometry": {
        "type": "Point",
        "coordinates": [
          -73.3652153109939,
          5.549651983702133
        ]
      }
    },
    {
      "type": "Feature",
      "properties": {
        "_source": "Ruta8AF-RamalFlorencia-LaFuente-Runta",
        "_segmentIndex": 0,
        "_position": 2
      },
      "geometry": {
        "type": "Point",
        "coordinates": [
          -73.36476515796303,
          5.549614080751507
        ]
      }
    },
    {
      "type": "Feature",
      "properties": {
        "_source": "Ruta8AF-RamalFlorencia-LaFuente-Runta",
        "_segmentIndex": 0,
        "_position": 3
      },
      "geometry": {
        "type": "Point",
        "coordinates": [
          -73.36431452800643,
          5.549582607790202
        ]
      }
    },
    {
      "type": "Feature",
      "properties": {
        "_source": "Ruta8AF-RamalFlorencia-LaFuente-Runta",
        "_segmentIndex": 0,
        "_position": 4
      },
      "geometry": {
        "type": "Point",
        "coordinates": [
          -73.36386406925803,
          5.549548530931299
        ]
      }
    },
    {
      "type": "Feature",
      "properties": {
        "_source": "Ruta8AF-RamalFlorencia-LaFuente-Runta",
        "_segmentIndex": 0,
        "_position": 5
      },
      "geometry": {
        "type": "Point",
        "coordinates": [
          -73.36341402740976,
          5.549509217759599
        ]
      }
    },
    {
      "type": "Feature",
      "properties": {
        "_source": "Ruta8AF-RamalFlorencia-LaFuente-Runta",
        "_segmentIndex": 0,
        "_position": 6
      },
      "geometry": {
        "type": "Point",
        "coordinates": [
          -73.36296425000054,
          5.549468338994995
        ]
      }
    },
    {
      "type": "Feature",
      "properties": {
        "_source": "Ruta8AF-RamalFlorencia-LaFuente-Runta",
        "_segmentIndex": 0,
        "_position": 7
      },
      "geometry": {
        "type": "Point",
        "coordinates": [
          -73.36252702764533,
          5.549364265538117
        ]
      }
    },
    {
      "type": "Feature",
      "properties": {
        "_source": "Ruta8AF-RamalFlorencia-LaFuente-Runta",
        "_segmentIndex": 0,
        "_position": 8
      },
      "geometry": {
        "type": "Point",
        "coordinates": [
          -73.36210242009933,
          5.549211672387695
        ]
      }
    },
    {
      "type": "Feature",
      "properties": {
        "_source": "Ruta8AF-RamalFlorencia-LaFuente-Runta",
        "_segmentIndex": 0,
        "_position": 9
      },
      "geometry": {
        "type": "Point",
        "coordinates": [
          -73.36165215235651,
          5.5491803372640796
        ]
      }
    },
    {
      "type": "Feature",
      "properties": {
        "_source": "Ruta8AF-RamalFlorencia-LaFuente-Runta",
        "_segmentIndex": 0,
        "_position": 10
      },
      "geometry": {
        "type": "Point",
        "coordinates": [
          -73.36120150870941,
          5.549152530907878
        ]
      }
    },
    {
      "type": "Feature",
      "properties": {
        "_source": "Ruta8AF-RamalFlorencia-LaFuente-Runta",
        "_segmentIndex": 0,
        "_position": 11
      },
      "geometry": {
        "type": "Point",
        "coordinates": [
          -73.3607521286614,
          5.549107583259369
        ]
      }
    },
    {
      "type": "Feature",
      "properties": {
        "_source": "Ruta8AF-RamalFlorencia-LaFuente-Runta",
        "_segmentIndex": 0,
        "_position": 0
      },
      "geometry": {
        "type": "Point",
        "coordinates": [
          -73.360728,
          5.549105
        ]
      }
    },
    {
      "type": "Feature",
      "properties": {
        "_source": "Ruta8AF-RamalFlorencia-LaFuente-Runta",
        "_segmentIndex": 0,
        "_position": 1
      },
      "geometry": {
        "type": "Point",
        "coordinates": [
          -73.36091648092115,
          5.548699264119219
        ]
      }
    },
    {
      "type": "Feature",
      "properties": {
        "_source": "Ruta8AF-RamalFlorencia-LaFuente-Runta",
        "_segmentIndex": 0,
        "_position": 2
      },
      "geometry": {
        "type": "Point",
        "coordinates": [
          -73.36113924090434,
          5.548308066889625
        ]
      }
    },
    {
      "type": "Feature",
      "properties": {
        "_source": "Ruta8AF-RamalFlorencia-LaFuente-Runta",
        "_segmentIndex": 0,
        "_position": 3
      },
      "geometry": {
        "type": "Point",
        "coordinates": [
          -73.36136278802744,
          5.547917313668451
        ]
      }
    },
    {
      "type": "Feature",
      "properties": {
        "_source": "Ruta8AF-RamalFlorencia-LaFuente-Runta",
        "_segmentIndex": 0,
        "_position": 4
      },
      "geometry": {
        "type": "Point",
        "coordinates": [
          -73.36158612082328,
          5.547526439150247
        ]
      }
    },
    {
      "type": "Feature",
      "properties": {
        "_source": "Ruta8AF-RamalFlorencia-LaFuente-Runta",
        "_segmentIndex": 0,
        "_position": 5
      },
      "geometry": {
        "type": "Point",
        "coordinates": [
          -73.36180942241094,
          5.5471355470416475
        ]
      }
    },
    {
      "type": "Feature",
      "properties": {
        "_source": "Ruta8AF-RamalFlorencia-LaFuente-Runta",
        "_segmentIndex": 0,
        "_position": 6
      },
      "geometry": {
        "type": "Point",
        "coordinates": [
          -73.36203420776636,
          5.546745500131959
        ]
      }
    },
    {
      "type": "Feature",
      "properties": {
        "_source": "Ruta8AF-RamalFlorencia-LaFuente-Runta",
        "_segmentIndex": 0,
        "_position": 7
      },
      "geometry": {
        "type": "Point",
        "coordinates": [
          -73.36226142341049,
          5.546356858249895
        ]
      }
    },
    {
      "type": "Feature",
      "properties": {
        "_source": "Ruta8AF-RamalFlorencia-LaFuente-Runta",
        "_segmentIndex": 0,
        "_position": 8
      },
      "geometry": {
        "type": "Point",
        "coordinates": [
          -73.36249171034142,
          5.5459700022436635
        ]
      }
    },
    {
      "type": "Feature",
      "properties": {
        "_source": "Ruta8AF-RamalFlorencia-LaFuente-Runta",
        "_segmentIndex": 0,
        "_position": 0
      },
      "geometry": {
        "type": "Point",
        "coordinates": [
          -73.362531,
          5.545904
        ]
      }
    },
    {
      "type": "Feature",
      "properties": {
        "_source": "Ruta8AF-RamalFlorencia-LaFuente-Runta",
        "_segmentIndex": 0,
        "_position": 1
      },
      "geometry": {
        "type": "Point",
        "coordinates": [
          -73.36209068191529,
          5.545842529153914
        ]
      }
    },
    {
      "type": "Feature",
      "properties": {
        "_source": "Ruta8AF-RamalFlorencia-LaFuente-Runta",
        "_segmentIndex": 0,
        "_position": 2
      },
      "geometry": {
        "type": "Point",
        "coordinates": [
          -73.36163915172934,
          5.545827737463315
        ]
      }
    },
    {
      "type": "Feature",
      "properties": {
        "_source": "Ruta8AF-RamalFlorencia-LaFuente-Runta",
        "_segmentIndex": 0,
        "_position": 3
      },
      "geometry": {
        "type": "Point",
        "coordinates": [
          -73.36118764644564,
          5.545812206634684
        ]
      }
    },
    {
      "type": "Feature",
      "properties": {
        "_source": "Ruta8AF-RamalFlorencia-LaFuente-Runta",
        "_segmentIndex": 0,
        "_position": 4
      },
      "geometry": {
        "type": "Point",
        "coordinates": [
          -73.3607363722292,
          5.545791859448738
        ]
      }
    },
    {
      "type": "Feature",
      "properties": {
        "_source": "Ruta8AF-RamalFlorencia-LaFuente-Runta",
        "_segmentIndex": 0,
        "_position": 5
      },
      "geometry": {
        "type": "Point",
        "coordinates": [
          -73.36028526732396,
          5.545767805045272
        ]
      }
    },
    {
      "type": "Feature",
      "properties": {
        "_source": "Ruta8AF-RamalFlorencia-LaFuente-Runta",
        "_segmentIndex": 0,
        "_position": 0
      },
      "geometry": {
        "type": "Point",
        "coordinates": [
          -73.360189,
          5.545764
        ]
      }
    },
    {
      "type": "Feature",
      "properties": {
        "_source": "Ruta8AF-RamalFlorencia-LaFuente-Runta",
        "_segmentIndex": 0,
        "_position": 1
      },
      "geometry": {
        "type": "Point",
        "coordinates": [
          -73.36007251647283,
          5.545329712536645
        ]
      }
    },
    {
      "type": "Feature",
      "properties": {
        "_source": "Ruta8AF-RamalFlorencia-LaFuente-Runta",
        "_segmentIndex": 0,
        "_position": 2
      },
      "geometry": {
        "type": "Point",
        "coordinates": [
          -73.35992424290687,
          5.54490520157416
        ]
      }
    },
    {
      "type": "Feature",
      "properties": {
        "_source": "Ruta8AF-RamalFlorencia-LaFuente-Runta",
        "_segmentIndex": 0,
        "_position": 3
      },
      "geometry": {
        "type": "Point",
        "coordinates": [
          -73.35975168845636,
          5.544489695688882
        ]
      }
    },
    {
      "type": "Feature",
      "properties": {
        "_source": "Ruta8AF-RamalFlorencia-LaFuente-Runta",
        "_segmentIndex": 0,
        "_position": 4
      },
      "geometry": {
        "type": "Point",
        "coordinates": [
          -73.35957715497386,
          5.54407495498475
        ]
      }
    },
    {
      "type": "Feature",
      "properties": {
        "_source": "Ruta8AF-RamalFlorencia-LaFuente-Runta",
        "_segmentIndex": 0,
        "_position": 5
      },
      "geometry": {
        "type": "Point",
        "coordinates": [
          -73.35939572892006,
          5.543663146694051
        ]
      }
    },
    {
      "type": "Feature",
      "properties": {
        "_source": "Ruta8AF-RamalFlorencia-LaFuente-Runta",
        "_segmentIndex": 0,
        "_position": 6
      },
      "geometry": {
        "type": "Point",
        "coordinates": [
          -73.35921137201598,
          5.543252634799065
        ]
      }
    },
    {
      "type": "Feature",
      "properties": {
        "_source": "Ruta8AF-RamalFlorencia-LaFuente-Runta",
        "_segmentIndex": 0,
        "_position": 0
      },
      "geometry": {
        "type": "Point",
        "coordinates": [
          -73.359036,
          5.542865
        ]
      }
    },
    {
      "type": "Feature",
      "properties": {
        "_source": "Ruta8AF-RamalFlorencia-LaFuente-Runta",
        "_segmentIndex": 0,
        "_position": 1
      },
      "geometry": {
        "type": "Point",
        "coordinates": [
          -73.35893240301792,
          5.542456141160861
        ]
      }
    },
    {
      "type": "Feature",
      "properties": {
        "_source": "Ruta8AF-RamalFlorencia-LaFuente-Runta",
        "_segmentIndex": 0,
        "_position": 2
      },
      "geometry": {
        "type": "Point",
        "coordinates": [
          -73.35903111480569,
          5.542020300607574
        ]
      }
    },
    {
      "type": "Feature",
      "properties": {
        "_source": "Ruta8AF-RamalFlorencia-LaFuente-Runta",
        "_segmentIndex": 0,
        "_position": 3
      },
      "geometry": {
        "type": "Point",
        "coordinates": [
          -73.35921714089875,
          5.541610887914722
        ]
      }
    },
    {
      "type": "Feature",
      "properties": {
        "_source": "Ruta8AF-RamalFlorencia-LaFuente-Runta",
        "_segmentIndex": 0,
        "_position": 4
      },
      "geometry": {
        "type": "Point",
        "coordinates": [
          -73.35941648471457,
          5.541207441408221
        ]
      }
    },
    {
      "type": "Feature",
      "properties": {
        "_source": "Ruta8AF-RamalFlorencia-LaFuente-Runta",
        "_segmentIndex": 0,
        "_position": 5
      },
      "geometry": {
        "type": "Point",
        "coordinates": [
          -73.35960305293735,
          5.54079795168561
        ]
      }
    },
    {
      "type": "Feature",
      "properties": {
        "_source": "Ruta8AF-RamalFlorencia-LaFuente-Runta",
        "_segmentIndex": 0,
        "_position": 6
      },
      "geometry": {
        "type": "Point",
        "coordinates": [
          -73.3597760650978,
          5.540382622689282
        ]
      }
    },
    {
      "type": "Feature",
      "properties": {
        "_source": "Ruta8AF-RamalFlorencia-LaFuente-Runta",
        "_segmentIndex": 0,
        "_position": 7
      },
      "geometry": {
        "type": "Point",
        "coordinates": [
          -73.35992551844986,
          5.539958322603653
        ]
      }
    },
    {
      "type": "Feature",
      "properties": {
        "_source": "Ruta8AF-RamalFlorencia-LaFuente-Runta",
        "_segmentIndex": 0,
        "_position": 8
      },
      "geometry": {
        "type": "Point",
        "coordinates": [
          -73.36005115429913,
          5.539527197327149
        ]
      }
    },
    {
      "type": "Feature",
      "properties": {
        "_source": "Ruta8AF-RamalFlorencia-LaFuente-Runta",
        "_segmentIndex": 0,
        "_position": 9
      },
      "geometry": {
        "type": "Point",
        "coordinates": [
          -73.36014625662722,
          5.539087614045133
        ]
      }
    },
    {
      "type": "Feature",
      "properties": {
        "_source": "Ruta8AF-RamalFlorencia-LaFuente-Runta",
        "_segmentIndex": 0,
        "_position": 0
      },
      "geometry": {
        "type": "Point",
        "coordinates": [
          -73.360242,
          5.538656
        ]
      }
    },
    {
      "type": "Feature",
      "properties": {
        "_source": "Ruta8AF-RamalFlorencia-LaFuente-Runta",
        "_segmentIndex": 0,
        "_position": 1
      },
      "geometry": {
        "type": "Point",
        "coordinates": [
          -73.36036111037528,
          5.538222949630887
        ]
      }
    },
    {
      "type": "Feature",
      "properties": {
        "_source": "Ruta8AF-RamalFlorencia-LaFuente-Runta",
        "_segmentIndex": 0,
        "_position": 0
      },
      "geometry": {
        "type": "Point",
        "coordinates": [
          -73.36047,
          5.537943
        ]
      }
    },
    {
      "type": "Feature",
      "properties": {
        "_source": "Ruta8AF-RamalFlorencia-LaFuente-Runta",
        "_segmentIndex": 0,
        "_position": 1
      },
      "geometry": {
        "type": "Point",
        "coordinates": [
          -73.36063155546094,
          5.537525215669584
        ]
      }
    },
    {
      "type": "Feature",
      "properties": {
        "_source": "Ruta8AF-RamalFlorencia-LaFuente-Runta",
        "_segmentIndex": 0,
        "_position": 2
      },
      "geometry": {
        "type": "Point",
        "coordinates": [
          -73.36074577901165,
          5.537090166802607
        ]
      }
    },
    {
      "type": "Feature",
      "properties": {
        "_source": "Ruta8AF-RamalFlorencia-LaFuente-Runta",
        "_segmentIndex": 0,
        "_position": 3
      },
      "geometry": {
        "type": "Point",
        "coordinates": [
          -73.36086310072362,
          5.536655944879367
        ]
      }
    },
    {
      "type": "Feature",
      "properties": {
        "_source": "Ruta8AF-RamalFlorencia-LaFuente-Runta",
        "_segmentIndex": 0,
        "_position": 4
      },
      "geometry": {
        "type": "Point",
        "coordinates": [
          -73.36098716032654,
          5.536223571482934
        ]
      }
    },
    {
      "type": "Feature",
      "properties": {
        "_source": "Ruta8AF-RamalFlorencia-LaFuente-Runta",
        "_segmentIndex": 0,
        "_position": 5
      },
      "geometry": {
        "type": "Point",
        "coordinates": [
          -73.36111848459093,
          5.535793345406896
        ]
      }
    },
    {
      "type": "Feature",
      "properties": {
        "_source": "Ruta8AF-RamalFlorencia-LaFuente-Runta",
        "_segmentIndex": 0,
        "_position": 6
      },
      "geometry": {
        "type": "Point",
        "coordinates": [
          -73.36124813417865,
          5.535362687396197
        ]
      }
    },
    {
      "type": "Feature",
      "properties": {
        "_source": "Ruta8AF-RamalFlorencia-LaFuente-Runta",
        "_segmentIndex": 0,
        "_position": 7
      },
      "geometry": {
        "type": "Point",
        "coordinates": [
          -73.36136416293009,
          5.534928165894746
        ]
      }
    },
    {
      "type": "Feature",
      "properties": {
        "_source": "Ruta8AF-RamalFlorencia-LaFuente-Runta",
        "_segmentIndex": 0,
        "_position": 8
      },
      "geometry": {
        "type": "Point",
        "coordinates": [
          -73.36149550119671,
          5.534498009970095
        ]
      }
    },
    {
      "type": "Feature",
      "properties": {
        "_source": "Ruta8AF-RamalFlorencia-LaFuente-Runta",
        "_segmentIndex": 0,
        "_position": 0
      },
      "geometry": {
        "type": "Point",
        "coordinates": [
          -73.361608,
          5.534152
        ]
      }
    },
    {
      "type": "Feature",
      "properties": {
        "_source": "Ruta8AF-RamalFlorencia-LaFuente-Runta",
        "_segmentIndex": 0,
        "_position": 1
      },
      "geometry": {
        "type": "Point",
        "coordinates": [
          -73.36204001724818,
          5.534279738715916
        ]
      }
    },
    {
      "type": "Feature",
      "properties": {
        "_source": "Ruta8AF-RamalFlorencia-LaFuente-Runta",
        "_segmentIndex": 0,
        "_position": 2
      },
      "geometry": {
        "type": "Point",
        "coordinates": [
          -73.36246972606614,
          5.534418526559623
        ]
      }
    },
    {
      "type": "Feature",
      "properties": {
        "_source": "Ruta8AF-RamalFlorencia-LaFuente-Runta",
        "_segmentIndex": 0,
        "_position": 3
      },
      "geometry": {
        "type": "Point",
        "coordinates": [
          -73.3629011724854,
          5.534551795494163
        ]
      }
    },
    {
      "type": "Feature",
      "properties": {
        "_source": "Ruta8AF-RamalFlorencia-LaFuente-Runta",
        "_segmentIndex": 0,
        "_position": 4
      },
      "geometry": {
        "type": "Point",
        "coordinates": [
          -73.36333361205787,
          5.534681910118875
        ]
      }
    },
    {
      "type": "Feature",
      "properties": {
        "_source": "Ruta8AF-RamalFlorencia-LaFuente-Runta",
        "_segmentIndex": 0,
        "_position": 5
      },
      "geometry": {
        "type": "Point",
        "coordinates": [
          -73.3637661401446,
          5.534811716677277
        ]
      }
    },
    {
      "type": "Feature",
      "properties": {
        "_source": "Ruta8AF-RamalFlorencia-LaFuente-Runta",
        "_segmentIndex": 0,
        "_position": 6
      },
      "geometry": {
        "type": "Point",
        "coordinates": [
          -73.36420022136734,
          5.534935742595855
        ]
      }
    },
    {
      "type": "Feature",
      "properties": {
        "_source": "Ruta8AF-RamalFlorencia-LaFuente-Runta",
        "_segmentIndex": 0,
        "_position": 7
      },
      "geometry": {
        "type": "Point",
        "coordinates": [
          -73.36462899905024,
          5.535077355619648
        ]
      }
    },
    {
      "type": "Feature",
      "properties": {
        "_source": "Ruta8AF-RamalFlorencia-LaFuente-Runta",
        "_segmentIndex": 0,
        "_position": 8
      },
      "geometry": {
        "type": "Point",
        "coordinates": [
          -73.36505809643742,
          5.535218006871989
        ]
      }
    },
    {
      "type": "Feature",
      "properties": {
        "_source": "Ruta8AF-RamalFlorencia-LaFuente-Runta",
        "_segmentIndex": 0,
        "_position": 9
      },
      "geometry": {
        "type": "Point",
        "coordinates": [
          -73.36548719402874,
          5.535358657815799
        ]
      }
    },
    {
      "type": "Feature",
      "properties": {
        "_source": "Ruta8AF-RamalFlorencia-LaFuente-Runta",
        "_segmentIndex": 0,
        "_position": 0
      },
      "geometry": {
        "type": "Point",
        "coordinates": [
          -73.365534,
          5.535374
        ]
      }
    },
    {
      "type": "Feature",
      "properties": {
        "_source": "Ruta8AF-RamalFlorencia-LaFuente-Runta",
        "_segmentIndex": 0,
        "_position": 1
      },
      "geometry": {
        "type": "Point",
        "coordinates": [
          -73.3657148711786,
          5.534964873409649
        ]
      }
    },
    {
      "type": "Feature",
      "properties": {
        "_source": "Ruta8AF-RamalFlorencia-LaFuente-Runta",
        "_segmentIndex": 0,
        "_position": 2
      },
      "geometry": {
        "type": "Point",
        "coordinates": [
          -73.36587899416448,
          5.534546676401826
        ]
      }
    },
    {
      "type": "Feature",
      "properties": {
        "_source": "Ruta8AF-RamalFlorencia-LaFuente-Runta",
        "_segmentIndex": 0,
        "_position": 3
      },
      "geometry": {
        "type": "Point",
        "coordinates": [
          -73.36607420181106,
          5.534142124173523
        ]
      }
    },
    {
      "type": "Feature",
      "properties": {
        "_source": "Ruta8AF-RamalFlorencia-LaFuente-Runta",
        "_segmentIndex": 0,
        "_position": 4
      },
      "geometry": {
        "type": "Point",
        "coordinates": [
          -73.36627093144345,
          5.5337373382349275
        ]
      }
    },
    {
      "type": "Feature",
      "properties": {
        "_source": "Ruta8AF-RamalFlorencia-LaFuente-Runta",
        "_segmentIndex": 0,
        "_position": 0
      },
      "geometry": {
        "type": "Point",
        "coordinates": [
          -73.366396,
          5.53348
        ]
      }
    },
    {
      "type": "Feature",
      "properties": {
        "_source": "Ruta8AF-RamalFlorencia-LaFuente-Runta",
        "_segmentIndex": 0,
        "_position": 1
      },
      "geometry": {
        "type": "Point",
        "coordinates": [
          -73.3668288504258,
          5.533606738860764
        ]
      }
    },
    {
      "type": "Feature",
      "properties": {
        "_source": "Ruta8AF-RamalFlorencia-LaFuente-Runta",
        "_segmentIndex": 0,
        "_position": 2
      },
      "geometry": {
        "type": "Point",
        "coordinates": [
          -73.36725837634911,
          5.533746084967584
        ]
      }
    },
    {
      "type": "Feature",
      "properties": {
        "_source": "Ruta8AF-RamalFlorencia-LaFuente-Runta",
        "_segmentIndex": 0,
        "_position": 0
      },
      "geometry": {
        "type": "Point",
        "coordinates": [
          -73.367366,
          5.533781
        ]
      }
    },
    {
      "type": "Feature",
      "properties": {
        "_source": "Ruta8AF-RamalFlorencia-LaFuente-Runta",
        "_segmentIndex": 0,
        "_position": 1
      },
      "geometry": {
        "type": "Point",
        "coordinates": [
          -73.36759397928319,
          5.533409800774653
        ]
      }
    },
    {
      "type": "Feature",
      "properties": {
        "_source": "Ruta8AF-RamalFlorencia-LaFuente-Runta",
        "_segmentIndex": 0,
        "_position": 2
      },
      "geometry": {
        "type": "Point",
        "coordinates": [
          -73.36779128795055,
          5.533005297022557
        ]
      }
    },
    {
      "type": "Feature",
      "properties": {
        "_source": "Ruta8AF-RamalFlorencia-LaFuente-Runta",
        "_segmentIndex": 0,
        "_position": 3
      },
      "geometry": {
        "type": "Point",
        "coordinates": [
          -73.36798710495593,
          5.532600073100444
        ]
      }
    },
    {
      "type": "Feature",
      "properties": {
        "_source": "Ruta8AF-RamalFlorencia-LaFuente-Runta",
        "_segmentIndex": 0,
        "_position": 4
      },
      "geometry": {
        "type": "Point",
        "coordinates": [
          -73.36817365480334,
          5.532190673819634
        ]
      }
    },
    {
      "type": "Feature",
      "properties": {
        "_source": "Ruta8AF-RamalFlorencia-LaFuente-Runta",
        "_segmentIndex": 0,
        "_position": 5
      },
      "geometry": {
        "type": "Point",
        "coordinates": [
          -73.36833184533472,
          5.531769493188136
        ]
      }
    },
    {
      "type": "Feature",
      "properties": {
        "_source": "Ruta8AF-RamalFlorencia-LaFuente-Runta",
        "_segmentIndex": 0,
        "_position": 6
      },
      "geometry": {
        "type": "Point",
        "coordinates": [
          -73.3684880197775,
          5.531347571148794
        ]
      }
    },
    {
      "type": "Feature",
      "properties": {
        "_source": "Ruta8AF-RamalFlorencia-LaFuente-Runta",
        "_segmentIndex": 0,
        "_position": 7
      },
      "geometry": {
        "type": "Point",
        "coordinates": [
          -73.36851442161067,
          5.530900230976848
        ]
      }
    },
    {
      "type": "Feature",
      "properties": {
        "_source": "Ruta8AF-RamalFlorencia-LaFuente-Runta",
        "_segmentIndex": 0,
        "_position": 8
      },
      "geometry": {
        "type": "Point",
        "coordinates": [
          -73.36859921453193,
          5.530458606215357
        ]
      }
    },
    {
      "type": "Feature",
      "properties": {
        "_source": "Ruta8AF-RamalFlorencia-LaFuente-Runta",
        "_segmentIndex": 0,
        "_position": 9
      },
      "geometry": {
        "type": "Point",
        "coordinates": [
          -73.36867754579042,
          5.530015756942505
        ]
      }
    },
    {
      "type": "Feature",
      "properties": {
        "_source": "Ruta8AF-RamalFlorencia-LaFuente-Runta",
        "_segmentIndex": 0,
        "_position": 10
      },
      "geometry": {
        "type": "Point",
        "coordinates": [
          -73.36876223753369,
          5.529574094990306
        ]
      }
    },
    {
      "type": "Feature",
      "properties": {
        "_source": "Ruta8AF-RamalFlorencia-LaFuente-Runta",
        "_segmentIndex": 0,
        "_position": 11
      },
      "geometry": {
        "type": "Point",
        "coordinates": [
          -73.36883271870717,
          5.52912994200705
        ]
      }
    },
    {
      "type": "Feature",
      "properties": {
        "_source": "Ruta8AF-RamalFlorencia-LaFuente-Runta",
        "_segmentIndex": 0,
        "_position": 12
      },
      "geometry": {
        "type": "Point",
        "coordinates": [
          -73.36891014507103,
          5.528687241613321
        ]
      }
    },
    {
      "type": "Feature",
      "properties": {
        "_source": "Ruta8AF-RamalFlorencia-LaFuente-Runta",
        "_segmentIndex": 0,
        "_position": 13
      },
      "geometry": {
        "type": "Point",
        "coordinates": [
          -73.36899552359326,
          5.528245686004372
        ]
      }
    },
    {
      "type": "Feature",
      "properties": {
        "_source": "Ruta8AF-RamalFlorencia-LaFuente-Runta",
        "_segmentIndex": 0,
        "_position": 14
      },
      "geometry": {
        "type": "Point",
        "coordinates": [
          -73.36907627436801,
          5.527803267882198
        ]
      }
    },
    {
      "type": "Feature",
      "properties": {
        "_source": "Ruta8AF-RamalFlorencia-LaFuente-Runta",
        "_segmentIndex": 0,
        "_position": 15
      },
      "geometry": {
        "type": "Point",
        "coordinates": [
          -73.36915714897899,
          5.52736087183305
        ]
      }
    },
    {
      "type": "Feature",
      "properties": {
        "_source": "Ruta8AF-RamalFlorencia-LaFuente-Runta",
        "_segmentIndex": 0,
        "_position": 0
      },
      "geometry": {
        "type": "Point",
        "coordinates": [
          -73.369219,
          5.527022
        ]
      }
    },
    {
      "type": "Feature",
      "properties": {
        "_source": "Ruta8AF-RamalFlorencia-LaFuente-Runta",
        "_segmentIndex": 0,
        "_position": 1
      },
      "geometry": {
        "type": "Point",
        "coordinates": [
          -73.36935336271678,
          5.526593164279509
        ]
      }
    },
    {
      "type": "Feature",
      "properties": {
        "_source": "Ruta8AF-RamalFlorencia-LaFuente-Runta",
        "_segmentIndex": 0,
        "_position": 2
      },
      "geometry": {
        "type": "Point",
        "coordinates": [
          -73.36950119033685,
          5.526168302093763
        ]
      }
    },
    {
      "type": "Feature",
      "properties": {
        "_source": "Ruta8AF-RamalFlorencia-LaFuente-Runta",
        "_segmentIndex": 0,
        "_position": 3
      },
      "geometry": {
        "type": "Point",
        "coordinates": [
          -73.36964325918531,
          5.5257414556523985
        ]
      }
    },
    {
      "type": "Feature",
      "properties": {
        "_source": "Ruta8AF-RamalFlorencia-LaFuente-Runta",
        "_segmentIndex": 0,
        "_position": 4
      },
      "geometry": {
        "type": "Point",
        "coordinates": [
          -73.36978872351834,
          5.525315752350791
        ]
      }
    },
    {
      "type": "Feature",
      "properties": {
        "_source": "Ruta8AF-RamalFlorencia-LaFuente-Runta",
        "_segmentIndex": 0,
        "_position": 5
      },
      "geometry": {
        "type": "Point",
        "coordinates": [
          -73.36993613272936,
          5.524890703835717
        ]
      }
    },
    {
      "type": "Feature",
      "properties": {
        "_source": "Ruta8AF-RamalFlorencia-LaFuente-Runta",
        "_segmentIndex": 0,
        "_position": 6
      },
      "geometry": {
        "type": "Point",
        "coordinates": [
          -73.37007649246146,
          5.524464762590463
        ]
      }
    },
    {
      "type": "Feature",
      "properties": {
        "_source": "Ruta8AF-RamalFlorencia-LaFuente-Runta",
        "_segmentIndex": 0,
        "_position": 7
      },
      "geometry": {
        "type": "Point",
        "coordinates": [
          -73.37013739358517,
          5.524022454687745
        ]
      }
    },
    {
      "type": "Feature",
      "properties": {
        "_source": "Ruta8AF-RamalFlorencia-LaFuente-Runta",
        "_segmentIndex": 0,
        "_position": 8
      },
      "geometry": {
        "type": "Point",
        "coordinates": [
          -73.37028864451024,
          5.5235988988855205
        ]
      }
    },
    {
      "type": "Feature",
      "properties": {
        "_source": "Ruta8AF-RamalFlorencia-LaFuente-Runta",
        "_segmentIndex": 0,
        "_position": 9
      },
      "geometry": {
        "type": "Point",
        "coordinates": [
          -73.37042324002392,
          5.523170314132539
        ]
      }
    },
    {
      "type": "Feature",
      "properties": {
        "_source": "Ruta8AF-RamalFlorencia-LaFuente-Runta",
        "_segmentIndex": 0,
        "_position": 10
      },
      "geometry": {
        "type": "Point",
        "coordinates": [
          -73.37036614955768,
          5.522724842366948
        ]
      }
    },
    {
      "type": "Feature",
      "properties": {
        "_source": "Ruta8AF-RamalFlorencia-LaFuente-Runta",
        "_segmentIndex": 0,
        "_position": 11
      },
      "geometry": {
        "type": "Point",
        "coordinates": [
          -73.37033298268274,
          5.522278098083082
        ]
      }
    },
    {
      "type": "Feature",
      "properties": {
        "_source": "Ruta8AF-RamalFlorencia-LaFuente-Runta",
        "_segmentIndex": 0,
        "_position": 12
      },
      "geometry": {
        "type": "Point",
        "coordinates": [
          -73.37038643296749,
          5.521831597028838
        ]
      }
    },
    {
      "type": "Feature",
      "properties": {
        "_source": "Ruta8AF-RamalFlorencia-LaFuente-Runta",
        "_segmentIndex": 0,
        "_position": 13
      },
      "geometry": {
        "type": "Point",
        "coordinates": [
          -73.3704406636515,
          5.521385197470732
        ]
      }
    },
    {
      "type": "Feature",
      "properties": {
        "_source": "Ruta8AF-RamalFlorencia-LaFuente-Runta",
        "_segmentIndex": 0,
        "_position": 14
      },
      "geometry": {
        "type": "Point",
        "coordinates": [
          -73.37050792638813,
          5.520940774056164
        ]
      }
    },
    {
      "type": "Feature",
      "properties": {
        "_source": "Ruta8AF-RamalFlorencia-LaFuente-Runta",
        "_segmentIndex": 0,
        "_position": 0
      },
      "geometry": {
        "type": "Point",
        "coordinates": [
          -73.370521,
          5.520628
        ]
      }
    },
    {
      "type": "Feature",
      "properties": {
        "_source": "Ruta8AF-RamalFlorencia-LaFuente-Runta",
        "_segmentIndex": 0,
        "_position": 1
      },
      "geometry": {
        "type": "Point",
        "coordinates": [
          -73.37007393198594,
          5.520563730938487
        ]
      }
    },
    {
      "type": "Feature",
      "properties": {
        "_source": "Ruta8AF-RamalFlorencia-LaFuente-Runta",
        "_segmentIndex": 0,
        "_position": 0
      },
      "geometry": {
        "type": "Point",
        "coordinates": [
          -73.369751,
          5.520483
        ]
      }
    },
    {
      "type": "Feature",
      "properties": {
        "_source": "Ruta8AF-RamalFlorencia-LaFuente-Runta",
        "_segmentIndex": 0,
        "_position": 1
      },
      "geometry": {
        "type": "Point",
        "coordinates": [
          -73.36979945179169,
          5.5200359339156595
        ]
      }
    },
    {
      "type": "Feature",
      "properties": {
        "_source": "Ruta8AF-RamalFlorencia-LaFuente-Runta",
        "_segmentIndex": 0,
        "_position": 2
      },
      "geometry": {
        "type": "Point",
        "coordinates": [
          -73.36985284014253,
          5.519589452134552
        ]
      }
    },
    {
      "type": "Feature",
      "properties": {
        "_source": "Ruta8AF-RamalFlorencia-LaFuente-Runta",
        "_segmentIndex": 0,
        "_position": 3
      },
      "geometry": {
        "type": "Point",
        "coordinates": [
          -73.3699112082372,
          5.519143565837757
        ]
      }
    },
    {
      "type": "Feature",
      "properties": {
        "_source": "Ruta8AF-RamalFlorencia-LaFuente-Runta",
        "_segmentIndex": 0,
        "_position": 4
      },
      "geometry": {
        "type": "Point",
        "coordinates": [
          -73.3699760417703,
          5.5186986838519525
        ]
      }
    },
    {
      "type": "Feature",
      "properties": {
        "_source": "Ruta8AF-RamalFlorencia-LaFuente-Runta",
        "_segmentIndex": 0,
        "_position": 5
      },
      "geometry": {
        "type": "Point",
        "coordinates": [
          -73.37004146183929,
          5.518253812617214
        ]
      }
    },
    {
      "type": "Feature",
      "properties": {
        "_source": "Ruta8AF-RamalFlorencia-LaFuente-Runta",
        "_segmentIndex": 0,
        "_position": 0
      },
      "geometry": {
        "type": "Point",
        "coordinates": [
          -73.370103,
          5.517842
        ]
      }
    },
    {
      "type": "Feature",
      "properties": {
        "_source": "Ruta8AF-RamalFlorencia-LaFuente-Runta",
        "_segmentIndex": 0,
        "_position": 1
      },
      "geometry": {
        "type": "Point",
        "coordinates": [
          -73.37029621201448,
          5.517445246032638
        ]
      }
    },
    {
      "type": "Feature",
      "properties": {
        "_source": "Ruta8AF-RamalFlorencia-LaFuente-Runta",
        "_segmentIndex": 0,
        "_position": 2
      },
      "geometry": {
        "type": "Point",
        "coordinates": [
          -73.37039912500029,
          5.517007409191974
        ]
      }
    },
    {
      "type": "Feature",
      "properties": {
        "_source": "Ruta8AF-RamalFlorencia-LaFuente-Runta",
        "_segmentIndex": 0,
        "_position": 3
      },
      "geometry": {
        "type": "Point",
        "coordinates": [
          -73.37049501141911,
          5.516568036418074
        ]
      }
    },
    {
      "type": "Feature",
      "properties": {
        "_source": "Ruta8AF-RamalFlorencia-LaFuente-Runta",
        "_segmentIndex": 0,
        "_position": 4
      },
      "geometry": {
        "type": "Point",
        "coordinates": [
          -73.37058663519466,
          5.51612772588648
        ]
      }
    },
    {
      "type": "Feature",
      "properties": {
        "_source": "Ruta8AF-RamalFlorencia-LaFuente-Runta",
        "_segmentIndex": 0,
        "_position": 5
      },
      "geometry": {
        "type": "Point",
        "coordinates": [
          -73.37068283213038,
          5.51568837872386
        ]
      }
    },
    {
      "type": "Feature",
      "properties": {
        "_source": "Ruta8AF-RamalFlorencia-LaFuente-Runta",
        "_segmentIndex": 0,
        "_position": 6
      },
      "geometry": {
        "type": "Point",
        "coordinates": [
          -73.37078339131949,
          5.515250007992146
        ]
      }
    },
    {
      "type": "Feature",
      "properties": {
        "_source": "Ruta8AF-RamalFlorencia-LaFuente-Runta",
        "_segmentIndex": 0,
        "_position": 7
      },
      "geometry": {
        "type": "Point",
        "coordinates": [
          -73.37090082438728,
          5.514815942133393
        ]
      }
    },
    {
      "type": "Feature",
      "properties": {
        "_source": "Ruta8AF-RamalFlorencia-LaFuente-Runta",
        "_segmentIndex": 0,
        "_position": 8
      },
      "geometry": {
        "type": "Point",
        "coordinates": [
          -73.37109897623267,
          5.514412754664919
        ]
      }
    },
    {
      "type": "Feature",
      "properties": {
        "_source": "Ruta8AF-RamalFlorencia-LaFuente-Runta",
        "_segmentIndex": 0,
        "_position": 9
      },
      "geometry": {
        "type": "Point",
        "coordinates": [
          -73.37130737334452,
          5.514014300393509
        ]
      }
    },
    {
      "type": "Feature",
      "properties": {
        "_source": "Ruta8AF-RamalFlorencia-LaFuente-Runta",
        "_segmentIndex": 0,
        "_position": 10
      },
      "geometry": {
        "type": "Point",
        "coordinates": [
          -73.37149833661803,
          5.51360681714679
        ]
      }
    },
    {
      "type": "Feature",
      "properties": {
        "_source": "Ruta8AF-RamalFlorencia-LaFuente-Runta",
        "_segmentIndex": 0,
        "_position": 0
      },
      "geometry": {
        "type": "Point",
        "coordinates": [
          -73.371553,
          5.513385
        ]
      }
    },
    {
      "type": "Feature",
      "properties": {
        "_source": "Ruta8AF-RamalFlorencia-LaFuente-Runta",
        "_segmentIndex": 0,
        "_position": 1
      },
      "geometry": {
        "type": "Point",
        "coordinates": [
          -73.37176410235712,
          5.51298745615919
        ]
      }
    },
    {
      "type": "Feature",
      "properties": {
        "_source": "Ruta8AF-RamalFlorencia-LaFuente-Runta",
        "_segmentIndex": 0,
        "_position": 2
      },
      "geometry": {
        "type": "Point",
        "coordinates": [
          -73.37196568004359,
          5.512585090140444
        ]
      }
    },
    {
      "type": "Feature",
      "properties": {
        "_source": "Ruta8AF-RamalFlorencia-LaFuente-Runta",
        "_segmentIndex": 0,
        "_position": 3
      },
      "geometry": {
        "type": "Point",
        "coordinates": [
          -73.37215952716993,
          5.512178955467093
        ]
      }
    },
    {
      "type": "Feature",
      "properties": {
        "_source": "Ruta8AF-RamalFlorencia-LaFuente-Runta",
        "_segmentIndex": 0,
        "_position": 4
      },
      "geometry": {
        "type": "Point",
        "coordinates": [
          -73.3723486042959,
          5.511770584498148
        ]
      }
    },
    {
      "type": "Feature",
      "properties": {
        "_source": "Ruta8AF-RamalFlorencia-LaFuente-Runta",
        "_segmentIndex": 0,
        "_position": 5
      },
      "geometry": {
        "type": "Point",
        "coordinates": [
          -73.37253270073118,
          5.511359956406697
        ]
      }
    },
    {
      "type": "Feature",
      "properties": {
        "_source": "Ruta8AF-RamalFlorencia-LaFuente-Runta",
        "_segmentIndex": 0,
        "_position": 6
      },
      "geometry": {
        "type": "Point",
        "coordinates": [
          -73.37271679691187,
          5.5109493282586985
        ]
      }
    },
    {
      "type": "Feature",
      "properties": {
        "_source": "Ruta8AF-RamalFlorencia-LaFuente-Runta",
        "_segmentIndex": 0,
        "_position": 7
      },
      "geometry": {
        "type": "Point",
        "coordinates": [
          -73.37290089283798,
          5.5105387000541555
        ]
      }
    },
    {
      "type": "Feature",
      "properties": {
        "_source": "Ruta8AF-RamalFlorencia-LaFuente-Runta",
        "_segmentIndex": 0,
        "_position": 8
      },
      "geometry": {
        "type": "Point",
        "coordinates": [
          -73.37307608419555,
          5.510124231486717
        ]
      }
    },
    {
      "type": "Feature",
      "properties": {
        "_source": "Ruta8AF-RamalFlorencia-LaFuente-Runta",
        "_segmentIndex": 0,
        "_position": 9
      },
      "geometry": {
        "type": "Point",
        "coordinates": [
          -73.37325117220975,
          5.509709718402983
        ]
      }
    },
    {
      "type": "Feature",
      "properties": {
        "_source": "Ruta8AF-RamalFlorencia-LaFuente-Runta",
        "_segmentIndex": 0,
        "_position": 10
      },
      "geometry": {
        "type": "Point",
        "coordinates": [
          -73.37345807656668,
          5.509310350005003
        ]
      }
    },
    {
      "type": "Feature",
      "properties": {
        "_source": "Ruta8AF-RamalFlorencia-LaFuente-Runta",
        "_segmentIndex": 0,
        "_position": 11
      },
      "geometry": {
        "type": "Point",
        "coordinates": [
          -73.37365882076801,
          5.508907848274147
        ]
      }
    },
    {
      "type": "Feature",
      "properties": {
        "_source": "Ruta8AF-RamalFlorencia-LaFuente-Runta",
        "_segmentIndex": 0,
        "_position": 12
      },
      "geometry": {
        "type": "Point",
        "coordinates": [
          -73.37384394211476,
          5.508497677361548
        ]
      }
    },
    {
      "type": "Feature",
      "properties": {
        "_source": "Ruta8AF-RamalFlorencia-LaFuente-Runta",
        "_segmentIndex": 0,
        "_position": 13
      },
      "geometry": {
        "type": "Point",
        "coordinates": [
          -73.3740792798338,
          5.508115533060844
        ]
      }
    },
    {
      "type": "Feature",
      "properties": {
        "_source": "Ruta8AF-RamalFlorencia-LaFuente-Runta",
        "_segmentIndex": 0,
        "_position": 14
      },
      "geometry": {
        "type": "Point",
        "coordinates": [
          -73.3743472942959,
          5.507753605455346
        ]
      }
    },
    {
      "type": "Feature",
      "properties": {
        "_source": "Ruta8AF-RamalFlorencia-LaFuente-Runta",
        "_segmentIndex": 0,
        "_position": 15
      },
      "geometry": {
        "type": "Point",
        "coordinates": [
          -73.37462032692284,
          5.50739536787639
        ]
      }
    },
    {
      "type": "Feature",
      "properties": {
        "_source": "Ruta8AF-RamalFlorencia-LaFuente-Runta",
        "_segmentIndex": 0,
        "_position": 16
      },
      "geometry": {
        "type": "Point",
        "coordinates": [
          -73.37487167304403,
          5.507023561966941
        ]
      }
    },
    {
      "type": "Feature",
      "properties": {
        "_source": "Ruta8AF-RamalFlorencia-LaFuente-Runta",
        "_segmentIndex": 0,
        "_position": 17
      },
      "geometry": {
        "type": "Point",
        "coordinates": [
          -73.37497939898458,
          5.506588724554303
        ]
      }
    },
    {
      "type": "Feature",
      "properties": {
        "_source": "Ruta8AF-RamalFlorencia-LaFuente-Runta",
        "_segmentIndex": 0,
        "_position": 18
      },
      "geometry": {
        "type": "Point",
        "coordinates": [
          -73.37505279068507,
          5.506145038254247
        ]
      }
    },
    {
      "type": "Feature",
      "properties": {
        "_source": "Ruta8AF-RamalFlorencia-LaFuente-Runta",
        "_segmentIndex": 0,
        "_position": 19
      },
      "geometry": {
        "type": "Point",
        "coordinates": [
          -73.37519136489529,
          5.505719687974776
        ]
      }
    },
    {
      "type": "Feature",
      "properties": {
        "_source": "Ruta8AF-RamalFlorencia-LaFuente-Runta",
        "_segmentIndex": 0,
        "_position": 20
      },
      "geometry": {
        "type": "Point",
        "coordinates": [
          -73.37544427239838,
          5.505348404956167
        ]
      }
    },
    {
      "type": "Feature",
      "properties": {
        "_source": "Ruta8AF-RamalFlorencia-LaFuente-Runta",
        "_segmentIndex": 0,
        "_position": 21
      },
      "geometry": {
        "type": "Point",
        "coordinates": [
          -73.37579007306996,
          5.505061805242512
        ]
      }
    },
    {
      "type": "Feature",
      "properties": {
        "_source": "Ruta8AF-RamalFlorencia-LaFuente-Runta",
        "_segmentIndex": 0,
        "_position": 22
      },
      "geometry": {
        "type": "Point",
        "coordinates": [
          -73.37618995456522,
          5.504852614744482
        ]
      }
    },
    {
      "type": "Feature",
      "properties": {
        "_source": "Ruta8AF-RamalFlorencia-LaFuente-Runta",
        "_segmentIndex": 0,
        "_position": 23
      },
      "geometry": {
        "type": "Point",
        "coordinates": [
          -73.37658997654992,
          5.5046437043304834
        ]
      }
    },
    {
      "type": "Feature",
      "properties": {
        "_source": "Ruta8AF-RamalFlorencia-LaFuente-Runta",
        "_segmentIndex": 0,
        "_position": 24
      },
      "geometry": {
        "type": "Point",
        "coordinates": [
          -73.37696536513887,
          5.5043983515702255
        ]
      }
    },
    {
      "type": "Feature",
      "properties": {
        "_source": "Ruta8AF-RamalFlorencia-LaFuente-Runta",
        "_segmentIndex": 0,
        "_position": 25
      },
      "geometry": {
        "type": "Point",
        "coordinates": [
          -73.37729490243414,
          5.504092281694488
        ]
      }
    },
    {
      "type": "Feature",
      "properties": {
        "_source": "Ruta8AF-RamalFlorencia-LaFuente-Runta",
        "_segmentIndex": 0,
        "_position": 26
      },
      "geometry": {
        "type": "Point",
        "coordinates": [
          -73.37753995297783,
          5.503715821237796
        ]
      }
    },
    {
      "type": "Feature",
      "properties": {
        "_source": "Ruta8AF-RamalFlorencia-LaFuente-Runta",
        "_segmentIndex": 0,
        "_position": 27
      },
      "geometry": {
        "type": "Point",
        "coordinates": [
          -73.3777492806802,
          5.503317351175906
        ]
      }
    },
    {
      "type": "Feature",
      "properties": {
        "_source": "Ruta8AF-RamalFlorencia-LaFuente-Runta",
        "_segmentIndex": 0,
        "_position": 28
      },
      "geometry": {
        "type": "Point",
        "coordinates": [
          -73.37795973994464,
          5.502919471128907
        ]
      }
    },
    {
      "type": "Feature",
      "properties": {
        "_source": "Ruta8AF-RamalFlorencia-LaFuente-Runta",
        "_segmentIndex": 0,
        "_position": 29
      },
      "geometry": {
        "type": "Point",
        "coordinates": [
          -73.37817019892748,
          5.502521591008116
        ]
      }
    },
    {
      "type": "Feature",
      "properties": {
        "_source": "Ruta8AF-RamalFlorencia-LaFuente-Runta",
        "_segmentIndex": 0,
        "_position": 30
      },
      "geometry": {
        "type": "Point",
        "coordinates": [
          -73.37838065762874,
          5.502123710813538
        ]
      }
    },
    {
      "type": "Feature",
      "properties": {
        "_source": "Ruta8AF-RamalFlorencia-LaFuente-Runta",
        "_segmentIndex": 0,
        "_position": 31
      },
      "geometry": {
        "type": "Point",
        "coordinates": [
          -73.37858963433285,
          5.501725073581247
        ]
      }
    },
    {
      "type": "Feature",
      "properties": {
        "_source": "Ruta8AF-RamalFlorencia-LaFuente-Runta",
        "_segmentIndex": 0,
        "_position": 32
      },
      "geometry": {
        "type": "Point",
        "coordinates": [
          -73.378791690737,
          5.501322901046769
        ]
      }
    },
    {
      "type": "Feature",
      "properties": {
        "_source": "Ruta8AF-RamalFlorencia-LaFuente-Runta",
        "_segmentIndex": 0,
        "_position": 33
      },
      "geometry": {
        "type": "Point",
        "coordinates": [
          -73.37899374686798,
          5.500920728444292
        ]
      }
    },
    {
      "type": "Feature",
      "properties": {
        "_source": "Ruta8AF-RamalFlorencia-LaFuente-Runta",
        "_segmentIndex": 0,
        "_position": 34
      },
      "geometry": {
        "type": "Point",
        "coordinates": [
          -73.37919931426829,
          5.500520545653206
        ]
      }
    },
    {
      "type": "Feature",
      "properties": {
        "_source": "Ruta8AF-RamalFlorencia-LaFuente-Runta",
        "_segmentIndex": 0,
        "_position": 35
      },
      "geometry": {
        "type": "Point",
        "coordinates": [
          -73.37947174483442,
          5.500163261031409
        ]
      }
    },
    {
      "type": "Feature",
      "properties": {
        "_source": "Ruta8AF-RamalFlorencia-LaFuente-Runta",
        "_segmentIndex": 0,
        "_position": 36
      },
      "geometry": {
        "type": "Point",
        "coordinates": [
          -73.37980198977382,
          5.499857039168995
        ]
      }
    },
    {
      "type": "Feature",
      "properties": {
        "_source": "Ruta8AF-RamalFlorencia-LaFuente-Runta",
        "_segmentIndex": 0,
        "_position": 37
      },
      "geometry": {
        "type": "Point",
        "coordinates": [
          -73.38014230048283,
          5.499561325322628
        ]
      }
    },
    {
      "type": "Feature",
      "properties": {
        "_source": "Ruta8AF-RamalFlorencia-LaFuente-Runta",
        "_segmentIndex": 0,
        "_position": 38
      },
      "geometry": {
        "type": "Point",
        "coordinates": [
          -73.38048261085363,
          5.499265611283438
        ]
      }
    },
    {
      "type": "Feature",
      "properties": {
        "_source": "Ruta8AF-RamalFlorencia-LaFuente-Runta",
        "_segmentIndex": 0,
        "_position": 39
      },
      "geometry": {
        "type": "Point",
        "coordinates": [
          -73.38081909253714,
          5.498965773914048
        ]
      }
    },
    {
      "type": "Feature",
      "properties": {
        "_source": "Ruta8AF-RamalFlorencia-LaFuente-Runta",
        "_segmentIndex": 0,
        "_position": 40
      },
      "geometry": {
        "type": "Point",
        "coordinates": [
          -73.38114201288523,
          5.498651331152344
        ]
      }
    },
    {
      "type": "Feature",
      "properties": {
        "_source": "Ruta8AF-RamalFlorencia-LaFuente-Runta",
        "_segmentIndex": 0,
        "_position": 41
      },
      "geometry": {
        "type": "Point",
        "coordinates": [
          -73.38142583848398,
          5.498302448970581
        ]
      }
    },
    {
      "type": "Feature",
      "properties": {
        "_source": "Ruta8AF-RamalFlorencia-LaFuente-Runta",
        "_segmentIndex": 0,
        "_position": 42
      },
      "geometry": {
        "type": "Point",
        "coordinates": [
          -73.3816425801119,
          5.4979084512172784
        ]
      }
    },
    {
      "type": "Feature",
      "properties": {
        "_source": "Ruta8AF-RamalFlorencia-LaFuente-Runta",
        "_segmentIndex": 0,
        "_position": 43
      },
      "geometry": {
        "type": "Point",
        "coordinates": [
          -73.38176296780858,
          5.497475331408767
        ]
      }
    },
    {
      "type": "Feature",
      "properties": {
        "_source": "Ruta8AF-RamalFlorencia-LaFuente-Runta",
        "_segmentIndex": 0,
        "_position": 44
      },
      "geometry": {
        "type": "Point",
        "coordinates": [
          -73.381797,
          5.497028529261699
        ]
      }
    },
    {
      "type": "Feature",
      "properties": {
        "_source": "Ruta8AF-RamalFlorencia-LaFuente-Runta",
        "_segmentIndex": 0,
        "_position": 45
      },
      "geometry": {
        "type": "Point",
        "coordinates": [
          -73.3818061885658,
          5.4965791001515525
        ]
      }
    },
    {
      "type": "Feature",
      "properties": {
        "_source": "Ruta8AF-RamalFlorencia-LaFuente-Runta",
        "_segmentIndex": 0,
        "_position": 46
      },
      "geometry": {
        "type": "Point",
        "coordinates": [
          -73.38184373190958,
          5.496131128118044
        ]
      }
    },
    {
      "type": "Feature",
      "properties": {
        "_source": "Ruta8AF-RamalFlorencia-LaFuente-Runta",
        "_segmentIndex": 0,
        "_position": 47
      },
      "geometry": {
        "type": "Point",
        "coordinates": [
          -73.38194707515247,
          5.4956940057712185
        ]
      }
    },
    {
      "type": "Feature",
      "properties": {
        "_source": "Ruta8AF-RamalFlorencia-LaFuente-Runta",
        "_segmentIndex": 0,
        "_position": 48
      },
      "geometry": {
        "type": "Point",
        "coordinates": [
          -73.382150042748,
          5.495293788895512
        ]
      }
    },
    {
      "type": "Feature",
      "properties": {
        "_source": "Ruta8AF-RamalFlorencia-LaFuente-Runta",
        "_segmentIndex": 0,
        "_position": 49
      },
      "geometry": {
        "type": "Point",
        "coordinates": [
          -73.38243939377038,
          5.494949616954764
        ]
      }
    },
    {
      "type": "Feature",
      "properties": {
        "_source": "Ruta8AF-RamalFlorencia-LaFuente-Runta",
        "_segmentIndex": 0,
        "_position": 50
      },
      "geometry": {
        "type": "Point",
        "coordinates": [
          -73.38279719889285,
          5.494676876214221
        ]
      }
    },
    {
      "type": "Feature",
      "properties": {
        "_source": "Ruta8AF-RamalFlorencia-LaFuente-Runta",
        "_segmentIndex": 0,
        "_position": 51
      },
      "geometry": {
        "type": "Point",
        "coordinates": [
          -73.38319311729869,
          5.494460386666338
        ]
      }
    },
    {
      "type": "Feature",
      "properties": {
        "_source": "Ruta8AF-RamalFlorencia-LaFuente-Runta",
        "_segmentIndex": 0,
        "_position": 52
      },
      "geometry": {
        "type": "Point",
        "coordinates": [
          -73.38359369120455,
          5.494252721224572
        ]
      }
    },
    {
      "type": "Feature",
      "properties": {
        "_source": "Ruta8AF-RamalFlorencia-LaFuente-Runta",
        "_segmentIndex": 0,
        "_position": 53
      },
      "geometry": {
        "type": "Point",
        "coordinates": [
          -73.38399816151798,
          5.494052477067509
        ]
      }
    },
    {
      "type": "Feature",
      "properties": {
        "_source": "Ruta8AF-RamalFlorencia-LaFuente-Runta",
        "_segmentIndex": 0,
        "_position": 54
      },
      "geometry": {
        "type": "Point",
        "coordinates": [
          -73.38437792814855,
          5.4938103883294325
        ]
      }
    },
    {
      "type": "Feature",
      "properties": {
        "_source": "Ruta8AF-RamalFlorencia-LaFuente-Runta",
        "_segmentIndex": 0,
        "_position": 55
      },
      "geometry": {
        "type": "Point",
        "coordinates": [
          -73.38474423048267,
          5.493548712685703
        ]
      }
    },
    {
      "type": "Feature",
      "properties": {
        "_source": "Ruta8AF-RamalFlorencia-LaFuente-Runta",
        "_segmentIndex": 0,
        "_position": 56
      },
      "geometry": {
        "type": "Point",
        "coordinates": [
          -73.3850379509829,
          5.493209576704368
        ]
      }
    },
    {
      "type": "Feature",
      "properties": {
        "_source": "Ruta8AF-RamalFlorencia-LaFuente-Runta",
        "_segmentIndex": 0,
        "_position": 57
      },
      "geometry": {
        "type": "Point",
        "coordinates": [
          -73.38525842526138,
          5.4928176743905555
        ]
      }
    },
    {
      "type": "Feature",
      "properties": {
        "_source": "Ruta8AF-RamalFlorencia-LaFuente-Runta",
        "_segmentIndex": 0,
        "_position": 58
      },
      "geometry": {
        "type": "Point",
        "coordinates": [
          -73.38538775615856,
          5.492386863541488
        ]
      }
    },
    {
      "type": "Feature",
      "properties": {
        "_source": "Ruta8AF-RamalFlorencia-LaFuente-Runta",
        "_segmentIndex": 0,
        "_position": 59
      },
      "geometry": {
        "type": "Point",
        "coordinates": [
          -73.3854347153715,
          5.49194518416409
        ]
      }
    },
    {
      "type": "Feature",
      "properties": {
        "_source": "Ruta8AF-RamalFlorencia-LaFuente-Runta",
        "_segmentIndex": 0,
        "_position": 60
      },
      "geometry": {
        "type": "Point",
        "coordinates": [
          -73.38537157333263,
          5.491499964442394
        ]
      }
    },
    {
      "type": "Feature",
      "properties": {
        "_source": "Ruta8AF-RamalFlorencia-LaFuente-Runta",
        "_segmentIndex": 0,
        "_position": 61
      },
      "geometry": {
        "type": "Point",
        "coordinates": [
          -73.38493392811377,
          5.4914488928137795
        ]
      }
    },
    {
      "type": "Feature",
      "properties": {
        "_source": "Ruta8AF-RamalFlorencia-LaFuente-Runta",
        "_segmentIndex": 0,
        "_position": 62
      },
      "geometry": {
        "type": "Point",
        "coordinates": [
          -73.38450301645568,
          5.4915638376247395
        ]
      }
    },
    {
      "type": "Feature",
      "properties": {
        "_source": "Ruta8AF-RamalFlorencia-LaFuente-Runta",
        "_segmentIndex": 0,
        "_position": 63
      },
      "geometry": {
        "type": "Point",
        "coordinates": [
          -73.38405612014363,
          5.49160298558227
        ]
      }
    },
    {
      "type": "Feature",
      "properties": {
        "_source": "Ruta8AF-RamalFlorencia-LaFuente-Runta",
        "_segmentIndex": 0,
        "_position": 64
      },
      "geometry": {
        "type": "Point",
        "coordinates": [
          -73.38360709399691,
          5.491556325028894
        ]
      }
    }
  ]
}