{
  "type": "FeatureCollection",
  "features": [
    {
      "type": "Feature",
      "properties": {
        "_source": "Ruta17-Asis-AvenidaNorte-Altamira",
        "_segmentIndex": 0,
        "_position": 0
      },
      "geometry": {
        "type": "Point",
        "coordinates": [
          -73.34801,
          5.571354
        ]
      }
    },
    {
      "type": "Feature",
      "properties": {
        "_source": "Ruta17-Asis-AvenidaNorte-Altamira",
        "_segmentIndex": 0,
        "_position": 1
      },
      "geometry": {
        "type": "Point",
        "coordinates": [
          -73.34818238342147,
          5.571015044914637
        ]
      }
    },
    {
      "type": "Feature",
      "properties": {
        "_source": "Ruta17-Asis-AvenidaNorte-Altamira",
        "_segmentIndex": 0,
        "_position": 2
      },
      "geometry": {
        "type": "Point",
        "coordinates": [
          -73.34784261788168,
          5.570719582610769
        ]
      }
    },
    {
      "type": "Feature",
      "properties": {
        "_source": "Ruta17-Asis-AvenidaNorte-Altamira",
        "_segmentIndex": 0,
        "_position": 3
      },
      "geometry": {
        "type": "Point",
        "coordinates": [
          -73.34747799081583,
          5.570454180094428
        ]
      }
    },
    {
      "type": "Feature",
      "properties": {
        "_source": "Ruta17-Asis-AvenidaNorte-Altamira",
        "_segmentIndex": 0,
        "_position": 4
      },
      "geometry": {
        "type": "Point",
        "coordinates": [
          -73.3470974667026,
          5.5702123136258495
        ]
      }
    },
    {
      "type": "Feature",
      "properties": {
        "_source": "Ruta17-Asis-AvenidaNorte-Altamira",
        "_segmentIndex": 0,
        "_position": 5
      },
      "geometry": {
        "type": "Point",
        "coordinates": [
          -73.34672635649,
          5.569956319728136
        ]
      }
    },
    {
      "type": "Feature",
      "properties": {
        "_source": "Ruta17-Asis-AvenidaNorte-Altamira",
        "_segmentIndex": 0,
        "_position": 0
      },
      "geometry": {
        "type": "Point",
        "coordinates": [
          -73.346449,
          5.569758
        ]
      }
    },
    {
      "type": "Feature",
      "properties": {
        "_source": "Ruta17-Asis-AvenidaNorte-Altamira",
        "_segmentIndex": 0,
        "_position": 1
      },
      "geometry": {
        "type": "Point",
        "coordinates": [
          -73.34671421030396,
          5.569395344398306
        ]
      }
    },
    {
      "type": "Feature",
      "properties": {
        "_source": "Ruta17-Asis-AvenidaNorte-Altamira",
        "_segmentIndex": 0,
        "_position": 2
      },
      "geometry": {
        "type": "Point",
        "coordinates": [
          -73.34697147329318,
          5.569025973581967
        ]
      }
    },
    {
      "type": "Feature",
      "properties": {
        "_source": "Ruta17-Asis-AvenidaNorte-Altamira",
        "_segmentIndex": 0,
        "_position": 3
      },
      "geometry": {
        "type": "Point",
        "coordinates": [
          -73.3472311579406,
          5.568658842061475
        ]
      }
    },
    {
      "type": "Feature",
      "properties": {
        "_source": "Ruta17-Asis-AvenidaNorte-Altamira",
        "_segmentIndex": 0,
        "_position": 4
      },
      "geometry": {
        "type": "Point",
        "coordinates": [
          -73.34756735731064,
          5.568365430358565
        ]
      }
    },
    {
      "type": "Feature",
      "properties": {
        "_source": "Ruta17-Asis-AvenidaNorte-Altamira",
        "_segmentIndex": 0,
        "_position": 5
      },
      "geometry": {
        "type": "Point",
        "coordinates": [
          -73.34774484244757,
          5.567953074205511
        ]
      }
    },
    {
      "type": "Feature",
      "properties": {
        "_source": "Ruta17-Asis-AvenidaNorte-Altamira",
        "_segmentIndex": 0,
        "_position": 6
      },
      "geometry": {
        "type": "Point",
        "coordinates": [
          -73.34790477850729,
          5.567533328956653
        ]
      }
    },
    {
      "type": "Feature",
      "properties": {
        "_source": "Ruta17-Asis-AvenidaNorte-Altamira",
        "_segmentIndex": 0,
        "_position": 0
      },
      "geometry": {
        "type": "Point",
        "coordinates": [
          -73.34787,
          5.567515
        ]
      }
    },
    {
      "type": "Feature",
      "properties": {
        "_source": "Ruta17-Asis-AvenidaNorte-Altamira",
        "_segmentIndex": 0,
        "_position": 1
      },
      "geometry": {
        "type": "Point",
        "coordinates": [
          -73.34745327908675,
          5.567341460537214
        ]
      }
    },
    {
      "type": "Feature",
      "properties": {
        "_source": "Ruta17-Asis-AvenidaNorte-Altamira",
        "_segmentIndex": 0,
        "_position": 2
      },
      "geometry": {
        "type": "Point",
        "coordinates": [
          -73.34704119219829,
          5.567157388260682
        ]
      }
    },
    {
      "type": "Feature",
      "properties": {
        "_source": "Ruta17-Asis-AvenidaNorte-Altamira",
        "_segmentIndex": 0,
        "_position": 3
      },
      "geometry": {
        "type": "Point",
        "coordinates": [
          -73.34663759697537,
          5.566956086809099
        ]
      }
    },
    {
      "type": "Feature",
      "properties": {
        "_source": "Ruta17-Asis-AvenidaNorte-Altamira",
        "_segmentIndex": 0,
        "_position": 4
      },
      "geometry": {
        "type": "Point",
        "coordinates": [
          -73.3462208807723,
          5.566782478607527
        ]
      }
    },
    {
      "type": "Feature",
      "properties": {
        "_source": "Ruta17-Asis-AvenidaNorte-Altamira",
        "_segmentIndex": 0,
        "_position": 5
      },
      "geometry": {
        "type": "Point",
        "coordinates": [
          -73.34579090227408,
          5.566836590790623
        ]
      }
    },
    {
      "type": "Feature",
      "properties": {
        "_source": "Ruta17-Asis-AvenidaNorte-Altamira",
        "_segmentIndex": 0,
        "_position": 0
      },
      "geometry": {
        "type": "Point",
        "coordinates": [
          -73.345662,
          5.566835
        ]
      }
    },
    {
      "type": "Feature",
      "properties": {
        "_source": "Ruta17-Asis-AvenidaNorte-Altamira",
        "_segmentIndex": 0,
        "_position": 1
      },
      "geometry": {
        "type": "Point",
        "coordinates": [
          -73.34586816899035,
          5.566436372077982
        ]
      }
    },
    {
      "type": "Feature",
      "properties": {
        "_source": "Ruta17-Asis-AvenidaNorte-Altamira",
        "_segmentIndex": 0,
        "_position": 2
      },
      "geometry": {
        "type": "Point",
        "coordinates": [
          -73.34606405136485,
          5.56603117931103
        ]
      }
    },
    {
      "type": "Feature",
      "properties": {
        "_source": "Ruta17-Asis-AvenidaNorte-Altamira",
        "_segmentIndex": 0,
        "_position": 3
      },
      "geometry": {
        "type": "Point",
        "coordinates": [
          -73.34626288879677,
          5.565627409735258
        ]
      }
    },
    {
      "type": "Feature",
      "properties": {
        "_source": "Ruta17-Asis-AvenidaNorte-Altamira",
        "_segmentIndex": 0,
        "_position": 4
      },
      "geometry": {
        "type": "Point",
        "coordinates": [
          -73.34644139306491,
          5.565214354676207
        ]
      }
    },
    {
      "type": "Feature",
      "properties": {
        "_source": "Ruta17-Asis-AvenidaNorte-Altamira",
        "_segmentIndex": 0,
        "_position": 5
      },
      "geometry": {
        "type": "Point",
        "coordinates": [
          -73.34663323610852,
          5.564807265441719
        ]
      }
    },
    {
      "type": "Feature",
      "properties": {
        "_source": "Ruta17-Asis-AvenidaNorte-Altamira",
        "_segmentIndex": 0,
        "_position": 6
      },
      "geometry": {
        "type": "Point",
        "coordinates": [
          -73.34681940664328,
          5.5643975573662425
        ]
      }
    },
    {
      "type": "Feature",
      "properties": {
        "_source": "Ruta17-Asis-AvenidaNorte-Altamira",
        "_segmentIndex": 0,
        "_position": 7
      },
      "geometry": {
        "type": "Point",
        "coordinates": [
          -73.34700557691865,
          5.563987849232387
        ]
      }
    },
    {
      "type": "Feature",
      "properties": {
        "_source": "Ruta17-Asis-AvenidaNorte-Altamira",
        "_segmentIndex": 0,
        "_position": 8
      },
      "geometry": {
        "type": "Point",
        "coordinates": [
          -73.3471922983649,
          5.563578393063326
        ]
      }
    },
    {
      "type": "Feature",
      "properties": {
        "_source": "Ruta17-Asis-AvenidaNorte-Altamira",
        "_segmentIndex": 0,
        "_position": 9
      },
      "geometry": {
        "type": "Point",
        "coordinates": [
          -73.34738318877083,
          5.563170842316421
        ]
      }
    },
    {
      "type": "Feature",
      "properties": {
        "_source": "Ruta17-Asis-AvenidaNorte-Altamira",
        "_segmentIndex": 0,
        "_position": 10
      },
      "geometry": {
        "type": "Point",
        "coordinates": [
          -73.34757394655414,
          5.562763231300866
        ]
      }
    },
    {
      "type": "Feature",
      "properties": {
        "_source": "Ruta17-Asis-AvenidaNorte-Altamira",
        "_segmentIndex": 0,
        "_position": 11
      },
      "geometry": {
        "type": "Point",
        "coordinates": [
          -73.34775864217427,
          5.562352862777658
        ]
      }
    },
    {
      "type": "Feature",
      "properties": {
        "_source": "Ruta17-Asis-AvenidaNorte-Altamira",
        "_segmentIndex": 0,
        "_position": 12
      },
      "geometry": {
        "type": "Point",
        "coordinates": [
          -73.34794526240087,
          5.561943368393846
        ]
      }
    },
    {
      "type": "Feature",
      "properties": {
        "_source": "Ruta17-Asis-AvenidaNorte-Altamira",
        "_segmentIndex": 0,
        "_position": 13
      },
      "geometry": {
        "type": "Point",
        "coordinates": [
          -73.348135660539,
          5.561535589846518
        ]
      }
    },
    {
      "type": "Feature",
      "properties": {
        "_source": "Ruta17-Asis-AvenidaNorte-Altamira",
        "_segmentIndex": 0,
        "_position": 14
      },
      "geometry": {
        "type": "Point",
        "coordinates": [
          -73.34832605841325,
          5.56112781123816
        ]
      }
    },
    {
      "type": "Feature",
      "properties": {
        "_source": "Ruta17-Asis-AvenidaNorte-Altamira",
        "_segmentIndex": 0,
        "_position": 15
      },
      "geometry": {
        "type": "Point",
        "coordinates": [
          -73.34851949615312,
          5.560721458144074
        ]
      }
    },
    {
      "type": "Feature",
      "properties": {
        "_source": "Ruta17-Asis-AvenidaNorte-Altamira",
        "_segmentIndex": 0,
        "_position": 16
      },
      "geometry": {
        "type": "Point",
        "coordinates": [
          -73.34871497101543,
          5.56031606744252
        ]
      }
    },
    {
      "type": "Feature",
      "properties": {
        "_source": "Ruta17-Asis-AvenidaNorte-Altamira",
        "_segmentIndex": 0,
        "_position": 17
      },
      "geometry": {
        "type": "Point",
        "coordinates": [
          -73.3489115029424,
          5.559911182177101
        ]
      }
    },
    {
      "type": "Feature",
      "properties": {
        "_source": "Ruta17-Asis-AvenidaNorte-Altamira",
        "_segmentIndex": 0,
        "_position": 18
      },
      "geometry": {
        "type": "Point",
        "coordinates": [
          -73.349106550813,
          5.559505591813398
        ]
      }
    },
    {
      "type": "Feature",
      "properties": {
        "_source": "Ruta17-Asis-AvenidaNorte-Altamira",
        "_segmentIndex": 0,
        "_position": 19
      },
      "geometry": {
        "type": "Point",
        "coordinates": [
          -73.34929813816737,
          5.559098368746577
        ]
      }
    },
    {
      "type": "Feature",
      "properties": {
        "_source": "Ruta17-Asis-AvenidaNorte-Altamira",
        "_segmentIndex": 0,
        "_position": 20
      },
      "geometry": {
        "type": "Point",
        "coordinates": [
          -73.34948799481862,
          5.558690340601292
        ]
      }
    },
    {
      "type": "Feature",
      "properties": {
        "_source": "Ruta17-Asis-AvenidaNorte-Altamira",
        "_segmentIndex": 0,
        "_position": 21
      },
      "geometry": {
        "type": "Point",
        "coordinates": [
          -73.34967785120668,
          5.558282312395356
        ]
      }
    },
    {
      "type": "Feature",
      "properties": {
        "_source": "Ruta17-Asis-AvenidaNorte-Altamira",
        "_segmentIndex": 0,
        "_position": 22
      },
      "geometry": {
        "type": "Point",
        "coordinates": [
          -73.34986001085323,
          5.557870869898986
        ]
      }
    },
    {
      "type": "Feature",
      "properties": {
        "_source": "Ruta17-Asis-AvenidaNorte-Altamira",
        "_segmentIndex": 0,
        "_position": 23
      },
      "geometry": {
        "type": "Point",
        "coordinates": [
          -73.350037958528,
          5.557457558989823
        ]
      }
    },
    {
      "type": "Feature",
      "properties": {
        "_source": "Ruta17-Asis-AvenidaNorte-Altamira",
        "_segmentIndex": 0,
        "_position": 24
      },
      "geometry": {
        "type": "Point",
        "coordinates": [
          -73.35021782452803,
          5.557045094001656
        ]
      }
    },
    {
      "type": "Feature",
      "properties": {
        "_source": "Ruta17-Asis-AvenidaNorte-Altamira",
        "_segmentIndex": 0,
        "_position": 25
      },
      "geometry": {
        "type": "Point",
        "coordinates": [
          -73.3504058408811,
          5.556636222876814
        ]
      }
    },
    {
      "type": "Feature",
      "properties": {
        "_source": "Ruta17-Asis-AvenidaNorte-Altamira",
        "_segmentIndex": 0,
        "_position": 26
      },
      "geometry": {
        "type": "Point",
        "coordinates": [
          -73.35059409821719,
          5.556227461720414
        ]
      }
    },
    {
      "type": "Feature",
      "properties": {
        "_source": "Ruta17-Asis-AvenidaNorte-Altamira",
        "_segmentIndex": 0,
        "_position": 27
      },
      "geometry": {
        "type": "Point",
        "coordinates": [
          -73.35078249248019,
          5.555818763073942
        ]
      }
    },
    {
      "type": "Feature",
      "properties": {
        "_source": "Ruta17-Asis-AvenidaNorte-Altamira",
        "_segmentIndex": 0,
        "_position": 28
      },
      "geometry": {
        "type": "Point",
        "coordinates": [
          -73.35097088648176,
          5.555410064367779
        ]
      }
    },
    {
      "type": "Feature",
      "properties": {
        "_source": "Ruta17-Asis-AvenidaNorte-Altamira",
        "_segmentIndex": 0,
        "_position": 29
      },
      "geometry": {
        "type": "Point",
        "coordinates": [
          -73.351156286205,
          5.555000032870126
        ]
      }
    },
    {
      "type": "Feature",
      "properties": {
        "_source": "Ruta17-Asis-AvenidaNorte-Altamira",
        "_segmentIndex": 0,
        "_position": 30
      },
      "geometry": {
        "type": "Point",
        "coordinates": [
          -73.35133676650179,
          5.554587811637215
        ]
      }
    },
    {
      "type": "Feature",
      "properties": {
        "_source": "Ruta17-Asis-AvenidaNorte-Altamira",
        "_segmentIndex": 0,
        "_position": 31
      },
      "geometry": {
        "type": "Point",
        "coordinates": [
          -73.35149939672301,
          5.554168725116209
        ]
      }
    },
    {
      "type": "Feature",
      "properties": {
        "_source": "Ruta17-Asis-AvenidaNorte-Altamira",
        "_segmentIndex": 0,
        "_position": 32
      },
      "geometry": {
        "type": "Point",
        "coordinates": [
          -73.35163633535703,
          5.553740218709389
        ]
      }
    },
    {
      "type": "Feature",
      "properties": {
        "_source": "Ruta17-Asis-AvenidaNorte-Altamira",
        "_segmentIndex": 0,
        "_position": 33
      },
      "geometry": {
        "type": "Point",
        "coordinates": [
          -73.35177303530575,
          5.553311636906718
        ]
      }
    },
    {
      "type": "Feature",
      "properties": {
        "_source": "Ruta17-Asis-AvenidaNorte-Altamira",
        "_segmentIndex": 0,
        "_position": 34
      },
      "geometry": {
        "type": "Point",
        "coordinates": [
          -73.351909527845,
          5.552882989591713
        ]
      }
    },
    {
      "type": "Feature",
      "properties": {
        "_source": "Ruta17-Asis-AvenidaNorte-Altamira",
        "_segmentIndex": 0,
        "_position": 35
      },
      "geometry": {
        "type": "Point",
        "coordinates": [
          -73.35204602018568,
          5.552454342245392
        ]
      }
    },
    {
      "type": "Feature",
      "properties": {
        "_source": "Ruta17-Asis-AvenidaNorte-Altamira",
        "_segmentIndex": 0,
        "_position": 36
      },
      "geometry": {
        "type": "Point",
        "coordinates": [
          -73.35218251232781,
          5.552025694867756
        ]
      }
    },
    {
      "type": "Feature",
      "properties": {
        "_source": "Ruta17-Asis-AvenidaNorte-Altamira",
        "_segmentIndex": 0,
        "_position": 37
      },
      "geometry": {
        "type": "Point",
        "coordinates": [
          -73.3523322932304,
          5.551601616996635
        ]
      }
    },
    {
      "type": "Feature",
      "properties": {
        "_source": "Ruta17-Asis-AvenidaNorte-Altamira",
        "_segmentIndex": 0,
        "_position": 38
      },
      "geometry": {
        "type": "Point",
        "coordinates": [
          -73.35255340316412,
          5.551211441856049
        ]
      }
    },
    {
      "type": "Feature",
      "properties": {
        "_source": "Ruta17-Asis-AvenidaNorte-Altamira",
        "_segmentIndex": 0,
        "_position": 39
      },
      "geometry": {
        "type": "Point",
        "coordinates": [
          -73.3528176728513,
          5.550846784130661
        ]
      }
    },
    {
      "type": "Feature",
      "properties": {
        "_source": "Ruta17-Asis-AvenidaNorte-Altamira",
        "_segmentIndex": 0,
        "_position": 40
      },
      "geometry": {
        "type": "Point",
        "coordinates": [
          -73.35311834538288,
          5.550511171075328
        ]
      }
    },
    {
      "type": "Feature",
      "properties": {
        "_source": "Ruta17-Asis-AvenidaNorte-Altamira",
        "_segmentIndex": 0,
        "_position": 41
      },
      "geometry": {
        "type": "Point",
        "coordinates": [
          -73.35340564800464,
          5.550164184228407
        ]
      }
    },
    {
      "type": "Feature",
      "properties": {
        "_source": "Ruta17-Asis-AvenidaNorte-Altamira",
        "_segmentIndex": 0,
        "_position": 42
      },
      "geometry": {
        "type": "Point",
        "coordinates": [
          -73.35369191267388,
          5.549816314533036
        ]
      }
    },
    {
      "type": "Feature",
      "properties": {
        "_source": "Ruta17-Asis-AvenidaNorte-Altamira",
        "_segmentIndex": 0,
        "_position": 43
      },
      "geometry": {
        "type": "Point",
        "coordinates": [
          -73.35397817700536,
          5.549468444699994
        ]
      }
    },
    {
      "type": "Feature",
      "properties": {
        "_source": "Ruta17-Asis-AvenidaNorte-Altamira",
        "_segmentIndex": 0,
        "_position": 44
      },
      "geometry": {
        "type": "Point",
        "coordinates": [
          -73.35426322869111,
          5.549119591677495
        ]
      }
    },
    {
      "type": "Feature",
      "properties": {
        "_source": "Ruta17-Asis-AvenidaNorte-Altamira",
        "_segmentIndex": 0,
        "_position": 45
      },
      "geometry": {
        "type": "Point",
        "coordinates": [
          -73.35453890657979,
          5.548763458336238
        ]
      }
    },
    {
      "type": "Feature",
      "properties": {
        "_source": "Ruta17-Asis-AvenidaNorte-Altamira",
        "_segmentIndex": 0,
        "_position": 46
      },
      "geometry": {
        "type": "Point",
        "coordinates": [
          -73.35480915797785,
          5.54840312340016
        ]
      }
    },
    {
      "type": "Feature",
      "properties": {
        "_source": "Ruta17-Asis-AvenidaNorte-Altamira",
        "_segmentIndex": 0,
        "_position": 47
      },
      "geometry": {
        "type": "Point",
        "coordinates": [
          -73.35507940904571,
          5.548042788341411
        ]
      }
    },
    {
      "type": "Feature",
      "properties": {
        "_source": "Ruta17-Asis-AvenidaNorte-Altamira",
        "_segmentIndex": 0,
        "_position": 48
      },
      "geometry": {
        "type": "Point",
        "coordinates": [
          -73.3553447088987,
          5.547678887809717
        ]
      }
    },
    {
      "type": "Feature",
      "properties": {
        "_source": "Ruta17-Asis-AvenidaNorte-Altamira",
        "_segmentIndex": 0,
        "_position": 49
      },
      "geometry": {
        "type": "Point",
        "coordinates": [
          -73.35560710805191,
          5.547312878024498
        ]
      }
    },
    {
      "type": "Feature",
      "properties": {
        "_source": "Ruta17-Asis-AvenidaNorte-Altamira",
        "_segmentIndex": 0,
        "_position": 50
      },
      "geometry": {
        "type": "Point",
        "coordinates": [
          -73.35587414291962,
          5.546950175723332
        ]
      }
    },
    {
      "type": "Feature",
      "properties": {
        "_source": "Ruta17-Asis-AvenidaNorte-Altamira",
        "_segmentIndex": 0,
        "_position": 51
      },
      "geometry": {
        "type": "Point",
        "coordinates": [
          -73.356141177459,
          5.546587473302428
        ]
      }
    },
    {
      "type": "Feature",
      "properties": {
        "_source": "Ruta17-Asis-AvenidaNorte-Altamira",
        "_segmentIndex": 0,
        "_position": 52
      },
      "geometry": {
        "type": "Point",
        "coordinates": [
          -73.35640821167004,
          5.546224770761795
        ]
      }
    },
    {
      "type": "Feature",
      "properties": {
        "_source": "Ruta17-Asis-AvenidaNorte-Altamira",
        "_segmentIndex": 0,
        "_position": 53
      },
      "geometry": {
        "type": "Point",
        "coordinates": [
          -73.35667555032973,
          5.545862292554614
        ]
      }
    },
    {
      "type": "Feature",
      "properties": {
        "_source": "Ruta17-Asis-AvenidaNorte-Altamira",
        "_segmentIndex": 0,
        "_position": 54
      },
      "geometry": {
        "type": "Point",
        "coordinates": [
          -73.35694594061114,
          5.545502061837322
        ]
      }
    },
    {
      "type": "Feature",
      "properties": {
        "_source": "Ruta17-Asis-AvenidaNorte-Altamira",
        "_segmentIndex": 0,
        "_position": 55
      },
      "geometry": {
        "type": "Point",
        "coordinates": [
          -73.35721633056244,
          5.545141830997298
        ]
      }
    },
    {
      "type": "Feature",
      "properties": {
        "_source": "Ruta17-Asis-AvenidaNorte-Altamira",
        "_segmentIndex": 0,
        "_position": 0
      },
      "geometry": {
        "type": "Point",
        "coordinates": [
          -73.357274,
          5.545065
        ]
      }
    },
    {
      "type": "Feature",
      "properties": {
        "_source": "Ruta17-Asis-AvenidaNorte-Altamira",
        "_segmentIndex": 0,
        "_position": 1
      },
      "geometry": {
        "type": "Point",
        "coordinates": [
          -73.3576336925156,
          5.544806821775294
        ]
      }
    },
    {
      "type": "Feature",
      "properties": {
        "_source": "Ruta17-Asis-AvenidaNorte-Altamira",
        "_segmentIndex": 0,
        "_position": 2
      },
      "geometry": {
        "type": "Point",
        "coordinates": [
          -73.35784646165139,
          5.544455316245816
        ]
      }
    },
    {
      "type": "Feature",
      "properties": {
        "_source": "Ruta17-Asis-AvenidaNorte-Altamira",
        "_segmentIndex": 0,
        "_position": 0
      },
      "geometry": {
        "type": "Point",
        "coordinates": [
          -73.357974,
          5.544184
        ]
      }
    },
    {
      "type": "Feature",
      "properties": {
        "_source": "Ruta17-Asis-AvenidaNorte-Altamira",
        "_segmentIndex": 0,
        "_position": 1
      },
      "geometry": {
        "type": "Point",
        "coordinates": [
          -73.35823515520187,
          5.543817097271516
        ]
      }
    },
    {
      "type": "Feature",
      "properties": {
        "_source": "Ruta17-Asis-AvenidaNorte-Altamira",
        "_segmentIndex": 0,
        "_position": 2
      },
      "geometry": {
        "type": "Point",
        "coordinates": [
          -73.35849968288656,
          5.543452580592389
        ]
      }
    },
    {
      "type": "Feature",
      "properties": {
        "_source": "Ruta17-Asis-AvenidaNorte-Altamira",
        "_segmentIndex": 0,
        "_position": 3
      },
      "geometry": {
        "type": "Point",
        "coordinates": [
          -73.35875546049087,
          5.5430819631504
        ]
      }
    },
    {
      "type": "Feature",
      "properties": {
        "_source": "Ruta17-Asis-AvenidaNorte-Altamira",
        "_segmentIndex": 0,
        "_position": 4
      },
      "geometry": {
        "type": "Point",
        "coordinates": [
          -73.35899145341781,
          5.542754082857388
        ]
      }
    },
    {
      "type": "Feature",
      "properties": {
        "_source": "Ruta17-Asis-AvenidaNorte-Altamira",
        "_segmentIndex": 0,
        "_position": 5
      },
      "geometry": {
        "type": "Point",
        "coordinates": [
          -73.35893863023192,
          5.542328511787337
        ]
      }
    },
    {
      "type": "Feature",
      "properties": {
        "_source": "Ruta17-Asis-AvenidaNorte-Altamira",
        "_segmentIndex": 0,
        "_position": 6
      },
      "geometry": {
        "type": "Point",
        "coordinates": [
          -73.35907386920681,
          5.5419007826799325
        ]
      }
    },
    {
      "type": "Feature",
      "properties": {
        "_source": "Ruta17-Asis-AvenidaNorte-Altamira",
        "_segmentIndex": 0,
        "_position": 7
      },
      "geometry": {
        "type": "Point",
        "coordinates": [
          -73.35927421369087,
          5.541497760263605
        ]
      }
    },
    {
      "type": "Feature",
      "properties": {
        "_source": "Ruta17-Asis-AvenidaNorte-Altamira",
        "_segmentIndex": 0,
        "_position": 8
      },
      "geometry": {
        "type": "Point",
        "coordinates": [
          -73.35947600149272,
          5.541095536701438
        ]
      }
    },
    {
      "type": "Feature",
      "properties": {
        "_source": "Ruta17-Asis-AvenidaNorte-Altamira",
        "_segmentIndex": 0,
        "_position": 9
      },
      "geometry": {
        "type": "Point",
        "coordinates": [
          -73.35965187963356,
          5.540681364922183
        ]
      }
    },
    {
      "type": "Feature",
      "properties": {
        "_source": "Ruta17-Asis-AvenidaNorte-Altamira",
        "_segmentIndex": 0,
        "_position": 10
      },
      "geometry": {
        "type": "Point",
        "coordinates": [
          -73.3598188196926,
          5.540263543769389
        ]
      }
    },
    {
      "type": "Feature",
      "properties": {
        "_source": "Ruta17-Asis-AvenidaNorte-Altamira",
        "_segmentIndex": 0,
        "_position": 11
      },
      "geometry": {
        "type": "Point",
        "coordinates": [
          -73.35995941748136,
          5.539836335605607
        ]
      }
    },
    {
      "type": "Feature",
      "properties": {
        "_source": "Ruta17-Asis-AvenidaNorte-Altamira",
        "_segmentIndex": 0,
        "_position": 12
      },
      "geometry": {
        "type": "Point",
        "coordinates": [
          -73.36007266321988,
          5.539401212877536
        ]
      }
    },
    {
      "type": "Feature",
      "properties": {
        "_source": "Ruta17-Asis-AvenidaNorte-Altamira",
        "_segmentIndex": 0,
        "_position": 13
      },
      "geometry": {
        "type": "Point",
        "coordinates": [
          -73.36017362201686,
          5.538962927651782
        ]
      }
    },
    {
      "type": "Feature",
      "properties": {
        "_source": "Ruta17-Asis-AvenidaNorte-Altamira",
        "_segmentIndex": 0,
        "_position": 14
      },
      "geometry": {
        "type": "Point",
        "coordinates": [
          -73.36028016086614,
          5.538525972651319
        ]
      }
    },
    {
      "type": "Feature",
      "properties": {
        "_source": "Ruta17-Asis-AvenidaNorte-Altamira",
        "_segmentIndex": 0,
        "_position": 15
      },
      "geometry": {
        "type": "Point",
        "coordinates": [
          -73.36039040801708,
          5.538089944644375
        ]
      }
    },
    {
      "type": "Feature",
      "properties": {
        "_source": "Ruta17-Asis-AvenidaNorte-Altamira",
        "_segmentIndex": 0,
        "_position": 0
      },
      "geometry": {
        "type": "Point",
        "coordinates": [
          -73.360537,
          5.537798
        ]
      }
    },
    {
      "type": "Feature",
      "properties": {
        "_source": "Ruta17-Asis-AvenidaNorte-Altamira",
        "_segmentIndex": 0,
        "_position": 1
      },
      "geometry": {
        "type": "Point",
        "coordinates": [
          -73.36067560065268,
          5.537371753901843
        ]
      }
    },
    {
      "type": "Feature",
      "properties": {
        "_source": "Ruta17-Asis-AvenidaNorte-Altamira",
        "_segmentIndex": 0,
        "_position": 2
      },
      "geometry": {
        "type": "Point",
        "coordinates": [
          -73.36078693276565,
          5.536935962264642
        ]
      }
    },
    {
      "type": "Feature",
      "properties": {
        "_source": "Ruta17-Asis-AvenidaNorte-Altamira",
        "_segmentIndex": 0,
        "_position": 3
      },
      "geometry": {
        "type": "Point",
        "coordinates": [
          -73.36090734900189,
          5.536502641304768
        ]
      }
    },
    {
      "type": "Feature",
      "properties": {
        "_source": "Ruta17-Asis-AvenidaNorte-Altamira",
        "_segmentIndex": 0,
        "_position": 4
      },
      "geometry": {
        "type": "Point",
        "coordinates": [
          -73.36103503970809,
          5.536071316458388
        ]
      }
    },
    {
      "type": "Feature",
      "properties": {
        "_source": "Ruta17-Asis-AvenidaNorte-Altamira",
        "_segmentIndex": 0,
        "_position": 5
      },
      "geometry": {
        "type": "Point",
        "coordinates": [
          -73.36116273022793,
          5.535639991584684
        ]
      }
    },
    {
      "type": "Feature",
      "properties": {
        "_source": "Ruta17-Asis-AvenidaNorte-Altamira",
        "_segmentIndex": 0,
        "_position": 6
      },
      "geometry": {
        "type": "Point",
        "coordinates": [
          -73.36129238096605,
          5.535209287895835
        ]
      }
    },
    {
      "type": "Feature",
      "properties": {
        "_source": "Ruta17-Asis-AvenidaNorte-Altamira",
        "_segmentIndex": 0,
        "_position": 7
      },
      "geometry": {
        "type": "Point",
        "coordinates": [
          -73.36141868633916,
          5.534777676745384
        ]
      }
    },
    {
      "type": "Feature",
      "properties": {
        "_source": "Ruta17-Asis-AvenidaNorte-Altamira",
        "_segmentIndex": 0,
        "_position": 8
      },
      "geometry": {
        "type": "Point",
        "coordinates": [
          -73.36155041638378,
          5.53434765038287
        ]
      }
    },
    {
      "type": "Feature",
      "properties": {
        "_source": "Ruta17-Asis-AvenidaNorte-Altamira",
        "_segmentIndex": 0,
        "_position": 0
      },
      "geometry": {
        "type": "Point",
        "coordinates": [
          -73.361615,
          5.534149
        ]
      }
    },
    {
      "type": "Feature",
      "properties": {
        "_source": "Ruta17-Asis-AvenidaNorte-Altamira",
        "_segmentIndex": 0,
        "_position": 1
      },
      "geometry": {
        "type": "Point",
        "coordinates": [
          -73.36204741634215,
          5.534279190119525
        ]
      }
    },
    {
      "type": "Feature",
      "properties": {
        "_source": "Ruta17-Asis-AvenidaNorte-Altamira",
        "_segmentIndex": 0,
        "_position": 2
      },
      "geometry": {
        "type": "Point",
        "coordinates": [
          -73.36247983287468,
          5.5344093799257825
        ]
      }
    },
    {
      "type": "Feature",
      "properties": {
        "_source": "Ruta17-Asis-AvenidaNorte-Altamira",
        "_segmentIndex": 0,
        "_position": 3
      },
      "geometry": {
        "type": "Point",
        "coordinates": [
          -73.36291109617729,
          5.534543273731919
        ]
      }
    },
    {
      "type": "Feature",
      "properties": {
        "_source": "Ruta17-Asis-AvenidaNorte-Altamira",
        "_segmentIndex": 0,
        "_position": 4
      },
      "geometry": {
        "type": "Point",
        "coordinates": [
          -73.36334169446789,
          5.534679303604501
        ]
      }
    },
    {
      "type": "Feature",
      "properties": {
        "_source": "Ruta17-Asis-AvenidaNorte-Altamira",
        "_segmentIndex": 0,
        "_position": 5
      },
      "geometry": {
        "type": "Point",
        "coordinates": [
          -73.36377490602635,
          5.534806443291163
        ]
      }
    },
    {
      "type": "Feature",
      "properties": {
        "_source": "Ruta17-Asis-AvenidaNorte-Altamira",
        "_segmentIndex": 0,
        "_position": 6
      },
      "geometry": {
        "type": "Point",
        "coordinates": [
          -73.36420528148757,
          5.534943170594392
        ]
      }
    },
    {
      "type": "Feature",
      "properties": {
        "_source": "Ruta17-Asis-AvenidaNorte-Altamira",
        "_segmentIndex": 0,
        "_position": 7
      },
      "geometry": {
        "type": "Point",
        "coordinates": [
          -73.36463565714783,
          5.535079897587269
        ]
      }
    },
    {
      "type": "Feature",
      "properties": {
        "_source": "Ruta17-Asis-AvenidaNorte-Altamira",
        "_segmentIndex": 0,
        "_position": 8
      },
      "geometry": {
        "type": "Point",
        "coordinates": [
          -73.36506590268961,
          5.53521702460095
        ]
      }
    },
    {
      "type": "Feature",
      "properties": {
        "_source": "Ruta17-Asis-AvenidaNorte-Altamira",
        "_segmentIndex": 0,
        "_position": 9
      },
      "geometry": {
        "type": "Point",
        "coordinates": [
          -73.3654966266896,
          5.535349861847649
        ]
      }
    },
    {
      "type": "Feature",
      "properties": {
        "_source": "Ruta17-Asis-AvenidaNorte-Altamira",
        "_segmentIndex": 0,
        "_position": 0
      },
      "geometry": {
        "type": "Point",
        "coordinates": [
          -73.365557,
          5.535355
        ]
      }
    },
    {
      "type": "Feature",
      "properties": {
        "_source": "Ruta17-Asis-AvenidaNorte-Altamira",
        "_segmentIndex": 0,
        "_position": 1
      },
      "geometry": {
        "type": "Point",
        "coordinates": [
          -73.36572235405322,
          5.534936547240413
        ]
      }
    },
    {
      "type": "Feature",
      "properties": {
        "_source": "Ruta17-Asis-AvenidaNorte-Altamira",
        "_segmentIndex": 0,
        "_position": 2
      },
      "geometry": {
        "type": "Point",
        "coordinates": [
          -73.36590036153521,
          5.534523487418678
        ]
      }
    },
    {
      "type": "Feature",
      "properties": {
        "_source": "Ruta17-Asis-AvenidaNorte-Altamira",
        "_segmentIndex": 0,
        "_position": 3
      },
      "geometry": {
        "type": "Point",
        "coordinates": [
          -73.36609205079377,
          5.534116314980087
        ]
      }
    },
    {
      "type": "Feature",
      "properties": {
        "_source": "Ruta17-Asis-AvenidaNorte-Altamira",
        "_segmentIndex": 0,
        "_position": 4
      },
      "geometry": {
        "type": "Point",
        "coordinates": [
          -73.36628236498248,
          5.533708508199391
        ]
      }
    },
    {
      "type": "Feature",
      "properties": {
        "_source": "Ruta17-Asis-AvenidaNorte-Altamira",
        "_segmentIndex": 0,
        "_position": 0
      },
      "geometry": {
        "type": "Point",
        "coordinates": [
          -73.366391,
          5.53348
        ]
      }
    },
    {
      "type": "Feature",
      "properties": {
        "_source": "Ruta17-Asis-AvenidaNorte-Altamira",
        "_segmentIndex": 0,
        "_position": 1
      },
      "geometry": {
        "type": "Point",
        "coordinates": [
          -73.36682163931862,
          5.533615898709756
        ]
      }
    },
    {
      "type": "Feature",
      "properties": {
        "_source": "Ruta17-Asis-AvenidaNorte-Altamira",
        "_segmentIndex": 0,
        "_position": 2
      },
      "geometry": {
        "type": "Point",
        "coordinates": [
          -73.36725227883514,
          5.5337517971088515
        ]
      }
    },
    {
      "type": "Feature",
      "properties": {
        "_source": "Ruta17-Asis-AvenidaNorte-Altamira",
        "_segmentIndex": 0,
        "_position": 3
      },
      "geometry": {
        "type": "Point",
        "coordinates": [
          -73.36762615563973,
          5.533989749432106
        ]
      }
    },
    {
      "type": "Feature",
      "properties": {
        "_source": "Ruta17-Asis-AvenidaNorte-Altamira",
        "_segmentIndex": 0,
        "_position": 4
      },
      "geometry": {
        "type": "Point",
        "coordinates": [
          -73.36805142379296,
          5.534135108505126
        ]
      }
    },
    {
      "type": "Feature",
      "properties": {
        "_source": "Ruta17-Asis-AvenidaNorte-Altamira",
        "_segmentIndex": 0,
        "_position": 5
      },
      "geometry": {
        "type": "Point",
        "coordinates": [
          -73.36838046541295,
          5.534437436163114
        ]
      }
    },
    {
      "type": "Feature",
      "properties": {
        "_source": "Ruta17-Asis-AvenidaNorte-Altamira",
        "_segmentIndex": 0,
        "_position": 6
      },
      "geometry": {
        "type": "Point",
        "coordinates": [
          -73.36877945005418,
          5.534646147374481
        ]
      }
    },
    {
      "type": "Feature",
      "properties": {
        "_source": "Ruta17-Asis-AvenidaNorte-Altamira",
        "_segmentIndex": 0,
        "_position": 7
      },
      "geometry": {
        "type": "Point",
        "coordinates": [
          -73.36918212770306,
          5.534849666236461
        ]
      }
    },
    {
      "type": "Feature",
      "properties": {
        "_source": "Ruta17-Asis-AvenidaNorte-Altamira",
        "_segmentIndex": 0,
        "_position": 8
      },
      "geometry": {
        "type": "Point",
        "coordinates": [
          -73.36958719658115,
          5.535048764080281
        ]
      }
    },
    {
      "type": "Feature",
      "properties": {
        "_source": "Ruta17-Asis-AvenidaNorte-Altamira",
        "_segmentIndex": 0,
        "_position": 9
      },
      "geometry": {
        "type": "Point",
        "coordinates": [
          -73.369989904767,
          5.535252438241597
        ]
      }
    },
    {
      "type": "Feature",
      "properties": {
        "_source": "Ruta17-Asis-AvenidaNorte-Altamira",
        "_segmentIndex": 0,
        "_position": 0
      },
      "geometry": {
        "type": "Point",
        "coordinates": [
          -73.370247,
          5.535389
        ]
      }
    },
    {
      "type": "Feature",
      "properties": {
        "_source": "Ruta17-Asis-AvenidaNorte-Altamira",
        "_segmentIndex": 0,
        "_position": 1
      },
      "geometry": {
        "type": "Point",
        "coordinates": [
          -73.37019046376841,
          5.5358337230318355
        ]
      }
    },
    {
      "type": "Feature",
      "properties": {
        "_source": "Ruta17-Asis-AvenidaNorte-Altamira",
        "_segmentIndex": 0,
        "_position": 2
      },
      "geometry": {
        "type": "Point",
        "coordinates": [
          -73.37020541190118,
          5.536281196809724
        ]
      }
    },
    {
      "type": "Feature",
      "properties": {
        "_source": "Ruta17-Asis-AvenidaNorte-Altamira",
        "_segmentIndex": 0,
        "_position": 3
      },
      "geometry": {
        "type": "Point",
        "coordinates": [
          -73.3703206549916,
          5.536715563431565
        ]
      }
    },
    {
      "type": "Feature",
      "properties": {
        "_source": "Ruta17-Asis-AvenidaNorte-Altamira",
        "_segmentIndex": 0,
        "_position": 4
      },
      "geometry": {
        "type": "Point",
        "coordinates": [
          -73.37043548795805,
          5.5371482996035155
        ]
      }
    },
    {
      "type": "Feature",
      "properties": {
        "_source": "Ruta17-Asis-AvenidaNorte-Altamira",
        "_segmentIndex": 0,
        "_position": 5
      },
      "geometry": {
        "type": "Point",
        "coordinates": [
          -73.37063405237166,
          5.537552116069228
        ]
      }
    },
    {
      "type": "Feature",
      "properties": {
        "_source": "Ruta17-Asis-AvenidaNorte-Altamira",
        "_segmentIndex": 0,
        "_position": 6
      },
      "geometry": {
        "type": "Point",
        "coordinates": [
          -73.37067453389378,
          5.537944860829037
        ]
      }
    },
    {
      "type": "Feature",
      "properties": {
        "_source": "Ruta17-Asis-AvenidaNorte-Altamira",
        "_segmentIndex": 0,
        "_position": 7
      },
      "geometry": {
        "type": "Point",
        "coordinates": [
          -73.37049080177343,
          5.538349641339846
        ]
      }
    },
    {
      "type": "Feature",
      "properties": {
        "_source": "Ruta17-Asis-AvenidaNorte-Altamira",
        "_segmentIndex": 0,
        "_position": 8
      },
      "geometry": {
        "type": "Point",
        "coordinates": [
          -73.37045883965014,
          5.538797300310103
        ]
      }
    },
    {
      "type": "Feature",
      "properties": {
        "_source": "Ruta17-Asis-AvenidaNorte-Altamira",
        "_segmentIndex": 0,
        "_position": 9
      },
      "geometry": {
        "type": "Point",
        "coordinates": [
          -73.37048680636399,
          5.539244269765602
        ]
      }
    },
    {
      "type": "Feature",
      "properties": {
        "_source": "Ruta17-Asis-AvenidaNorte-Altamira",
        "_segmentIndex": 0,
        "_position": 10
      },
      "geometry": {
        "type": "Point",
        "coordinates": [
          -73.37067924944432,
          5.53965049544385
        ]
      }
    },
    {
      "type": "Feature",
      "properties": {
        "_source": "Ruta17-Asis-AvenidaNorte-Altamira",
        "_segmentIndex": 0,
        "_position": 11
      },
      "geometry": {
        "type": "Point",
        "coordinates": [
          -73.37071140930342,
          5.540091851177781
        ]
      }
    },
    {
      "type": "Feature",
      "properties": {
        "_source": "Ruta17-Asis-AvenidaNorte-Altamira",
        "_segmentIndex": 0,
        "_position": 12
      },
      "geometry": {
        "type": "Point",
        "coordinates": [
          -73.37071424137511,
          5.540540630502662
        ]
      }
    },
    {
      "type": "Feature",
      "properties": {
        "_source": "Ruta17-Asis-AvenidaNorte-Altamira",
        "_segmentIndex": 0,
        "_position": 13
      },
      "geometry": {
        "type": "Point",
        "coordinates": [
          -73.37082953878539,
          5.540970616356922
        ]
      }
    },
    {
      "type": "Feature",
      "properties": {
        "_source": "Ruta17-Asis-AvenidaNorte-Altamira",
        "_segmentIndex": 0,
        "_position": 0
      },
      "geometry": {
        "type": "Point",
        "coordinates": [
          -73.370851,
          5.54111
        ]
      }
    },
    {
      "type": "Feature",
      "properties": {
        "_source": "Ruta17-Asis-AvenidaNorte-Altamira",
        "_segmentIndex": 0,
        "_position": 1
      },
      "geometry": {
        "type": "Point",
        "coordinates": [
          -73.37074971285803,
          5.5415481485832805
        ]
      }
    },
    {
      "type": "Feature",
      "properties": {
        "_source": "Ruta17-Asis-AvenidaNorte-Altamira",
        "_segmentIndex": 0,
        "_position": 2
      },
      "geometry": {
        "type": "Point",
        "coordinates": [
          -73.37062864570646,
          5.541981332925613
        ]
      }
    },
    {
      "type": "Feature",
      "properties": {
        "_source": "Ruta17-Asis-AvenidaNorte-Altamira",
        "_segmentIndex": 0,
        "_position": 3
      },
      "geometry": {
        "type": "Point",
        "coordinates": [
          -73.37053718314164,
          5.542420249980467
        ]
      }
    },
    {
      "type": "Feature",
      "properties": {
        "_source": "Ruta17-Asis-AvenidaNorte-Altamira",
        "_segmentIndex": 0,
        "_position": 4
      },
      "geometry": {
        "type": "Point",
        "coordinates": [
          -73.3707343046899,
          5.542792199274589
        ]
      }
    },
    {
      "type": "Feature",
      "properties": {
        "_source": "Ruta17-Asis-AvenidaNorte-Altamira",
        "_segmentIndex": 0,
        "_position": 5
      },
      "geometry": {
        "type": "Point",
        "coordinates": [
          -73.37076454945546,
          5.543240609038001
        ]
      }
    },
    {
      "type": "Feature",
      "properties": {
        "_source": "Ruta17-Asis-AvenidaNorte-Altamira",
        "_segmentIndex": 0,
        "_position": 6
      },
      "geometry": {
        "type": "Point",
        "coordinates": [
          -73.37084658582602,
          5.543682184763942
        ]
      }
    },
    {
      "type": "Feature",
      "properties": {
        "_source": "Ruta17-Asis-AvenidaNorte-Altamira",
        "_segmentIndex": 0,
        "_position": 7
      },
      "geometry": {
        "type": "Point",
        "coordinates": [
          -73.37093835274243,
          5.544122208243861
        ]
      }
    },
    {
      "type": "Feature",
      "properties": {
        "_source": "Ruta17-Asis-AvenidaNorte-Altamira",
        "_segmentIndex": 0,
        "_position": 8
      },
      "geometry": {
        "type": "Point",
        "coordinates": [
          -73.37102874282255,
          5.544562776263837
        ]
      }
    },
    {
      "type": "Feature",
      "properties": {
        "_source": "Ruta17-Asis-AvenidaNorte-Altamira",
        "_segmentIndex": 0,
        "_position": 9
      },
      "geometry": {
        "type": "Point",
        "coordinates": [
          -73.37112270009847,
          5.545002596026462
        ]
      }
    },
    {
      "type": "Feature",
      "properties": {
        "_source": "Ruta17-Asis-AvenidaNorte-Altamira",
        "_segmentIndex": 0,
        "_position": 10
      },
      "geometry": {
        "type": "Point",
        "coordinates": [
          -73.37125652216314,
          5.545426411904439
        ]
      }
    },
    {
      "type": "Feature",
      "properties": {
        "_source": "Ruta17-Asis-AvenidaNorte-Altamira",
        "_segmentIndex": 0,
        "_position": 11
      },
      "geometry": {
        "type": "Point",
        "coordinates": [
          -73.37120853796343,
          5.545743905120429
        ]
      }
    },
    {
      "type": "Feature",
      "properties": {
        "_source": "Ruta17-Asis-AvenidaNorte-Altamira",
        "_segmentIndex": 0,
        "_position": 12
      },
      "geometry": {
        "type": "Point",
        "coordinates": [
          -73.37084048788535,
          5.54600457651573
        ]
      }
    },
    {
      "type": "Feature",
      "properties": {
        "_source": "Ruta17-Asis-AvenidaNorte-Altamira",
        "_segmentIndex": 0,
        "_position": 13
      },
      "geometry": {
        "type": "Point",
        "coordinates": [
          -73.37047781649323,
          5.546272697902235
        ]
      }
    },
    {
      "type": "Feature",
      "properties": {
        "_source": "Ruta17-Asis-AvenidaNorte-Altamira",
        "_segmentIndex": 0,
        "_position": 14
      },
      "geometry": {
        "type": "Point",
        "coordinates": [
          -73.37008221862861,
          5.546487000190288
        ]
      }
    },
    {
      "type": "Feature",
      "properties": {
        "_source": "Ruta17-Asis-AvenidaNorte-Altamira",
        "_segmentIndex": 0,
        "_position": 15
      },
      "geometry": {
        "type": "Point",
        "coordinates": [
          -73.36964944793482,
          5.546582492117103
        ]
      }
    },
    {
      "type": "Feature",
      "properties": {
        "_source": "Ruta17-Asis-AvenidaNorte-Altamira",
        "_segmentIndex": 0,
        "_position": 0
      },
      "geometry": {
        "type": "Point",
        "coordinates": [
          -73.369602,
          5.546578
        ]
      }
    },
    {
      "type": "Feature",
      "properties": {
        "_source": "Ruta17-Asis-AvenidaNorte-Altamira",
        "_segmentIndex": 0,
        "_position": 1
      },
      "geometry": {
        "type": "Point",
        "coordinates": [
          -73.36915639405954,
          5.546504269931271
        ]
      }
    },
    {
      "type": "Feature",
      "properties": {
        "_source": "Ruta17-Asis-AvenidaNorte-Altamira",
        "_segmentIndex": 0,
        "_position": 0
      },
      "geometry": {
        "type": "Point",
        "coordinates": [
          -73.369035,
          5.546478
        ]
      }
    },
    {
      "type": "Feature",
      "properties": {
        "_source": "Ruta17-Asis-AvenidaNorte-Altamira",
        "_segmentIndex": 0,
        "_position": 1
      },
      "geometry": {
        "type": "Point",
        "coordinates": [
          -73.3691391604947,
          5.546041805140756
        ]
      }
    },
    {
      "type": "Feature",
      "properties": {
        "_source": "Ruta17-Asis-AvenidaNorte-Altamira",
        "_segmentIndex": 0,
        "_position": 2
      },
      "geometry": {
        "type": "Point",
        "coordinates": [
          -73.36919355144657,
          5.545595497930848
        ]
      }
    },
    {
      "type": "Feature",
      "properties": {
        "_source": "Ruta17-Asis-AvenidaNorte-Altamira",
        "_segmentIndex": 0,
        "_position": 3
      },
      "geometry": {
        "type": "Point",
        "coordinates": [
          -73.3692606751862,
          5.545151282614166
        ]
      }
    },
    {
      "type": "Feature",
      "properties": {
        "_source": "Ruta17-Asis-AvenidaNorte-Altamira",
        "_segmentIndex": 0,
        "_position": 4
      },
      "geometry": {
        "type": "Point",
        "coordinates": [
          -73.3693477447426,
          5.544710064454923
        ]
      }
    },
    {
      "type": "Feature",
      "properties": {
        "_source": "Ruta17-Asis-AvenidaNorte-Altamira",
        "_segmentIndex": 0,
        "_position": 5
      },
      "geometry": {
        "type": "Point",
        "coordinates": [
          -73.36941262503697,
          5.544265326484015
        ]
      }
    }
  ]
}