{
  "type": "FeatureCollection",
  "features": [
    {
      "type": "Feature",
      "properties": {
        "_source": "Ruta4-Arboleda-Muiscas-SanFrancisco-PinosdeOriente",
        "_segmentIndex": 0,
        "_position": 0
      },
      "geometry": {
        "type": "Point",
        "coordinates": [
          -73.332293,
          5.573459
        ]
      }
    },
    {
      "type": "Feature",
      "properties": {
        "_source": "Ruta4-Arboleda-Muiscas-SanFrancisco-PinosdeOriente",
        "_segmentIndex": 0,
        "_position": 1
      },
      "geometry": {
        "type": "Point",
        "coordinates": [
          -73.33263893843448,
          5.573216744324184
        ]
      }
    },
    {
      "type": "Feature",
      "properties": {
        "_source": "Ruta4-Arboleda-Muiscas-SanFrancisco-PinosdeOriente",
        "_segmentIndex": 0,
        "_position": 2
      },
      "geometry": {
        "type": "Point",
        "coordinates": [
          -73.33295984941647,
          5.572900591648539
        ]
      }
    },
    {
      "type": "Feature",
      "properties": {
        "_source": "Ruta4-Arboleda-Muiscas-SanFrancisco-PinosdeOriente",
        "_segmentIndex": 0,
        "_position": 3
      },
      "geometry": {
        "type": "Point",
        "coordinates": [
          -73.33325836662257,
          5.572563068158789
        ]
      }
    },
    {
      "type": "Feature",
      "properties": {
        "_source": "Ruta4-Arboleda-Muiscas-SanFrancisco-PinosdeOriente",
        "_segmentIndex": 0,
        "_position": 4
      },
      "geometry": {
        "type": "Point",
        "coordinates": [
          -73.33354588071498,
          5.572216231577199
        ]
      }
    },
    {
      "type": "Feature",
      "properties": {
        "_source": "Ruta4-Arboleda-Muiscas-SanFrancisco-PinosdeOriente",
        "_segmentIndex": 0,
        "_position": 5
      },
      "geometry": {
        "type": "Point",
        "coordinates": [
          -73.33383257065422,
          5.571868702293897
        ]
      }
    },
    {
      "type": "Feature",
      "properties": {
        "_source": "Ruta4-Arboleda-Muiscas-SanFrancisco-PinosdeOriente",
        "_segmentIndex": 0,
        "_position": 6
      },
      "geometry": {
        "type": "Point",
        "coordinates": [
          -73.33411872150975,
          5.571521230449959
        ]
      }
    },
    {
      "type": "Feature",
      "properties": {
        "_source": "Ruta4-Arboleda-Muiscas-SanFrancisco-PinosdeOriente",
        "_segmentIndex": 0,
        "_position": 7
      },
      "geometry": {
        "type": "Point",
        "coordinates": [
          -73.33442704090953,
          5.571192552237666
        ]
      }
    },
    {
      "type": "Feature",
      "properties": {
        "_source": "Ruta4-Arboleda-Muiscas-SanFrancisco-PinosdeOriente",
        "_segmentIndex": 0,
        "_position": 8
      },
      "geometry": {
        "type": "Point",
        "coordinates": [
          -73.33478204954001,
          5.570918570277287
        ]
      }
    },
    {
      "type": "Feature",
      "properties": {
        "_source": "Ruta4-Arboleda-Muiscas-SanFrancisco-PinosdeOriente",
        "_segmentIndex": 0,
        "_position": 9
      },
      "geometry": {
        "type": "Point",
        "coordinates": [
          -73.33520448427502,
          5.570762667122573
        ]
      }
    },
    {
      "type": "Feature",
      "properties": {
        "_source": "Ruta4-Arboleda-Muiscas-SanFrancisco-PinosdeOriente",
        "_segmentIndex": 0,
        "_position": 10
      },
      "geometry": {
        "type": "Point",
        "coordinates": [
          -73.33562391552219,
          5.570597881983171
        ]
      }
    },
    {
      "type": "Feature",
      "properties": {
        "_source": "Ruta4-Arboleda-Muiscas-SanFrancisco-PinosdeOriente",
        "_segmentIndex": 0,
        "_position": 11
      },
      "geometry": {
        "type": "Point",
        "coordinates": [
          -73.33601234909065,
          5.570369156977853
        ]
      }
    },
    {
      "type": "Feature",
      "properties": {
        "_source": "Ruta4-Arboleda-Muiscas-SanFrancisco-PinosdeOriente",
        "_segmentIndex": 0,
        "_position": 12
      },
      "geometry": {
        "type": "Point",
        "coordinates": [
          -73.33640002194367,
          5.5701383981225705
        ]
      }
    },
    {
      "type": "Feature",
      "properties": {
        "_source": "Ruta4-Arboleda-Muiscas-SanFrancisco-PinosdeOriente",
        "_segmentIndex": 0,
        "_position": 13
      },
      "geometry": {
        "type": "Point",
        "coordinates": [
          -73.3367873540036,
          5.5699069275541415
        ]
      }
    },
    {
      "type": "Feature",
      "properties": {
        "_source": "Ruta4-Arboleda-Muiscas-SanFrancisco-PinosdeOriente",
        "_segmentIndex": 0,
        "_position": 0
      },
      "geometry": {
        "type": "Point",
        "coordinates": [
          -73.337038,
          5.569765
        ]
      }
    },
    {
      "type": "Feature",
      "properties": {
        "_source": "Ruta4-Arboleda-Muiscas-SanFrancisco-PinosdeOriente",
        "_segmentIndex": 0,
        "_position": 1
      },
      "geometry": {
        "type": "Point",
        "coordinates": [
          -73.33748611636135,
          5.569728593502728
        ]
      }
    },
    {
      "type": "Feature",
      "properties": {
        "_source": "Ruta4-Arboleda-Muiscas-SanFrancisco-PinosdeOriente",
        "_segmentIndex": 0,
        "_position": 2
      },
      "geometry": {
        "type": "Point",
        "coordinates": [
          -73.33789132103223,
          5.569536143176335
        ]
      }
    },
    {
      "type": "Feature",
      "properties": {
        "_source": "Ruta4-Arboleda-Muiscas-SanFrancisco-PinosdeOriente",
        "_segmentIndex": 0,
        "_position": 3
      },
      "geometry": {
        "type": "Point",
        "coordinates": [
          -73.33807294108907,
          5.569128878401674
        ]
      }
    },
    {
      "type": "Feature",
      "properties": {
        "_source": "Ruta4-Arboleda-Muiscas-SanFrancisco-PinosdeOriente",
        "_segmentIndex": 0,
        "_position": 4
      },
      "geometry": {
        "type": "Point",
        "coordinates": [
          -73.33824206267641,
          5.5687122884520495
        ]
      }
    },
    {
      "type": "Feature",
      "properties": {
        "_source": "Ruta4-Arboleda-Muiscas-SanFrancisco-PinosdeOriente",
        "_segmentIndex": 0,
        "_position": 0
      },
      "geometry": {
        "type": "Point",
        "coordinates": [
          -73.338339,
          5.568718
        ]
      }
    },
    {
      "type": "Feature",
      "properties": {
        "_source": "Ruta4-Arboleda-Muiscas-SanFrancisco-PinosdeOriente",
        "_segmentIndex": 0,
        "_position": 1
      },
      "geometry": {
        "type": "Point",
        "coordinates": [
          -73.33840078550239,
          5.56915695840357
        ]
      }
    },
    {
      "type": "Feature",
      "properties": {
        "_source": "Ruta4-Arboleda-Muiscas-SanFrancisco-PinosdeOriente",
        "_segmentIndex": 0,
        "_position": 2
      },
      "geometry": {
        "type": "Point",
        "coordinates": [
          -73.33864348690507,
          5.569528875927257
        ]
      }
    },
    {
      "type": "Feature",
      "properties": {
        "_source": "Ruta4-Arboleda-Muiscas-SanFrancisco-PinosdeOriente",
        "_segmentIndex": 0,
        "_position": 3
      },
      "geometry": {
        "type": "Point",
        "coordinates": [
          -73.3390064793578,
          5.569796493631228
        ]
      }
    },
    {
      "type": "Feature",
      "properties": {
        "_source": "Ruta4-Arboleda-Muiscas-SanFrancisco-PinosdeOriente",
        "_segmentIndex": 0,
        "_position": 4
      },
      "geometry": {
        "type": "Point",
        "coordinates": [
          -73.33936943076213,
          5.570064228522974
        ]
      }
    },
    {
      "type": "Feature",
      "properties": {
        "_source": "Ruta4-Arboleda-Muiscas-SanFrancisco-PinosdeOriente",
        "_segmentIndex": 0,
        "_position": 5
      },
      "geometry": {
        "type": "Point",
        "coordinates": [
          -73.33972656654291,
          5.570339622400994
        ]
      }
    },
    {
      "type": "Feature",
      "properties": {
        "_source": "Ruta4-Arboleda-Muiscas-SanFrancisco-PinosdeOriente",
        "_segmentIndex": 0,
        "_position": 6
      },
      "geometry": {
        "type": "Point",
        "coordinates": [
          -73.34008331271971,
          5.570615531151308
        ]
      }
    },
    {
      "type": "Feature",
      "properties": {
        "_source": "Ruta4-Arboleda-Muiscas-SanFrancisco-PinosdeOriente",
        "_segmentIndex": 0,
        "_position": 7
      },
      "geometry": {
        "type": "Point",
        "coordinates": [
          -73.34044005923163,
          5.570891439687019
        ]
      }
    },
    {
      "type": "Feature",
      "properties": {
        "_source": "Ruta4-Arboleda-Muiscas-SanFrancisco-PinosdeOriente",
        "_segmentIndex": 0,
        "_position": 8
      },
      "geometry": {
        "type": "Point",
        "coordinates": [
          -73.34079912200028,
          5.571164347068218
        ]
      }
    },
    {
      "type": "Feature",
      "properties": {
        "_source": "Ruta4-Arboleda-Muiscas-SanFrancisco-PinosdeOriente",
        "_segmentIndex": 0,
        "_position": 9
      },
      "geometry": {
        "type": "Point",
        "coordinates": [
          -73.34115864953367,
          5.57143665353941
        ]
      }
    },
    {
      "type": "Feature",
      "properties": {
        "_source": "Ruta4-Arboleda-Muiscas-SanFrancisco-PinosdeOriente",
        "_segmentIndex": 0,
        "_position": 10
      },
      "geometry": {
        "type": "Point",
        "coordinates": [
          -73.34151612098408,
          5.5717116317000785
        ]
      }
    },
    {
      "type": "Feature",
      "properties": {
        "_source": "Ruta4-Arboleda-Muiscas-SanFrancisco-PinosdeOriente",
        "_segmentIndex": 0,
        "_position": 11
      },
      "geometry": {
        "type": "Point",
        "coordinates": [
          -73.34190447070533,
          5.571916570512287
        ]
      }
    },
    {
      "type": "Feature",
      "properties": {
        "_source": "Ruta4-Arboleda-Muiscas-SanFrancisco-PinosdeOriente",
        "_segmentIndex": 0,
        "_position": 0
      },
      "geometry": {
        "type": "Point",
        "coordinates": [
          -73.342013,
          5.571935
        ]
      }
    },
    {
      "type": "Feature",
      "properties": {
        "_source": "Ruta4-Arboleda-Muiscas-SanFrancisco-PinosdeOriente",
        "_segmentIndex": 0,
        "_position": 1
      },
      "geometry": {
        "type": "Point",
        "coordinates": [
          -73.3423506115583,
          5.571733899377979
        ]
      }
    },
    {
      "type": "Feature",
      "properties": {
        "_source": "Ruta4-Arboleda-Muiscas-SanFrancisco-PinosdeOriente",
        "_segmentIndex": 0,
        "_position": 2
      },
      "geometry": {
        "type": "Point",
        "coordinates": [
          -73.34259517664198,
          5.57135581737673
        ]
      }
    },
    {
      "type": "Feature",
      "properties": {
        "_source": "Ruta4-Arboleda-Muiscas-SanFrancisco-PinosdeOriente",
        "_segmentIndex": 0,
        "_position": 3
      },
      "geometry": {
        "type": "Point",
        "coordinates": [
          -73.34283897973941,
          5.570977251754857
        ]
      }
    },
    {
      "type": "Feature",
      "properties": {
        "_source": "Ruta4-Arboleda-Muiscas-SanFrancisco-PinosdeOriente",
        "_segmentIndex": 0,
        "_position": 4
      },
      "geometry": {
        "type": "Point",
        "coordinates": [
          -73.34308205952935,
          5.570598270996639
        ]
      }
    },
    {
      "type": "Feature",
      "properties": {
        "_source": "Ruta4-Arboleda-Muiscas-SanFrancisco-PinosdeOriente",
        "_segmentIndex": 0,
        "_position": 5
      },
      "geometry": {
        "type": "Point",
        "coordinates": [
          -73.34333999707626,
          5.570229097068647
        ]
      }
    },
    {
      "type": "Feature",
      "properties": {
        "_source": "Ruta4-Arboleda-Muiscas-SanFrancisco-PinosdeOriente",
        "_segmentIndex": 0,
        "_position": 6
      },
      "geometry": {
        "type": "Point",
        "coordinates": [
          -73.34359793429897,
          5.569859923028472
        ]
      }
    },
    {
      "type": "Feature",
      "properties": {
        "_source": "Ruta4-Arboleda-Muiscas-SanFrancisco-PinosdeOriente",
        "_segmentIndex": 0,
        "_position": 7
      },
      "geometry": {
        "type": "Point",
        "coordinates": [
          -73.34385587119756,
          5.569490748876128
        ]
      }
    },
    {
      "type": "Feature",
      "properties": {
        "_source": "Ruta4-Arboleda-Muiscas-SanFrancisco-PinosdeOriente",
        "_segmentIndex": 0,
        "_position": 8
      },
      "geometry": {
        "type": "Point",
        "coordinates": [
          -73.34411332527327,
          5.569121243160056
        ]
      }
    },
    {
      "type": "Feature",
      "properties": {
        "_source": "Ruta4-Arboleda-Muiscas-SanFrancisco-PinosdeOriente",
        "_segmentIndex": 0,
        "_position": 9
      },
      "geometry": {
        "type": "Point",
        "coordinates": [
          -73.34436865830762,
          5.568750280509837
        ]
      }
    },
    {
      "type": "Feature",
      "properties": {
        "_source": "Ruta4-Arboleda-Muiscas-SanFrancisco-PinosdeOriente",
        "_segmentIndex": 0,
        "_position": 10
      },
      "geometry": {
        "type": "Point",
        "coordinates": [
          -73.3446239910196,
          5.568379317749722
        ]
      }
    },
    {
      "type": "Feature",
      "properties": {
        "_source": "Ruta4-Arboleda-Muiscas-SanFrancisco-PinosdeOriente",
        "_segmentIndex": 0,
        "_position": 11
      },
      "geometry": {
        "type": "Point",
        "coordinates": [
          -73.34487439769998,
          5.568005068529625
        ]
      }
    },
    {
      "type": "Feature",
      "properties": {
        "_source": "Ruta4-Arboleda-Muiscas-SanFrancisco-PinosdeOriente",
        "_segmentIndex": 0,
        "_position": 12
      },
      "geometry": {
        "type": "Point",
        "coordinates": [
          -73.3451221680409,
          5.567629060495888
        ]
      }
    },
    {
      "type": "Feature",
      "properties": {
        "_source": "Ruta4-Arboleda-Muiscas-SanFrancisco-PinosdeOriente",
        "_segmentIndex": 0,
        "_position": 13
      },
      "geometry": {
        "type": "Point",
        "coordinates": [
          -73.34536993806483,
          5.567253052358686
        ]
      }
    },
    {
      "type": "Feature",
      "properties": {
        "_source": "Ruta4-Arboleda-Muiscas-SanFrancisco-PinosdeOriente",
        "_segmentIndex": 0,
        "_position": 14
      },
      "geometry": {
        "type": "Point",
        "coordinates": [
          -73.34561500357485,
          5.566875299542636
        ]
      }
    },
    {
      "type": "Feature",
      "properties": {
        "_source": "Ruta4-Arboleda-Muiscas-SanFrancisco-PinosdeOriente",
        "_segmentIndex": 0,
        "_position": 15
      },
      "geometry": {
        "type": "Point",
        "coordinates": [
          -73.34584077057056,
          5.566486385538651
        ]
      }
    },
    {
      "type": "Feature",
      "properties": {
        "_source": "Ruta4-Arboleda-Muiscas-SanFrancisco-PinosdeOriente",
        "_segmentIndex": 0,
        "_position": 16
      },
      "geometry": {
        "type": "Point",
        "coordinates": [
          -73.34603362715495,
          5.566079752347538
        ]
      }
    },
    {
      "type": "Feature",
      "properties": {
        "_source": "Ruta4-Arboleda-Muiscas-SanFrancisco-PinosdeOriente",
        "_segmentIndex": 0,
        "_position": 17
      },
      "geometry": {
        "type": "Point",
        "coordinates": [
          -73.34622758173592,
          5.565673637598123
        ]
      }
    },
    {
      "type": "Feature",
      "properties": {
        "_source": "Ruta4-Arboleda-Muiscas-SanFrancisco-PinosdeOriente",
        "_segmentIndex": 0,
        "_position": 18
      },
      "geometry": {
        "type": "Point",
        "coordinates": [
          -73.34641990742445,
          5.565266774373046
        ]
      }
    },
    {
      "type": "Feature",
      "properties": {
        "_source": "Ruta4-Arboleda-Muiscas-SanFrancisco-PinosdeOriente",
        "_segmentIndex": 0,
        "_position": 19
      },
      "geometry": {
        "type": "Point",
        "coordinates": [
          -73.34660608411181,
          5.564857069001579
        ]
      }
    },
    {
      "type": "Feature",
      "properties": {
        "_source": "Ruta4-Arboleda-Muiscas-SanFrancisco-PinosdeOriente",
        "_segmentIndex": 0,
        "_position": 20
      },
      "geometry": {
        "type": "Point",
        "coordinates": [
          -73.34678933742414,
          5.564446070722592
        ]
      }
    },
    {
      "type": "Feature",
      "properties": {
        "_source": "Ruta4-Arboleda-Muiscas-SanFrancisco-PinosdeOriente",
        "_segmentIndex": 0,
        "_position": 21
      },
      "geometry": {
        "type": "Point",
        "coordinates": [
          -73.3469848155762,
          5.564040812569293
        ]
      }
    },
    {
      "type": "Feature",
      "properties": {
        "_source": "Ruta4-Arboleda-Muiscas-SanFrancisco-PinosdeOriente",
        "_segmentIndex": 0,
        "_position": 22
      },
      "geometry": {
        "type": "Point",
        "coordinates": [
          -73.34718388877758,
          5.563637230889484
        ]
      }
    },
    {
      "type": "Feature",
      "properties": {
        "_source": "Ruta4-Arboleda-Muiscas-SanFrancisco-PinosdeOriente",
        "_segmentIndex": 0,
        "_position": 23
      },
      "geometry": {
        "type": "Point",
        "coordinates": [
          -73.34736323170694,
          5.563224517070424
        ]
      }
    },
    {
      "type": "Feature",
      "properties": {
        "_source": "Ruta4-Arboleda-Muiscas-SanFrancisco-PinosdeOriente",
        "_segmentIndex": 0,
        "_position": 24
      },
      "geometry": {
        "type": "Point",
        "coordinates": [
          -73.34755373311906,
          5.562816840159544
        ]
      }
    },
    {
      "type": "Feature",
      "properties": {
        "_source": "Ruta4-Arboleda-Muiscas-SanFrancisco-PinosdeOriente",
        "_segmentIndex": 0,
        "_position": 25
      },
      "geometry": {
        "type": "Point",
        "coordinates": [
          -73.34774539749439,
          5.562409649523325
        ]
      }
    },
    {
      "type": "Feature",
      "properties": {
        "_source": "Ruta4-Arboleda-Muiscas-SanFrancisco-PinosdeOriente",
        "_segmentIndex": 0,
        "_position": 26
      },
      "geometry": {
        "type": "Point",
        "coordinates": [
          -73.34793505668561,
          5.56200153049637
        ]
      }
    },
    {
      "type": "Feature",
      "properties": {
        "_source": "Ruta4-Arboleda-Muiscas-SanFrancisco-PinosdeOriente",
        "_segmentIndex": 0,
        "_position": 27
      },
      "geometry": {
        "type": "Point",
        "coordinates": [
          -73.34812571672258,
          5.561593873177621
        ]
      }
    },
    {
      "type": "Feature",
      "properties": {
        "_source": "Ruta4-Arboleda-Muiscas-SanFrancisco-PinosdeOriente",
        "_segmentIndex": 0,
        "_position": 28
      },
      "geometry": {
        "type": "Point",
        "coordinates": [
          -73.34831122877785,
          5.561183943211029
        ]
      }
    },
    {
      "type": "Feature",
      "properties": {
        "_source": "Ruta4-Arboleda-Muiscas-SanFrancisco-PinosdeOriente",
        "_segmentIndex": 0,
        "_position": 29
      },
      "geometry": {
        "type": "Point",
        "coordinates": [
          -73.34849690819335,
          5.5607741513691575
        ]
      }
    },
    {
      "type": "Feature",
      "properties": {
        "_source": "Ruta4-Arboleda-Muiscas-SanFrancisco-PinosdeOriente",
        "_segmentIndex": 0,
        "_position": 30
      },
      "geometry": {
        "type": "Point",
        "coordinates": [
          -73.34869194577014,
          5.560368550844515
        ]
      }
    },
    {
      "type": "Feature",
      "properties": {
        "_source": "Ruta4-Arboleda-Muiscas-SanFrancisco-PinosdeOriente",
        "_segmentIndex": 0,
        "_position": 31
      },
      "geometry": {
        "type": "Point",
        "coordinates": [
          -73.3488898327459,
          5.559964334598115
        ]
      }
    },
    {
      "type": "Feature",
      "properties": {
        "_source": "Ruta4-Arboleda-Muiscas-SanFrancisco-PinosdeOriente",
        "_segmentIndex": 0,
        "_position": 32
      },
      "geometry": {
        "type": "Point",
        "coordinates": [
          -73.34908040972613,
          5.559556933568775
        ]
      }
    },
    {
      "type": "Feature",
      "properties": {
        "_source": "Ruta4-Arboleda-Muiscas-SanFrancisco-PinosdeOriente",
        "_segmentIndex": 0,
        "_position": 33
      },
      "geometry": {
        "type": "Point",
        "coordinates": [
          -73.34925635885739,
          5.559142962227507
        ]
      }
    },
    {
      "type": "Feature",
      "properties": {
        "_source": "Ruta4-Arboleda-Muiscas-SanFrancisco-PinosdeOriente",
        "_segmentIndex": 0,
        "_position": 34
      },
      "geometry": {
        "type": "Point",
        "coordinates": [
          -73.34945718237454,
          5.558740249705264
        ]
      }
    },
    {
      "type": "Feature",
      "properties": {
        "_source": "Ruta4-Arboleda-Muiscas-SanFrancisco-PinosdeOriente",
        "_segmentIndex": 0,
        "_position": 35
      },
      "geometry": {
        "type": "Point",
        "coordinates": [
          -73.34964939858729,
          5.558333317452944
        ]
      }
    },
    {
      "type": "Feature",
      "properties": {
        "_source": "Ruta4-Arboleda-Muiscas-SanFrancisco-PinosdeOriente",
        "_segmentIndex": 0,
        "_position": 36
      },
      "geometry": {
        "type": "Point",
        "coordinates": [
          -73.34984161453434,
          5.557926385138458
        ]
      }
    },
    {
      "type": "Feature",
      "properties": {
        "_source": "Ruta4-Arboleda-Muiscas-SanFrancisco-PinosdeOriente",
        "_segmentIndex": 0,
        "_position": 37
      },
      "geometry": {
        "type": "Point",
        "coordinates": [
          -73.35002609015498,
          5.5575161140149545
        ]
      }
    },
    {
      "type": "Feature",
      "properties": {
        "_source": "Ruta4-Arboleda-Muiscas-SanFrancisco-PinosdeOriente",
        "_segmentIndex": 0,
        "_position": 38
      },
      "geometry": {
        "type": "Point",
        "coordinates": [
          -73.3501995271879,
          5.5571010171259605
        ]
      }
    },
    {
      "type": "Feature",
      "properties": {
        "_source": "Ruta4-Arboleda-Muiscas-SanFrancisco-PinosdeOriente",
        "_segmentIndex": 0,
        "_position": 39
      },
      "geometry": {
        "type": "Point",
        "coordinates": [
          -73.3503848684747,
          5.556690937871983
        ]
      }
    },
    {
      "type": "Feature",
      "properties": {
        "_source": "Ruta4-Arboleda-Muiscas-SanFrancisco-PinosdeOriente",
        "_segmentIndex": 0,
        "_position": 40
      },
      "geometry": {
        "type": "Point",
        "coordinates": [
          -73.35057020950339,
          5.556280858560224
        ]
      }
    },
    {
      "type": "Feature",
      "properties": {
        "_source": "Ruta4-Arboleda-Muiscas-SanFrancisco-PinosdeOriente",
        "_segmentIndex": 0,
        "_position": 41
      },
      "geometry": {
        "type": "Point",
        "coordinates": [
          -73.35075555027397,
          5.555870779190687
        ]
      }
    },
    {
      "type": "Feature",
      "properties": {
        "_source": "Ruta4-Arboleda-Muiscas-SanFrancisco-PinosdeOriente",
        "_segmentIndex": 0,
        "_position": 42
      },
      "geometry": {
        "type": "Point",
        "coordinates": [
          -73.35094221252457,
          5.555461299561685
        ]
      }
    },
    {
      "type": "Feature",
      "properties": {
        "_source": "Ruta4-Arboleda-Muiscas-SanFrancisco-PinosdeOriente",
        "_segmentIndex": 0,
        "_position": 43
      },
      "geometry": {
        "type": "Point",
        "coordinates": [
          -73.35113171253523,
          5.555053107753399
        ]
      }
    },
    {
      "type": "Feature",
      "properties": {
        "_source": "Ruta4-Arboleda-Muiscas-SanFrancisco-PinosdeOriente",
        "_segmentIndex": 0,
        "_position": 44
      },
      "geometry": {
        "type": "Point",
        "coordinates": [
          -73.35131919500708,
          5.554644008204461
        ]
      }
    },
    {
      "type": "Feature",
      "properties": {
        "_source": "Ruta4-Arboleda-Muiscas-SanFrancisco-PinosdeOriente",
        "_segmentIndex": 0,
        "_position": 45
      },
      "geometry": {
        "type": "Point",
        "coordinates": [
          -73.35150189397042,
          5.554232756358033
        ]
      }
    },
    {
      "type": "Feature",
      "properties": {
        "_source": "Ruta4-Arboleda-Muiscas-SanFrancisco-PinosdeOriente",
        "_segmentIndex": 0,
        "_position": 46
      },
      "geometry": {
        "type": "Point",
        "coordinates": [
          -73.35160954280298,
          5.553796827725349
        ]
      }
    },
    {
      "type": "Feature",
      "properties": {
        "_source": "Ruta4-Arboleda-Muiscas-SanFrancisco-PinosdeOriente",
        "_segmentIndex": 0,
        "_position": 47
      },
      "geometry": {
        "type": "Point",
        "coordinates": [
          -73.35174480951514,
          5.553368542121807
        ]
      }
    },
    {
      "type": "Feature",
      "properties": {
        "_source": "Ruta4-Arboleda-Muiscas-SanFrancisco-PinosdeOriente",
        "_segmentIndex": 0,
        "_position": 48
      },
      "geometry": {
        "type": "Point",
        "coordinates": [
          -73.35189668720734,
          5.552945052511532
        ]
      }
    },
    {
      "type": "Feature",
      "properties": {
        "_source": "Ruta4-Arboleda-Muiscas-SanFrancisco-PinosdeOriente",
        "_segmentIndex": 0,
        "_position": 49
      },
      "geometry": {
        "type": "Point",
        "coordinates": [
          -73.35204259819089,
          5.552519678545262
        ]
      }
    },
    {
      "type": "Feature",
      "properties": {
        "_source": "Ruta4-Arboleda-Muiscas-SanFrancisco-PinosdeOriente",
        "_segmentIndex": 0,
        "_position": 50
      },
      "geometry": {
        "type": "Point",
        "coordinates": [
          -73.35216382487917,
          5.552086508897649
        ]
      }
    },
    {
      "type": "Feature",
      "properties": {
        "_source": "Ruta4-Arboleda-Muiscas-SanFrancisco-PinosdeOriente",
        "_segmentIndex": 0,
        "_position": 51
      },
      "geometry": {
        "type": "Point",
        "coordinates": [
          -73.35229785570093,
          5.551657833713781
        ]
      }
    },
    {
      "type": "Feature",
      "properties": {
        "_source": "Ruta4-Arboleda-Muiscas-SanFrancisco-PinosdeOriente",
        "_segmentIndex": 0,
        "_position": 52
      },
      "geometry": {
        "type": "Point",
        "coordinates": [
          -73.3525325525543,
          5.5512760609837315
        ]
      }
    },
    {
      "type": "Feature",
      "properties": {
        "_source": "Ruta4-Arboleda-Muiscas-SanFrancisco-PinosdeOriente",
        "_segmentIndex": 0,
        "_position": 53
      },
      "geometry": {
        "type": "Point",
        "coordinates": [
          -73.35279296422273,
          5.550908617650833
        ]
      }
    },
    {
      "type": "Feature",
      "properties": {
        "_source": "Ruta4-Arboleda-Muiscas-SanFrancisco-PinosdeOriente",
        "_segmentIndex": 0,
        "_position": 54
      },
      "geometry": {
        "type": "Point",
        "coordinates": [
          -73.3530765621892,
          5.550559441561563
        ]
      }
    },
    {
      "type": "Feature",
      "properties": {
        "_source": "Ruta4-Arboleda-Muiscas-SanFrancisco-PinosdeOriente",
        "_segmentIndex": 0,
        "_position": 55
      },
      "geometry": {
        "type": "Point",
        "coordinates": [
          -73.35337608597753,
          5.550222812601226
        ]
      }
    },
    {
      "type": "Feature",
      "properties": {
        "_source": "Ruta4-Arboleda-Muiscas-SanFrancisco-PinosdeOriente",
        "_segmentIndex": 0,
        "_position": 56
      },
      "geometry": {
        "type": "Point",
        "coordinates": [
          -73.35366749822262,
          5.549879492671344
        ]
      }
    },
    {
      "type": "Feature",
      "properties": {
        "_source": "Ruta4-Arboleda-Muiscas-SanFrancisco-PinosdeOriente",
        "_segmentIndex": 0,
        "_position": 57
      },
      "geometry": {
        "type": "Point",
        "coordinates": [
          -73.3539442325963,
          5.549524065307975
        ]
      }
    },
    {
      "type": "Feature",
      "properties": {
        "_source": "Ruta4-Arboleda-Muiscas-SanFrancisco-PinosdeOriente",
        "_segmentIndex": 0,
        "_position": 58
      },
      "geometry": {
        "type": "Point",
        "coordinates": [
          -73.35422096663639,
          5.549168637815952
        ]
      }
    },
    {
      "type": "Feature",
      "properties": {
        "_source": "Ruta4-Arboleda-Muiscas-SanFrancisco-PinosdeOriente",
        "_segmentIndex": 0,
        "_position": 59
      },
      "geometry": {
        "type": "Point",
        "coordinates": [
          -73.35449770034292,
          5.548813210195287
        ]
      }
    },
    {
      "type": "Feature",
      "properties": {
        "_source": "Ruta4-Arboleda-Muiscas-SanFrancisco-PinosdeOriente",
        "_segmentIndex": 0,
        "_position": 60
      },
      "geometry": {
        "type": "Point",
        "coordinates": [
          -73.35477443371587,
          5.548457782445984
        ]
      }
    },
    {
      "type": "Feature",
      "properties": {
        "_source": "Ruta4-Arboleda-Muiscas-SanFrancisco-PinosdeOriente",
        "_segmentIndex": 0,
        "_position": 61
      },
      "geometry": {
        "type": "Point",
        "coordinates": [
          -73.35505116675533,
          5.548102354568058
        ]
      }
    },
    {
      "type": "Feature",
      "properties": {
        "_source": "Ruta4-Arboleda-Muiscas-SanFrancisco-PinosdeOriente",
        "_segmentIndex": 0,
        "_position": 62
      },
      "geometry": {
        "type": "Point",
        "coordinates": [
          -73.35531779872667,
          5.547739359946533
        ]
      }
    },
    {
      "type": "Feature",
      "properties": {
        "_source": "Ruta4-Arboleda-Muiscas-SanFrancisco-PinosdeOriente",
        "_segmentIndex": 0,
        "_position": 63
      },
      "geometry": {
        "type": "Point",
        "coordinates": [
          -73.35558431367991,
          5.547376278868601
        ]
      }
    },
    {
      "type": "Feature",
      "properties": {
        "_source": "Ruta4-Arboleda-Muiscas-SanFrancisco-PinosdeOriente",
        "_segmentIndex": 0,
        "_position": 64
      },
      "geometry": {
        "type": "Point",
        "coordinates": [
          -73.35585082770545,
          5.547013197235293
        ]
      }
    },
    {
      "type": "Feature",
      "properties": {
        "_source": "Ruta4-Arboleda-Muiscas-SanFrancisco-PinosdeOriente",
        "_segmentIndex": 0,
        "_position": 65
      },
      "geometry": {
        "type": "Point",
        "coordinates": [
          -73.35611734140298,
          5.546650115482712
        ]
      }
    },
    {
      "type": "Feature",
      "properties": {
        "_source": "Ruta4-Arboleda-Muiscas-SanFrancisco-PinosdeOriente",
        "_segmentIndex": 0,
        "_position": 66
      },
      "geometry": {
        "type": "Point",
        "coordinates": [
          -73.35638696428009,
          5.546289319031225
        ]
      }
    },
    {
      "type": "Feature",
      "properties": {
        "_source": "Ruta4-Arboleda-Muiscas-SanFrancisco-PinosdeOriente",
        "_segmentIndex": 0,
        "_position": 67
      },
      "geometry": {
        "type": "Point",
        "coordinates": [
          -73.35665717938629,
          5.545928957975345
        ]
      }
    },
    {
      "type": "Feature",
      "properties": {
        "_source": "Ruta4-Arboleda-Muiscas-SanFrancisco-PinosdeOriente",
        "_segmentIndex": 0,
        "_position": 68
      },
      "geometry": {
        "type": "Point",
        "coordinates": [
          -73.35692739416244,
          5.5455685967968815
        ]
      }
    },
    {
      "type": "Feature",
      "properties": {
        "_source": "Ruta4-Arboleda-Muiscas-SanFrancisco-PinosdeOriente",
        "_segmentIndex": 0,
        "_position": 69
      },
      "geometry": {
        "type": "Point",
        "coordinates": [
          -73.35719760860857,
          5.545208235495842
        ]
      }
    },
    {
      "type": "Feature",
      "properties": {
        "_source": "Ruta4-Arboleda-Muiscas-SanFrancisco-PinosdeOriente",
        "_segmentIndex": 0,
        "_position": 0
      },
      "geometry": {
        "type": "Point",
        "coordinates": [
          -73.357365,
          5.544985
        ]
      }
    },
    {
      "type": "Feature",
      "properties": {
        "_source": "Ruta4-Arboleda-Muiscas-SanFrancisco-PinosdeOriente",
        "_segmentIndex": 0,
        "_position": 1
      },
      "geometry": {
        "type": "Point",
        "coordinates": [
          -73.3577709720555,
          5.544824081693953
        ]
      }
    },
    {
      "type": "Feature",
      "properties": {
        "_source": "Ruta4-Arboleda-Muiscas-SanFrancisco-PinosdeOriente",
        "_segmentIndex": 0,
        "_position": 2
      },
      "geometry": {
        "type": "Point",
        "coordinates": [
          -73.35786704583214,
          5.544400471131559
        ]
      }
    },
    {
      "type": "Feature",
      "properties": {
        "_source": "Ruta4-Arboleda-Muiscas-SanFrancisco-PinosdeOriente",
        "_segmentIndex": 0,
        "_position": 0
      },
      "geometry": {
        "type": "Point",
        "coordinates": [
          -73.357885,
          5.544346
        ]
      }
    },
    {
      "type": "Feature",
      "properties": {
        "_source": "Ruta4-Arboleda-Muiscas-SanFrancisco-PinosdeOriente",
        "_segmentIndex": 0,
        "_position": 1
      },
      "geometry": {
        "type": "Point",
        "coordinates": [
          -73.35813047546624,
          5.543968510228671
        ]
      }
    },
    {
      "type": "Feature",
      "properties": {
        "_source": "Ruta4-Arboleda-Muiscas-SanFrancisco-PinosdeOriente",
        "_segmentIndex": 0,
        "_position": 2
      },
      "geometry": {
        "type": "Point",
        "coordinates": [
          -73.35839340960099,
          5.543603267692518
        ]
      }
    },
    {
      "type": "Feature",
      "properties": {
        "_source": "Ruta4-Arboleda-Muiscas-SanFrancisco-PinosdeOriente",
        "_segmentIndex": 0,
        "_position": 3
      },
      "geometry": {
        "type": "Point",
        "coordinates": [
          -73.3586680489517,
          5.543246236380584
        ]
      }
    },
    {
      "type": "Feature",
      "properties": {
        "_source": "Ruta4-Arboleda-Muiscas-SanFrancisco-PinosdeOriente",
        "_segmentIndex": 0,
        "_position": 4
      },
      "geometry": {
        "type": "Point",
        "coordinates": [
          -73.3589455581332,
          5.542901259604611
        ]
      }
    },
    {
      "type": "Feature",
      "properties": {
        "_source": "Ruta4-Arboleda-Muiscas-SanFrancisco-PinosdeOriente",
        "_segmentIndex": 0,
        "_position": 5
      },
      "geometry": {
        "type": "Point",
        "coordinates": [
          -73.35891955711578,
          5.542514313917459
        ]
      }
    },
    {
      "type": "Feature",
      "properties": {
        "_source": "Ruta4-Arboleda-Muiscas-SanFrancisco-PinosdeOriente",
        "_segmentIndex": 0,
        "_position": 6
      },
      "geometry": {
        "type": "Point",
        "coordinates": [
          -73.35900512056034,
          5.542074437102527
        ]
      }
    },
    {
      "type": "Feature",
      "properties": {
        "_source": "Ruta4-Arboleda-Muiscas-SanFrancisco-PinosdeOriente",
        "_segmentIndex": 0,
        "_position": 7
      },
      "geometry": {
        "type": "Point",
        "coordinates": [
          -73.35918855017954,
          5.541664233100015
        ]
      }
    },
    {
      "type": "Feature",
      "properties": {
        "_source": "Ruta4-Arboleda-Muiscas-SanFrancisco-PinosdeOriente",
        "_segmentIndex": 0,
        "_position": 8
      },
      "geometry": {
        "type": "Point",
        "coordinates": [
          -73.3593856909717,
          5.541259645037423
        ]
      }
    },
    {
      "type": "Feature",
      "properties": {
        "_source": "Ruta4-Arboleda-Muiscas-SanFrancisco-PinosdeOriente",
        "_segmentIndex": 0,
        "_position": 9
      },
      "geometry": {
        "type": "Point",
        "coordinates": [
          -73.35957882502785,
          5.540853185051227
        ]
      }
    },
    {
      "type": "Feature",
      "properties": {
        "_source": "Ruta4-Arboleda-Muiscas-SanFrancisco-PinosdeOriente",
        "_segmentIndex": 0,
        "_position": 10
      },
      "geometry": {
        "type": "Point",
        "coordinates": [
          -73.35976504438358,
          5.540443502362855
        ]
      }
    },
    {
      "type": "Feature",
      "properties": {
        "_source": "Ruta4-Arboleda-Muiscas-SanFrancisco-PinosdeOriente",
        "_segmentIndex": 0,
        "_position": 11
      },
      "geometry": {
        "type": "Point",
        "coordinates": [
          -73.35990264425314,
          5.54001526192472
        ]
      }
    },
    {
      "type": "Feature",
      "properties": {
        "_source": "Ruta4-Arboleda-Muiscas-SanFrancisco-PinosdeOriente",
        "_segmentIndex": 0,
        "_position": 12
      },
      "geometry": {
        "type": "Point",
        "coordinates": [
          -73.36004058742209,
          5.539587186418491
        ]
      }
    },
    {
      "type": "Feature",
      "properties": {
        "_source": "Ruta4-Arboleda-Muiscas-SanFrancisco-PinosdeOriente",
        "_segmentIndex": 0,
        "_position": 13
      },
      "geometry": {
        "type": "Point",
        "coordinates": [
          -73.36014435346237,
          5.539149567118685
        ]
      }
    },
    {
      "type": "Feature",
      "properties": {
        "_source": "Ruta4-Arboleda-Muiscas-SanFrancisco-PinosdeOriente",
        "_segmentIndex": 0,
        "_position": 14
      },
      "geometry": {
        "type": "Point",
        "coordinates": [
          -73.36024242735415,
          5.538710638326265
        ]
      }
    },
    {
      "type": "Feature",
      "properties": {
        "_source": "Ruta4-Arboleda-Muiscas-SanFrancisco-PinosdeOriente",
        "_segmentIndex": 0,
        "_position": 0
      },
      "geometry": {
        "type": "Point",
        "coordinates": [
          -73.360246,
          5.538694
        ]
      }
    },
    {
      "type": "Feature",
      "properties": {
        "_source": "Ruta4-Arboleda-Muiscas-SanFrancisco-PinosdeOriente",
        "_segmentIndex": 0,
        "_position": 1
      },
      "geometry": {
        "type": "Point",
        "coordinates": [
          -73.36036494113809,
          5.538260235468787
        ]
      }
    },
    {
      "type": "Feature",
      "properties": {
        "_source": "Ruta4-Arboleda-Muiscas-SanFrancisco-PinosdeOriente",
        "_segmentIndex": 0,
        "_position": 2
      },
      "geometry": {
        "type": "Point",
        "coordinates": [
          -73.36057606052756,
          5.537873621758621
        ]
      }
    },
    {
      "type": "Feature",
      "properties": {
        "_source": "Ruta4-Arboleda-Muiscas-SanFrancisco-PinosdeOriente",
        "_segmentIndex": 0,
        "_position": 0
      },
      "geometry": {
        "type": "Point",
        "coordinates": [
          -73.36072,
          5.537781
        ]
      }
    },
    {
      "type": "Feature",
      "properties": {
        "_source": "Ruta4-Arboleda-Muiscas-SanFrancisco-PinosdeOriente",
        "_segmentIndex": 0,
        "_position": 1
      },
      "geometry": {
        "type": "Point",
        "coordinates": [
          -73.36110382372928,
          5.537544606939787
        ]
      }
    },
    {
      "type": "Feature",
      "properties": {
        "_source": "Ruta4-Arboleda-Muiscas-SanFrancisco-PinosdeOriente",
        "_segmentIndex": 0,
        "_position": 2
      },
      "geometry": {
        "type": "Point",
        "coordinates": [
          -73.36135258166338,
          5.537177350627213
        ]
      }
    },
    {
      "type": "Feature",
      "properties": {
        "_source": "Ruta4-Arboleda-Muiscas-SanFrancisco-PinosdeOriente",
        "_segmentIndex": 0,
        "_position": 3
      },
      "geometry": {
        "type": "Point",
        "coordinates": [
          -73.36160469548386,
          5.5368109622806845
        ]
      }
    },
    {
      "type": "Feature",
      "properties": {
        "_source": "Ruta4-Arboleda-Muiscas-SanFrancisco-PinosdeOriente",
        "_segmentIndex": 0,
        "_position": 4
      },
      "geometry": {
        "type": "Point",
        "coordinates": [
          -73.36195965686763,
          5.536541416581954
        ]
      }
    },
    {
      "type": "Feature",
      "properties": {
        "_source": "Ruta4-Arboleda-Muiscas-SanFrancisco-PinosdeOriente",
        "_segmentIndex": 0,
        "_position": 5
      },
      "geometry": {
        "type": "Point",
        "coordinates": [
          -73.3624056731455,
          5.536473959047715
        ]
      }
    },
    {
      "type": "Feature",
      "properties": {
        "_source": "Ruta4-Arboleda-Muiscas-SanFrancisco-PinosdeOriente",
        "_segmentIndex": 0,
        "_position": 6
      },
      "geometry": {
        "type": "Point",
        "coordinates": [
          -73.36285531198001,
          5.536430357628246
        ]
      }
    },
    {
      "type": "Feature",
      "properties": {
        "_source": "Ruta4-Arboleda-Muiscas-SanFrancisco-PinosdeOriente",
        "_segmentIndex": 0,
        "_position": 7
      },
      "geometry": {
        "type": "Point",
        "coordinates": [
          -73.36330456945716,
          5.536383023216855
        ]
      }
    },
    {
      "type": "Feature",
      "properties": {
        "_source": "Ruta4-Arboleda-Muiscas-SanFrancisco-PinosdeOriente",
        "_segmentIndex": 0,
        "_position": 8
      },
      "geometry": {
        "type": "Point",
        "coordinates": [
          -73.363753823709,
          5.536335657598095
        ]
      }
    },
    {
      "type": "Feature",
      "properties": {
        "_source": "Ruta4-Arboleda-Muiscas-SanFrancisco-PinosdeOriente",
        "_segmentIndex": 0,
        "_position": 9
      },
      "geometry": {
        "type": "Point",
        "coordinates": [
          -73.36420399409121,
          5.536298017926411
        ]
      }
    },
    {
      "type": "Feature",
      "properties": {
        "_source": "Ruta4-Arboleda-Muiscas-SanFrancisco-PinosdeOriente",
        "_segmentIndex": 0,
        "_position": 10
      },
      "geometry": {
        "type": "Point",
        "coordinates": [
          -73.36464331678664,
          5.53621284547387
        ]
      }
    },
    {
      "type": "Feature",
      "properties": {
        "_source": "Ruta4-Arboleda-Muiscas-SanFrancisco-PinosdeOriente",
        "_segmentIndex": 0,
        "_position": 0
      },
      "geometry": {
        "type": "Point",
        "coordinates": [
          -73.364736,
          5.536152
        ]
      }
    },
    {
      "type": "Feature",
      "properties": {
        "_source": "Ruta4-Arboleda-Muiscas-SanFrancisco-PinosdeOriente",
        "_segmentIndex": 0,
        "_position": 1
      },
      "geometry": {
        "type": "Point",
        "coordinates": [
          -73.36490530248864,
          5.535737650895413
        ]
      }
    },
    {
      "type": "Feature",
      "properties": {
        "_source": "Ruta4-Arboleda-Muiscas-SanFrancisco-PinosdeOriente",
        "_segmentIndex": 0,
        "_position": 2
      },
      "geometry": {
        "type": "Point",
        "coordinates": [
          -73.3653336052941,
          5.535617025062122
        ]
      }
    },
    {
      "type": "Feature",
      "properties": {
        "_source": "Ruta4-Arboleda-Muiscas-SanFrancisco-PinosdeOriente",
        "_segmentIndex": 0,
        "_position": 0
      },
      "geometry": {
        "type": "Point",
        "coordinates": [
          -73.365434,
          5.535602
        ]
      }
    },
    {
      "type": "Feature",
      "properties": {
        "_source": "Ruta4-Arboleda-Muiscas-SanFrancisco-PinosdeOriente",
        "_segmentIndex": 0,
        "_position": 1
      },
      "geometry": {
        "type": "Point",
        "coordinates": [
          -73.36563143066493,
          5.535197656699347
        ]
      }
    },
    {
      "type": "Feature",
      "properties": {
        "_source": "Ruta4-Arboleda-Muiscas-SanFrancisco-PinosdeOriente",
        "_segmentIndex": 0,
        "_position": 2
      },
      "geometry": {
        "type": "Point",
        "coordinates": [
          -73.36579365080831,
          5.534778052088755
        ]
      }
    },
    {
      "type": "Feature",
      "properties": {
        "_source": "Ruta4-Arboleda-Muiscas-SanFrancisco-PinosdeOriente",
        "_segmentIndex": 0,
        "_position": 3
      },
      "geometry": {
        "type": "Point",
        "coordinates": [
          -73.36599413807022,
          5.5343763090698594
        ]
      }
    },
    {
      "type": "Feature",
      "properties": {
        "_source": "Ruta4-Arboleda-Muiscas-SanFrancisco-PinosdeOriente",
        "_segmentIndex": 0,
        "_position": 4
      },
      "geometry": {
        "type": "Point",
        "coordinates": [
          -73.36616227923355,
          5.533959351915199
        ]
      }
    },
    {
      "type": "Feature",
      "properties": {
        "_source": "Ruta4-Arboleda-Muiscas-SanFrancisco-PinosdeOriente",
        "_segmentIndex": 0,
        "_position": 5
      },
      "geometry": {
        "type": "Point",
        "coordinates": [
          -73.36635825536766,
          5.533554258905138
        ]
      }
    },
    {
      "type": "Feature",
      "properties": {
        "_source": "Ruta4-Arboleda-Muiscas-SanFrancisco-PinosdeOriente",
        "_segmentIndex": 0,
        "_position": 6
      },
      "geometry": {
        "type": "Point",
        "coordinates": [
          -73.36653828976839,
          5.533141895566496
        ]
      }
    },
    {
      "type": "Feature",
      "properties": {
        "_source": "Ruta4-Arboleda-Muiscas-SanFrancisco-PinosdeOriente",
        "_segmentIndex": 0,
        "_position": 7
      },
      "geometry": {
        "type": "Point",
        "coordinates": [
          -73.36667301762617,
          5.532714028720669
        ]
      }
    },
    {
      "type": "Feature",
      "properties": {
        "_source": "Ruta4-Arboleda-Muiscas-SanFrancisco-PinosdeOriente",
        "_segmentIndex": 0,
        "_position": 8
      },
      "geometry": {
        "type": "Point",
        "coordinates": [
          -73.36675160346576,
          5.532271230145185
        ]
      }
    },
    {
      "type": "Feature",
      "properties": {
        "_source": "Ruta4-Arboleda-Muiscas-SanFrancisco-PinosdeOriente",
        "_segmentIndex": 0,
        "_position": 9
      },
      "geometry": {
        "type": "Point",
        "coordinates": [
          -73.36680804712184,
          5.531825093394072
        ]
      }
    },
    {
      "type": "Feature",
      "properties": {
        "_source": "Ruta4-Arboleda-Muiscas-SanFrancisco-PinosdeOriente",
        "_segmentIndex": 0,
        "_position": 10
      },
      "geometry": {
        "type": "Point",
        "coordinates": [
          -73.36687837311025,
          5.531381027415126
        ]
      }
    },
    {
      "type": "Feature",
      "properties": {
        "_source": "Ruta4-Arboleda-Muiscas-SanFrancisco-PinosdeOriente",
        "_segmentIndex": 0,
        "_position": 0
      },
      "geometry": {
        "type": "Point",
        "coordinates": [
          -73.366917,
          5.531122
        ]
      }
    },
    {
      "type": "Feature",
      "properties": {
        "_source": "Ruta4-Arboleda-Muiscas-SanFrancisco-PinosdeOriente",
        "_segmentIndex": 0,
        "_position": 1
      },
      "geometry": {
        "type": "Point",
        "coordinates": [
          -73.36647682673126,
          5.531020798385297
        ]
      }
    },
    {
      "type": "Feature",
      "properties": {
        "_source": "Ruta4-Arboleda-Muiscas-SanFrancisco-PinosdeOriente",
        "_segmentIndex": 0,
        "_position": 2
      },
      "geometry": {
        "type": "Point",
        "coordinates": [
          -73.36603653261382,
          5.530920126854538
        ]
      }
    },
    {
      "type": "Feature",
      "properties": {
        "_source": "Ruta4-Arboleda-Muiscas-SanFrancisco-PinosdeOriente",
        "_segmentIndex": 0,
        "_position": 3
      },
      "geometry": {
        "type": "Point",
        "coordinates": [
          -73.36559561313588,
          5.530822196956039
        ]
      }
    },
    {
      "type": "Feature",
      "properties": {
        "_source": "Ruta4-Arboleda-Muiscas-SanFrancisco-PinosdeOriente",
        "_segmentIndex": 0,
        "_position": 4
      },
      "geometry": {
        "type": "Point",
        "coordinates": [
          -73.3651546771442,
          5.530724342133605
        ]
      }
    },
    {
      "type": "Feature",
      "properties": {
        "_source": "Ruta4-Arboleda-Muiscas-SanFrancisco-PinosdeOriente",
        "_segmentIndex": 0,
        "_position": 5
      },
      "geometry": {
        "type": "Point",
        "coordinates": [
          -73.36471403503047,
          5.530625719455214
        ]
      }
    },
    {
      "type": "Feature",
      "properties": {
        "_source": "Ruta4-Arboleda-Muiscas-SanFrancisco-PinosdeOriente",
        "_segmentIndex": 0,
        "_position": 6
      },
      "geometry": {
        "type": "Point",
        "coordinates": [
          -73.36428093713573,
          5.530497802429727
        ]
      }
    },
    {
      "type": "Feature",
      "properties": {
        "_source": "Ruta4-Arboleda-Muiscas-SanFrancisco-PinosdeOriente",
        "_segmentIndex": 0,
        "_position": 0
      },
      "geometry": {
        "type": "Point",
        "coordinates": [
          -73.368605,
          5.516112
        ]
      }
    },
    {
      "type": "Feature",
      "properties": {
        "_source": "Ruta4-Arboleda-Muiscas-SanFrancisco-PinosdeOriente",
        "_segmentIndex": 0,
        "_position": 1
      },
      "geometry": {
        "type": "Point",
        "coordinates": [
          -73.36858082986974,
          5.515663034410667
        ]
      }
    },
    {
      "type": "Feature",
      "properties": {
        "_source": "Ruta4-Arboleda-Muiscas-SanFrancisco-PinosdeOriente",
        "_segmentIndex": 0,
        "_position": 2
      },
      "geometry": {
        "type": "Point",
        "coordinates": [
          -73.36855599564915,
          5.515219749624733
        ]
      }
    },
    {
      "type": "Feature",
      "properties": {
        "_source": "Ruta4-Arboleda-Muiscas-SanFrancisco-PinosdeOriente",
        "_segmentIndex": 0,
        "_position": 3
      },
      "geometry": {
        "type": "Point",
        "coordinates": [
          -73.36842698514542,
          5.514796133691795
        ]
      }
    },
    {
      "type": "Feature",
      "properties": {
        "_source": "Ruta4-Arboleda-Muiscas-SanFrancisco-PinosdeOriente",
        "_segmentIndex": 0,
        "_position": 4
      },
      "geometry": {
        "type": "Point",
        "coordinates": [
          -73.36856488749676,
          5.514368164280283
        ]
      }
    },
    {
      "type": "Feature",
      "properties": {
        "_source": "Ruta4-Arboleda-Muiscas-SanFrancisco-PinosdeOriente",
        "_segmentIndex": 0,
        "_position": 5
      },
      "geometry": {
        "type": "Point",
        "coordinates": [
          -73.36853547944281,
          5.513936681749261
        ]
      }
    },
    {
      "type": "Feature",
      "properties": {
        "_source": "Ruta4-Arboleda-Muiscas-SanFrancisco-PinosdeOriente",
        "_segmentIndex": 0,
        "_position": 6
      },
      "geometry": {
        "type": "Point",
        "coordinates": [
          -73.3683603420451,
          5.5135221923699556
        ]
      }
    },
    {
      "type": "Feature",
      "properties": {
        "_source": "Ruta4-Arboleda-Muiscas-SanFrancisco-PinosdeOriente",
        "_segmentIndex": 0,
        "_position": 7
      },
      "geometry": {
        "type": "Point",
        "coordinates": [
          -73.36818239431229,
          5.5131088876864975
        ]
      }
    },
    {
      "type": "Feature",
      "properties": {
        "_source": "Ruta4-Arboleda-Muiscas-SanFrancisco-PinosdeOriente",
        "_segmentIndex": 0,
        "_position": 8
      },
      "geometry": {
        "type": "Point",
        "coordinates": [
          -73.3680043565689,
          5.512695621146105
        ]
      }
    },
    {
      "type": "Feature",
      "properties": {
        "_source": "Ruta4-Arboleda-Muiscas-SanFrancisco-PinosdeOriente",
        "_segmentIndex": 0,
        "_position": 9
      },
      "geometry": {
        "type": "Point",
        "coordinates": [
          -73.36786036124279,
          5.512270996975873
        ]
      }
    },
    {
      "type": "Feature",
      "properties": {
        "_source": "Ruta4-Arboleda-Muiscas-SanFrancisco-PinosdeOriente",
        "_segmentIndex": 0,
        "_position": 10
      },
      "geometry": {
        "type": "Point",
        "coordinates": [
          -73.36785032744913,
          5.511821590629988
        ]
      }
    },
    {
      "type": "Feature",
      "properties": {
        "_source": "Ruta4-Arboleda-Muiscas-SanFrancisco-PinosdeOriente",
        "_segmentIndex": 0,
        "_position": 11
      },
      "geometry": {
        "type": "Point",
        "coordinates": [
          -73.36791135159554,
          5.5113828078122395
        ]
      }
    },
    {
      "type": "Feature",
      "properties": {
        "_source": "Ruta4-Arboleda-Muiscas-SanFrancisco-PinosdeOriente",
        "_segmentIndex": 0,
        "_position": 12
      },
      "geometry": {
        "type": "Point",
        "coordinates": [
          -73.36823809602434,
          5.511085923403287
        ]
      }
    },
    {
      "type": "Feature",
      "properties": {
        "_source": "Ruta4-Arboleda-Muiscas-SanFrancisco-PinosdeOriente",
        "_segmentIndex": 0,
        "_position": 13
      },
      "geometry": {
        "type": "Point",
        "coordinates": [
          -73.36855355789797,
          5.5107849023717455
        ]
      }
    },
    {
      "type": "Feature",
      "properties": {
        "_source": "Ruta4-Arboleda-Muiscas-SanFrancisco-PinosdeOriente",
        "_segmentIndex": 0,
        "_position": 14
      },
      "geometry": {
        "type": "Point",
        "coordinates": [
          -73.3684165769401,
          5.510377288937062
        ]
      }
    },
    {
      "type": "Feature",
      "properties": {
        "_source": "Ruta4-Arboleda-Muiscas-SanFrancisco-PinosdeOriente",
        "_segmentIndex": 0,
        "_position": 15
      },
      "geometry": {
        "type": "Point",
        "coordinates": [
          -73.36823128807079,
          5.509973715425974
        ]
      }
    },
    {
      "type": "Feature",
      "properties": {
        "_source": "Ruta4-Arboleda-Muiscas-SanFrancisco-PinosdeOriente",
        "_segmentIndex": 0,
        "_position": 16
      },
      "geometry": {
        "type": "Point",
        "coordinates": [
          -73.36819326966264,
          5.509527623108202
        ]
      }
    },
    {
      "type": "Feature",
      "properties": {
        "_source": "Ruta4-Arboleda-Muiscas-SanFrancisco-PinosdeOriente",
        "_segmentIndex": 0,
        "_position": 17
      },
      "geometry": {
        "type": "Point",
        "coordinates": [
          -73.368082978986,
          5.509149980737176
        ]
      }
    },
    {
      "type": "Feature",
      "properties": {
        "_source": "Ruta4-Arboleda-Muiscas-SanFrancisco-PinosdeOriente",
        "_segmentIndex": 0,
        "_position": 18
      },
      "geometry": {
        "type": "Point",
        "coordinates": [
          -73.36769096704295,
          5.508930678862234
        ]
      }
    },
    {
      "type": "Feature",
      "properties": {
        "_source": "Ruta4-Arboleda-Muiscas-SanFrancisco-PinosdeOriente",
        "_segmentIndex": 0,
        "_position": 19
      },
      "geometry": {
        "type": "Point",
        "coordinates": [
          -73.36731355547751,
          5.508688047981256
        ]
      }
    },
    {
      "type": "Feature",
      "properties": {
        "_source": "Ruta4-Arboleda-Muiscas-SanFrancisco-PinosdeOriente",
        "_segmentIndex": 0,
        "_position": 20
      },
      "geometry": {
        "type": "Point",
        "coordinates": [
          -73.36705532647967,
          5.508320544870521
        ]
      }
    },
    {
      "type": "Feature",
      "properties": {
        "_source": "Ruta4-Arboleda-Muiscas-SanFrancisco-PinosdeOriente",
        "_segmentIndex": 0,
        "_position": 0
      },
      "geometry": {
        "type": "Point",
        "coordinates": [
          -73.366972,
          5.508195
        ]
      }
    },
    {
      "type": "Feature",
      "properties": {
        "_source": "Ruta4-Arboleda-Muiscas-SanFrancisco-PinosdeOriente",
        "_segmentIndex": 0,
        "_position": 1
      },
      "geometry": {
        "type": "Point",
        "coordinates": [
          -73.36656954081235,
          5.508159472870011
        ]
      }
    },
    {
      "type": "Feature",
      "properties": {
        "_source": "Ruta4-Arboleda-Muiscas-SanFrancisco-PinosdeOriente",
        "_segmentIndex": 0,
        "_position": 2
      },
      "geometry": {
        "type": "Point",
        "coordinates": [
          -73.36615350820034,
          5.508331245900548
        ]
      }
    },
    {
      "type": "Feature",
      "properties": {
        "_source": "Ruta4-Arboleda-Muiscas-SanFrancisco-PinosdeOriente",
        "_segmentIndex": 0,
        "_position": 3
      },
      "geometry": {
        "type": "Point",
        "coordinates": [
          -73.36571886535441,
          5.50833943267768
        ]
      }
    },
    {
      "type": "Feature",
      "properties": {
        "_source": "Ruta4-Arboleda-Muiscas-SanFrancisco-PinosdeOriente",
        "_segmentIndex": 0,
        "_position": 4
      },
      "geometry": {
        "type": "Point",
        "coordinates": [
          -73.36547254388753,
          5.507991629735069
        ]
      }
    },
    {
      "type": "Feature",
      "properties": {
        "_source": "Ruta4-Arboleda-Muiscas-SanFrancisco-PinosdeOriente",
        "_segmentIndex": 0,
        "_position": 5
      },
      "geometry": {
        "type": "Point",
        "coordinates": [
          -73.36551477785304,
          5.507546486483693
        ]
      }
    },
    {
      "type": "Feature",
      "properties": {
        "_source": "Ruta4-Arboleda-Muiscas-SanFrancisco-PinosdeOriente",
        "_segmentIndex": 0,
        "_position": 6
      },
      "geometry": {
        "type": "Point",
        "coordinates": [
          -73.36558849294988,
          5.507102873290938
        ]
      }
    },
    {
      "type": "Feature",
      "properties": {
        "_source": "Ruta4-Arboleda-Muiscas-SanFrancisco-PinosdeOriente",
        "_segmentIndex": 0,
        "_position": 7
      },
      "geometry": {
        "type": "Point",
        "coordinates": [
          -73.36567091550697,
          5.506660803049635
        ]
      }
    },
    {
      "type": "Feature",
      "properties": {
        "_source": "Ruta4-Arboleda-Muiscas-SanFrancisco-PinosdeOriente",
        "_segmentIndex": 0,
        "_position": 8
      },
      "geometry": {
        "type": "Point",
        "coordinates": [
          -73.36575610590575,
          5.5062193116148626
        ]
      }
    },
    {
      "type": "Feature",
      "properties": {
        "_source": "Ruta4-Arboleda-Muiscas-SanFrancisco-PinosdeOriente",
        "_segmentIndex": 0,
        "_position": 9
      },
      "geometry": {
        "type": "Point",
        "coordinates": [
          -73.36588432855291,
          5.5057888160786606
        ]
      }
    },
    {
      "type": "Feature",
      "properties": {
        "_source": "Ruta4-Arboleda-Muiscas-SanFrancisco-PinosdeOriente",
        "_segmentIndex": 0,
        "_position": 10
      },
      "geometry": {
        "type": "Point",
        "coordinates": [
          -73.36608541733744,
          5.505386778465936
        ]
      }
    },
    {
      "type": "Feature",
      "properties": {
        "_source": "Ruta4-Arboleda-Muiscas-SanFrancisco-PinosdeOriente",
        "_segmentIndex": 0,
        "_position": 11
      },
      "geometry": {
        "type": "Point",
        "coordinates": [
          -73.36630606593192,
          5.504994408089249
        ]
      }
    },
    {
      "type": "Feature",
      "properties": {
        "_source": "Ruta4-Arboleda-Muiscas-SanFrancisco-PinosdeOriente",
        "_segmentIndex": 0,
        "_position": 12
      },
      "geometry": {
        "type": "Point",
        "coordinates": [
          -73.36653211363144,
          5.5046051889960514
        ]
      }
    },
    {
      "type": "Feature",
      "properties": {
        "_source": "Ruta4-Arboleda-Muiscas-SanFrancisco-PinosdeOriente",
        "_segmentIndex": 0,
        "_position": 13
      },
      "geometry": {
        "type": "Point",
        "coordinates": [
          -73.36679881341007,
          5.504243234794806
        ]
      }
    },
    {
      "type": "Feature",
      "properties": {
        "_source": "Ruta4-Arboleda-Muiscas-SanFrancisco-PinosdeOriente",
        "_segmentIndex": 0,
        "_position": 14
      },
      "geometry": {
        "type": "Point",
        "coordinates": [
          -73.36707788367433,
          5.50388970357127
        ]
      }
    },
    {
      "type": "Feature",
      "properties": {
        "_source": "Ruta4-Arboleda-Muiscas-SanFrancisco-PinosdeOriente",
        "_segmentIndex": 0,
        "_position": 15
      },
      "geometry": {
        "type": "Point",
        "coordinates": [
          -73.36733270855714,
          5.503520621317563
        ]
      }
    },
    {
      "type": "Feature",
      "properties": {
        "_source": "Ruta4-Arboleda-Muiscas-SanFrancisco-PinosdeOriente",
        "_segmentIndex": 0,
        "_position": 16
      },
      "geometry": {
        "type": "Point",
        "coordinates": [
          -73.36763083042584,
          5.503182858539084
        ]
      }
    },
    {
      "type": "Feature",
      "properties": {
        "_source": "Ruta4-Arboleda-Muiscas-SanFrancisco-PinosdeOriente",
        "_segmentIndex": 0,
        "_position": 17
      },
      "geometry": {
        "type": "Point",
        "coordinates": [
          -73.36799893152805,
          5.5029356718805165
        ]
      }
    },
    {
      "type": "Feature",
      "properties": {
        "_source": "Ruta4-Arboleda-Muiscas-SanFrancisco-PinosdeOriente",
        "_segmentIndex": 0,
        "_position": 0
      },
      "geometry": {
        "type": "Point",
        "coordinates": [
          -73.368121,
          5.50289
        ]
      }
    },
    {
      "type": "Feature",
      "properties": {
        "_source": "Ruta4-Arboleda-Muiscas-SanFrancisco-PinosdeOriente",
        "_segmentIndex": 0,
        "_position": 1
      },
      "geometry": {
        "type": "Point",
        "coordinates": [
          -73.3683549834817,
          5.502635842605118
        ]
      }
    },
    {
      "type": "Feature",
      "properties": {
        "_source": "Ruta4-Arboleda-Muiscas-SanFrancisco-PinosdeOriente",
        "_segmentIndex": 0,
        "_position": 2
      },
      "geometry": {
        "type": "Point",
        "coordinates": [
          -73.36795721304236,
          5.502448311407428
        ]
      }
    },
    {
      "type": "Feature",
      "properties": {
        "_source": "Ruta4-Arboleda-Muiscas-SanFrancisco-PinosdeOriente",
        "_segmentIndex": 0,
        "_position": 3
      },
      "geometry": {
        "type": "Point",
        "coordinates": [
          -73.36763613639688,
          5.502132001636398
        ]
      }
    },
    {
      "type": "Feature",
      "properties": {
        "_source": "Ruta4-Arboleda-Muiscas-SanFrancisco-PinosdeOriente",
        "_segmentIndex": 0,
        "_position": 4
      },
      "geometry": {
        "type": "Point",
        "coordinates": [
          -73.36730535100394,
          5.50182633501096
        ]
      }
    },
    {
      "type": "Feature",
      "properties": {
        "_source": "Ruta4-Arboleda-Muiscas-SanFrancisco-PinosdeOriente",
        "_segmentIndex": 0,
        "_position": 5
      },
      "geometry": {
        "type": "Point",
        "coordinates": [
          -73.36703988204076,
          5.5014656804047775
        ]
      }
    },
    {
      "type": "Feature",
      "properties": {
        "_source": "Ruta4-Arboleda-Muiscas-SanFrancisco-PinosdeOriente",
        "_segmentIndex": 0,
        "_position": 6
      },
      "geometry": {
        "type": "Point",
        "coordinates": [
          -73.36688718848887,
          5.501059947869291
        ]
      }
    },
    {
      "type": "Feature",
      "properties": {
        "_source": "Ruta4-Arboleda-Muiscas-SanFrancisco-PinosdeOriente",
        "_segmentIndex": 0,
        "_position": 7
      },
      "geometry": {
        "type": "Point",
        "coordinates": [
          -73.36690955447844,
          5.50061287781218
        ]
      }
    },
    {
      "type": "Feature",
      "properties": {
        "_source": "Ruta4-Arboleda-Muiscas-SanFrancisco-PinosdeOriente",
        "_segmentIndex": 0,
        "_position": 8
      },
      "geometry": {
        "type": "Point",
        "coordinates": [
          -73.36706718401558,
          5.500192531534857
        ]
      }
    },
    {
      "type": "Feature",
      "properties": {
        "_source": "Ruta4-Arboleda-Muiscas-SanFrancisco-PinosdeOriente",
        "_segmentIndex": 0,
        "_position": 9
      },
      "geometry": {
        "type": "Point",
        "coordinates": [
          -73.3671659262558,
          5.499775559867086
        ]
      }
    },
    {
      "type": "Feature",
      "properties": {
        "_source": "Ruta4-Arboleda-Muiscas-SanFrancisco-PinosdeOriente",
        "_segmentIndex": 0,
        "_position": 10
      },
      "geometry": {
        "type": "Point",
        "coordinates": [
          -73.36677432431198,
          5.499629686491704
        ]
      }
    },
    {
      "type": "Feature",
      "properties": {
        "_source": "Ruta4-Arboleda-Muiscas-SanFrancisco-PinosdeOriente",
        "_segmentIndex": 0,
        "_position": 11
      },
      "geometry": {
        "type": "Point",
        "coordinates": [
          -73.3663610515061,
          5.499792331314695
        ]
      }
    },
    {
      "type": "Feature",
      "properties": {
        "_source": "Ruta4-Arboleda-Muiscas-SanFrancisco-PinosdeOriente",
        "_segmentIndex": 0,
        "_position": 12
      },
      "geometry": {
        "type": "Point",
        "coordinates": [
          -73.36591338406546,
          5.499752481940529
        ]
      }
    },
    {
      "type": "Feature",
      "properties": {
        "_source": "Ruta4-Arboleda-Muiscas-SanFrancisco-PinosdeOriente",
        "_segmentIndex": 0,
        "_position": 13
      },
      "geometry": {
        "type": "Point",
        "coordinates": [
          -73.36549660485487,
          5.49991096035287
        ]
      }
    },
    {
      "type": "Feature",
      "properties": {
        "_source": "Ruta4-Arboleda-Muiscas-SanFrancisco-PinosdeOriente",
        "_segmentIndex": 0,
        "_position": 14
      },
      "geometry": {
        "type": "Point",
        "coordinates": [
          -73.3651036491637,
          5.500132066798738
        ]
      }
    },
    {
      "type": "Feature",
      "properties": {
        "_source": "Ruta4-Arboleda-Muiscas-SanFrancisco-PinosdeOriente",
        "_segmentIndex": 0,
        "_position": 15
      },
      "geometry": {
        "type": "Point",
        "coordinates": [
          -73.36478624256344,
          5.50043608800313
        ]
      }
    },
    {
      "type": "Feature",
      "properties": {
        "_source": "Ruta4-Arboleda-Muiscas-SanFrancisco-PinosdeOriente",
        "_segmentIndex": 0,
        "_position": 16
      },
      "geometry": {
        "type": "Point",
        "coordinates": [
          -73.36464468201203,
          5.500851262258695
        ]
      }
    },
    {
      "type": "Feature",
      "properties": {
        "_source": "Ruta4-Arboleda-Muiscas-SanFrancisco-PinosdeOriente",
        "_segmentIndex": 0,
        "_position": 17
      },
      "geometry": {
        "type": "Point",
        "coordinates": [
          -73.3642419360693,
          5.501027849102061
        ]
      }
    },
    {
      "type": "Feature",
      "properties": {
        "_source": "Ruta4-Arboleda-Muiscas-SanFrancisco-PinosdeOriente",
        "_segmentIndex": 0,
        "_position": 18
      },
      "geometry": {
        "type": "Point",
        "coordinates": [
          -73.36379299615776,
          5.501075311463344
        ]
      }
    },
    {
      "type": "Feature",
      "properties": {
        "_source": "Ruta4-Arboleda-Muiscas-SanFrancisco-PinosdeOriente",
        "_segmentIndex": 0,
        "_position": 19
      },
      "geometry": {
        "type": "Point",
        "coordinates": [
          -73.36339532929716,
          5.50127882354787
        ]
      }
    },
    {
      "type": "Feature",
      "properties": {
        "_source": "Ruta4-Arboleda-Muiscas-SanFrancisco-PinosdeOriente",
        "_segmentIndex": 0,
        "_position": 0
      },
      "geometry": {
        "type": "Point",
        "coordinates": [
          -73.363329,
          5.501444
        ]
      }
    },
    {
      "type": "Feature",
      "properties": {
        "_source": "Ruta4-Arboleda-Muiscas-SanFrancisco-PinosdeOriente",
        "_segmentIndex": 0,
        "_position": 1
      },
      "geometry": {
        "type": "Point",
        "coordinates": [
          -73.36361035628514,
          5.501795761816329
        ]
      }
    },
    {
      "type": "Feature",
      "properties": {
        "_source": "Ruta4-Arboleda-Muiscas-SanFrancisco-PinosdeOriente",
        "_segmentIndex": 0,
        "_position": 2
      },
      "geometry": {
        "type": "Point",
        "coordinates": [
          -73.36388327204472,
          5.502154047409953
        ]
      }
    },
    {
      "type": "Feature",
      "properties": {
        "_source": "Ruta4-Arboleda-Muiscas-SanFrancisco-PinosdeOriente",
        "_segmentIndex": 0,
        "_position": 3
      },
      "geometry": {
        "type": "Point",
        "coordinates": [
          -73.3641590519842,
          5.502510173785559
        ]
      }
    },
    {
      "type": "Feature",
      "properties": {
        "_source": "Ruta4-Arboleda-Muiscas-SanFrancisco-PinosdeOriente",
        "_segmentIndex": 0,
        "_position": 4
      },
      "geometry": {
        "type": "Point",
        "coordinates": [
          -73.36444149313688,
          5.502860948821573
        ]
      }
    },
    {
      "type": "Feature",
      "properties": {
        "_source": "Ruta4-Arboleda-Muiscas-SanFrancisco-PinosdeOriente",
        "_segmentIndex": 0,
        "_position": 5
      },
      "geometry": {
        "type": "Point",
        "coordinates": [
          -73.36424854808511,
          5.502867188197565
        ]
      }
    },
    {
      "type": "Feature",
      "properties": {
        "_source": "Ruta4-Arboleda-Muiscas-SanFrancisco-PinosdeOriente",
        "_segmentIndex": 0,
        "_position": 0
      },
      "geometry": {
        "type": "Point",
        "coordinates": [
          -73.363855,
          5.530372
        ]
      }
    },
    {
      "type": "Feature",
      "properties": {
        "_source": "Ruta4-Arboleda-Muiscas-SanFrancisco-PinosdeOriente",
        "_segmentIndex": 0,
        "_position": 1
      },
      "geometry": {
        "type": "Point",
        "coordinates": [
          -73.36398471150837,
          5.529941273334861
        ]
      }
    },
    {
      "type": "Feature",
      "properties": {
        "_source": "Ruta4-Arboleda-Muiscas-SanFrancisco-PinosdeOriente",
        "_segmentIndex": 0,
        "_position": 2
      },
      "geometry": {
        "type": "Point",
        "coordinates": [
          -73.36410824535669,
          5.52950878526983
        ]
      }
    },
    {
      "type": "Feature",
      "properties": {
        "_source": "Ruta4-Arboleda-Muiscas-SanFrancisco-PinosdeOriente",
        "_segmentIndex": 0,
        "_position": 3
      },
      "geometry": {
        "type": "Point",
        "coordinates": [
          -73.36423150453368,
          5.529076214009558
        ]
      }
    },
    {
      "type": "Feature",
      "properties": {
        "_source": "Ruta4-Arboleda-Muiscas-SanFrancisco-PinosdeOriente",
        "_segmentIndex": 0,
        "_position": 4
      },
      "geometry": {
        "type": "Point",
        "coordinates": [
          -73.36436233171614,
          5.528645822635738
        ]
      }
    },
    {
      "type": "Feature",
      "properties": {
        "_source": "Ruta4-Arboleda-Muiscas-SanFrancisco-PinosdeOriente",
        "_segmentIndex": 0,
        "_position": 5
      },
      "geometry": {
        "type": "Point",
        "coordinates": [
          -73.36449023506313,
          5.528214563146628
        ]
      }
    },
    {
      "type": "Feature",
      "properties": {
        "_source": "Ruta4-Arboleda-Muiscas-SanFrancisco-PinosdeOriente",
        "_segmentIndex": 0,
        "_position": 6
      },
      "geometry": {
        "type": "Point",
        "coordinates": [
          -73.36461519858867,
          5.527782468726142
        ]
      }
    },
    {
      "type": "Feature",
      "properties": {
        "_source": "Ruta4-Arboleda-Muiscas-SanFrancisco-PinosdeOriente",
        "_segmentIndex": 0,
        "_position": 7
      },
      "geometry": {
        "type": "Point",
        "coordinates": [
          -73.36473354537395,
          5.527348528100586
        ]
      }
    },
    {
      "type": "Feature",
      "properties": {
        "_source": "Ruta4-Arboleda-Muiscas-SanFrancisco-PinosdeOriente",
        "_segmentIndex": 0,
        "_position": 8
      },
      "geometry": {
        "type": "Point",
        "coordinates": [
          -73.36489430444043,
          5.526930138243492
        ]
      }
    },
    {
      "type": "Feature",
      "properties": {
        "_source": "Ruta4-Arboleda-Muiscas-SanFrancisco-PinosdeOriente",
        "_segmentIndex": 0,
        "_position": 9
      },
      "geometry": {
        "type": "Point",
        "coordinates": [
          -73.36520710921215,
          5.52662344654453
        ]
      }
    },
    {
      "type": "Feature",
      "properties": {
        "_source": "Ruta4-Arboleda-Muiscas-SanFrancisco-PinosdeOriente",
        "_segmentIndex": 0,
        "_position": 10
      },
      "geometry": {
        "type": "Point",
        "coordinates": [
          -73.36543848595754,
          5.526237243894888
        ]
      }
    },
    {
      "type": "Feature",
      "properties": {
        "_source": "Ruta4-Arboleda-Muiscas-SanFrancisco-PinosdeOriente",
        "_segmentIndex": 0,
        "_position": 11
      },
      "geometry": {
        "type": "Point",
        "coordinates": [
          -73.36564901032689,
          5.525839503705911
        ]
      }
    },
    {
      "type": "Feature",
      "properties": {
        "_source": "Ruta4-Arboleda-Muiscas-SanFrancisco-PinosdeOriente",
        "_segmentIndex": 0,
        "_position": 12
      },
      "geometry": {
        "type": "Point",
        "coordinates": [
          -73.3658166960632,
          5.525422417315751
        ]
      }
    },
    {
      "type": "Feature",
      "properties": {
        "_source": "Ruta4-Arboleda-Muiscas-SanFrancisco-PinosdeOriente",
        "_segmentIndex": 0,
        "_position": 13
      },
      "geometry": {
        "type": "Point",
        "coordinates": [
          -73.36597636363207,
          5.525001778649197
        ]
      }
    },
    {
      "type": "Feature",
      "properties": {
        "_source": "Ruta4-Arboleda-Muiscas-SanFrancisco-PinosdeOriente",
        "_segmentIndex": 0,
        "_position": 14
      },
      "geometry": {
        "type": "Point",
        "coordinates": [
          -73.36613389836585,
          5.5245803520364305
        ]
      }
    },
    {
      "type": "Feature",
      "properties": {
        "_source": "Ruta4-Arboleda-Muiscas-SanFrancisco-PinosdeOriente",
        "_segmentIndex": 0,
        "_position": 15
      },
      "geometry": {
        "type": "Point",
        "coordinates": [
          -73.36628713645482,
          5.524157415384969
        ]
      }
    },
    {
      "type": "Feature",
      "properties": {
        "_source": "Ruta4-Arboleda-Muiscas-SanFrancisco-PinosdeOriente",
        "_segmentIndex": 0,
        "_position": 16
      },
      "geometry": {
        "type": "Point",
        "coordinates": [
          -73.3664026164234,
          5.523722853608668
        ]
      }
    },
    {
      "type": "Feature",
      "properties": {
        "_source": "Ruta4-Arboleda-Muiscas-SanFrancisco-PinosdeOriente",
        "_segmentIndex": 0,
        "_position": 17
      },
      "geometry": {
        "type": "Point",
        "coordinates": [
          -73.3664892548921,
          5.523281548064958
        ]
      }
    },
    {
      "type": "Feature",
      "properties": {
        "_source": "Ruta4-Arboleda-Muiscas-SanFrancisco-PinosdeOriente",
        "_segmentIndex": 0,
        "_position": 18
      },
      "geometry": {
        "type": "Point",
        "coordinates": [
          -73.3665800997576,
          5.522841073391244
        ]
      }
    },
    {
      "type": "Feature",
      "properties": {
        "_source": "Ruta4-Arboleda-Muiscas-SanFrancisco-PinosdeOriente",
        "_segmentIndex": 0,
        "_position": 19
      },
      "geometry": {
        "type": "Point",
        "coordinates": [
          -73.36668175917559,
          5.522403389615108
        ]
      }
    },
    {
      "type": "Feature",
      "properties": {
        "_source": "Ruta4-Arboleda-Muiscas-SanFrancisco-PinosdeOriente",
        "_segmentIndex": 0,
        "_position": 20
      },
      "geometry": {
        "type": "Point",
        "coordinates": [
          -73.3668237950023,
          5.521976566845043
        ]
      }
    },
    {
      "type": "Feature",
      "properties": {
        "_source": "Ruta4-Arboleda-Muiscas-SanFrancisco-PinosdeOriente",
        "_segmentIndex": 0,
        "_position": 21
      },
      "geometry": {
        "type": "Point",
        "coordinates": [
          -73.36695967443042,
          5.521547789520562
        ]
      }
    },
    {
      "type": "Feature",
      "properties": {
        "_source": "Ruta4-Arboleda-Muiscas-SanFrancisco-PinosdeOriente",
        "_segmentIndex": 0,
        "_position": 22
      },
      "geometry": {
        "type": "Point",
        "coordinates": [
          -73.36708461597946,
          5.521115773958535
        ]
      }
    },
    {
      "type": "Feature",
      "properties": {
        "_source": "Ruta4-Arboleda-Muiscas-SanFrancisco-PinosdeOriente",
        "_segmentIndex": 0,
        "_position": 23
      },
      "geometry": {
        "type": "Point",
        "coordinates": [
          -73.36719250463524,
          5.5206791456457305
        ]
      }
    },
    {
      "type": "Feature",
      "properties": {
        "_source": "Ruta4-Arboleda-Muiscas-SanFrancisco-PinosdeOriente",
        "_segmentIndex": 0,
        "_position": 24
      },
      "geometry": {
        "type": "Point",
        "coordinates": [
          -73.36729542965726,
          5.520241311625599
        ]
      }
    },
    {
      "type": "Feature",
      "properties": {
        "_source": "Ruta4-Arboleda-Muiscas-SanFrancisco-PinosdeOriente",
        "_segmentIndex": 0,
        "_position": 25
      },
      "geometry": {
        "type": "Point",
        "coordinates": [
          -73.36739783692474,
          5.519803357208559
        ]
      }
    },
    {
      "type": "Feature",
      "properties": {
        "_source": "Ruta4-Arboleda-Muiscas-SanFrancisco-PinosdeOriente",
        "_segmentIndex": 0,
        "_position": 26
      },
      "geometry": {
        "type": "Point",
        "coordinates": [
          -73.3674920390649,
          5.5193636674561555
        ]
      }
    },
    {
      "type": "Feature",
      "properties": {
        "_source": "Ruta4-Arboleda-Muiscas-SanFrancisco-PinosdeOriente",
        "_segmentIndex": 0,
        "_position": 27
      },
      "geometry": {
        "type": "Point",
        "coordinates": [
          -73.36752754701129,
          5.5189157072684
        ]
      }
    },
    {
      "type": "Feature",
      "properties": {
        "_source": "Ruta4-Arboleda-Muiscas-SanFrancisco-PinosdeOriente",
        "_segmentIndex": 0,
        "_position": 28
      },
      "geometry": {
        "type": "Point",
        "coordinates": [
          -73.3675633585034,
          5.518467538876468
        ]
      }
    },
    {
      "type": "Feature",
      "properties": {
        "_source": "Ruta4-Arboleda-Muiscas-SanFrancisco-PinosdeOriente",
        "_segmentIndex": 0,
        "_position": 29
      },
      "geometry": {
        "type": "Point",
        "coordinates": [
          -73.36777433289802,
          5.518072804983929
        ]
      }
    },
    {
      "type": "Feature",
      "properties": {
        "_source": "Ruta4-Arboleda-Muiscas-SanFrancisco-PinosdeOriente",
        "_segmentIndex": 0,
        "_position": 30
      },
      "geometry": {
        "type": "Point",
        "coordinates": [
          -73.36800511578765,
          5.517686288630348
        ]
      }
    },
    {
      "type": "Feature",
      "properties": {
        "_source": "Ruta4-Arboleda-Muiscas-SanFrancisco-PinosdeOriente",
        "_segmentIndex": 0,
        "_position": 31
      },
      "geometry": {
        "type": "Point",
        "coordinates": [
          -73.36823437932593,
          5.517298837433656
        ]
      }
    },
    {
      "type": "Feature",
      "properties": {
        "_source": "Ruta4-Arboleda-Muiscas-SanFrancisco-PinosdeOriente",
        "_segmentIndex": 0,
        "_position": 32
      },
      "geometry": {
        "type": "Point",
        "coordinates": [
          -73.36846249565944,
          5.51691192334795
        ]
      }
    },
    {
      "type": "Feature",
      "properties": {
        "_source": "Ruta4-Arboleda-Muiscas-SanFrancisco-PinosdeOriente",
        "_segmentIndex": 0,
        "_position": 33
      },
      "geometry": {
        "type": "Point",
        "coordinates": [
          -73.368622732276,
          5.516491621904782
        ]
      }
    }
  ]
}