{
  "type": "FeatureCollection",
  "features": [
    {
      "type": "Feature",
      "properties": {
        "_source": "Ruta8AT-Runta-LaFuente",
        "_segmentIndex": 0,
        "_position": 0
      },
      "geometry": {
        "type": "Point",
        "coordinates": [
          -73.383481,
          5.491584
        ]
      }
    },
    {
      "type": "Feature",
      "properties": {
        "_source": "Ruta8AT-Runta-LaFuente",
        "_segmentIndex": 0,
        "_position": 1
      },
      "geometry": {
        "type": "Point",
        "coordinates": [
          -73.38393041837914,
          5.491629466475436
        ]
      }
    },
    {
      "type": "Feature",
      "properties": {
        "_source": "Ruta8AT-Runta-LaFuente",
        "_segmentIndex": 0,
        "_position": 2
      },
      "geometry": {
        "type": "Point",
        "coordinates": [
          -73.38438164541135,
          5.491630138506828
        ]
      }
    },
    {
      "type": "Feature",
      "properties": {
        "_source": "Ruta8AT-Runta-LaFuente",
        "_segmentIndex": 0,
        "_position": 3
      },
      "geometry": {
        "type": "Point",
        "coordinates": [
          -73.38480922652627,
          5.4914908002985365
        ]
      }
    },
    {
      "type": "Feature",
      "properties": {
        "_source": "Ruta8AT-Runta-LaFuente",
        "_segmentIndex": 0,
        "_position": 4
      },
      "geometry": {
        "type": "Point",
        "coordinates": [
          -73.38525649081637,
          5.491528000003863
        ]
      }
    },
    {
      "type": "Feature",
      "properties": {
        "_source": "Ruta8AT-Runta-LaFuente",
        "_segmentIndex": 0,
        "_position": 5
      },
      "geometry": {
        "type": "Point",
        "coordinates": [
          -73.38537323364179,
          5.491920214516911
        ]
      }
    },
    {
      "type": "Feature",
      "properties": {
        "_source": "Ruta8AT-Runta-LaFuente",
        "_segmentIndex": 0,
        "_position": 6
      },
      "geometry": {
        "type": "Point",
        "coordinates": [
          -73.38532442944398,
          5.492362776923926
        ]
      }
    },
    {
      "type": "Feature",
      "properties": {
        "_source": "Ruta8AT-Runta-LaFuente",
        "_segmentIndex": 0,
        "_position": 7
      },
      "geometry": {
        "type": "Point",
        "coordinates": [
          -73.38520254233676,
          5.492795759513548
        ]
      }
    },
    {
      "type": "Feature",
      "properties": {
        "_source": "Ruta8AT-Runta-LaFuente",
        "_segmentIndex": 0,
        "_position": 8
      },
      "geometry": {
        "type": "Point",
        "coordinates": [
          -73.38497549149287,
          5.493183544458403
        ]
      }
    },
    {
      "type": "Feature",
      "properties": {
        "_source": "Ruta8AT-Runta-LaFuente",
        "_segmentIndex": 0,
        "_position": 9
      },
      "geometry": {
        "type": "Point",
        "coordinates": [
          -73.3846784712559,
          5.493517479766041
        ]
      }
    },
    {
      "type": "Feature",
      "properties": {
        "_source": "Ruta8AT-Runta-LaFuente",
        "_segmentIndex": 0,
        "_position": 10
      },
      "geometry": {
        "type": "Point",
        "coordinates": [
          -73.3843158806451,
          5.493782439462901
        ]
      }
    },
    {
      "type": "Feature",
      "properties": {
        "_source": "Ruta8AT-Runta-LaFuente",
        "_segmentIndex": 0,
        "_position": 11
      },
      "geometry": {
        "type": "Point",
        "coordinates": [
          -73.38392851259327,
          5.494013063444464
        ]
      }
    },
    {
      "type": "Feature",
      "properties": {
        "_source": "Ruta8AT-Runta-LaFuente",
        "_segmentIndex": 0,
        "_position": 12
      },
      "geometry": {
        "type": "Point",
        "coordinates": [
          -73.3835267413959,
          5.494218620963285
        ]
      }
    },
    {
      "type": "Feature",
      "properties": {
        "_source": "Ruta8AT-Runta-LaFuente",
        "_segmentIndex": 0,
        "_position": 13
      },
      "geometry": {
        "type": "Point",
        "coordinates": [
          -73.38312496992124,
          5.4944241782136
        ]
      }
    },
    {
      "type": "Feature",
      "properties": {
        "_source": "Ruta8AT-Runta-LaFuente",
        "_segmentIndex": 0,
        "_position": 14
      },
      "geometry": {
        "type": "Point",
        "coordinates": [
          -73.38273404118702,
          5.494649048750063
        ]
      }
    },
    {
      "type": "Feature",
      "properties": {
        "_source": "Ruta8AT-Runta-LaFuente",
        "_segmentIndex": 0,
        "_position": 15
      },
      "geometry": {
        "type": "Point",
        "coordinates": [
          -73.38238280461312,
          5.494929488605954
        ]
      }
    },
    {
      "type": "Feature",
      "properties": {
        "_source": "Ruta8AT-Runta-LaFuente",
        "_segmentIndex": 0,
        "_position": 16
      },
      "geometry": {
        "type": "Point",
        "coordinates": [
          -73.38210282255596,
          5.49527930252095
        ]
      }
    },
    {
      "type": "Feature",
      "properties": {
        "_source": "Ruta8AT-Runta-LaFuente",
        "_segmentIndex": 0,
        "_position": 17
      },
      "geometry": {
        "type": "Point",
        "coordinates": [
          -73.38189889520793,
          5.495678922069638
        ]
      }
    },
    {
      "type": "Feature",
      "properties": {
        "_source": "Ruta8AT-Runta-LaFuente",
        "_segmentIndex": 0,
        "_position": 18
      },
      "geometry": {
        "type": "Point",
        "coordinates": [
          -73.38179017668249,
          5.496113777992977
        ]
      }
    },
    {
      "type": "Feature",
      "properties": {
        "_source": "Ruta8AT-Runta-LaFuente",
        "_segmentIndex": 0,
        "_position": 19
      },
      "geometry": {
        "type": "Point",
        "coordinates": [
          -73.38174933465389,
          5.496561224790628
        ]
      }
    },
    {
      "type": "Feature",
      "properties": {
        "_source": "Ruta8AT-Runta-LaFuente",
        "_segmentIndex": 0,
        "_position": 20
      },
      "geometry": {
        "type": "Point",
        "coordinates": [
          -73.38173952591629,
          5.497010580253055
        ]
      }
    },
    {
      "type": "Feature",
      "properties": {
        "_source": "Ruta8AT-Runta-LaFuente",
        "_segmentIndex": 0,
        "_position": 21
      },
      "geometry": {
        "type": "Point",
        "coordinates": [
          -73.38169918930245,
          5.497456097195927
        ]
      }
    },
    {
      "type": "Feature",
      "properties": {
        "_source": "Ruta8AT-Runta-LaFuente",
        "_segmentIndex": 0,
        "_position": 22
      },
      "geometry": {
        "type": "Point",
        "coordinates": [
          -73.38158025336888,
          5.497888876510127
        ]
      }
    },
    {
      "type": "Feature",
      "properties": {
        "_source": "Ruta8AT-Runta-LaFuente",
        "_segmentIndex": 0,
        "_position": 23
      },
      "geometry": {
        "type": "Point",
        "coordinates": [
          -73.38136890964176,
          5.498283965008667
        ]
      }
    },
    {
      "type": "Feature",
      "properties": {
        "_source": "Ruta8AT-Runta-LaFuente",
        "_segmentIndex": 0,
        "_position": 24
      },
      "geometry": {
        "type": "Point",
        "coordinates": [
          -73.38108151160542,
          5.498630493736432
        ]
      }
    },
    {
      "type": "Feature",
      "properties": {
        "_source": "Ruta8AT-Runta-LaFuente",
        "_segmentIndex": 0,
        "_position": 25
      },
      "geometry": {
        "type": "Point",
        "coordinates": [
          -73.38075381818504,
          5.498939974817118
        ]
      }
    },
    {
      "type": "Feature",
      "properties": {
        "_source": "Ruta8AT-Runta-LaFuente",
        "_segmentIndex": 0,
        "_position": 26
      },
      "geometry": {
        "type": "Point",
        "coordinates": [
          -73.38041499969067,
          5.499237296453105
        ]
      }
    },
    {
      "type": "Feature",
      "properties": {
        "_source": "Ruta8AT-Runta-LaFuente",
        "_segmentIndex": 0,
        "_position": 27
      },
      "geometry": {
        "type": "Point",
        "coordinates": [
          -73.38008141630954,
          5.499540479368168
        ]
      }
    },
    {
      "type": "Feature",
      "properties": {
        "_source": "Ruta8AT-Runta-LaFuente",
        "_segmentIndex": 0,
        "_position": 28
      },
      "geometry": {
        "type": "Point",
        "coordinates": [
          -73.37974113643575,
          5.499836168837172
        ]
      }
    },
    {
      "type": "Feature",
      "properties": {
        "_source": "Ruta8AT-Runta-LaFuente",
        "_segmentIndex": 0,
        "_position": 29
      },
      "geometry": {
        "type": "Point",
        "coordinates": [
          -73.37941621733405,
          5.500147407789896
        ]
      }
    },
    {
      "type": "Feature",
      "properties": {
        "_source": "Ruta8AT-Runta-LaFuente",
        "_segmentIndex": 0,
        "_position": 30
      },
      "geometry": {
        "type": "Point",
        "coordinates": [
          -73.37914284318602,
          5.500503740488594
        ]
      }
    },
    {
      "type": "Feature",
      "properties": {
        "_source": "Ruta8AT-Runta-LaFuente",
        "_segmentIndex": 0,
        "_position": 31
      },
      "geometry": {
        "type": "Point",
        "coordinates": [
          -73.37893370160978,
          5.500902306407178
        ]
      }
    },
    {
      "type": "Feature",
      "properties": {
        "_source": "Ruta8AT-Runta-LaFuente",
        "_segmentIndex": 0,
        "_position": 32
      },
      "geometry": {
        "type": "Point",
        "coordinates": [
          -73.37872612674111,
          5.501301676570365
        ]
      }
    },
    {
      "type": "Feature",
      "properties": {
        "_source": "Ruta8AT-Runta-LaFuente",
        "_segmentIndex": 0,
        "_position": 33
      },
      "geometry": {
        "type": "Point",
        "coordinates": [
          -73.3785228633202,
          5.501703246008242
        ]
      }
    },
    {
      "type": "Feature",
      "properties": {
        "_source": "Ruta8AT-Runta-LaFuente",
        "_segmentIndex": 0,
        "_position": 34
      },
      "geometry": {
        "type": "Point",
        "coordinates": [
          -73.37831959962485,
          5.502104815377304
        ]
      }
    },
    {
      "type": "Feature",
      "properties": {
        "_source": "Ruta8AT-Runta-LaFuente",
        "_segmentIndex": 0,
        "_position": 35
      },
      "geometry": {
        "type": "Point",
        "coordinates": [
          -73.37811239094741,
          5.5025043820647355
        ]
      }
    },
    {
      "type": "Feature",
      "properties": {
        "_source": "Ruta8AT-Runta-LaFuente",
        "_segmentIndex": 0,
        "_position": 36
      },
      "geometry": {
        "type": "Point",
        "coordinates": [
          -73.37790526676399,
          5.5029039922333265
        ]
      }
    },
    {
      "type": "Feature",
      "properties": {
        "_source": "Ruta8AT-Runta-LaFuente",
        "_segmentIndex": 0,
        "_position": 37
      },
      "geometry": {
        "type": "Point",
        "coordinates": [
          -73.377698574151,
          5.503303823878961
        ]
      }
    },
    {
      "type": "Feature",
      "properties": {
        "_source": "Ruta8AT-Runta-LaFuente",
        "_segmentIndex": 0,
        "_position": 38
      },
      "geometry": {
        "type": "Point",
        "coordinates": [
          -73.37747886033847,
          5.503696601016212
        ]
      }
    },
    {
      "type": "Feature",
      "properties": {
        "_source": "Ruta8AT-Runta-LaFuente",
        "_segmentIndex": 0,
        "_position": 39
      },
      "geometry": {
        "type": "Point",
        "coordinates": [
          -73.37722958972932,
          5.504070645319119
        ]
      }
    },
    {
      "type": "Feature",
      "properties": {
        "_source": "Ruta8AT-Runta-LaFuente",
        "_segmentIndex": 0,
        "_position": 40
      },
      "geometry": {
        "type": "Point",
        "coordinates": [
          -73.37689794907033,
          5.504373889608246
        ]
      }
    },
    {
      "type": "Feature",
      "properties": {
        "_source": "Ruta8AT-Runta-LaFuente",
        "_segmentIndex": 0,
        "_position": 41
      },
      "geometry": {
        "type": "Point",
        "coordinates": [
          -73.37651867073892,
          5.504616634149785
        ]
      }
    },
    {
      "type": "Feature",
      "properties": {
        "_source": "Ruta8AT-Runta-LaFuente",
        "_segmentIndex": 0,
        "_position": 42
      },
      "geometry": {
        "type": "Point",
        "coordinates": [
          -73.37611341040908,
          5.504815213020688
        ]
      }
    },
    {
      "type": "Feature",
      "properties": {
        "_source": "Ruta8AT-Runta-LaFuente",
        "_segmentIndex": 0,
        "_position": 43
      },
      "geometry": {
        "type": "Point",
        "coordinates": [
          -73.37571930712635,
          5.50503385396266
        ]
      }
    },
    {
      "type": "Feature",
      "properties": {
        "_source": "Ruta8AT-Runta-LaFuente",
        "_segmentIndex": 0,
        "_position": 44
      },
      "geometry": {
        "type": "Point",
        "coordinates": [
          -73.37538540389582,
          5.505333950802852
        ]
      }
    },
    {
      "type": "Feature",
      "properties": {
        "_source": "Ruta8AT-Runta-LaFuente",
        "_segmentIndex": 0,
        "_position": 45
      },
      "geometry": {
        "type": "Point",
        "coordinates": [
          -73.37513282122485,
          5.5057052385886305
        ]
      }
    },
    {
      "type": "Feature",
      "properties": {
        "_source": "Ruta8AT-Runta-LaFuente",
        "_segmentIndex": 0,
        "_position": 46
      },
      "geometry": {
        "type": "Point",
        "coordinates": [
          -73.37498572015177,
          5.506128947206945
        ]
      }
    },
    {
      "type": "Feature",
      "properties": {
        "_source": "Ruta8AT-Runta-LaFuente",
        "_segmentIndex": 0,
        "_position": 47
      },
      "geometry": {
        "type": "Point",
        "coordinates": [
          -73.37491480875576,
          5.506573032580524
        ]
      }
    },
    {
      "type": "Feature",
      "properties": {
        "_source": "Ruta8AT-Runta-LaFuente",
        "_segmentIndex": 0,
        "_position": 48
      },
      "geometry": {
        "type": "Point",
        "coordinates": [
          -73.37480395500296,
          5.507006548510815
        ]
      }
    },
    {
      "type": "Feature",
      "properties": {
        "_source": "Ruta8AT-Runta-LaFuente",
        "_segmentIndex": 0,
        "_position": 49
      },
      "geometry": {
        "type": "Point",
        "coordinates": [
          -73.37455990581034,
          5.507383164420577
        ]
      }
    },
    {
      "type": "Feature",
      "properties": {
        "_source": "Ruta8AT-Runta-LaFuente",
        "_segmentIndex": 0,
        "_position": 50
      },
      "geometry": {
        "type": "Point",
        "coordinates": [
          -73.37428767799052,
          5.507741951692314
        ]
      }
    },
    {
      "type": "Feature",
      "properties": {
        "_source": "Ruta8AT-Runta-LaFuente",
        "_segmentIndex": 0,
        "_position": 51
      },
      "geometry": {
        "type": "Point",
        "coordinates": [
          -73.37402041414563,
          5.508104471398105
        ]
      }
    },
    {
      "type": "Feature",
      "properties": {
        "_source": "Ruta8AT-Runta-LaFuente",
        "_segmentIndex": 0,
        "_position": 52
      },
      "geometry": {
        "type": "Point",
        "coordinates": [
          -73.37378482422733,
          5.5084870768322265
        ]
      }
    },
    {
      "type": "Feature",
      "properties": {
        "_source": "Ruta8AT-Runta-LaFuente",
        "_segmentIndex": 0,
        "_position": 0
      },
      "geometry": {
        "type": "Point",
        "coordinates": [
          -73.373612,
          5.508863
        ]
      }
    },
    {
      "type": "Feature",
      "properties": {
        "_source": "Ruta8AT-Runta-LaFuente",
        "_segmentIndex": 0,
        "_position": 1
      },
      "geometry": {
        "type": "Point",
        "coordinates": [
          -73.37340828963681,
          5.5092643460013395
        ]
      }
    },
    {
      "type": "Feature",
      "properties": {
        "_source": "Ruta8AT-Runta-LaFuente",
        "_segmentIndex": 0,
        "_position": 2
      },
      "geometry": {
        "type": "Point",
        "coordinates": [
          -73.3732125761421,
          5.509669395083996
        ]
      }
    },
    {
      "type": "Feature",
      "properties": {
        "_source": "Ruta8AT-Runta-LaFuente",
        "_segmentIndex": 0,
        "_position": 3
      },
      "geometry": {
        "type": "Point",
        "coordinates": [
          -73.37303429391747,
          5.510082556988947
        ]
      }
    },
    {
      "type": "Feature",
      "properties": {
        "_source": "Ruta8AT-Runta-LaFuente",
        "_segmentIndex": 0,
        "_position": 4
      },
      "geometry": {
        "type": "Point",
        "coordinates": [
          -73.37285311400215,
          5.510494467015777
        ]
      }
    },
    {
      "type": "Feature",
      "properties": {
        "_source": "Ruta8AT-Runta-LaFuente",
        "_segmentIndex": 0,
        "_position": 5
      },
      "geometry": {
        "type": "Point",
        "coordinates": [
          -73.37267166195569,
          5.510906259523544
        ]
      }
    },
    {
      "type": "Feature",
      "properties": {
        "_source": "Ruta8AT-Runta-LaFuente",
        "_segmentIndex": 0,
        "_position": 6
      },
      "geometry": {
        "type": "Point",
        "coordinates": [
          -73.37248917809337,
          5.51131759967782
        ]
      }
    },
    {
      "type": "Feature",
      "properties": {
        "_source": "Ruta8AT-Runta-LaFuente",
        "_segmentIndex": 0,
        "_position": 7
      },
      "geometry": {
        "type": "Point",
        "coordinates": [
          -73.37230641467129,
          5.511728817311872
        ]
      }
    },
    {
      "type": "Feature",
      "properties": {
        "_source": "Ruta8AT-Runta-LaFuente",
        "_segmentIndex": 0,
        "_position": 8
      },
      "geometry": {
        "type": "Point",
        "coordinates": [
          -73.37211732504623,
          5.512137110817815
        ]
      }
    },
    {
      "type": "Feature",
      "properties": {
        "_source": "Ruta8AT-Runta-LaFuente",
        "_segmentIndex": 0,
        "_position": 9
      },
      "geometry": {
        "type": "Point",
        "coordinates": [
          -73.37191961386416,
          5.512541419202306
        ]
      }
    },
    {
      "type": "Feature",
      "properties": {
        "_source": "Ruta8AT-Runta-LaFuente",
        "_segmentIndex": 0,
        "_position": 10
      },
      "geometry": {
        "type": "Point",
        "coordinates": [
          -73.37171209890359,
          5.51294006499696
        ]
      }
    },
    {
      "type": "Feature",
      "properties": {
        "_source": "Ruta8AT-Runta-LaFuente",
        "_segmentIndex": 0,
        "_position": 11
      },
      "geometry": {
        "type": "Point",
        "coordinates": [
          -73.37145028247319,
          5.513306397441363
        ]
      }
    },
    {
      "type": "Feature",
      "properties": {
        "_source": "Ruta8AT-Runta-LaFuente",
        "_segmentIndex": 0,
        "_position": 12
      },
      "geometry": {
        "type": "Point",
        "coordinates": [
          -73.37113736112327,
          5.513630124464952
        ]
      }
    },
    {
      "type": "Feature",
      "properties": {
        "_source": "Ruta8AT-Runta-LaFuente",
        "_segmentIndex": 0,
        "_position": 13
      },
      "geometry": {
        "type": "Point",
        "coordinates": [
          -73.370806029317,
          5.513935782851843
        ]
      }
    },
    {
      "type": "Feature",
      "properties": {
        "_source": "Ruta8AT-Runta-LaFuente",
        "_segmentIndex": 0,
        "_position": 14
      },
      "geometry": {
        "type": "Point",
        "coordinates": [
          -73.37047469716946,
          5.514241441055478
        ]
      }
    },
    {
      "type": "Feature",
      "properties": {
        "_source": "Ruta8AT-Runta-LaFuente",
        "_segmentIndex": 0,
        "_position": 15
      },
      "geometry": {
        "type": "Point",
        "coordinates": [
          -73.37014274089726,
          5.514546419069702
        ]
      }
    },
    {
      "type": "Feature",
      "properties": {
        "_source": "Ruta8AT-Runta-LaFuente",
        "_segmentIndex": 0,
        "_position": 16
      },
      "geometry": {
        "type": "Point",
        "coordinates": [
          -73.36980687912408,
          5.514847139758029
        ]
      }
    },
    {
      "type": "Feature",
      "properties": {
        "_source": "Ruta8AT-Runta-LaFuente",
        "_segmentIndex": 0,
        "_position": 17
      },
      "geometry": {
        "type": "Point",
        "coordinates": [
          -73.3694710170105,
          5.515147860258026
        ]
      }
    },
    {
      "type": "Feature",
      "properties": {
        "_source": "Ruta8AT-Runta-LaFuente",
        "_segmentIndex": 0,
        "_position": 18
      },
      "geometry": {
        "type": "Point",
        "coordinates": [
          -73.3691351545565,
          5.5154485805696805
        ]
      }
    },
    {
      "type": "Feature",
      "properties": {
        "_source": "Ruta8AT-Runta-LaFuente",
        "_segmentIndex": 0,
        "_position": 19
      },
      "geometry": {
        "type": "Point",
        "coordinates": [
          -73.36879197408128,
          5.5157408945278155
        ]
      }
    },
    {
      "type": "Feature",
      "properties": {
        "_source": "Ruta8AT-Runta-LaFuente",
        "_segmentIndex": 0,
        "_position": 0
      },
      "geometry": {
        "type": "Point",
        "coordinates": [
          -73.368716,
          5.515804
        ]
      }
    },
    {
      "type": "Feature",
      "properties": {
        "_source": "Ruta8AT-Runta-LaFuente",
        "_segmentIndex": 0,
        "_position": 1
      },
      "geometry": {
        "type": "Point",
        "coordinates": [
          -73.36848733955881,
          5.516148104935437
        ]
      }
    },
    {
      "type": "Feature",
      "properties": {
        "_source": "Ruta8AT-Runta-LaFuente",
        "_segmentIndex": 0,
        "_position": 0
      },
      "geometry": {
        "type": "Point",
        "coordinates": [
          -73.368485,
          5.516259
        ]
      }
    },
    {
      "type": "Feature",
      "properties": {
        "_source": "Ruta8AT-Runta-LaFuente",
        "_segmentIndex": 0,
        "_position": 1
      },
      "geometry": {
        "type": "Point",
        "coordinates": [
          -73.36837874339855,
          5.516695937974319
        ]
      }
    },
    {
      "type": "Feature",
      "properties": {
        "_source": "Ruta8AT-Runta-LaFuente",
        "_segmentIndex": 0,
        "_position": 2
      },
      "geometry": {
        "type": "Point",
        "coordinates": [
          -73.36824541032307,
          5.517125566751448
        ]
      }
    },
    {
      "type": "Feature",
      "properties": {
        "_source": "Ruta8AT-Runta-LaFuente",
        "_segmentIndex": 0,
        "_position": 3
      },
      "geometry": {
        "type": "Point",
        "coordinates": [
          -73.3680181887734,
          5.5175132693724285
        ]
      }
    },
    {
      "type": "Feature",
      "properties": {
        "_source": "Ruta8AT-Runta-LaFuente",
        "_segmentIndex": 0,
        "_position": 4
      },
      "geometry": {
        "type": "Point",
        "coordinates": [
          -73.3677749680711,
          5.517892195349642
        ]
      }
    },
    {
      "type": "Feature",
      "properties": {
        "_source": "Ruta8AT-Runta-LaFuente",
        "_segmentIndex": 0,
        "_position": 5
      },
      "geometry": {
        "type": "Point",
        "coordinates": [
          -73.36754891556646,
          5.518281434047605
        ]
      }
    },
    {
      "type": "Feature",
      "properties": {
        "_source": "Ruta8AT-Runta-LaFuente",
        "_segmentIndex": 0,
        "_position": 6
      },
      "geometry": {
        "type": "Point",
        "coordinates": [
          -73.36744643876872,
          5.5187161179770055
        ]
      }
    },
    {
      "type": "Feature",
      "properties": {
        "_source": "Ruta8AT-Runta-LaFuente",
        "_segmentIndex": 0,
        "_position": 7
      },
      "geometry": {
        "type": "Point",
        "coordinates": [
          -73.36738933977462,
          5.519162009985094
        ]
      }
    },
    {
      "type": "Feature",
      "properties": {
        "_source": "Ruta8AT-Runta-LaFuente",
        "_segmentIndex": 0,
        "_position": 8
      },
      "geometry": {
        "type": "Point",
        "coordinates": [
          -73.36734309704157,
          5.519609135756194
        ]
      }
    },
    {
      "type": "Feature",
      "properties": {
        "_source": "Ruta8AT-Runta-LaFuente",
        "_segmentIndex": 0,
        "_position": 9
      },
      "geometry": {
        "type": "Point",
        "coordinates": [
          -73.36725154970469,
          5.520049275403809
        ]
      }
    },
    {
      "type": "Feature",
      "properties": {
        "_source": "Ruta8AT-Runta-LaFuente",
        "_segmentIndex": 0,
        "_position": 10
      },
      "geometry": {
        "type": "Point",
        "coordinates": [
          -73.36713121738937,
          5.520482571115672
        ]
      }
    },
    {
      "type": "Feature",
      "properties": {
        "_source": "Ruta8AT-Runta-LaFuente",
        "_segmentIndex": 0,
        "_position": 11
      },
      "geometry": {
        "type": "Point",
        "coordinates": [
          -73.36700818880894,
          5.520915235348791
        ]
      }
    },
    {
      "type": "Feature",
      "properties": {
        "_source": "Ruta8AT-Runta-LaFuente",
        "_segmentIndex": 0,
        "_position": 12
      },
      "geometry": {
        "type": "Point",
        "coordinates": [
          -73.3668896500326,
          5.521349138300448
        ]
      }
    },
    {
      "type": "Feature",
      "properties": {
        "_source": "Ruta8AT-Runta-LaFuente",
        "_segmentIndex": 0,
        "_position": 13
      },
      "geometry": {
        "type": "Point",
        "coordinates": [
          -73.36676940018808,
          5.521782563058229
        ]
      }
    },
    {
      "type": "Feature",
      "properties": {
        "_source": "Ruta8AT-Runta-LaFuente",
        "_segmentIndex": 0,
        "_position": 14
      },
      "geometry": {
        "type": "Point",
        "coordinates": [
          -73.36663844840793,
          5.522212784830195
        ]
      }
    },
    {
      "type": "Feature",
      "properties": {
        "_source": "Ruta8AT-Runta-LaFuente",
        "_segmentIndex": 0,
        "_position": 15
      },
      "geometry": {
        "type": "Point",
        "coordinates": [
          -73.36652464377873,
          5.522647556659117
        ]
      }
    },
    {
      "type": "Feature",
      "properties": {
        "_source": "Ruta8AT-Runta-LaFuente",
        "_segmentIndex": 0,
        "_position": 16
      },
      "geometry": {
        "type": "Point",
        "coordinates": [
          -73.36644202245992,
          5.523089503659323
        ]
      }
    },
    {
      "type": "Feature",
      "properties": {
        "_source": "Ruta8AT-Runta-LaFuente",
        "_segmentIndex": 0,
        "_position": 17
      },
      "geometry": {
        "type": "Point",
        "coordinates": [
          -73.36633191834247,
          5.523525376071257
        ]
      }
    },
    {
      "type": "Feature",
      "properties": {
        "_source": "Ruta8AT-Runta-LaFuente",
        "_segmentIndex": 0,
        "_position": 18
      },
      "geometry": {
        "type": "Point",
        "coordinates": [
          -73.36623582674052,
          5.523964671089057
        ]
      }
    },
    {
      "type": "Feature",
      "properties": {
        "_source": "Ruta8AT-Runta-LaFuente",
        "_segmentIndex": 0,
        "_position": 0
      },
      "geometry": {
        "type": "Point",
        "coordinates": [
          -73.366172,
          5.524307
        ]
      }
    },
    {
      "type": "Feature",
      "properties": {
        "_source": "Ruta8AT-Runta-LaFuente",
        "_segmentIndex": 0,
        "_position": 1
      },
      "geometry": {
        "type": "Point",
        "coordinates": [
          -73.36641561698535,
          5.524684962804933
        ]
      }
    },
    {
      "type": "Feature",
      "properties": {
        "_source": "Ruta8AT-Runta-LaFuente",
        "_segmentIndex": 0,
        "_position": 2
      },
      "geometry": {
        "type": "Point",
        "coordinates": [
          -73.3665782247154,
          5.5250893146460305
        ]
      }
    },
    {
      "type": "Feature",
      "properties": {
        "_source": "Ruta8AT-Runta-LaFuente",
        "_segmentIndex": 0,
        "_position": 3
      },
      "geometry": {
        "type": "Point",
        "coordinates": [
          -73.36647351394849,
          5.525526228075009
        ]
      }
    },
    {
      "type": "Feature",
      "properties": {
        "_source": "Ruta8AT-Runta-LaFuente",
        "_segmentIndex": 0,
        "_position": 4
      },
      "geometry": {
        "type": "Point",
        "coordinates": [
          -73.36636204164982,
          5.525961816046616
        ]
      }
    },
    {
      "type": "Feature",
      "properties": {
        "_source": "Ruta8AT-Runta-LaFuente",
        "_segmentIndex": 0,
        "_position": 5
      },
      "geometry": {
        "type": "Point",
        "coordinates": [
          -73.3663285703371,
          5.52640984949789
        ]
      }
    },
    {
      "type": "Feature",
      "properties": {
        "_source": "Ruta8AT-Runta-LaFuente",
        "_segmentIndex": 0,
        "_position": 6
      },
      "geometry": {
        "type": "Point",
        "coordinates": [
          -73.3663513476083,
          5.526858935478848
        ]
      }
    },
    {
      "type": "Feature",
      "properties": {
        "_source": "Ruta8AT-Runta-LaFuente",
        "_segmentIndex": 0,
        "_position": 7
      },
      "geometry": {
        "type": "Point",
        "coordinates": [
          -73.36633147455088,
          5.527307137347703
        ]
      }
    },
    {
      "type": "Feature",
      "properties": {
        "_source": "Ruta8AT-Runta-LaFuente",
        "_segmentIndex": 0,
        "_position": 8
      },
      "geometry": {
        "type": "Point",
        "coordinates": [
          -73.36630193544525,
          5.527755678284121
        ]
      }
    },
    {
      "type": "Feature",
      "properties": {
        "_source": "Ruta8AT-Runta-LaFuente",
        "_segmentIndex": 0,
        "_position": 9
      },
      "geometry": {
        "type": "Point",
        "coordinates": [
          -73.36641312582627,
          5.528186370869128
        ]
      }
    },
    {
      "type": "Feature",
      "properties": {
        "_source": "Ruta8AT-Runta-LaFuente",
        "_segmentIndex": 0,
        "_position": 0
      },
      "geometry": {
        "type": "Point",
        "coordinates": [
          -73.36641,
          5.528202
        ]
      }
    },
    {
      "type": "Feature",
      "properties": {
        "_source": "Ruta8AT-Runta-LaFuente",
        "_segmentIndex": 0,
        "_position": 1
      },
      "geometry": {
        "type": "Point",
        "coordinates": [
          -73.36599642883306,
          5.528363999777075
        ]
      }
    },
    {
      "type": "Feature",
      "properties": {
        "_source": "Ruta8AT-Runta-LaFuente",
        "_segmentIndex": 0,
        "_position": 2
      },
      "geometry": {
        "type": "Point",
        "coordinates": [
          -73.36568181869804,
          5.528685970510057
        ]
      }
    },
    {
      "type": "Feature",
      "properties": {
        "_source": "Ruta8AT-Runta-LaFuente",
        "_segmentIndex": 0,
        "_position": 3
      },
      "geometry": {
        "type": "Point",
        "coordinates": [
          -73.3653760289649,
          5.529016859676757
        ]
      }
    },
    {
      "type": "Feature",
      "properties": {
        "_source": "Ruta8AT-Runta-LaFuente",
        "_segmentIndex": 0,
        "_position": 4
      },
      "geometry": {
        "type": "Point",
        "coordinates": [
          -73.36521047439183,
          5.5294325809832285
        ]
      }
    },
    {
      "type": "Feature",
      "properties": {
        "_source": "Ruta8AT-Runta-LaFuente",
        "_segmentIndex": 0,
        "_position": 5
      },
      "geometry": {
        "type": "Point",
        "coordinates": [
          -73.36508514189339,
          5.52986456559248
        ]
      }
    },
    {
      "type": "Feature",
      "properties": {
        "_source": "Ruta8AT-Runta-LaFuente",
        "_segmentIndex": 0,
        "_position": 6
      },
      "geometry": {
        "type": "Point",
        "coordinates": [
          -73.36496732611063,
          5.530298646226427
        ]
      }
    },
    {
      "type": "Feature",
      "properties": {
        "_source": "Ruta8AT-Runta-LaFuente",
        "_segmentIndex": 0,
        "_position": 7
      },
      "geometry": {
        "type": "Point",
        "coordinates": [
          -73.36484727783072,
          5.5307320208932795
        ]
      }
    },
    {
      "type": "Feature",
      "properties": {
        "_source": "Ruta8AT-Runta-LaFuente",
        "_segmentIndex": 0,
        "_position": 8
      },
      "geometry": {
        "type": "Point",
        "coordinates": [
          -73.36471457597379,
          5.531161844211746
        ]
      }
    },
    {
      "type": "Feature",
      "properties": {
        "_source": "Ruta8AT-Runta-LaFuente",
        "_segmentIndex": 0,
        "_position": 9
      },
      "geometry": {
        "type": "Point",
        "coordinates": [
          -73.36458194700046,
          5.5315916898478035
        ]
      }
    },
    {
      "type": "Feature",
      "properties": {
        "_source": "Ruta8AT-Runta-LaFuente",
        "_segmentIndex": 0,
        "_position": 10
      },
      "geometry": {
        "type": "Point",
        "coordinates": [
          -73.36446344889266,
          5.532025443437534
        ]
      }
    },
    {
      "type": "Feature",
      "properties": {
        "_source": "Ruta8AT-Runta-LaFuente",
        "_segmentIndex": 0,
        "_position": 11
      },
      "geometry": {
        "type": "Point",
        "coordinates": [
          -73.36433028993258,
          5.532455112463977
        ]
      }
    },
    {
      "type": "Feature",
      "properties": {
        "_source": "Ruta8AT-Runta-LaFuente",
        "_segmentIndex": 0,
        "_position": 12
      },
      "geometry": {
        "type": "Point",
        "coordinates": [
          -73.3641957627152,
          5.532884338197074
        ]
      }
    },
    {
      "type": "Feature",
      "properties": {
        "_source": "Ruta8AT-Runta-LaFuente",
        "_segmentIndex": 0,
        "_position": 13
      },
      "geometry": {
        "type": "Point",
        "coordinates": [
          -73.36405312254693,
          5.533310996396932
        ]
      }
    },
    {
      "type": "Feature",
      "properties": {
        "_source": "Ruta8AT-Runta-LaFuente",
        "_segmentIndex": 0,
        "_position": 14
      },
      "geometry": {
        "type": "Point",
        "coordinates": [
          -73.3639185924716,
          5.533740222625198
        ]
      }
    },
    {
      "type": "Feature",
      "properties": {
        "_source": "Ruta8AT-Runta-LaFuente",
        "_segmentIndex": 0,
        "_position": 15
      },
      "geometry": {
        "type": "Point",
        "coordinates": [
          -73.36381555207224,
          5.534177068304998
        ]
      }
    },
    {
      "type": "Feature",
      "properties": {
        "_source": "Ruta8AT-Runta-LaFuente",
        "_segmentIndex": 0,
        "_position": 16
      },
      "geometry": {
        "type": "Point",
        "coordinates": [
          -73.36369017379029,
          5.534609064577353
        ]
      }
    },
    {
      "type": "Feature",
      "properties": {
        "_source": "Ruta8AT-Runta-LaFuente",
        "_segmentIndex": 0,
        "_position": 17
      },
      "geometry": {
        "type": "Point",
        "coordinates": [
          -73.36357465463715,
          5.53504288183264
        ]
      }
    },
    {
      "type": "Feature",
      "properties": {
        "_source": "Ruta8AT-Runta-LaFuente",
        "_segmentIndex": 0,
        "_position": 18
      },
      "geometry": {
        "type": "Point",
        "coordinates": [
          -73.3634345403701,
          5.5354703679747645
        ]
      }
    },
    {
      "type": "Feature",
      "properties": {
        "_source": "Ruta8AT-Runta-LaFuente",
        "_segmentIndex": 0,
        "_position": 19
      },
      "geometry": {
        "type": "Point",
        "coordinates": [
          -73.36333735962303,
          5.5359009680868025
        ]
      }
    },
    {
      "type": "Feature",
      "properties": {
        "_source": "Ruta8AT-Runta-LaFuente",
        "_segmentIndex": 0,
        "_position": 0
      },
      "geometry": {
        "type": "Point",
        "coordinates": [
          -73.363291,
          5.53634
        ]
      }
    },
    {
      "type": "Feature",
      "properties": {
        "_source": "Ruta8AT-Runta-LaFuente",
        "_segmentIndex": 0,
        "_position": 1
      },
      "geometry": {
        "type": "Point",
        "coordinates": [
          -73.36372683654474,
          5.536336792978351
        ]
      }
    },
    {
      "type": "Feature",
      "properties": {
        "_source": "Ruta8AT-Runta-LaFuente",
        "_segmentIndex": 0,
        "_position": 2
      },
      "geometry": {
        "type": "Point",
        "coordinates": [
          -73.36417636583278,
          5.536292162412128
        ]
      }
    },
    {
      "type": "Feature",
      "properties": {
        "_source": "Ruta8AT-Runta-LaFuente",
        "_segmentIndex": 0,
        "_position": 3
      },
      "geometry": {
        "type": "Point",
        "coordinates": [
          -73.3646234971338,
          5.536230066565232
        ]
      }
    },
    {
      "type": "Feature",
      "properties": {
        "_source": "Ruta8AT-Runta-LaFuente",
        "_segmentIndex": 0,
        "_position": 4
      },
      "geometry": {
        "type": "Point",
        "coordinates": [
          -73.36504342694721,
          5.5363065324495535
        ]
      }
    },
    {
      "type": "Feature",
      "properties": {
        "_source": "Ruta8AT-Runta-LaFuente",
        "_segmentIndex": 0,
        "_position": 5
      },
      "geometry": {
        "type": "Point",
        "coordinates": [
          -73.36546073688903,
          5.536477985147094
        ]
      }
    },
    {
      "type": "Feature",
      "properties": {
        "_source": "Ruta8AT-Runta-LaFuente",
        "_segmentIndex": 0,
        "_position": 6
      },
      "geometry": {
        "type": "Point",
        "coordinates": [
          -73.36587446175558,
          5.536658566569152
        ]
      }
    },
    {
      "type": "Feature",
      "properties": {
        "_source": "Ruta8AT-Runta-LaFuente",
        "_segmentIndex": 0,
        "_position": 7
      },
      "geometry": {
        "type": "Point",
        "coordinates": [
          -73.36629271082293,
          5.536828538544476
        ]
      }
    },
    {
      "type": "Feature",
      "properties": {
        "_source": "Ruta8AT-Runta-LaFuente",
        "_segmentIndex": 0,
        "_position": 8
      },
      "geometry": {
        "type": "Point",
        "coordinates": [
          -73.36671096013082,
          5.536998510226591
        ]
      }
    },
    {
      "type": "Feature",
      "properties": {
        "_source": "Ruta8AT-Runta-LaFuente",
        "_segmentIndex": 0,
        "_position": 9
      },
      "geometry": {
        "type": "Point",
        "coordinates": [
          -73.36713108753476,
          5.5371636958743
        ]
      }
    },
    {
      "type": "Feature",
      "properties": {
        "_source": "Ruta8AT-Runta-LaFuente",
        "_segmentIndex": 0,
        "_position": 10
      },
      "geometry": {
        "type": "Point",
        "coordinates": [
          -73.36749244724065,
          5.537421403992061
        ]
      }
    },
    {
      "type": "Feature",
      "properties": {
        "_source": "Ruta8AT-Runta-LaFuente",
        "_segmentIndex": 0,
        "_position": 0
      },
      "geometry": {
        "type": "Point",
        "coordinates": [
          -73.367689,
          5.537669
        ]
      }
    },
    {
      "type": "Feature",
      "properties": {
        "_source": "Ruta8AT-Runta-LaFuente",
        "_segmentIndex": 0,
        "_position": 1
      },
      "geometry": {
        "type": "Point",
        "coordinates": [
          -73.36787044215968,
          5.53808002941332
        ]
      }
    },
    {
      "type": "Feature",
      "properties": {
        "_source": "Ruta8AT-Runta-LaFuente",
        "_segmentIndex": 0,
        "_position": 2
      },
      "geometry": {
        "type": "Point",
        "coordinates": [
          -73.36793720231594,
          5.538523160190531
        ]
      }
    },
    {
      "type": "Feature",
      "properties": {
        "_source": "Ruta8AT-Runta-LaFuente",
        "_segmentIndex": 0,
        "_position": 3
      },
      "geometry": {
        "type": "Point",
        "coordinates": [
          -73.3679809893444,
          5.538970694809828
        ]
      }
    },
    {
      "type": "Feature",
      "properties": {
        "_source": "Ruta8AT-Runta-LaFuente",
        "_segmentIndex": 0,
        "_position": 4
      },
      "geometry": {
        "type": "Point",
        "coordinates": [
          -73.36802383041075,
          5.5394183253118205
        ]
      }
    },
    {
      "type": "Feature",
      "properties": {
        "_source": "Ruta8AT-Runta-LaFuente",
        "_segmentIndex": 0,
        "_position": 5
      },
      "geometry": {
        "type": "Point",
        "coordinates": [
          -73.3680654606953,
          5.5398660722816135
        ]
      }
    },
    {
      "type": "Feature",
      "properties": {
        "_source": "Ruta8AT-Runta-LaFuente",
        "_segmentIndex": 0,
        "_position": 6
      },
      "geometry": {
        "type": "Point",
        "coordinates": [
          -73.36810843607253,
          5.540313690436592
        ]
      }
    },
    {
      "type": "Feature",
      "properties": {
        "_source": "Ruta8AT-Runta-LaFuente",
        "_segmentIndex": 0,
        "_position": 7
      },
      "geometry": {
        "type": "Point",
        "coordinates": [
          -73.36814458021958,
          5.540761536321068
        ]
      }
    },
    {
      "type": "Feature",
      "properties": {
        "_source": "Ruta8AT-Runta-LaFuente",
        "_segmentIndex": 0,
        "_position": 8
      },
      "geometry": {
        "type": "Point",
        "coordinates": [
          -73.36813375340085,
          5.541211039403921
        ]
      }
    },
    {
      "type": "Feature",
      "properties": {
        "_source": "Ruta8AT-Runta-LaFuente",
        "_segmentIndex": 0,
        "_position": 9
      },
      "geometry": {
        "type": "Point",
        "coordinates": [
          -73.36811996656105,
          5.54166049015167
        ]
      }
    },
    {
      "type": "Feature",
      "properties": {
        "_source": "Ruta8AT-Runta-LaFuente",
        "_segmentIndex": 0,
        "_position": 10
      },
      "geometry": {
        "type": "Point",
        "coordinates": [
          -73.3680926074777,
          5.54210924996135
        ]
      }
    },
    {
      "type": "Feature",
      "properties": {
        "_source": "Ruta8AT-Runta-LaFuente",
        "_segmentIndex": 0,
        "_position": 11
      },
      "geometry": {
        "type": "Point",
        "coordinates": [
          -73.36800032227309,
          5.542549254352655
        ]
      }
    },
    {
      "type": "Feature",
      "properties": {
        "_source": "Ruta8AT-Runta-LaFuente",
        "_segmentIndex": 0,
        "_position": 12
      },
      "geometry": {
        "type": "Point",
        "coordinates": [
          -73.36788839922846,
          5.542984893514239
        ]
      }
    },
    {
      "type": "Feature",
      "properties": {
        "_source": "Ruta8AT-Runta-LaFuente",
        "_segmentIndex": 0,
        "_position": 13
      },
      "geometry": {
        "type": "Point",
        "coordinates": [
          -73.36779696950795,
          5.543425248922527
        ]
      }
    },
    {
      "type": "Feature",
      "properties": {
        "_source": "Ruta8AT-Runta-LaFuente",
        "_segmentIndex": 0,
        "_position": 14
      },
      "geometry": {
        "type": "Point",
        "coordinates": [
          -73.3677196571314,
          5.543867800142384
        ]
      }
    },
    {
      "type": "Feature",
      "properties": {
        "_source": "Ruta8AT-Runta-LaFuente",
        "_segmentIndex": 0,
        "_position": 15
      },
      "geometry": {
        "type": "Point",
        "coordinates": [
          -73.3676617669907,
          5.544313747746724
        ]
      }
    },
    {
      "type": "Feature",
      "properties": {
        "_source": "Ruta8AT-Runta-LaFuente",
        "_segmentIndex": 0,
        "_position": 16
      },
      "geometry": {
        "type": "Point",
        "coordinates": [
          -73.36760153619856,
          5.544759391381889
        ]
      }
    },
    {
      "type": "Feature",
      "properties": {
        "_source": "Ruta8AT-Runta-LaFuente",
        "_segmentIndex": 0,
        "_position": 17
      },
      "geometry": {
        "type": "Point",
        "coordinates": [
          -73.3675386358323,
          5.54520467192691
        ]
      }
    },
    {
      "type": "Feature",
      "properties": {
        "_source": "Ruta8AT-Runta-LaFuente",
        "_segmentIndex": 0,
        "_position": 18
      },
      "geometry": {
        "type": "Point",
        "coordinates": [
          -73.36747568487156,
          5.545649945254315
        ]
      }
    },
    {
      "type": "Feature",
      "properties": {
        "_source": "Ruta8AT-Runta-LaFuente",
        "_segmentIndex": 0,
        "_position": 19
      },
      "geometry": {
        "type": "Point",
        "coordinates": [
          -73.36741027254995,
          5.546094867124108
        ]
      }
    },
    {
      "type": "Feature",
      "properties": {
        "_source": "Ruta8AT-Runta-LaFuente",
        "_segmentIndex": 0,
        "_position": 20
      },
      "geometry": {
        "type": "Point",
        "coordinates": [
          -73.36734797395327,
          5.546540208492024
        ]
      }
    },
    {
      "type": "Feature",
      "properties": {
        "_source": "Ruta8AT-Runta-LaFuente",
        "_segmentIndex": 0,
        "_position": 21
      },
      "geometry": {
        "type": "Point",
        "coordinates": [
          -73.36729219645285,
          5.546986428411173
        ]
      }
    },
    {
      "type": "Feature",
      "properties": {
        "_source": "Ruta8AT-Runta-LaFuente",
        "_segmentIndex": 0,
        "_position": 22
      },
      "geometry": {
        "type": "Point",
        "coordinates": [
          -73.3673116753556,
          5.547430953042334
        ]
      }
    },
    {
      "type": "Feature",
      "properties": {
        "_source": "Ruta8AT-Runta-LaFuente",
        "_segmentIndex": 0,
        "_position": 0
      },
      "geometry": {
        "type": "Point",
        "coordinates": [
          -73.367318,
          5.547485
        ]
      }
    },
    {
      "type": "Feature",
      "properties": {
        "_source": "Ruta8AT-Runta-LaFuente",
        "_segmentIndex": 0,
        "_position": 1
      },
      "geometry": {
        "type": "Point",
        "coordinates": [
          -73.36725142234806,
          5.547916683040951
        ]
      }
    },
    {
      "type": "Feature",
      "properties": {
        "_source": "Ruta8AT-Runta-LaFuente",
        "_segmentIndex": 0,
        "_position": 2
      },
      "geometry": {
        "type": "Point",
        "coordinates": [
          -73.36704843318363,
          5.547587427126632
        ]
      }
    },
    {
      "type": "Feature",
      "properties": {
        "_source": "Ruta8AT-Runta-LaFuente",
        "_segmentIndex": 0,
        "_position": 3
      },
      "geometry": {
        "type": "Point",
        "coordinates": [
          -73.36687576560595,
          5.547172228004016
        ]
      }
    },
    {
      "type": "Feature",
      "properties": {
        "_source": "Ruta8AT-Runta-LaFuente",
        "_segmentIndex": 0,
        "_position": 4
      },
      "geometry": {
        "type": "Point",
        "coordinates": [
          -73.36668172919919,
          5.546766203959926
        ]
      }
    },
    {
      "type": "Feature",
      "properties": {
        "_source": "Ruta8AT-Runta-LaFuente",
        "_segmentIndex": 0,
        "_position": 0
      },
      "geometry": {
        "type": "Point",
        "coordinates": [
          -73.366537,
          5.546582
        ]
      }
    },
    {
      "type": "Feature",
      "properties": {
        "_source": "Ruta8AT-Runta-LaFuente",
        "_segmentIndex": 0,
        "_position": 1
      },
      "geometry": {
        "type": "Point",
        "coordinates": [
          -73.36616309594618,
          5.546834240915094
        ]
      }
    },
    {
      "type": "Feature",
      "properties": {
        "_source": "Ruta8AT-Runta-LaFuente",
        "_segmentIndex": 0,
        "_position": 0
      },
      "geometry": {
        "type": "Point",
        "coordinates": [
          -73.366045,
          5.546948
        ]
      }
    },
    {
      "type": "Feature",
      "properties": {
        "_source": "Ruta8AT-Runta-LaFuente",
        "_segmentIndex": 0,
        "_position": 1
      },
      "geometry": {
        "type": "Point",
        "coordinates": [
          -73.36615417648832,
          5.547384250154146
        ]
      }
    },
    {
      "type": "Feature",
      "properties": {
        "_source": "Ruta8AT-Runta-LaFuente",
        "_segmentIndex": 0,
        "_position": 2
      },
      "geometry": {
        "type": "Point",
        "coordinates": [
          -73.36626047266479,
          5.547821279274622
        ]
      }
    },
    {
      "type": "Feature",
      "properties": {
        "_source": "Ruta8AT-Runta-LaFuente",
        "_segmentIndex": 0,
        "_position": 0
      },
      "geometry": {
        "type": "Point",
        "coordinates": [
          -73.366407,
          5.548178
        ]
      }
    }
  ]
}