{
  "type": "FeatureCollection",
  "features": [
    {
      "type": "Feature",
      "properties": {
        "_source": "Ruta4-PinosdeOriente-SanFrancisco-Muiscas-Arboleda",
        "_segmentIndex": 0,
        "_position": 0
      },
      "geometry": {
        "type": "Point",
        "coordinates": [
          -73.364237,
          5.502795
        ]
      }
    },
    {
      "type": "Feature",
      "properties": {
        "_source": "Ruta4-PinosdeOriente-SanFrancisco-Muiscas-Arboleda",
        "_segmentIndex": 0,
        "_position": 1
      },
      "geometry": {
        "type": "Point",
        "coordinates": [
          -73.3641442636425,
          5.502459378800293
        ]
      }
    },
    {
      "type": "Feature",
      "properties": {
        "_source": "Ruta4-PinosdeOriente-SanFrancisco-Muiscas-Arboleda",
        "_segmentIndex": 0,
        "_position": 2
      },
      "geometry": {
        "type": "Point",
        "coordinates": [
          -73.36386806980397,
          5.502103554289457
        ]
      }
    },
    {
      "type": "Feature",
      "properties": {
        "_source": "Ruta4-PinosdeOriente-SanFrancisco-Muiscas-Arboleda",
        "_segmentIndex": 0,
        "_position": 3
      },
      "geometry": {
        "type": "Point",
        "coordinates": [
          -73.36359457875398,
          5.501745673504342
        ]
      }
    },
    {
      "type": "Feature",
      "properties": {
        "_source": "Ruta4-PinosdeOriente-SanFrancisco-Muiscas-Arboleda",
        "_segmentIndex": 0,
        "_position": 0
      },
      "geometry": {
        "type": "Point",
        "coordinates": [
          -73.363338,
          5.501396
        ]
      }
    },
    {
      "type": "Feature",
      "properties": {
        "_source": "Ruta4-PinosdeOriente-SanFrancisco-Muiscas-Arboleda",
        "_segmentIndex": 0,
        "_position": 1
      },
      "geometry": {
        "type": "Point",
        "coordinates": [
          -73.36370641205592,
          5.501145001713635
        ]
      }
    },
    {
      "type": "Feature",
      "properties": {
        "_source": "Ruta4-PinosdeOriente-SanFrancisco-Muiscas-Arboleda",
        "_segmentIndex": 0,
        "_position": 2
      },
      "geometry": {
        "type": "Point",
        "coordinates": [
          -73.36415182583927,
          5.501081029028954
        ]
      }
    },
    {
      "type": "Feature",
      "properties": {
        "_source": "Ruta4-PinosdeOriente-SanFrancisco-Muiscas-Arboleda",
        "_segmentIndex": 0,
        "_position": 3
      },
      "geometry": {
        "type": "Point",
        "coordinates": [
          -73.36458158758062,
          5.500959706209982
        ]
      }
    },
    {
      "type": "Feature",
      "properties": {
        "_source": "Ruta4-PinosdeOriente-SanFrancisco-Muiscas-Arboleda",
        "_segmentIndex": 0,
        "_position": 4
      },
      "geometry": {
        "type": "Point",
        "coordinates": [
          -73.36479451363847,
          5.500578130952877
        ]
      }
    },
    {
      "type": "Feature",
      "properties": {
        "_source": "Ruta4-PinosdeOriente-SanFrancisco-Muiscas-Arboleda",
        "_segmentIndex": 0,
        "_position": 5
      },
      "geometry": {
        "type": "Point",
        "coordinates": [
          -73.36502339759393,
          5.500215990881998
        ]
      }
    },
    {
      "type": "Feature",
      "properties": {
        "_source": "Ruta4-PinosdeOriente-SanFrancisco-Muiscas-Arboleda",
        "_segmentIndex": 0,
        "_position": 6
      },
      "geometry": {
        "type": "Point",
        "coordinates": [
          -73.3654159526665,
          5.49999602366675
        ]
      }
    },
    {
      "type": "Feature",
      "properties": {
        "_source": "Ruta4-PinosdeOriente-SanFrancisco-Muiscas-Arboleda",
        "_segmentIndex": 0,
        "_position": 7
      },
      "geometry": {
        "type": "Point",
        "coordinates": [
          -73.36581947569701,
          5.4997982540507415
        ]
      }
    },
    {
      "type": "Feature",
      "properties": {
        "_source": "Ruta4-PinosdeOriente-SanFrancisco-Muiscas-Arboleda",
        "_segmentIndex": 0,
        "_position": 8
      },
      "geometry": {
        "type": "Point",
        "coordinates": [
          -73.36626712451891,
          5.499815764499981
        ]
      }
    },
    {
      "type": "Feature",
      "properties": {
        "_source": "Ruta4-PinosdeOriente-SanFrancisco-Muiscas-Arboleda",
        "_segmentIndex": 0,
        "_position": 9
      },
      "geometry": {
        "type": "Point",
        "coordinates": [
          -73.36668751590659,
          5.499693126259711
        ]
      }
    },
    {
      "type": "Feature",
      "properties": {
        "_source": "Ruta4-PinosdeOriente-SanFrancisco-Muiscas-Arboleda",
        "_segmentIndex": 0,
        "_position": 10
      },
      "geometry": {
        "type": "Point",
        "coordinates": [
          -73.36711171586519,
          5.499733113568178
        ]
      }
    },
    {
      "type": "Feature",
      "properties": {
        "_source": "Ruta4-PinosdeOriente-SanFrancisco-Muiscas-Arboleda",
        "_segmentIndex": 0,
        "_position": 11
      },
      "geometry": {
        "type": "Point",
        "coordinates": [
          -73.36705809522294,
          5.500150321204955
        ]
      }
    },
    {
      "type": "Feature",
      "properties": {
        "_source": "Ruta4-PinosdeOriente-SanFrancisco-Muiscas-Arboleda",
        "_segmentIndex": 0,
        "_position": 12
      },
      "geometry": {
        "type": "Point",
        "coordinates": [
          -73.36689188265174,
          5.5005667636136595
        ]
      }
    },
    {
      "type": "Feature",
      "properties": {
        "_source": "Ruta4-PinosdeOriente-SanFrancisco-Muiscas-Arboleda",
        "_segmentIndex": 0,
        "_position": 13
      },
      "geometry": {
        "type": "Point",
        "coordinates": [
          -73.36685520727391,
          5.501012815796005
        ]
      }
    },
    {
      "type": "Feature",
      "properties": {
        "_source": "Ruta4-PinosdeOriente-SanFrancisco-Muiscas-Arboleda",
        "_segmentIndex": 0,
        "_position": 14
      },
      "geometry": {
        "type": "Point",
        "coordinates": [
          -73.36681891525035,
          5.501455929571539
        ]
      }
    },
    {
      "type": "Feature",
      "properties": {
        "_source": "Ruta4-PinosdeOriente-SanFrancisco-Muiscas-Arboleda",
        "_segmentIndex": 0,
        "_position": 15
      },
      "geometry": {
        "type": "Point",
        "coordinates": [
          -73.36682639270835,
          5.501871269974932
        ]
      }
    },
    {
      "type": "Feature",
      "properties": {
        "_source": "Ruta4-PinosdeOriente-SanFrancisco-Muiscas-Arboleda",
        "_segmentIndex": 0,
        "_position": 16
      },
      "geometry": {
        "type": "Point",
        "coordinates": [
          -73.36726630959095,
          5.5019204733050815
        ]
      }
    },
    {
      "type": "Feature",
      "properties": {
        "_source": "Ruta4-PinosdeOriente-SanFrancisco-Muiscas-Arboleda",
        "_segmentIndex": 0,
        "_position": 17
      },
      "geometry": {
        "type": "Point",
        "coordinates": [
          -73.36761686677423,
          5.502168657665461
        ]
      }
    },
    {
      "type": "Feature",
      "properties": {
        "_source": "Ruta4-PinosdeOriente-SanFrancisco-Muiscas-Arboleda",
        "_segmentIndex": 0,
        "_position": 18
      },
      "geometry": {
        "type": "Point",
        "coordinates": [
          -73.36793347396019,
          5.5024865383950505
        ]
      }
    },
    {
      "type": "Feature",
      "properties": {
        "_source": "Ruta4-PinosdeOriente-SanFrancisco-Muiscas-Arboleda",
        "_segmentIndex": 0,
        "_position": 0
      },
      "geometry": {
        "type": "Point",
        "coordinates": [
          -73.367948,
          5.502857
        ]
      }
    },
    {
      "type": "Feature",
      "properties": {
        "_source": "Ruta4-PinosdeOriente-SanFrancisco-Muiscas-Arboleda",
        "_segmentIndex": 0,
        "_position": 1
      },
      "geometry": {
        "type": "Point",
        "coordinates": [
          -73.36762780430395,
          5.503166661887553
        ]
      }
    },
    {
      "type": "Feature",
      "properties": {
        "_source": "Ruta4-PinosdeOriente-SanFrancisco-Muiscas-Arboleda",
        "_segmentIndex": 0,
        "_position": 2
      },
      "geometry": {
        "type": "Point",
        "coordinates": [
          -73.36733005721278,
          5.503504775607702
        ]
      }
    },
    {
      "type": "Feature",
      "properties": {
        "_source": "Ruta4-PinosdeOriente-SanFrancisco-Muiscas-Arboleda",
        "_segmentIndex": 0,
        "_position": 3
      },
      "geometry": {
        "type": "Point",
        "coordinates": [
          -73.36707227010146,
          5.5038720393987175
        ]
      }
    },
    {
      "type": "Feature",
      "properties": {
        "_source": "Ruta4-PinosdeOriente-SanFrancisco-Muiscas-Arboleda",
        "_segmentIndex": 0,
        "_position": 4
      },
      "geometry": {
        "type": "Point",
        "coordinates": [
          -73.36679461717796,
          5.504226569863117
        ]
      }
    },
    {
      "type": "Feature",
      "properties": {
        "_source": "Ruta4-PinosdeOriente-SanFrancisco-Muiscas-Arboleda",
        "_segmentIndex": 0,
        "_position": 5
      },
      "geometry": {
        "type": "Point",
        "coordinates": [
          -73.36652825839336,
          5.504588965891342
        ]
      }
    },
    {
      "type": "Feature",
      "properties": {
        "_source": "Ruta4-PinosdeOriente-SanFrancisco-Muiscas-Arboleda",
        "_segmentIndex": 0,
        "_position": 6
      },
      "geometry": {
        "type": "Point",
        "coordinates": [
          -73.3662991861973,
          5.504976437287491
        ]
      }
    },
    {
      "type": "Feature",
      "properties": {
        "_source": "Ruta4-PinosdeOriente-SanFrancisco-Muiscas-Arboleda",
        "_segmentIndex": 0,
        "_position": 7
      },
      "geometry": {
        "type": "Point",
        "coordinates": [
          -73.36608067136709,
          5.505369991571767
        ]
      }
    },
    {
      "type": "Feature",
      "properties": {
        "_source": "Ruta4-PinosdeOriente-SanFrancisco-Muiscas-Arboleda",
        "_segmentIndex": 0,
        "_position": 8
      },
      "geometry": {
        "type": "Point",
        "coordinates": [
          -73.36587803714256,
          5.5057713526410605
        ]
      }
    },
    {
      "type": "Feature",
      "properties": {
        "_source": "Ruta4-PinosdeOriente-SanFrancisco-Muiscas-Arboleda",
        "_segmentIndex": 0,
        "_position": 9
      },
      "geometry": {
        "type": "Point",
        "coordinates": [
          -73.36574699106285,
          5.506201089841301
        ]
      }
    },
    {
      "type": "Feature",
      "properties": {
        "_source": "Ruta4-PinosdeOriente-SanFrancisco-Muiscas-Arboleda",
        "_segmentIndex": 0,
        "_position": 10
      },
      "geometry": {
        "type": "Point",
        "coordinates": [
          -73.36566137990614,
          5.506642508764517
        ]
      }
    },
    {
      "type": "Feature",
      "properties": {
        "_source": "Ruta4-PinosdeOriente-SanFrancisco-Muiscas-Arboleda",
        "_segmentIndex": 0,
        "_position": 11
      },
      "geometry": {
        "type": "Point",
        "coordinates": [
          -73.3655790559865,
          5.507084559223708
        ]
      }
    },
    {
      "type": "Feature",
      "properties": {
        "_source": "Ruta4-PinosdeOriente-SanFrancisco-Muiscas-Arboleda",
        "_segmentIndex": 0,
        "_position": 12
      },
      "geometry": {
        "type": "Point",
        "coordinates": [
          -73.3655035762422,
          5.507527878138123
        ]
      }
    },
    {
      "type": "Feature",
      "properties": {
        "_source": "Ruta4-PinosdeOriente-SanFrancisco-Muiscas-Arboleda",
        "_segmentIndex": 0,
        "_position": 13
      },
      "geometry": {
        "type": "Point",
        "coordinates": [
          -73.36545819379444,
          5.507973177411369
        ]
      }
    },
    {
      "type": "Feature",
      "properties": {
        "_source": "Ruta4-PinosdeOriente-SanFrancisco-Muiscas-Arboleda",
        "_segmentIndex": 0,
        "_position": 14
      },
      "geometry": {
        "type": "Point",
        "coordinates": [
          -73.36568570122823,
          5.508335135678558
        ]
      }
    },
    {
      "type": "Feature",
      "properties": {
        "_source": "Ruta4-PinosdeOriente-SanFrancisco-Muiscas-Arboleda",
        "_segmentIndex": 0,
        "_position": 15
      },
      "geometry": {
        "type": "Point",
        "coordinates": [
          -73.36611892904803,
          5.508358672775322
        ]
      }
    },
    {
      "type": "Feature",
      "properties": {
        "_source": "Ruta4-PinosdeOriente-SanFrancisco-Muiscas-Arboleda",
        "_segmentIndex": 0,
        "_position": 16
      },
      "geometry": {
        "type": "Point",
        "coordinates": [
          -73.36653434687116,
          5.5081849782985906
        ]
      }
    },
    {
      "type": "Feature",
      "properties": {
        "_source": "Ruta4-PinosdeOriente-SanFrancisco-Muiscas-Arboleda",
        "_segmentIndex": 0,
        "_position": 17
      },
      "geometry": {
        "type": "Point",
        "coordinates": [
          -73.36694416254994,
          5.508183154422439
        ]
      }
    },
    {
      "type": "Feature",
      "properties": {
        "_source": "Ruta4-PinosdeOriente-SanFrancisco-Muiscas-Arboleda",
        "_segmentIndex": 0,
        "_position": 18
      },
      "geometry": {
        "type": "Point",
        "coordinates": [
          -73.3671889811979,
          5.5085508617317025
        ]
      }
    },
    {
      "type": "Feature",
      "properties": {
        "_source": "Ruta4-PinosdeOriente-SanFrancisco-Muiscas-Arboleda",
        "_segmentIndex": 0,
        "_position": 19
      },
      "geometry": {
        "type": "Point",
        "coordinates": [
          -73.36751475334594,
          5.5088547149808305
        ]
      }
    },
    {
      "type": "Feature",
      "properties": {
        "_source": "Ruta4-PinosdeOriente-SanFrancisco-Muiscas-Arboleda",
        "_segmentIndex": 0,
        "_position": 20
      },
      "geometry": {
        "type": "Point",
        "coordinates": [
          -73.36791743690162,
          5.509058355809866
        ]
      }
    },
    {
      "type": "Feature",
      "properties": {
        "_source": "Ruta4-PinosdeOriente-SanFrancisco-Muiscas-Arboleda",
        "_segmentIndex": 0,
        "_position": 21
      },
      "geometry": {
        "type": "Point",
        "coordinates": [
          -73.36819254505657,
          5.509347568000813
        ]
      }
    },
    {
      "type": "Feature",
      "properties": {
        "_source": "Ruta4-PinosdeOriente-SanFrancisco-Muiscas-Arboleda",
        "_segmentIndex": 0,
        "_position": 22
      },
      "geometry": {
        "type": "Point",
        "coordinates": [
          -73.36819098942966,
          5.509796024535365
        ]
      }
    },
    {
      "type": "Feature",
      "properties": {
        "_source": "Ruta4-PinosdeOriente-SanFrancisco-Muiscas-Arboleda",
        "_segmentIndex": 0,
        "_position": 23
      },
      "geometry": {
        "type": "Point",
        "coordinates": [
          -73.36829595752143,
          5.510231078267493
        ]
      }
    },
    {
      "type": "Feature",
      "properties": {
        "_source": "Ruta4-PinosdeOriente-SanFrancisco-Muiscas-Arboleda",
        "_segmentIndex": 0,
        "_position": 24
      },
      "geometry": {
        "type": "Point",
        "coordinates": [
          -73.36854122367761,
          5.510604765325632
        ]
      }
    },
    {
      "type": "Feature",
      "properties": {
        "_source": "Ruta4-PinosdeOriente-SanFrancisco-Muiscas-Arboleda",
        "_segmentIndex": 0,
        "_position": 25
      },
      "geometry": {
        "type": "Point",
        "coordinates": [
          -73.36836938342715,
          5.5109769734229355
        ]
      }
    },
    {
      "type": "Feature",
      "properties": {
        "_source": "Ruta4-PinosdeOriente-SanFrancisco-Muiscas-Arboleda",
        "_segmentIndex": 0,
        "_position": 26
      },
      "geometry": {
        "type": "Point",
        "coordinates": [
          -73.36799972270009,
          5.511235394815173
        ]
      }
    },
    {
      "type": "Feature",
      "properties": {
        "_source": "Ruta4-PinosdeOriente-SanFrancisco-Muiscas-Arboleda",
        "_segmentIndex": 0,
        "_position": 27
      },
      "geometry": {
        "type": "Point",
        "coordinates": [
          -73.36784178556076,
          5.511641037069718
        ]
      }
    },
    {
      "type": "Feature",
      "properties": {
        "_source": "Ruta4-PinosdeOriente-SanFrancisco-Muiscas-Arboleda",
        "_segmentIndex": 0,
        "_position": 28
      },
      "geometry": {
        "type": "Point",
        "coordinates": [
          -73.36784258718937,
          5.512090313198786
        ]
      }
    },
    {
      "type": "Feature",
      "properties": {
        "_source": "Ruta4-PinosdeOriente-SanFrancisco-Muiscas-Arboleda",
        "_segmentIndex": 0,
        "_position": 29
      },
      "geometry": {
        "type": "Point",
        "coordinates": [
          -73.36792408373809,
          5.51252822330552
        ]
      }
    },
    {
      "type": "Feature",
      "properties": {
        "_source": "Ruta4-PinosdeOriente-SanFrancisco-Muiscas-Arboleda",
        "_segmentIndex": 0,
        "_position": 30
      },
      "geometry": {
        "type": "Point",
        "coordinates": [
          -73.3680972074534,
          5.512943377803383
        ]
      }
    },
    {
      "type": "Feature",
      "properties": {
        "_source": "Ruta4-PinosdeOriente-SanFrancisco-Muiscas-Arboleda",
        "_segmentIndex": 0,
        "_position": 31
      },
      "geometry": {
        "type": "Point",
        "coordinates": [
          -73.36827357918312,
          5.513357351449045
        ]
      }
    },
    {
      "type": "Feature",
      "properties": {
        "_source": "Ruta4-PinosdeOriente-SanFrancisco-Muiscas-Arboleda",
        "_segmentIndex": 0,
        "_position": 32
      },
      "geometry": {
        "type": "Point",
        "coordinates": [
          -73.36845148083633,
          5.513770671752392
        ]
      }
    },
    {
      "type": "Feature",
      "properties": {
        "_source": "Ruta4-PinosdeOriente-SanFrancisco-Muiscas-Arboleda",
        "_segmentIndex": 0,
        "_position": 33
      },
      "geometry": {
        "type": "Point",
        "coordinates": [
          -73.36859231953187,
          5.514193974302176
        ]
      }
    },
    {
      "type": "Feature",
      "properties": {
        "_source": "Ruta4-PinosdeOriente-SanFrancisco-Muiscas-Arboleda",
        "_segmentIndex": 0,
        "_position": 34
      },
      "geometry": {
        "type": "Point",
        "coordinates": [
          -73.36846714520193,
          5.514624245495542
        ]
      }
    },
    {
      "type": "Feature",
      "properties": {
        "_source": "Ruta4-PinosdeOriente-SanFrancisco-Muiscas-Arboleda",
        "_segmentIndex": 0,
        "_position": 35
      },
      "geometry": {
        "type": "Point",
        "coordinates": [
          -73.36846322556755,
          5.515057884527872
        ]
      }
    },
    {
      "type": "Feature",
      "properties": {
        "_source": "Ruta4-PinosdeOriente-SanFrancisco-Muiscas-Arboleda",
        "_segmentIndex": 0,
        "_position": 36
      },
      "geometry": {
        "type": "Point",
        "coordinates": [
          -73.36857176453806,
          5.515483773111068
        ]
      }
    },
    {
      "type": "Feature",
      "properties": {
        "_source": "Ruta4-PinosdeOriente-SanFrancisco-Muiscas-Arboleda",
        "_segmentIndex": 0,
        "_position": 0
      },
      "geometry": {
        "type": "Point",
        "coordinates": [
          -73.368538,
          5.515859
        ]
      }
    },
    {
      "type": "Feature",
      "properties": {
        "_source": "Ruta4-PinosdeOriente-SanFrancisco-Muiscas-Arboleda",
        "_segmentIndex": 0,
        "_position": 0
      },
      "geometry": {
        "type": "Point",
        "coordinates": [
          -73.368501,
          5.516076
        ]
      }
    },
    {
      "type": "Feature",
      "properties": {
        "_source": "Ruta4-PinosdeOriente-SanFrancisco-Muiscas-Arboleda",
        "_segmentIndex": 0,
        "_position": 1
      },
      "geometry": {
        "type": "Point",
        "coordinates": [
          -73.36842237972238,
          5.516515317478539
        ]
      }
    },
    {
      "type": "Feature",
      "properties": {
        "_source": "Ruta4-PinosdeOriente-SanFrancisco-Muiscas-Arboleda",
        "_segmentIndex": 0,
        "_position": 2
      },
      "geometry": {
        "type": "Point",
        "coordinates": [
          -73.36831205271508,
          5.516951241473935
        ]
      }
    },
    {
      "type": "Feature",
      "properties": {
        "_source": "Ruta4-PinosdeOriente-SanFrancisco-Muiscas-Arboleda",
        "_segmentIndex": 0,
        "_position": 3
      },
      "geometry": {
        "type": "Point",
        "coordinates": [
          -73.36811475092216,
          5.517351848439356
        ]
      }
    },
    {
      "type": "Feature",
      "properties": {
        "_source": "Ruta4-PinosdeOriente-SanFrancisco-Muiscas-Arboleda",
        "_segmentIndex": 0,
        "_position": 4
      },
      "geometry": {
        "type": "Point",
        "coordinates": [
          -73.3678718855465,
          5.5177309967436114
        ]
      }
    },
    {
      "type": "Feature",
      "properties": {
        "_source": "Ruta4-PinosdeOriente-SanFrancisco-Muiscas-Arboleda",
        "_segmentIndex": 0,
        "_position": 5
      },
      "geometry": {
        "type": "Point",
        "coordinates": [
          -73.36763466873975,
          5.518113534234585
        ]
      }
    },
    {
      "type": "Feature",
      "properties": {
        "_source": "Ruta4-PinosdeOriente-SanFrancisco-Muiscas-Arboleda",
        "_segmentIndex": 0,
        "_position": 6
      },
      "geometry": {
        "type": "Point",
        "coordinates": [
          -73.36747532160517,
          5.518529805428454
        ]
      }
    },
    {
      "type": "Feature",
      "properties": {
        "_source": "Ruta4-PinosdeOriente-SanFrancisco-Muiscas-Arboleda",
        "_segmentIndex": 0,
        "_position": 7
      },
      "geometry": {
        "type": "Point",
        "coordinates": [
          -73.36742248007089,
          5.518976302688021
        ]
      }
    },
    {
      "type": "Feature",
      "properties": {
        "_source": "Ruta4-PinosdeOriente-SanFrancisco-Muiscas-Arboleda",
        "_segmentIndex": 0,
        "_position": 8
      },
      "geometry": {
        "type": "Point",
        "coordinates": [
          -73.36736688384819,
          5.519422537994907
        ]
      }
    },
    {
      "type": "Feature",
      "properties": {
        "_source": "Ruta4-PinosdeOriente-SanFrancisco-Muiscas-Arboleda",
        "_segmentIndex": 0,
        "_position": 9
      },
      "geometry": {
        "type": "Point",
        "coordinates": [
          -73.36730202798908,
          5.51986747717244
        ]
      }
    },
    {
      "type": "Feature",
      "properties": {
        "_source": "Ruta4-PinosdeOriente-SanFrancisco-Muiscas-Arboleda",
        "_segmentIndex": 0,
        "_position": 10
      },
      "geometry": {
        "type": "Point",
        "coordinates": [
          -73.36718777425244,
          5.520302431890169
        ]
      }
    },
    {
      "type": "Feature",
      "properties": {
        "_source": "Ruta4-PinosdeOriente-SanFrancisco-Muiscas-Arboleda",
        "_segmentIndex": 0,
        "_position": 11
      },
      "geometry": {
        "type": "Point",
        "coordinates": [
          -73.36706159983804,
          5.5207341776968075
        ]
      }
    },
    {
      "type": "Feature",
      "properties": {
        "_source": "Ruta4-PinosdeOriente-SanFrancisco-Muiscas-Arboleda",
        "_segmentIndex": 0,
        "_position": 12
      },
      "geometry": {
        "type": "Point",
        "coordinates": [
          -73.36694556077794,
          5.521168746785896
        ]
      }
    },
    {
      "type": "Feature",
      "properties": {
        "_source": "Ruta4-PinosdeOriente-SanFrancisco-Muiscas-Arboleda",
        "_segmentIndex": 0,
        "_position": 13
      },
      "geometry": {
        "type": "Point",
        "coordinates": [
          -73.36682279220949,
          5.52160148422578
        ]
      }
    },
    {
      "type": "Feature",
      "properties": {
        "_source": "Ruta4-PinosdeOriente-SanFrancisco-Muiscas-Arboleda",
        "_segmentIndex": 0,
        "_position": 14
      },
      "geometry": {
        "type": "Point",
        "coordinates": [
          -73.36669525933524,
          5.522032851970429
        ]
      }
    },
    {
      "type": "Feature",
      "properties": {
        "_source": "Ruta4-PinosdeOriente-SanFrancisco-Muiscas-Arboleda",
        "_segmentIndex": 0,
        "_position": 15
      },
      "geometry": {
        "type": "Point",
        "coordinates": [
          -73.36657456030638,
          5.522466047347992
        ]
      }
    },
    {
      "type": "Feature",
      "properties": {
        "_source": "Ruta4-PinosdeOriente-SanFrancisco-Muiscas-Arboleda",
        "_segmentIndex": 0,
        "_position": 16
      },
      "geometry": {
        "type": "Point",
        "coordinates": [
          -73.36648529546656,
          5.522906841937347
        ]
      }
    },
    {
      "type": "Feature",
      "properties": {
        "_source": "Ruta4-PinosdeOriente-SanFrancisco-Muiscas-Arboleda",
        "_segmentIndex": 0,
        "_position": 17
      },
      "geometry": {
        "type": "Point",
        "coordinates": [
          -73.36638581143646,
          5.523345424815684
        ]
      }
    },
    {
      "type": "Feature",
      "properties": {
        "_source": "Ruta4-PinosdeOriente-SanFrancisco-Muiscas-Arboleda",
        "_segmentIndex": 0,
        "_position": 18
      },
      "geometry": {
        "type": "Point",
        "coordinates": [
          -73.36627916495256,
          5.523782373627717
        ]
      }
    },
    {
      "type": "Feature",
      "properties": {
        "_source": "Ruta4-PinosdeOriente-SanFrancisco-Muiscas-Arboleda",
        "_segmentIndex": 0,
        "_position": 19
      },
      "geometry": {
        "type": "Point",
        "coordinates": [
          -73.36616634799967,
          5.524217029076493
        ]
      }
    },
    {
      "type": "Feature",
      "properties": {
        "_source": "Ruta4-PinosdeOriente-SanFrancisco-Muiscas-Arboleda",
        "_segmentIndex": 0,
        "_position": 0
      },
      "geometry": {
        "type": "Point",
        "coordinates": [
          -73.366262,
          5.524399
        ]
      }
    },
    {
      "type": "Feature",
      "properties": {
        "_source": "Ruta4-PinosdeOriente-SanFrancisco-Muiscas-Arboleda",
        "_segmentIndex": 0,
        "_position": 1
      },
      "geometry": {
        "type": "Point",
        "coordinates": [
          -73.36647623437824,
          5.524794673653724
        ]
      }
    },
    {
      "type": "Feature",
      "properties": {
        "_source": "Ruta4-PinosdeOriente-SanFrancisco-Muiscas-Arboleda",
        "_segmentIndex": 0,
        "_position": 2
      },
      "geometry": {
        "type": "Point",
        "coordinates": [
          -73.36655176984299,
          5.525218040605224
        ]
      }
    },
    {
      "type": "Feature",
      "properties": {
        "_source": "Ruta4-PinosdeOriente-SanFrancisco-Muiscas-Arboleda",
        "_segmentIndex": 0,
        "_position": 3
      },
      "geometry": {
        "type": "Point",
        "coordinates": [
          -73.36642845755982,
          5.525650621470298
        ]
      }
    },
    {
      "type": "Feature",
      "properties": {
        "_source": "Ruta4-PinosdeOriente-SanFrancisco-Muiscas-Arboleda",
        "_segmentIndex": 0,
        "_position": 4
      },
      "geometry": {
        "type": "Point",
        "coordinates": [
          -73.36634919621632,
          5.526091860554933
        ]
      }
    },
    {
      "type": "Feature",
      "properties": {
        "_source": "Ruta4-PinosdeOriente-SanFrancisco-Muiscas-Arboleda",
        "_segmentIndex": 0,
        "_position": 5
      },
      "geometry": {
        "type": "Point",
        "coordinates": [
          -73.36633828943884,
          5.526541101669313
        ]
      }
    },
    {
      "type": "Feature",
      "properties": {
        "_source": "Ruta4-PinosdeOriente-SanFrancisco-Muiscas-Arboleda",
        "_segmentIndex": 0,
        "_position": 6
      },
      "geometry": {
        "type": "Point",
        "coordinates": [
          -73.36635507833469,
          5.526989954704186
        ]
      }
    },
    {
      "type": "Feature",
      "properties": {
        "_source": "Ruta4-PinosdeOriente-SanFrancisco-Muiscas-Arboleda",
        "_segmentIndex": 0,
        "_position": 7
      },
      "geometry": {
        "type": "Point",
        "coordinates": [
          -73.36633078090257,
          5.527435806538681
        ]
      }
    },
    {
      "type": "Feature",
      "properties": {
        "_source": "Ruta4-PinosdeOriente-SanFrancisco-Muiscas-Arboleda",
        "_segmentIndex": 0,
        "_position": 8
      },
      "geometry": {
        "type": "Point",
        "coordinates": [
          -73.36632903673174,
          5.527881628218505
        ]
      }
    },
    {
      "type": "Feature",
      "properties": {
        "_source": "Ruta4-PinosdeOriente-SanFrancisco-Muiscas-Arboleda",
        "_segmentIndex": 0,
        "_position": 0
      },
      "geometry": {
        "type": "Point",
        "coordinates": [
          -73.36643,
          5.528181
        ]
      }
    },
    {
      "type": "Feature",
      "properties": {
        "_source": "Ruta4-PinosdeOriente-SanFrancisco-Muiscas-Arboleda",
        "_segmentIndex": 0,
        "_position": 1
      },
      "geometry": {
        "type": "Point",
        "coordinates": [
          -73.36601390821535,
          5.528340188145003
        ]
      }
    },
    {
      "type": "Feature",
      "properties": {
        "_source": "Ruta4-PinosdeOriente-SanFrancisco-Muiscas-Arboleda",
        "_segmentIndex": 0,
        "_position": 2
      },
      "geometry": {
        "type": "Point",
        "coordinates": [
          -73.3656888086594,
          5.528650659438534
        ]
      }
    },
    {
      "type": "Feature",
      "properties": {
        "_source": "Ruta4-PinosdeOriente-SanFrancisco-Muiscas-Arboleda",
        "_segmentIndex": 0,
        "_position": 3
      },
      "geometry": {
        "type": "Point",
        "coordinates": [
          -73.36540595804286,
          5.529000941236806
        ]
      }
    },
    {
      "type": "Feature",
      "properties": {
        "_source": "Ruta4-PinosdeOriente-SanFrancisco-Muiscas-Arboleda",
        "_segmentIndex": 0,
        "_position": 4
      },
      "geometry": {
        "type": "Point",
        "coordinates": [
          -73.36522818326577,
          5.529405799370551
        ]
      }
    },
    {
      "type": "Feature",
      "properties": {
        "_source": "Ruta4-PinosdeOriente-SanFrancisco-Muiscas-Arboleda",
        "_segmentIndex": 0,
        "_position": 5
      },
      "geometry": {
        "type": "Point",
        "coordinates": [
          -73.36509869599497,
          5.529836579527661
        ]
      }
    },
    {
      "type": "Feature",
      "properties": {
        "_source": "Ruta4-PinosdeOriente-SanFrancisco-Muiscas-Arboleda",
        "_segmentIndex": 0,
        "_position": 6
      },
      "geometry": {
        "type": "Point",
        "coordinates": [
          -73.36498567712022,
          5.53027194102738
        ]
      }
    },
    {
      "type": "Feature",
      "properties": {
        "_source": "Ruta4-PinosdeOriente-SanFrancisco-Muiscas-Arboleda",
        "_segmentIndex": 0,
        "_position": 7
      },
      "geometry": {
        "type": "Point",
        "coordinates": [
          -73.36486300659176,
          5.530704674527652
        ]
      }
    },
    {
      "type": "Feature",
      "properties": {
        "_source": "Ruta4-PinosdeOriente-SanFrancisco-Muiscas-Arboleda",
        "_segmentIndex": 0,
        "_position": 8
      },
      "geometry": {
        "type": "Point",
        "coordinates": [
          -73.36473763986768,
          5.531136673911492
        ]
      }
    },
    {
      "type": "Feature",
      "properties": {
        "_source": "Ruta4-PinosdeOriente-SanFrancisco-Muiscas-Arboleda",
        "_segmentIndex": 0,
        "_position": 9
      },
      "geometry": {
        "type": "Point",
        "coordinates": [
          -73.36460509456525,
          5.531566540917188
        ]
      }
    },
    {
      "type": "Feature",
      "properties": {
        "_source": "Ruta4-PinosdeOriente-SanFrancisco-Muiscas-Arboleda",
        "_segmentIndex": 0,
        "_position": 10
      },
      "geometry": {
        "type": "Point",
        "coordinates": [
          -73.36447195818248,
          5.531996230928743
        ]
      }
    },
    {
      "type": "Feature",
      "properties": {
        "_source": "Ruta4-PinosdeOriente-SanFrancisco-Muiscas-Arboleda",
        "_segmentIndex": 0,
        "_position": 11
      },
      "geometry": {
        "type": "Point",
        "coordinates": [
          -73.36433742306436,
          5.532425489358518
        ]
      }
    },
    {
      "type": "Feature",
      "properties": {
        "_source": "Ruta4-PinosdeOriente-SanFrancisco-Muiscas-Arboleda",
        "_segmentIndex": 0,
        "_position": 12
      },
      "geometry": {
        "type": "Point",
        "coordinates": [
          -73.36420060706972,
          5.532854019415465
        ]
      }
    },
    {
      "type": "Feature",
      "properties": {
        "_source": "Ruta4-PinosdeOriente-SanFrancisco-Muiscas-Arboleda",
        "_segmentIndex": 0,
        "_position": 13
      },
      "geometry": {
        "type": "Point",
        "coordinates": [
          -73.36405911583813,
          5.5332810564530694
        ]
      }
    },
    {
      "type": "Feature",
      "properties": {
        "_source": "Ruta4-PinosdeOriente-SanFrancisco-Muiscas-Arboleda",
        "_segmentIndex": 0,
        "_position": 14
      },
      "geometry": {
        "type": "Point",
        "coordinates": [
          -73.36392938894565,
          5.53371149372462
        ]
      }
    },
    {
      "type": "Feature",
      "properties": {
        "_source": "Ruta4-PinosdeOriente-SanFrancisco-Muiscas-Arboleda",
        "_segmentIndex": 0,
        "_position": 15
      },
      "geometry": {
        "type": "Point",
        "coordinates": [
          -73.36381960832496,
          5.534147675451837
        ]
      }
    },
    {
      "type": "Feature",
      "properties": {
        "_source": "Ruta4-PinosdeOriente-SanFrancisco-Muiscas-Arboleda",
        "_segmentIndex": 0,
        "_position": 16
      },
      "geometry": {
        "type": "Point",
        "coordinates": [
          -73.36370996118269,
          5.534583890544507
        ]
      }
    },
    {
      "type": "Feature",
      "properties": {
        "_source": "Ruta4-PinosdeOriente-SanFrancisco-Muiscas-Arboleda",
        "_segmentIndex": 0,
        "_position": 17
      },
      "geometry": {
        "type": "Point",
        "coordinates": [
          -73.36358595047417,
          5.535016163608523
        ]
      }
    },
    {
      "type": "Feature",
      "properties": {
        "_source": "Ruta4-PinosdeOriente-SanFrancisco-Muiscas-Arboleda",
        "_segmentIndex": 0,
        "_position": 18
      },
      "geometry": {
        "type": "Point",
        "coordinates": [
          -73.36345544468738,
          5.535446652836389
        ]
      }
    },
    {
      "type": "Feature",
      "properties": {
        "_source": "Ruta4-PinosdeOriente-SanFrancisco-Muiscas-Arboleda",
        "_segmentIndex": 0,
        "_position": 19
      },
      "geometry": {
        "type": "Point",
        "coordinates": [
          -73.36330816266664,
          5.535861134748695
        ]
      }
    },
    {
      "type": "Feature",
      "properties": {
        "_source": "Ruta4-PinosdeOriente-SanFrancisco-Muiscas-Arboleda",
        "_segmentIndex": 0,
        "_position": 0
      },
      "geometry": {
        "type": "Point",
        "coordinates": [
          -73.363317,
          5.53591
        ]
      }
    },
    {
      "type": "Feature",
      "properties": {
        "_source": "Ruta4-PinosdeOriente-SanFrancisco-Muiscas-Arboleda",
        "_segmentIndex": 0,
        "_position": 0
      },
      "geometry": {
        "type": "Point",
        "coordinates": [
          -73.363244,
          5.536333
        ]
      }
    },
    {
      "type": "Feature",
      "properties": {
        "_source": "Ruta4-PinosdeOriente-SanFrancisco-Muiscas-Arboleda",
        "_segmentIndex": 0,
        "_position": 1
      },
      "geometry": {
        "type": "Point",
        "coordinates": [
          -73.36279484366072,
          5.536381276777859
        ]
      }
    },
    {
      "type": "Feature",
      "properties": {
        "_source": "Ruta4-PinosdeOriente-SanFrancisco-Muiscas-Arboleda",
        "_segmentIndex": 0,
        "_position": 2
      },
      "geometry": {
        "type": "Point",
        "coordinates": [
          -73.36234541152824,
          5.536426792604176
        ]
      }
    },
    {
      "type": "Feature",
      "properties": {
        "_source": "Ruta4-PinosdeOriente-SanFrancisco-Muiscas-Arboleda",
        "_segmentIndex": 0,
        "_position": 3
      },
      "geometry": {
        "type": "Point",
        "coordinates": [
          -73.36190164967623,
          5.536503612537582
        ]
      }
    },
    {
      "type": "Feature",
      "properties": {
        "_source": "Ruta4-PinosdeOriente-SanFrancisco-Muiscas-Arboleda",
        "_segmentIndex": 0,
        "_position": 4
      },
      "geometry": {
        "type": "Point",
        "coordinates": [
          -73.36155181709594,
          5.536781710498403
        ]
      }
    },
    {
      "type": "Feature",
      "properties": {
        "_source": "Ruta4-PinosdeOriente-SanFrancisco-Muiscas-Arboleda",
        "_segmentIndex": 0,
        "_position": 5
      },
      "geometry": {
        "type": "Point",
        "coordinates": [
          -73.36130228735936,
          5.537152145061987
        ]
      }
    },
    {
      "type": "Feature",
      "properties": {
        "_source": "Ruta4-PinosdeOriente-SanFrancisco-Muiscas-Arboleda",
        "_segmentIndex": 0,
        "_position": 6
      },
      "geometry": {
        "type": "Point",
        "coordinates": [
          -73.36104318006664,
          5.5375115855825525
        ]
      }
    },
    {
      "type": "Feature",
      "properties": {
        "_source": "Ruta4-PinosdeOriente-SanFrancisco-Muiscas-Arboleda",
        "_segmentIndex": 0,
        "_position": 7
      },
      "geometry": {
        "type": "Point",
        "coordinates": [
          -73.36065812323729,
          5.537746433648412
        ]
      }
    },
    {
      "type": "Feature",
      "properties": {
        "_source": "Ruta4-PinosdeOriente-SanFrancisco-Muiscas-Arboleda",
        "_segmentIndex": 0,
        "_position": 8
      },
      "geometry": {
        "type": "Point",
        "coordinates": [
          -73.3603313700233,
          5.538048082579679
        ]
      }
    },
    {
      "type": "Feature",
      "properties": {
        "_source": "Ruta4-PinosdeOriente-SanFrancisco-Muiscas-Arboleda",
        "_segmentIndex": 0,
        "_position": 0
      },
      "geometry": {
        "type": "Point",
        "coordinates": [
          -73.360299,
          5.538088
        ]
      }
    },
    {
      "type": "Feature",
      "properties": {
        "_source": "Ruta4-PinosdeOriente-SanFrancisco-Muiscas-Arboleda",
        "_segmentIndex": 0,
        "_position": 1
      },
      "geometry": {
        "type": "Point",
        "coordinates": [
          -73.36019372852124,
          5.538525281851984
        ]
      }
    },
    {
      "type": "Feature",
      "properties": {
        "_source": "Ruta4-PinosdeOriente-SanFrancisco-Muiscas-Arboleda",
        "_segmentIndex": 0,
        "_position": 2
      },
      "geometry": {
        "type": "Point",
        "coordinates": [
          -73.36008852426959,
          5.538962579531294
        ]
      }
    },
    {
      "type": "Feature",
      "properties": {
        "_source": "Ruta4-PinosdeOriente-SanFrancisco-Muiscas-Arboleda",
        "_segmentIndex": 0,
        "_position": 3
      },
      "geometry": {
        "type": "Point",
        "coordinates": [
          -73.35998604178367,
          5.539400517285101
        ]
      }
    },
    {
      "type": "Feature",
      "properties": {
        "_source": "Ruta4-PinosdeOriente-SanFrancisco-Muiscas-Arboleda",
        "_segmentIndex": 0,
        "_position": 4
      },
      "geometry": {
        "type": "Point",
        "coordinates": [
          -73.35986638013573,
          5.539833678293629
        ]
      }
    },
    {
      "type": "Feature",
      "properties": {
        "_source": "Ruta4-PinosdeOriente-SanFrancisco-Muiscas-Arboleda",
        "_segmentIndex": 0,
        "_position": 5
      },
      "geometry": {
        "type": "Point",
        "coordinates": [
          -73.35972282741578,
          5.540260007188572
        ]
      }
    },
    {
      "type": "Feature",
      "properties": {
        "_source": "Ruta4-PinosdeOriente-SanFrancisco-Muiscas-Arboleda",
        "_segmentIndex": 0,
        "_position": 6
      },
      "geometry": {
        "type": "Point",
        "coordinates": [
          -73.35956039932256,
          5.5406790747059524
        ]
      }
    },
    {
      "type": "Feature",
      "properties": {
        "_source": "Ruta4-PinosdeOriente-SanFrancisco-Muiscas-Arboleda",
        "_segmentIndex": 0,
        "_position": 7
      },
      "geometry": {
        "type": "Point",
        "coordinates": [
          -73.35937231916598,
          5.541087884876534
        ]
      }
    },
    {
      "type": "Feature",
      "properties": {
        "_source": "Ruta4-PinosdeOriente-SanFrancisco-Muiscas-Arboleda",
        "_segmentIndex": 0,
        "_position": 8
      },
      "geometry": {
        "type": "Point",
        "coordinates": [
          -73.35918122552955,
          5.541495322348026
        ]
      }
    },
    {
      "type": "Feature",
      "properties": {
        "_source": "Ruta4-PinosdeOriente-SanFrancisco-Muiscas-Arboleda",
        "_segmentIndex": 0,
        "_position": 9
      },
      "geometry": {
        "type": "Point",
        "coordinates": [
          -73.3590012783654,
          5.5419074745029
        ]
      }
    },
    {
      "type": "Feature",
      "properties": {
        "_source": "Ruta4-PinosdeOriente-SanFrancisco-Muiscas-Arboleda",
        "_segmentIndex": 0,
        "_position": 10
      },
      "geometry": {
        "type": "Point",
        "coordinates": [
          -73.35885084943692,
          5.54233013228916
        ]
      }
    },
    {
      "type": "Feature",
      "properties": {
        "_source": "Ruta4-PinosdeOriente-SanFrancisco-Muiscas-Arboleda",
        "_segmentIndex": 0,
        "_position": 11
      },
      "geometry": {
        "type": "Point",
        "coordinates": [
          -73.35879339911955,
          5.5427683891540225
        ]
      }
    },
    {
      "type": "Feature",
      "properties": {
        "_source": "Ruta4-PinosdeOriente-SanFrancisco-Muiscas-Arboleda",
        "_segmentIndex": 0,
        "_position": 12
      },
      "geometry": {
        "type": "Point",
        "coordinates": [
          -73.35860733626396,
          5.543150489215528
        ]
      }
    },
    {
      "type": "Feature",
      "properties": {
        "_source": "Ruta4-PinosdeOriente-SanFrancisco-Muiscas-Arboleda",
        "_segmentIndex": 0,
        "_position": 13
      },
      "geometry": {
        "type": "Point",
        "coordinates": [
          -73.35833910849641,
          5.543512317203606
        ]
      }
    },
    {
      "type": "Feature",
      "properties": {
        "_source": "Ruta4-PinosdeOriente-SanFrancisco-Muiscas-Arboleda",
        "_segmentIndex": 0,
        "_position": 14
      },
      "geometry": {
        "type": "Point",
        "coordinates": [
          -73.35805411736212,
          5.543861185921634
        ]
      }
    },
    {
      "type": "Feature",
      "properties": {
        "_source": "Ruta4-PinosdeOriente-SanFrancisco-Muiscas-Arboleda",
        "_segmentIndex": 0,
        "_position": 15
      },
      "geometry": {
        "type": "Point",
        "coordinates": [
          -73.35776316210072,
          5.544201638173361
        ]
      }
    },
    {
      "type": "Feature",
      "properties": {
        "_source": "Ruta4-PinosdeOriente-SanFrancisco-Muiscas-Arboleda",
        "_segmentIndex": 0,
        "_position": 0
      },
      "geometry": {
        "type": "Point",
        "coordinates": [
          -73.357725,
          5.544235
        ]
      }
    },
    {
      "type": "Feature",
      "properties": {
        "_source": "Ruta4-PinosdeOriente-SanFrancisco-Muiscas-Arboleda",
        "_segmentIndex": 0,
        "_position": 1
      },
      "geometry": {
        "type": "Point",
        "coordinates": [
          -73.35733031832122,
          5.544379467494225
        ]
      }
    },
    {
      "type": "Feature",
      "properties": {
        "_source": "Ruta4-PinosdeOriente-SanFrancisco-Muiscas-Arboleda",
        "_segmentIndex": 0,
        "_position": 2
      },
      "geometry": {
        "type": "Point",
        "coordinates": [
          -73.35728070753424,
          5.544807228663808
        ]
      }
    },
    {
      "type": "Feature",
      "properties": {
        "_source": "Ruta4-PinosdeOriente-SanFrancisco-Muiscas-Arboleda",
        "_segmentIndex": 0,
        "_position": 0
      },
      "geometry": {
        "type": "Point",
        "coordinates": [
          -73.357247,
          5.544872
        ]
      }
    },
    {
      "type": "Feature",
      "properties": {
        "_source": "Ruta4-PinosdeOriente-SanFrancisco-Muiscas-Arboleda",
        "_segmentIndex": 0,
        "_position": 1
      },
      "geometry": {
        "type": "Point",
        "coordinates": [
          -73.35699824078961,
          5.545247354396933
        ]
      }
    },
    {
      "type": "Feature",
      "properties": {
        "_source": "Ruta4-PinosdeOriente-SanFrancisco-Muiscas-Arboleda",
        "_segmentIndex": 0,
        "_position": 2
      },
      "geometry": {
        "type": "Point",
        "coordinates": [
          -73.35674040567746,
          5.545616363843334
        ]
      }
    },
    {
      "type": "Feature",
      "properties": {
        "_source": "Ruta4-PinosdeOriente-SanFrancisco-Muiscas-Arboleda",
        "_segmentIndex": 0,
        "_position": 3
      },
      "geometry": {
        "type": "Point",
        "coordinates": [
          -73.35647004549517,
          5.545976616979113
        ]
      }
    },
    {
      "type": "Feature",
      "properties": {
        "_source": "Ruta4-PinosdeOriente-SanFrancisco-Muiscas-Arboleda",
        "_segmentIndex": 0,
        "_position": 4
      },
      "geometry": {
        "type": "Point",
        "coordinates": [
          -73.35620747099019,
          5.546342524406627
        ]
      }
    },
    {
      "type": "Feature",
      "properties": {
        "_source": "Ruta4-PinosdeOriente-SanFrancisco-Muiscas-Arboleda",
        "_segmentIndex": 0,
        "_position": 5
      },
      "geometry": {
        "type": "Point",
        "coordinates": [
          -73.35594485808784,
          5.546708406954398
        ]
      }
    },
    {
      "type": "Feature",
      "properties": {
        "_source": "Ruta4-PinosdeOriente-SanFrancisco-Muiscas-Arboleda",
        "_segmentIndex": 0,
        "_position": 6
      },
      "geometry": {
        "type": "Point",
        "coordinates": [
          -73.3556776807937,
          5.5470710052532315
        ]
      }
    },
    {
      "type": "Feature",
      "properties": {
        "_source": "Ruta4-PinosdeOriente-SanFrancisco-Muiscas-Arboleda",
        "_segmentIndex": 0,
        "_position": 7
      },
      "geometry": {
        "type": "Point",
        "coordinates": [
          -73.35541050317116,
          5.5474336034321965
        ]
      }
    },
    {
      "type": "Feature",
      "properties": {
        "_source": "Ruta4-PinosdeOriente-SanFrancisco-Muiscas-Arboleda",
        "_segmentIndex": 0,
        "_position": 8
      },
      "geometry": {
        "type": "Point",
        "coordinates": [
          -73.35514332522015,
          5.547796201491287
        ]
      }
    },
    {
      "type": "Feature",
      "properties": {
        "_source": "Ruta4-PinosdeOriente-SanFrancisco-Muiscas-Arboleda",
        "_segmentIndex": 0,
        "_position": 9
      },
      "geometry": {
        "type": "Point",
        "coordinates": [
          -73.35487597471155,
          5.548158673647928
        ]
      }
    },
    {
      "type": "Feature",
      "properties": {
        "_source": "Ruta4-PinosdeOriente-SanFrancisco-Muiscas-Arboleda",
        "_segmentIndex": 0,
        "_position": 10
      },
      "geometry": {
        "type": "Point",
        "coordinates": [
          -73.35460862301584,
          5.54852114505752
        ]
      }
    },
    {
      "type": "Feature",
      "properties": {
        "_source": "Ruta4-PinosdeOriente-SanFrancisco-Muiscas-Arboleda",
        "_segmentIndex": 0,
        "_position": 11
      },
      "geometry": {
        "type": "Point",
        "coordinates": [
          -73.35432826002715,
          5.548873665809223
        ]
      }
    },
    {
      "type": "Feature",
      "properties": {
        "_source": "Ruta4-PinosdeOriente-SanFrancisco-Muiscas-Arboleda",
        "_segmentIndex": 0,
        "_position": 12
      },
      "geometry": {
        "type": "Point",
        "coordinates": [
          -73.35404521956181,
          5.549224139001205
        ]
      }
    },
    {
      "type": "Feature",
      "properties": {
        "_source": "Ruta4-PinosdeOriente-SanFrancisco-Muiscas-Arboleda",
        "_segmentIndex": 0,
        "_position": 13
      },
      "geometry": {
        "type": "Point",
        "coordinates": [
          -73.35376167154315,
          5.549574205220085
        ]
      }
    },
    {
      "type": "Feature",
      "properties": {
        "_source": "Ruta4-PinosdeOriente-SanFrancisco-Muiscas-Arboleda",
        "_segmentIndex": 0,
        "_position": 14
      },
      "geometry": {
        "type": "Point",
        "coordinates": [
          -73.3534777486824,
          5.549923970913074
        ]
      }
    },
    {
      "type": "Feature",
      "properties": {
        "_source": "Ruta4-PinosdeOriente-SanFrancisco-Muiscas-Arboleda",
        "_segmentIndex": 0,
        "_position": 15
      },
      "geometry": {
        "type": "Point",
        "coordinates": [
          -73.35319382548478,
          5.55027373647063
        ]
      }
    },
    {
      "type": "Feature",
      "properties": {
        "_source": "Ruta4-PinosdeOriente-SanFrancisco-Muiscas-Arboleda",
        "_segmentIndex": 0,
        "_position": 16
      },
      "geometry": {
        "type": "Point",
        "coordinates": [
          -73.35289163484636,
          5.5506079487726545
        ]
      }
    },
    {
      "type": "Feature",
      "properties": {
        "_source": "Ruta4-PinosdeOriente-SanFrancisco-Muiscas-Arboleda",
        "_segmentIndex": 0,
        "_position": 17
      },
      "geometry": {
        "type": "Point",
        "coordinates": [
          -73.35259292772834,
          5.550944816730615
        ]
      }
    },
    {
      "type": "Feature",
      "properties": {
        "_source": "Ruta4-PinosdeOriente-SanFrancisco-Muiscas-Arboleda",
        "_segmentIndex": 0,
        "_position": 18
      },
      "geometry": {
        "type": "Point",
        "coordinates": [
          -73.35235437361085,
          5.551325673504572
        ]
      }
    },
    {
      "type": "Feature",
      "properties": {
        "_source": "Ruta4-PinosdeOriente-SanFrancisco-Muiscas-Arboleda",
        "_segmentIndex": 0,
        "_position": 19
      },
      "geometry": {
        "type": "Point",
        "coordinates": [
          -73.35215367825639,
          5.551728529078498
        ]
      }
    },
    {
      "type": "Feature",
      "properties": {
        "_source": "Ruta4-PinosdeOriente-SanFrancisco-Muiscas-Arboleda",
        "_segmentIndex": 0,
        "_position": 20
      },
      "geometry": {
        "type": "Point",
        "coordinates": [
          -73.35202133026915,
          5.552157936060993
        ]
      }
    },
    {
      "type": "Feature",
      "properties": {
        "_source": "Ruta4-PinosdeOriente-SanFrancisco-Muiscas-Arboleda",
        "_segmentIndex": 0,
        "_position": 21
      },
      "geometry": {
        "type": "Point",
        "coordinates": [
          -73.35189453405022,
          5.552589519219821
        ]
      }
    },
    {
      "type": "Feature",
      "properties": {
        "_source": "Ruta4-PinosdeOriente-SanFrancisco-Muiscas-Arboleda",
        "_segmentIndex": 0,
        "_position": 22
      },
      "geometry": {
        "type": "Point",
        "coordinates": [
          -73.35175434585813,
          5.553016983323829
        ]
      }
    },
    {
      "type": "Feature",
      "properties": {
        "_source": "Ruta4-PinosdeOriente-SanFrancisco-Muiscas-Arboleda",
        "_segmentIndex": 0,
        "_position": 23
      },
      "geometry": {
        "type": "Point",
        "coordinates": [
          -73.35161415746265,
          5.553444447394799
        ]
      }
    },
    {
      "type": "Feature",
      "properties": {
        "_source": "Ruta4-PinosdeOriente-SanFrancisco-Muiscas-Arboleda",
        "_segmentIndex": 0,
        "_position": 24
      },
      "geometry": {
        "type": "Point",
        "coordinates": [
          -73.3514739688638,
          5.553871911432733
        ]
      }
    },
    {
      "type": "Feature",
      "properties": {
        "_source": "Ruta4-PinosdeOriente-SanFrancisco-Muiscas-Arboleda",
        "_segmentIndex": 0,
        "_position": 25
      },
      "geometry": {
        "type": "Point",
        "coordinates": [
          -73.35133378006154,
          5.554299375437626
        ]
      }
    },
    {
      "type": "Feature",
      "properties": {
        "_source": "Ruta4-PinosdeOriente-SanFrancisco-Muiscas-Arboleda",
        "_segmentIndex": 0,
        "_position": 26
      },
      "geometry": {
        "type": "Point",
        "coordinates": [
          -73.35116395034166,
          5.554715991187691
        ]
      }
    },
    {
      "type": "Feature",
      "properties": {
        "_source": "Ruta4-PinosdeOriente-SanFrancisco-Muiscas-Arboleda",
        "_segmentIndex": 0,
        "_position": 27
      },
      "geometry": {
        "type": "Point",
        "coordinates": [
          -73.35098412125966,
          5.555128494277495
        ]
      }
    },
    {
      "type": "Feature",
      "properties": {
        "_source": "Ruta4-PinosdeOriente-SanFrancisco-Muiscas-Arboleda",
        "_segmentIndex": 0,
        "_position": 28
      },
      "geometry": {
        "type": "Point",
        "coordinates": [
          -73.35080429192583,
          5.555540997312921
        ]
      }
    },
    {
      "type": "Feature",
      "properties": {
        "_source": "Ruta4-PinosdeOriente-SanFrancisco-Muiscas-Arboleda",
        "_segmentIndex": 0,
        "_position": 29
      },
      "geometry": {
        "type": "Point",
        "coordinates": [
          -73.3506150762906,
          5.555949224604763
        ]
      }
    },
    {
      "type": "Feature",
      "properties": {
        "_source": "Ruta4-PinosdeOriente-SanFrancisco-Muiscas-Arboleda",
        "_segmentIndex": 0,
        "_position": 30
      },
      "geometry": {
        "type": "Point",
        "coordinates": [
          -73.35041894425572,
          5.5563543012819965
        ]
      }
    },
    {
      "type": "Feature",
      "properties": {
        "_source": "Ruta4-PinosdeOriente-SanFrancisco-Muiscas-Arboleda",
        "_segmentIndex": 0,
        "_position": 31
      },
      "geometry": {
        "type": "Point",
        "coordinates": [
          -73.35023237457085,
          5.556763717438932
        ]
      }
    },
    {
      "type": "Feature",
      "properties": {
        "_source": "Ruta4-PinosdeOriente-SanFrancisco-Muiscas-Arboleda",
        "_segmentIndex": 0,
        "_position": 32
      },
      "geometry": {
        "type": "Point",
        "coordinates": [
          -73.35005373966389,
          5.557176734480433
        ]
      }
    },
    {
      "type": "Feature",
      "properties": {
        "_source": "Ruta4-PinosdeOriente-SanFrancisco-Muiscas-Arboleda",
        "_segmentIndex": 0,
        "_position": 33
      },
      "geometry": {
        "type": "Point",
        "coordinates": [
          -73.34987406089296,
          5.557589286708038
        ]
      }
    },
    {
      "type": "Feature",
      "properties": {
        "_source": "Ruta4-PinosdeOriente-SanFrancisco-Muiscas-Arboleda",
        "_segmentIndex": 0,
        "_position": 34
      },
      "geometry": {
        "type": "Point",
        "coordinates": [
          -73.3496836972378,
          5.557997080612821
        ]
      }
    },
    {
      "type": "Feature",
      "properties": {
        "_source": "Ruta4-PinosdeOriente-SanFrancisco-Muiscas-Arboleda",
        "_segmentIndex": 0,
        "_position": 35
      },
      "geometry": {
        "type": "Point",
        "coordinates": [
          -73.34949333331896,
          5.558404874456633
        ]
      }
    },
    {
      "type": "Feature",
      "properties": {
        "_source": "Ruta4-PinosdeOriente-SanFrancisco-Muiscas-Arboleda",
        "_segmentIndex": 0,
        "_position": 36
      },
      "geometry": {
        "type": "Point",
        "coordinates": [
          -73.34930296913642,
          5.558812668239473
        ]
      }
    },
    {
      "type": "Feature",
      "properties": {
        "_source": "Ruta4-PinosdeOriente-SanFrancisco-Muiscas-Arboleda",
        "_segmentIndex": 0,
        "_position": 37
      },
      "geometry": {
        "type": "Point",
        "coordinates": [
          -73.34911021626023,
          5.559219346398144
        ]
      }
    },
    {
      "type": "Feature",
      "properties": {
        "_source": "Ruta4-PinosdeOriente-SanFrancisco-Muiscas-Arboleda",
        "_segmentIndex": 0,
        "_position": 38
      },
      "geometry": {
        "type": "Point",
        "coordinates": [
          -73.34891672440227,
          5.559625679462647
        ]
      }
    },
    {
      "type": "Feature",
      "properties": {
        "_source": "Ruta4-PinosdeOriente-SanFrancisco-Muiscas-Arboleda",
        "_segmentIndex": 0,
        "_position": 39
      },
      "geometry": {
        "type": "Point",
        "coordinates": [
          -73.34872323227715,
          5.560032012464143
        ]
      }
    },
    {
      "type": "Feature",
      "properties": {
        "_source": "Ruta4-PinosdeOriente-SanFrancisco-Muiscas-Arboleda",
        "_segmentIndex": 0,
        "_position": 40
      },
      "geometry": {
        "type": "Point",
        "coordinates": [
          -73.34853642074397,
          5.560441404647055
        ]
      }
    },
    {
      "type": "Feature",
      "properties": {
        "_source": "Ruta4-PinosdeOriente-SanFrancisco-Muiscas-Arboleda",
        "_segmentIndex": 0,
        "_position": 41
      },
      "geometry": {
        "type": "Point",
        "coordinates": [
          -73.3483522778299,
          5.560852018882651
        ]
      }
    },
    {
      "type": "Feature",
      "properties": {
        "_source": "Ruta4-PinosdeOriente-SanFrancisco-Muiscas-Arboleda",
        "_segmentIndex": 0,
        "_position": 42
      },
      "geometry": {
        "type": "Point",
        "coordinates": [
          -73.34816813465888,
          5.561262633061165
        ]
      }
    },
    {
      "type": "Feature",
      "properties": {
        "_source": "Ruta4-PinosdeOriente-SanFrancisco-Muiscas-Arboleda",
        "_segmentIndex": 0,
        "_position": 43
      },
      "geometry": {
        "type": "Point",
        "coordinates": [
          -73.34798155961687,
          5.561672148950403
        ]
      }
    },
    {
      "type": "Feature",
      "properties": {
        "_source": "Ruta4-PinosdeOriente-SanFrancisco-Muiscas-Arboleda",
        "_segmentIndex": 0,
        "_position": 44
      },
      "geometry": {
        "type": "Point",
        "coordinates": [
          -73.34779232818586,
          5.562080465146874
        ]
      }
    },
    {
      "type": "Feature",
      "properties": {
        "_source": "Ruta4-PinosdeOriente-SanFrancisco-Muiscas-Arboleda",
        "_segmentIndex": 0,
        "_position": 45
      },
      "geometry": {
        "type": "Point",
        "coordinates": [
          -73.34760309649221,
          5.5624887812830535
        ]
      }
    },
    {
      "type": "Feature",
      "properties": {
        "_source": "Ruta4-PinosdeOriente-SanFrancisco-Muiscas-Arboleda",
        "_segmentIndex": 0,
        "_position": 46
      },
      "geometry": {
        "type": "Point",
        "coordinates": [
          -73.34741386453587,
          5.56289709735894
        ]
      }
    },
    {
      "type": "Feature",
      "properties": {
        "_source": "Ruta4-PinosdeOriente-SanFrancisco-Muiscas-Arboleda",
        "_segmentIndex": 0,
        "_position": 47
      },
      "geometry": {
        "type": "Point",
        "coordinates": [
          -73.34722507843111,
          5.56330561749265
        ]
      }
    },
    {
      "type": "Feature",
      "properties": {
        "_source": "Ruta4-PinosdeOriente-SanFrancisco-Muiscas-Arboleda",
        "_segmentIndex": 0,
        "_position": 48
      },
      "geometry": {
        "type": "Point",
        "coordinates": [
          -73.34703689636281,
          5.563714414061254
        ]
      }
    },
    {
      "type": "Feature",
      "properties": {
        "_source": "Ruta4-PinosdeOriente-SanFrancisco-Muiscas-Arboleda",
        "_segmentIndex": 0,
        "_position": 49
      },
      "geometry": {
        "type": "Point",
        "coordinates": [
          -73.3468487140329,
          5.564123210570219
        ]
      }
    },
    {
      "type": "Feature",
      "properties": {
        "_source": "Ruta4-PinosdeOriente-SanFrancisco-Muiscas-Arboleda",
        "_segmentIndex": 0,
        "_position": 50
      },
      "geometry": {
        "type": "Point",
        "coordinates": [
          -73.34665676602836,
          5.564530262935754
        ]
      }
    },
    {
      "type": "Feature",
      "properties": {
        "_source": "Ruta4-PinosdeOriente-SanFrancisco-Muiscas-Arboleda",
        "_segmentIndex": 0,
        "_position": 51
      },
      "geometry": {
        "type": "Point",
        "coordinates": [
          -73.34646637482854,
          5.564938026055583
        ]
      }
    },
    {
      "type": "Feature",
      "properties": {
        "_source": "Ruta4-PinosdeOriente-SanFrancisco-Muiscas-Arboleda",
        "_segmentIndex": 0,
        "_position": 52
      },
      "geometry": {
        "type": "Point",
        "coordinates": [
          -73.34628084830521,
          5.5653480234898876
        ]
      }
    },
    {
      "type": "Feature",
      "properties": {
        "_source": "Ruta4-PinosdeOriente-SanFrancisco-Muiscas-Arboleda",
        "_segmentIndex": 0,
        "_position": 53
      },
      "geometry": {
        "type": "Point",
        "coordinates": [
          -73.34608898687007,
          5.565755064232922
        ]
      }
    },
    {
      "type": "Feature",
      "properties": {
        "_source": "Ruta4-PinosdeOriente-SanFrancisco-Muiscas-Arboleda",
        "_segmentIndex": 0,
        "_position": 54
      },
      "geometry": {
        "type": "Point",
        "coordinates": [
          -73.34589091426706,
          5.566159206039521
        ]
      }
    },
    {
      "type": "Feature",
      "properties": {
        "_source": "Ruta4-PinosdeOriente-SanFrancisco-Muiscas-Arboleda",
        "_segmentIndex": 0,
        "_position": 55
      },
      "geometry": {
        "type": "Point",
        "coordinates": [
          -73.34571932308519,
          5.566574914252374
        ]
      }
    },
    {
      "type": "Feature",
      "properties": {
        "_source": "Ruta4-PinosdeOriente-SanFrancisco-Muiscas-Arboleda",
        "_segmentIndex": 0,
        "_position": 56
      },
      "geometry": {
        "type": "Point",
        "coordinates": [
          -73.34546510688654,
          5.5669466353004005
        ]
      }
    },
    {
      "type": "Feature",
      "properties": {
        "_source": "Ruta4-PinosdeOriente-SanFrancisco-Muiscas-Arboleda",
        "_segmentIndex": 0,
        "_position": 57
      },
      "geometry": {
        "type": "Point",
        "coordinates": [
          -73.34521089036637,
          5.567318356239522
        ]
      }
    },
    {
      "type": "Feature",
      "properties": {
        "_source": "Ruta4-PinosdeOriente-SanFrancisco-Muiscas-Arboleda",
        "_segmentIndex": 0,
        "_position": 58
      },
      "geometry": {
        "type": "Point",
        "coordinates": [
          -73.34495778731358,
          5.567690824842483
        ]
      }
    },
    {
      "type": "Feature",
      "properties": {
        "_source": "Ruta4-PinosdeOriente-SanFrancisco-Muiscas-Arboleda",
        "_segmentIndex": 0,
        "_position": 59
      },
      "geometry": {
        "type": "Point",
        "coordinates": [
          -73.34470670482531,
          5.568064650114712
        ]
      }
    },
    {
      "type": "Feature",
      "properties": {
        "_source": "Ruta4-PinosdeOriente-SanFrancisco-Muiscas-Arboleda",
        "_segmentIndex": 0,
        "_position": 60
      },
      "geometry": {
        "type": "Point",
        "coordinates": [
          -73.34445562201763,
          5.568438475280684
        ]
      }
    },
    {
      "type": "Feature",
      "properties": {
        "_source": "Ruta4-PinosdeOriente-SanFrancisco-Muiscas-Arboleda",
        "_segmentIndex": 0,
        "_position": 61
      },
      "geometry": {
        "type": "Point",
        "coordinates": [
          -73.34420241550922,
          5.568810877416171
        ]
      }
    },
    {
      "type": "Feature",
      "properties": {
        "_source": "Ruta4-PinosdeOriente-SanFrancisco-Muiscas-Arboleda",
        "_segmentIndex": 0,
        "_position": 62
      },
      "geometry": {
        "type": "Point",
        "coordinates": [
          -73.34394884608459,
          5.569183036460505
        ]
      }
    },
    {
      "type": "Feature",
      "properties": {
        "_source": "Ruta4-PinosdeOriente-SanFrancisco-Muiscas-Arboleda",
        "_segmentIndex": 0,
        "_position": 63
      },
      "geometry": {
        "type": "Point",
        "coordinates": [
          -73.34369527633875,
          5.569555195396442
        ]
      }
    },
    {
      "type": "Feature",
      "properties": {
        "_source": "Ruta4-PinosdeOriente-SanFrancisco-Muiscas-Arboleda",
        "_segmentIndex": 0,
        "_position": 64
      },
      "geometry": {
        "type": "Point",
        "coordinates": [
          -73.34344397245808,
          5.56992887037969
        ]
      }
    },
    {
      "type": "Feature",
      "properties": {
        "_source": "Ruta4-PinosdeOriente-SanFrancisco-Muiscas-Arboleda",
        "_segmentIndex": 0,
        "_position": 65
      },
      "geometry": {
        "type": "Point",
        "coordinates": [
          -73.34319345388398,
          5.570303070867266
        ]
      }
    },
    {
      "type": "Feature",
      "properties": {
        "_source": "Ruta4-PinosdeOriente-SanFrancisco-Muiscas-Arboleda",
        "_segmentIndex": 0,
        "_position": 66
      },
      "geometry": {
        "type": "Point",
        "coordinates": [
          -73.34294293499076,
          5.570677271249021
        ]
      }
    },
    {
      "type": "Feature",
      "properties": {
        "_source": "Ruta4-PinosdeOriente-SanFrancisco-Muiscas-Arboleda",
        "_segmentIndex": 0,
        "_position": 67
      },
      "geometry": {
        "type": "Point",
        "coordinates": [
          -73.34269227103557,
          5.571051375465997
        ]
      }
    },
    {
      "type": "Feature",
      "properties": {
        "_source": "Ruta4-PinosdeOriente-SanFrancisco-Muiscas-Arboleda",
        "_segmentIndex": 0,
        "_position": 0
      },
      "geometry": {
        "type": "Point",
        "coordinates": [
          -73.3426,
          5.571189
        ]
      }
    },
    {
      "type": "Feature",
      "properties": {
        "_source": "Ruta4-PinosdeOriente-SanFrancisco-Muiscas-Arboleda",
        "_segmentIndex": 0,
        "_position": 1
      },
      "geometry": {
        "type": "Point",
        "coordinates": [
          -73.3421965086758,
          5.570987090103529
        ]
      }
    },
    {
      "type": "Feature",
      "properties": {
        "_source": "Ruta4-PinosdeOriente-SanFrancisco-Muiscas-Arboleda",
        "_segmentIndex": 0,
        "_position": 2
      },
      "geometry": {
        "type": "Point",
        "coordinates": [
          -73.34184011025488,
          5.5707135819314555
        ]
      }
    },
    {
      "type": "Feature",
      "properties": {
        "_source": "Ruta4-PinosdeOriente-SanFrancisco-Muiscas-Arboleda",
        "_segmentIndex": 0,
        "_position": 3
      },
      "geometry": {
        "type": "Point",
        "coordinates": [
          -73.34147599365674,
          5.570447869763358
        ]
      }
    },
    {
      "type": "Feature",
      "properties": {
        "_source": "Ruta4-PinosdeOriente-SanFrancisco-Muiscas-Arboleda",
        "_segmentIndex": 0,
        "_position": 4
      },
      "geometry": {
        "type": "Point",
        "coordinates": [
          -73.34112127829307,
          5.570170206063334
        ]
      }
    },
    {
      "type": "Feature",
      "properties": {
        "_source": "Ruta4-PinosdeOriente-SanFrancisco-Muiscas-Arboleda",
        "_segmentIndex": 0,
        "_position": 5
      },
      "geometry": {
        "type": "Point",
        "coordinates": [
          -73.34084897527964,
          5.569822394089083
        ]
      }
    },
    {
      "type": "Feature",
      "properties": {
        "_source": "Ruta4-PinosdeOriente-SanFrancisco-Muiscas-Arboleda",
        "_segmentIndex": 0,
        "_position": 6
      },
      "geometry": {
        "type": "Point",
        "coordinates": [
          -73.340644627709,
          5.569428016812986
        ]
      }
    },
    {
      "type": "Feature",
      "properties": {
        "_source": "Ruta4-PinosdeOriente-SanFrancisco-Muiscas-Arboleda",
        "_segmentIndex": 0,
        "_position": 7
      },
      "geometry": {
        "type": "Point",
        "coordinates": [
          -73.34030319583344,
          5.569134298663911
        ]
      }
    },
    {
      "type": "Feature",
      "properties": {
        "_source": "Ruta4-PinosdeOriente-SanFrancisco-Muiscas-Arboleda",
        "_segmentIndex": 0,
        "_position": 8
      },
      "geometry": {
        "type": "Point",
        "coordinates": [
          -73.33994453054378,
          5.568860898095811
        ]
      }
    },
    {
      "type": "Feature",
      "properties": {
        "_source": "Ruta4-PinosdeOriente-SanFrancisco-Muiscas-Arboleda",
        "_segmentIndex": 0,
        "_position": 9
      },
      "geometry": {
        "type": "Point",
        "coordinates": [
          -73.33958371351252,
          5.568590285275776
        ]
      }
    },
    {
      "type": "Feature",
      "properties": {
        "_source": "Ruta4-PinosdeOriente-SanFrancisco-Muiscas-Arboleda",
        "_segmentIndex": 0,
        "_position": 10
      },
      "geometry": {
        "type": "Point",
        "coordinates": [
          -73.33922798822101,
          5.568313151417844
        ]
      }
    },
    {
      "type": "Feature",
      "properties": {
        "_source": "Ruta4-PinosdeOriente-SanFrancisco-Muiscas-Arboleda",
        "_segmentIndex": 0,
        "_position": 11
      },
      "geometry": {
        "type": "Point",
        "coordinates": [
          -73.33880881737257,
          5.568265170814235
        ]
      }
    },
    {
      "type": "Feature",
      "properties": {
        "_source": "Ruta4-PinosdeOriente-SanFrancisco-Muiscas-Arboleda",
        "_segmentIndex": 0,
        "_position": 12
      },
      "geometry": {
        "type": "Point",
        "coordinates": [
          -73.33842031542817,
          5.5684810146933685
        ]
      }
    },
    {
      "type": "Feature",
      "properties": {
        "_source": "Ruta4-PinosdeOriente-SanFrancisco-Muiscas-Arboleda",
        "_segmentIndex": 0,
        "_position": 0
      },
      "geometry": {
        "type": "Point",
        "coordinates": [
          -73.338293,
          5.568631
        ]
      }
    },
    {
      "type": "Feature",
      "properties": {
        "_source": "Ruta4-PinosdeOriente-SanFrancisco-Muiscas-Arboleda",
        "_segmentIndex": 0,
        "_position": 1
      },
      "geometry": {
        "type": "Point",
        "coordinates": [
          -73.33804387336303,
          5.56899172454367
        ]
      }
    },
    {
      "type": "Feature",
      "properties": {
        "_source": "Ruta4-PinosdeOriente-SanFrancisco-Muiscas-Arboleda",
        "_segmentIndex": 0,
        "_position": 2
      },
      "geometry": {
        "type": "Point",
        "coordinates": [
          -73.33789949858435,
          5.569415245572774
        ]
      }
    },
    {
      "type": "Feature",
      "properties": {
        "_source": "Ruta4-PinosdeOriente-SanFrancisco-Muiscas-Arboleda",
        "_segmentIndex": 0,
        "_position": 3
      },
      "geometry": {
        "type": "Point",
        "coordinates": [
          -73.33753188611107,
          5.569642693541627
        ]
      }
    },
    {
      "type": "Feature",
      "properties": {
        "_source": "Ruta4-PinosdeOriente-SanFrancisco-Muiscas-Arboleda",
        "_segmentIndex": 0,
        "_position": 4
      },
      "geometry": {
        "type": "Point",
        "coordinates": [
          -73.33708892936491,
          5.569727392224151
        ]
      }
    },
    {
      "type": "Feature",
      "properties": {
        "_source": "Ruta4-PinosdeOriente-SanFrancisco-Muiscas-Arboleda",
        "_segmentIndex": 0,
        "_position": 0
      },
      "geometry": {
        "type": "Point",
        "coordinates": [
          -73.336952,
          5.56975
        ]
      }
    },
    {
      "type": "Feature",
      "properties": {
        "_source": "Ruta4-PinosdeOriente-SanFrancisco-Muiscas-Arboleda",
        "_segmentIndex": 0,
        "_position": 1
      },
      "geometry": {
        "type": "Point",
        "coordinates": [
          -73.33656920999944,
          5.569987140256069
        ]
      }
    },
    {
      "type": "Feature",
      "properties": {
        "_source": "Ruta4-PinosdeOriente-SanFrancisco-Muiscas-Arboleda",
        "_segmentIndex": 0,
        "_position": 2
      },
      "geometry": {
        "type": "Point",
        "coordinates": [
          -73.33617990984828,
          5.5702152403969
        ]
      }
    },
    {
      "type": "Feature",
      "properties": {
        "_source": "Ruta4-PinosdeOriente-SanFrancisco-Muiscas-Arboleda",
        "_segmentIndex": 0,
        "_position": 3
      },
      "geometry": {
        "type": "Point",
        "coordinates": [
          -73.335791063725,
          5.570443803171451
        ]
      }
    },
    {
      "type": "Feature",
      "properties": {
        "_source": "Ruta4-PinosdeOriente-SanFrancisco-Muiscas-Arboleda",
        "_segmentIndex": 0,
        "_position": 4
      },
      "geometry": {
        "type": "Point",
        "coordinates": [
          -73.33538750605388,
          5.570644303661412
        ]
      }
    },
    {
      "type": "Feature",
      "properties": {
        "_source": "Ruta4-PinosdeOriente-SanFrancisco-Muiscas-Arboleda",
        "_segmentIndex": 0,
        "_position": 5
      },
      "geometry": {
        "type": "Point",
        "coordinates": [
          -73.33496067100526,
          5.570789812373461
        ]
      }
    },
    {
      "type": "Feature",
      "properties": {
        "_source": "Ruta4-PinosdeOriente-SanFrancisco-Muiscas-Arboleda",
        "_segmentIndex": 0,
        "_position": 6
      },
      "geometry": {
        "type": "Point",
        "coordinates": [
          -73.33456755152486,
          5.57100696364231
        ]
      }
    },
    {
      "type": "Feature",
      "properties": {
        "_source": "Ruta4-PinosdeOriente-SanFrancisco-Muiscas-Arboleda",
        "_segmentIndex": 0,
        "_position": 7
      },
      "geometry": {
        "type": "Point",
        "coordinates": [
          -73.33424642485927,
          5.571321903050473
        ]
      }
    },
    {
      "type": "Feature",
      "properties": {
        "_source": "Ruta4-PinosdeOriente-SanFrancisco-Muiscas-Arboleda",
        "_segmentIndex": 0,
        "_position": 8
      },
      "geometry": {
        "type": "Point",
        "coordinates": [
          -73.3339331398283,
          5.5716457856027075
        ]
      }
    },
    {
      "type": "Feature",
      "properties": {
        "_source": "Ruta4-PinosdeOriente-SanFrancisco-Muiscas-Arboleda",
        "_segmentIndex": 0,
        "_position": 9
      },
      "geometry": {
        "type": "Point",
        "coordinates": [
          -73.33366051477668,
          5.572004260209029
        ]
      }
    },
    {
      "type": "Feature",
      "properties": {
        "_source": "Ruta4-PinosdeOriente-SanFrancisco-Muiscas-Arboleda",
        "_segmentIndex": 0,
        "_position": 10
      },
      "geometry": {
        "type": "Point",
        "coordinates": [
          -73.33338053003992,
          5.572357127839164
        ]
      }
    },
    {
      "type": "Feature",
      "properties": {
        "_source": "Ruta4-PinosdeOriente-SanFrancisco-Muiscas-Arboleda",
        "_segmentIndex": 0,
        "_position": 11
      },
      "geometry": {
        "type": "Point",
        "coordinates": [
          -73.33308393811626,
          5.572696309909202
        ]
      }
    },
    {
      "type": "Feature",
      "properties": {
        "_source": "Ruta4-PinosdeOriente-SanFrancisco-Muiscas-Arboleda",
        "_segmentIndex": 0,
        "_position": 12
      },
      "geometry": {
        "type": "Point",
        "coordinates": [
          -73.33277374663164,
          5.573022215538044
        ]
      }
    },
    {
      "type": "Feature",
      "properties": {
        "_source": "Ruta4-PinosdeOriente-SanFrancisco-Muiscas-Arboleda",
        "_segmentIndex": 0,
        "_position": 13
      },
      "geometry": {
        "type": "Point",
        "coordinates": [
          -73.33242351809288,
          5.573302723707031
        ]
      }
    }
  ]
}