{
  "type": "FeatureCollection",
  "features": [
    {
      "type": "Feature",
      "properties": {
        "_source": "Ruta1-TerminaldeTransporte-AvenidaNorte-Arboleda",
        "_segmentIndex": 0,
        "_position": 0
      },
      "geometry": {
        "type": "Point",
        "coordinates": [
          -73.34496,
          5.530809,
          0
        ]
      }
    },
    {
      "type": "Feature",
      "properties": {
        "_source": "Ruta1-TerminaldeTransporte-AvenidaNorte-Arboleda",
        "_segmentIndex": 0,
        "_position": 1
      },
      "geometry": {
        "type": "Point",
        "coordinates": [
          -73.34497956259567,
          5.5304037686255025,
          0
        ]
      }
    },
    {
      "type": "Feature",
      "properties": {
        "_source": "Ruta1-TerminaldeTransporte-AvenidaNorte-Arboleda",
        "_segmentIndex": 0,
        "_position": 2
      },
      "geometry": {
        "type": "Point",
        "coordinates": [
          -73.34462751906644,
          5.53045544281674,
          0
        ]
      }
    },
    {
      "type": "Feature",
      "properties": {
        "_source": "Ruta1-TerminaldeTransporte-AvenidaNorte-Arboleda",
        "_segmentIndex": 0,
        "_position": 3
      },
      "geometry": {
        "type": "Point",
        "coordinates": [
          -73.34457682580728,
          5.530898160558537,
          0
        ]
      }
    },
    {
      "type": "Feature",
      "properties": {
        "_source": "Ruta1-TerminaldeTransporte-AvenidaNorte-Arboleda",
        "_segmentIndex": 0,
        "_position": 4
      },
      "geometry": {
        "type": "Point",
        "coordinates": [
          -73.34456444577498,
          5.531347651824886,
          0
        ]
      }
    },
    {
      "type": "Feature",
      "properties": {
        "_source": "Ruta1-TerminaldeTransporte-AvenidaNorte-Arboleda",
        "_segmentIndex": 0,
        "_position": 5
      },
      "geometry": {
        "type": "Point",
        "coordinates": [
          -73.34455201074255,
          5.531797141631133,
          0
        ]
      }
    },
    {
      "type": "Feature",
      "properties": {
        "_source": "Ruta1-TerminaldeTransporte-AvenidaNorte-Arboleda",
        "_segmentIndex": 0,
        "_position": 6
      },
      "geometry": {
        "type": "Point",
        "coordinates": [
          -73.34452529382133,
          5.532245073160314,
          0
        ]
      }
    },
    {
      "type": "Feature",
      "properties": {
        "_source": "Ruta1-TerminaldeTransporte-AvenidaNorte-Arboleda",
        "_segmentIndex": 0,
        "_position": 7
      },
      "geometry": {
        "type": "Point",
        "coordinates": [
          -73.34424275319165,
          5.532461679054313,
          0
        ]
      }
    },
    {
      "type": "Feature",
      "properties": {
        "_source": "Ruta1-TerminaldeTransporte-AvenidaNorte-Arboleda",
        "_segmentIndex": 0,
        "_position": 8
      },
      "geometry": {
        "type": "Point",
        "coordinates": [
          -73.34415670983161,
          5.5320564802360614,
          0
        ]
      }
    },
    {
      "type": "Feature",
      "properties": {
        "_source": "Ruta1-TerminaldeTransporte-AvenidaNorte-Arboleda",
        "_segmentIndex": 0,
        "_position": 9
      },
      "geometry": {
        "type": "Point",
        "coordinates": [
          -73.34430447217011,
          5.531633512944623,
          0
        ]
      }
    },
    {
      "type": "Feature",
      "properties": {
        "_source": "Ruta1-TerminaldeTransporte-AvenidaNorte-Arboleda",
        "_segmentIndex": 0,
        "_position": 10
      },
      "geometry": {
        "type": "Point",
        "coordinates": [
          -73.3443551858056,
          5.5311893026407315,
          0
        ]
      }
    },
    {
      "type": "Feature",
      "properties": {
        "_source": "Ruta1-TerminaldeTransporte-AvenidaNorte-Arboleda",
        "_segmentIndex": 0,
        "_position": 11
      },
      "geometry": {
        "type": "Point",
        "coordinates": [
          -73.34431574232177,
          5.530741616517792,
          0
        ]
      }
    },
    {
      "type": "Feature",
      "properties": {
        "_source": "Ruta1-TerminaldeTransporte-AvenidaNorte-Arboleda",
        "_segmentIndex": 0,
        "_position": 12
      },
      "geometry": {
        "type": "Point",
        "coordinates": [
          -73.3442935741424,
          5.5302935846284695,
          0
        ]
      }
    },
    {
      "type": "Feature",
      "properties": {
        "_source": "Ruta1-TerminaldeTransporte-AvenidaNorte-Arboleda",
        "_segmentIndex": 0,
        "_position": 13
      },
      "geometry": {
        "type": "Point",
        "coordinates": [
          -73.34442514423412,
          5.529864390642279,
          0
        ]
      }
    },
    {
      "type": "Feature",
      "properties": {
        "_source": "Ruta1-TerminaldeTransporte-AvenidaNorte-Arboleda",
        "_segmentIndex": 0,
        "_position": 14
      },
      "geometry": {
        "type": "Point",
        "coordinates": [
          -73.3446812179015,
          5.529495303303699,
          0
        ]
      }
    },
    {
      "type": "Feature",
      "properties": {
        "_source": "Ruta1-TerminaldeTransporte-AvenidaNorte-Arboleda",
        "_segmentIndex": 0,
        "_position": 15
      },
      "geometry": {
        "type": "Point",
        "coordinates": [
          -73.34494229143716,
          5.52912838346896,
          0
        ]
      }
    },
    {
      "type": "Feature",
      "properties": {
        "_source": "Ruta1-TerminaldeTransporte-AvenidaNorte-Arboleda",
        "_segmentIndex": 0,
        "_position": 16
      },
      "geometry": {
        "type": "Point",
        "coordinates": [
          -73.34519608702307,
          5.528756388817111,
          0
        ]
      }
    },
    {
      "type": "Feature",
      "properties": {
        "_source": "Ruta1-TerminaldeTransporte-AvenidaNorte-Arboleda",
        "_segmentIndex": 0,
        "_position": 0
      },
      "geometry": {
        "type": "Point",
        "coordinates": [
          -73.345356,
          5.528522,
          0
        ]
      }
    },
    {
      "type": "Feature",
      "properties": {
        "_source": "Ruta1-TerminaldeTransporte-AvenidaNorte-Arboleda",
        "_segmentIndex": 0,
        "_position": 1
      },
      "geometry": {
        "type": "Point",
        "coordinates": [
          -73.34576308996529,
          5.528716962219484,
          0
        ]
      }
    },
    {
      "type": "Feature",
      "properties": {
        "_source": "Ruta1-TerminaldeTransporte-AvenidaNorte-Arboleda",
        "_segmentIndex": 0,
        "_position": 2
      },
      "geometry": {
        "type": "Point",
        "coordinates": [
          -73.34617018019873,
          5.528911924161596,
          0
        ]
      }
    },
    {
      "type": "Feature",
      "properties": {
        "_source": "Ruta1-TerminaldeTransporte-AvenidaNorte-Arboleda",
        "_segmentIndex": 0,
        "_position": 3
      },
      "geometry": {
        "type": "Point",
        "coordinates": [
          -73.34657727070037,
          5.52910688582633,
          0
        ]
      }
    },
    {
      "type": "Feature",
      "properties": {
        "_source": "Ruta1-TerminaldeTransporte-AvenidaNorte-Arboleda",
        "_segmentIndex": 0,
        "_position": 4
      },
      "geometry": {
        "type": "Point",
        "coordinates": [
          -73.34699036043439,
          5.529288713835704,
          0
        ]
      }
    },
    {
      "type": "Feature",
      "properties": {
        "_source": "Ruta1-TerminaldeTransporte-AvenidaNorte-Arboleda",
        "_segmentIndex": 0,
        "_position": 5
      },
      "geometry": {
        "type": "Point",
        "coordinates": [
          -73.34741581480415,
          5.529438412537671,
          0
        ]
      }
    },
    {
      "type": "Feature",
      "properties": {
        "_source": "Ruta1-TerminaldeTransporte-AvenidaNorte-Arboleda",
        "_segmentIndex": 0,
        "_position": 6
      },
      "geometry": {
        "type": "Point",
        "coordinates": [
          -73.34785420490931,
          5.52954396202149,
          0
        ]
      }
    },
    {
      "type": "Feature",
      "properties": {
        "_source": "Ruta1-TerminaldeTransporte-AvenidaNorte-Arboleda",
        "_segmentIndex": 0,
        "_position": 7
      },
      "geometry": {
        "type": "Point",
        "coordinates": [
          -73.34830267389944,
          5.529597304325477,
          0
        ]
      }
    },
    {
      "type": "Feature",
      "properties": {
        "_source": "Ruta1-TerminaldeTransporte-AvenidaNorte-Arboleda",
        "_segmentIndex": 0,
        "_position": 8
      },
      "geometry": {
        "type": "Point",
        "coordinates": [
          -73.34875266294128,
          5.529636173445444,
          0
        ]
      }
    },
    {
      "type": "Feature",
      "properties": {
        "_source": "Ruta1-TerminaldeTransporte-AvenidaNorte-Arboleda",
        "_segmentIndex": 0,
        "_position": 9
      },
      "geometry": {
        "type": "Point",
        "coordinates": [
          -73.34920310029462,
          5.529670473602674,
          0
        ]
      }
    },
    {
      "type": "Feature",
      "properties": {
        "_source": "Ruta1-TerminaldeTransporte-AvenidaNorte-Arboleda",
        "_segmentIndex": 0,
        "_position": 10
      },
      "geometry": {
        "type": "Point",
        "coordinates": [
          -73.34965316698641,
          5.529709398307784,
          0
        ]
      }
    },
    {
      "type": "Feature",
      "properties": {
        "_source": "Ruta1-TerminaldeTransporte-AvenidaNorte-Arboleda",
        "_segmentIndex": 0,
        "_position": 11
      },
      "geometry": {
        "type": "Point",
        "coordinates": [
          -73.35010428314318,
          5.529726392246974,
          0
        ]
      }
    },
    {
      "type": "Feature",
      "properties": {
        "_source": "Ruta1-TerminaldeTransporte-AvenidaNorte-Arboleda",
        "_segmentIndex": 0,
        "_position": 12
      },
      "geometry": {
        "type": "Point",
        "coordinates": [
          -73.35055132206767,
          5.529675847006808,
          0
        ]
      }
    },
    {
      "type": "Feature",
      "properties": {
        "_source": "Ruta1-TerminaldeTransporte-AvenidaNorte-Arboleda",
        "_segmentIndex": 0,
        "_position": 13
      },
      "geometry": {
        "type": "Point",
        "coordinates": [
          -73.350947578423,
          5.529464844103139,
          0
        ]
      }
    },
    {
      "type": "Feature",
      "properties": {
        "_source": "Ruta1-TerminaldeTransporte-AvenidaNorte-Arboleda",
        "_segmentIndex": 0,
        "_position": 0
      },
      "geometry": {
        "type": "Point",
        "coordinates": [
          -73.351021,
          5.529422,
          0
        ]
      }
    },
    {
      "type": "Feature",
      "properties": {
        "_source": "Ruta1-TerminaldeTransporte-AvenidaNorte-Arboleda",
        "_segmentIndex": 0,
        "_position": 1
      },
      "geometry": {
        "type": "Point",
        "coordinates": [
          -73.3510533540488,
          5.52897349456036,
          0
        ]
      }
    },
    {
      "type": "Feature",
      "properties": {
        "_source": "Ruta1-TerminaldeTransporte-AvenidaNorte-Arboleda",
        "_segmentIndex": 0,
        "_position": 2
      },
      "geometry": {
        "type": "Point",
        "coordinates": [
          -73.3510885818566,
          5.528525203583258,
          0
        ]
      }
    },
    {
      "type": "Feature",
      "properties": {
        "_source": "Ruta1-TerminaldeTransporte-AvenidaNorte-Arboleda",
        "_segmentIndex": 0,
        "_position": 3
      },
      "geometry": {
        "type": "Point",
        "coordinates": [
          -73.35113111764251,
          5.5280775874067,
          0
        ]
      }
    },
    {
      "type": "Feature",
      "properties": {
        "_source": "Ruta1-TerminaldeTransporte-AvenidaNorte-Arboleda",
        "_segmentIndex": 0,
        "_position": 4
      },
      "geometry": {
        "type": "Point",
        "coordinates": [
          -73.35131589924042,
          5.52778952615838,
          0
        ]
      }
    },
    {
      "type": "Feature",
      "properties": {
        "_source": "Ruta1-TerminaldeTransporte-AvenidaNorte-Arboleda",
        "_segmentIndex": 0,
        "_position": 5
      },
      "geometry": {
        "type": "Point",
        "coordinates": [
          -73.35176640868407,
          5.527821430143005,
          0
        ]
      }
    },
    {
      "type": "Feature",
      "properties": {
        "_source": "Ruta1-TerminaldeTransporte-AvenidaNorte-Arboleda",
        "_segmentIndex": 0,
        "_position": 6
      },
      "geometry": {
        "type": "Point",
        "coordinates": [
          -73.35221616982466,
          5.52786369445688,
          0
        ]
      }
    },
    {
      "type": "Feature",
      "properties": {
        "_source": "Ruta1-TerminaldeTransporte-AvenidaNorte-Arboleda",
        "_segmentIndex": 0,
        "_position": 7
      },
      "geometry": {
        "type": "Point",
        "coordinates": [
          -73.35266593102942,
          5.527905958432242,
          0
        ]
      }
    },
    {
      "type": "Feature",
      "properties": {
        "_source": "Ruta1-TerminaldeTransporte-AvenidaNorte-Arboleda",
        "_segmentIndex": 0,
        "_position": 8
      },
      "geometry": {
        "type": "Point",
        "coordinates": [
          -73.35296287113523,
          5.527665414339487,
          0
        ]
      }
    },
    {
      "type": "Feature",
      "properties": {
        "_source": "Ruta1-TerminaldeTransporte-AvenidaNorte-Arboleda",
        "_segmentIndex": 0,
        "_position": 9
      },
      "geometry": {
        "type": "Point",
        "coordinates": [
          -73.35317536994704,
          5.527268605199076,
          0
        ]
      }
    },
    {
      "type": "Feature",
      "properties": {
        "_source": "Ruta1-TerminaldeTransporte-AvenidaNorte-Arboleda",
        "_segmentIndex": 0,
        "_position": 10
      },
      "geometry": {
        "type": "Point",
        "coordinates": [
          -73.35339113761444,
          5.526873551976431,
          0
        ]
      }
    },
    {
      "type": "Feature",
      "properties": {
        "_source": "Ruta1-TerminaldeTransporte-AvenidaNorte-Arboleda",
        "_segmentIndex": 0,
        "_position": 11
      },
      "geometry": {
        "type": "Point",
        "coordinates": [
          -73.35360772541381,
          5.526478939357939,
          0
        ]
      }
    },
    {
      "type": "Feature",
      "properties": {
        "_source": "Ruta1-TerminaldeTransporte-AvenidaNorte-Arboleda",
        "_segmentIndex": 0,
        "_position": 12
      },
      "geometry": {
        "type": "Point",
        "coordinates": [
          -73.35389204789094,
          5.526130492556106,
          0
        ]
      }
    },
    {
      "type": "Feature",
      "properties": {
        "_source": "Ruta1-TerminaldeTransporte-AvenidaNorte-Arboleda",
        "_segmentIndex": 0,
        "_position": 13
      },
      "geometry": {
        "type": "Point",
        "coordinates": [
          -73.35419573544654,
          5.525797659152679,
          0
        ]
      }
    },
    {
      "type": "Feature",
      "properties": {
        "_source": "Ruta1-TerminaldeTransporte-AvenidaNorte-Arboleda",
        "_segmentIndex": 0,
        "_position": 14
      },
      "geometry": {
        "type": "Point",
        "coordinates": [
          -73.35450797838595,
          5.525472832390727,
          0
        ]
      }
    },
    {
      "type": "Feature",
      "properties": {
        "_source": "Ruta1-TerminaldeTransporte-AvenidaNorte-Arboleda",
        "_segmentIndex": 0,
        "_position": 15
      },
      "geometry": {
        "type": "Point",
        "coordinates": [
          -73.3548281102523,
          5.525155565047146,
          0
        ]
      }
    },
    {
      "type": "Feature",
      "properties": {
        "_source": "Ruta1-TerminaldeTransporte-AvenidaNorte-Arboleda",
        "_segmentIndex": 0,
        "_position": 16
      },
      "geometry": {
        "type": "Point",
        "coordinates": [
          -73.35514949758758,
          5.5248395556480805,
          0
        ]
      }
    },
    {
      "type": "Feature",
      "properties": {
        "_source": "Ruta1-TerminaldeTransporte-AvenidaNorte-Arboleda",
        "_segmentIndex": 0,
        "_position": 17
      },
      "geometry": {
        "type": "Point",
        "coordinates": [
          -73.35547088457993,
          5.524523546076257,
          0
        ]
      }
    },
    {
      "type": "Feature",
      "properties": {
        "_source": "Ruta1-TerminaldeTransporte-AvenidaNorte-Arboleda",
        "_segmentIndex": 0,
        "_position": 0
      },
      "geometry": {
        "type": "Point",
        "coordinates": [
          -73.355744,
          5.524255,
          0
        ]
      }
    },
    {
      "type": "Feature",
      "properties": {
        "_source": "Ruta1-TerminaldeTransporte-AvenidaNorte-Arboleda",
        "_segmentIndex": 0,
        "_position": 1
      },
      "geometry": {
        "type": "Point",
        "coordinates": [
          -73.35542494205289,
          5.52393666110866,
          0
        ]
      }
    },
    {
      "type": "Feature",
      "properties": {
        "_source": "Ruta1-TerminaldeTransporte-AvenidaNorte-Arboleda",
        "_segmentIndex": 0,
        "_position": 2
      },
      "geometry": {
        "type": "Point",
        "coordinates": [
          -73.35510588444865,
          5.523618322047091,
          0
        ]
      }
    },
    {
      "type": "Feature",
      "properties": {
        "_source": "Ruta1-TerminaldeTransporte-AvenidaNorte-Arboleda",
        "_segmentIndex": 0,
        "_position": 3
      },
      "geometry": {
        "type": "Point",
        "coordinates": [
          -73.35480381465909,
          5.523286502478879,
          0
        ]
      }
    },
    {
      "type": "Feature",
      "properties": {
        "_source": "Ruta1-TerminaldeTransporte-AvenidaNorte-Arboleda",
        "_segmentIndex": 0,
        "_position": 4
      },
      "geometry": {
        "type": "Point",
        "coordinates": [
          -73.35456311182686,
          5.5229059855514215,
          0
        ]
      }
    },
    {
      "type": "Feature",
      "properties": {
        "_source": "Ruta1-TerminaldeTransporte-AvenidaNorte-Arboleda",
        "_segmentIndex": 0,
        "_position": 5
      },
      "geometry": {
        "type": "Point",
        "coordinates": [
          -73.35432240930376,
          5.5225254685270935,
          0
        ]
      }
    },
    {
      "type": "Feature",
      "properties": {
        "_source": "Ruta1-TerminaldeTransporte-AvenidaNorte-Arboleda",
        "_segmentIndex": 0,
        "_position": 6
      },
      "geometry": {
        "type": "Point",
        "coordinates": [
          -73.35408170708979,
          5.5221449514059024,
          0
        ]
      }
    },
    {
      "type": "Feature",
      "properties": {
        "_source": "Ruta1-TerminaldeTransporte-AvenidaNorte-Arboleda",
        "_segmentIndex": 0,
        "_position": 7
      },
      "geometry": {
        "type": "Point",
        "coordinates": [
          -73.3538410051849,
          5.521764434187854,
          0
        ]
      }
    },
    {
      "type": "Feature",
      "properties": {
        "_source": "Ruta1-TerminaldeTransporte-AvenidaNorte-Arboleda",
        "_segmentIndex": 0,
        "_position": 0
      },
      "geometry": {
        "type": "Point",
        "coordinates": [
          -73.353811,
          5.521717,
          0
        ]
      }
    },
    {
      "type": "Feature",
      "properties": {
        "_source": "Ruta1-TerminaldeTransporte-AvenidaNorte-Arboleda",
        "_segmentIndex": 0,
        "_position": 1
      },
      "geometry": {
        "type": "Point",
        "coordinates": [
          -73.35416937653599,
          5.521443230698546,
          0
        ]
      }
    },
    {
      "type": "Feature",
      "properties": {
        "_source": "Ruta1-TerminaldeTransporte-AvenidaNorte-Arboleda",
        "_segmentIndex": 0,
        "_position": 2
      },
      "geometry": {
        "type": "Point",
        "coordinates": [
          -73.35452929294966,
          5.521171480205397,
          0
        ]
      }
    },
    {
      "type": "Feature",
      "properties": {
        "_source": "Ruta1-TerminaldeTransporte-AvenidaNorte-Arboleda",
        "_segmentIndex": 0,
        "_position": 3
      },
      "geometry": {
        "type": "Point",
        "coordinates": [
          -73.35489048857634,
          5.520901406816851,
          0
        ]
      }
    },
    {
      "type": "Feature",
      "properties": {
        "_source": "Ruta1-TerminaldeTransporte-AvenidaNorte-Arboleda",
        "_segmentIndex": 0,
        "_position": 0
      },
      "geometry": {
        "type": "Point",
        "coordinates": [
          -73.35499,
          5.520827,
          0
        ]
      }
    },
    {
      "type": "Feature",
      "properties": {
        "_source": "Ruta1-TerminaldeTransporte-AvenidaNorte-Arboleda",
        "_segmentIndex": 0,
        "_position": 1
      },
      "geometry": {
        "type": "Point",
        "coordinates": [
          -73.35473004468341,
          5.520468801249792,
          0
        ]
      }
    },
    {
      "type": "Feature",
      "properties": {
        "_source": "Ruta1-TerminaldeTransporte-AvenidaNorte-Arboleda",
        "_segmentIndex": 0,
        "_position": 2
      },
      "geometry": {
        "type": "Point",
        "coordinates": [
          -73.3546271589975,
          5.520031359840724,
          0
        ]
      }
    },
    {
      "type": "Feature",
      "properties": {
        "_source": "Ruta1-TerminaldeTransporte-AvenidaNorte-Arboleda",
        "_segmentIndex": 0,
        "_position": 3
      },
      "geometry": {
        "type": "Point",
        "coordinates": [
          -73.35450853666609,
          5.5195975112635915,
          0
        ]
      }
    },
    {
      "type": "Feature",
      "properties": {
        "_source": "Ruta1-TerminaldeTransporte-AvenidaNorte-Arboleda",
        "_segmentIndex": 0,
        "_position": 4
      },
      "geometry": {
        "type": "Point",
        "coordinates": [
          -73.35444046209133,
          5.519153972168168,
          0
        ]
      }
    },
    {
      "type": "Feature",
      "properties": {
        "_source": "Ruta1-TerminaldeTransporte-AvenidaNorte-Arboleda",
        "_segmentIndex": 0,
        "_position": 0
      },
      "geometry": {
        "type": "Point",
        "coordinates": [
          -73.354407,
          5.518877,
          0
        ]
      }
    },
    {
      "type": "Feature",
      "properties": {
        "_source": "Ruta1-TerminaldeTransporte-AvenidaNorte-Arboleda",
        "_segmentIndex": 0,
        "_position": 1
      },
      "geometry": {
        "type": "Point",
        "coordinates": [
          -73.35482283009632,
          5.519052724256646,
          0
        ]
      }
    },
    {
      "type": "Feature",
      "properties": {
        "_source": "Ruta1-TerminaldeTransporte-AvenidaNorte-Arboleda",
        "_segmentIndex": 0,
        "_position": 2
      },
      "geometry": {
        "type": "Point",
        "coordinates": [
          -73.35523733640218,
          5.519231506014603,
          0
        ]
      }
    },
    {
      "type": "Feature",
      "properties": {
        "_source": "Ruta1-TerminaldeTransporte-AvenidaNorte-Arboleda",
        "_segmentIndex": 0,
        "_position": 3
      },
      "geometry": {
        "type": "Point",
        "coordinates": [
          -73.35564876447535,
          5.519417176807649,
          0
        ]
      }
    },
    {
      "type": "Feature",
      "properties": {
        "_source": "Ruta1-TerminaldeTransporte-AvenidaNorte-Arboleda",
        "_segmentIndex": 0,
        "_position": 4
      },
      "geometry": {
        "type": "Point",
        "coordinates": [
          -73.35605998919374,
          5.519603324780574,
          0
        ]
      }
    },
    {
      "type": "Feature",
      "properties": {
        "_source": "Ruta1-TerminaldeTransporte-AvenidaNorte-Arboleda",
        "_segmentIndex": 0,
        "_position": 5
      },
      "geometry": {
        "type": "Point",
        "coordinates": [
          -73.35644703762712,
          5.519833076925988,
          0
        ]
      }
    },
    {
      "type": "Feature",
      "properties": {
        "_source": "Ruta1-TerminaldeTransporte-AvenidaNorte-Arboleda",
        "_segmentIndex": 0,
        "_position": 6
      },
      "geometry": {
        "type": "Point",
        "coordinates": [
          -73.35681794907362,
          5.5200897712243355,
          0
        ]
      }
    },
    {
      "type": "Feature",
      "properties": {
        "_source": "Ruta1-TerminaldeTransporte-AvenidaNorte-Arboleda",
        "_segmentIndex": 0,
        "_position": 7
      },
      "geometry": {
        "type": "Point",
        "coordinates": [
          -73.35719352006008,
          5.520339567143183,
          0
        ]
      }
    },
    {
      "type": "Feature",
      "properties": {
        "_source": "Ruta1-TerminaldeTransporte-AvenidaNorte-Arboleda",
        "_segmentIndex": 0,
        "_position": 8
      },
      "geometry": {
        "type": "Point",
        "coordinates": [
          -73.3575723282987,
          5.520584570416046,
          0
        ]
      }
    },
    {
      "type": "Feature",
      "properties": {
        "_source": "Ruta1-TerminaldeTransporte-AvenidaNorte-Arboleda",
        "_segmentIndex": 0,
        "_position": 9
      },
      "geometry": {
        "type": "Point",
        "coordinates": [
          -73.35794591755861,
          5.520837380270682,
          0
        ]
      }
    },
    {
      "type": "Feature",
      "properties": {
        "_source": "Ruta1-TerminaldeTransporte-AvenidaNorte-Arboleda",
        "_segmentIndex": 0,
        "_position": 10
      },
      "geometry": {
        "type": "Point",
        "coordinates": [
          -73.35830183442872,
          5.52111422164727,
          0
        ]
      }
    },
    {
      "type": "Feature",
      "properties": {
        "_source": "Ruta1-TerminaldeTransporte-AvenidaNorte-Arboleda",
        "_segmentIndex": 0,
        "_position": 11
      },
      "geometry": {
        "type": "Point",
        "coordinates": [
          -73.35867121234773,
          5.521372590506871,
          0
        ]
      }
    },
    {
      "type": "Feature",
      "properties": {
        "_source": "Ruta1-TerminaldeTransporte-AvenidaNorte-Arboleda",
        "_segmentIndex": 0,
        "_position": 12
      },
      "geometry": {
        "type": "Point",
        "coordinates": [
          -73.35904886504149,
          5.521619351602287,
          0
        ]
      }
    },
    {
      "type": "Feature",
      "properties": {
        "_source": "Ruta1-TerminaldeTransporte-AvenidaNorte-Arboleda",
        "_segmentIndex": 0,
        "_position": 0
      },
      "geometry": {
        "type": "Point",
        "coordinates": [
          -73.35932,
          5.521796,
          0
        ]
      }
    },
    {
      "type": "Feature",
      "properties": {
        "_source": "Ruta1-TerminaldeTransporte-AvenidaNorte-Arboleda",
        "_segmentIndex": 0,
        "_position": 1
      },
      "geometry": {
        "type": "Point",
        "coordinates": [
          -73.35902596833891,
          5.522137371530581,
          0
        ]
      }
    },
    {
      "type": "Feature",
      "properties": {
        "_source": "Ruta1-TerminaldeTransporte-AvenidaNorte-Arboleda",
        "_segmentIndex": 0,
        "_position": 0
      },
      "geometry": {
        "type": "Point",
        "coordinates": [
          -73.358984,
          5.522188,
          0
        ]
      }
    },
    {
      "type": "Feature",
      "properties": {
        "_source": "Ruta1-TerminaldeTransporte-AvenidaNorte-Arboleda",
        "_segmentIndex": 0,
        "_position": 1
      },
      "geometry": {
        "type": "Point",
        "coordinates": [
          -73.35934425792448,
          5.5224593124400645,
          0
        ]
      }
    },
    {
      "type": "Feature",
      "properties": {
        "_source": "Ruta1-TerminaldeTransporte-AvenidaNorte-Arboleda",
        "_segmentIndex": 0,
        "_position": 0
      },
      "geometry": {
        "type": "Point",
        "coordinates": [
          -73.359628,
          5.522673,
          0
        ]
      }
    },
    {
      "type": "Feature",
      "properties": {
        "_source": "Ruta1-TerminaldeTransporte-AvenidaNorte-Arboleda",
        "_segmentIndex": 0,
        "_position": 0
      },
      "geometry": {
        "type": "Point",
        "coordinates": [
          -73.359881,
          5.522398,
          0
        ]
      }
    },
    {
      "type": "Feature",
      "properties": {
        "_source": "Ruta1-TerminaldeTransporte-AvenidaNorte-Arboleda",
        "_segmentIndex": 0,
        "_position": 1
      },
      "geometry": {
        "type": "Point",
        "coordinates": [
          -73.36012907486797,
          5.522773796646311,
          0
        ]
      }
    },
    {
      "type": "Feature",
      "properties": {
        "_source": "Ruta1-TerminaldeTransporte-AvenidaNorte-Arboleda",
        "_segmentIndex": 0,
        "_position": 0
      },
      "geometry": {
        "type": "Point",
        "coordinates": [
          -73.360184,
          5.522857,
          0
        ]
      }
    },
    {
      "type": "Feature",
      "properties": {
        "_source": "Ruta1-TerminaldeTransporte-AvenidaNorte-Arboleda",
        "_segmentIndex": 0,
        "_position": 1
      },
      "geometry": {
        "type": "Point",
        "coordinates": [
          -73.35989748831479,
          5.5232046575111555,
          0
        ]
      }
    },
    {
      "type": "Feature",
      "properties": {
        "_source": "Ruta1-TerminaldeTransporte-AvenidaNorte-Arboleda",
        "_segmentIndex": 0,
        "_position": 2
      },
      "geometry": {
        "type": "Point",
        "coordinates": [
          -73.35962465393229,
          5.523562979531155,
          0
        ]
      }
    },
    {
      "type": "Feature",
      "properties": {
        "_source": "Ruta1-TerminaldeTransporte-AvenidaNorte-Arboleda",
        "_segmentIndex": 0,
        "_position": 3
      },
      "geometry": {
        "type": "Point",
        "coordinates": [
          -73.35938184780326,
          5.523941464073865,
          0
        ]
      }
    },
    {
      "type": "Feature",
      "properties": {
        "_source": "Ruta1-TerminaldeTransporte-AvenidaNorte-Arboleda",
        "_segmentIndex": 0,
        "_position": 0
      },
      "geometry": {
        "type": "Point",
        "coordinates": [
          -73.359225,
          5.524258,
          0
        ]
      }
    },
    {
      "type": "Feature",
      "properties": {
        "_source": "Ruta1-TerminaldeTransporte-AvenidaNorte-Arboleda",
        "_segmentIndex": 0,
        "_position": 1
      },
      "geometry": {
        "type": "Point",
        "coordinates": [
          -73.35923540343072,
          5.524684739915674,
          0
        ]
      }
    },
    {
      "type": "Feature",
      "properties": {
        "_source": "Ruta1-TerminaldeTransporte-AvenidaNorte-Arboleda",
        "_segmentIndex": 0,
        "_position": 2
      },
      "geometry": {
        "type": "Point",
        "coordinates": [
          -73.35914155879284,
          5.5251244922842835,
          0
        ]
      }
    },
    {
      "type": "Feature",
      "properties": {
        "_source": "Ruta1-TerminaldeTransporte-AvenidaNorte-Arboleda",
        "_segmentIndex": 0,
        "_position": 0
      },
      "geometry": {
        "type": "Point",
        "coordinates": [
          -73.359139,
          5.52537,
          0
        ]
      }
    },
    {
      "type": "Feature",
      "properties": {
        "_source": "Ruta1-TerminaldeTransporte-AvenidaNorte-Arboleda",
        "_segmentIndex": 0,
        "_position": 1
      },
      "geometry": {
        "type": "Point",
        "coordinates": [
          -73.35953667119595,
          5.525565431094578,
          0
        ]
      }
    },
    {
      "type": "Feature",
      "properties": {
        "_source": "Ruta1-TerminaldeTransporte-AvenidaNorte-Arboleda",
        "_segmentIndex": 0,
        "_position": 2
      },
      "geometry": {
        "type": "Point",
        "coordinates": [
          -73.35996456667546,
          5.525709625199773,
          0
        ]
      }
    },
    {
      "type": "Feature",
      "properties": {
        "_source": "Ruta1-TerminaldeTransporte-AvenidaNorte-Arboleda",
        "_segmentIndex": 0,
        "_position": 3
      },
      "geometry": {
        "type": "Point",
        "coordinates": [
          -73.36039809217986,
          5.525833995533805,
          0
        ]
      }
    },
    {
      "type": "Feature",
      "properties": {
        "_source": "Ruta1-TerminaldeTransporte-AvenidaNorte-Arboleda",
        "_segmentIndex": 0,
        "_position": 4
      },
      "geometry": {
        "type": "Point",
        "coordinates": [
          -73.36084341948772,
          5.525909605123618,
          0
        ]
      }
    },
    {
      "type": "Feature",
      "properties": {
        "_source": "Ruta1-TerminaldeTransporte-AvenidaNorte-Arboleda",
        "_segmentIndex": 0,
        "_position": 0
      },
      "geometry": {
        "type": "Point",
        "coordinates": [
          -73.361046,
          5.525944,
          0
        ]
      }
    },
    {
      "type": "Feature",
      "properties": {
        "_source": "Ruta1-TerminaldeTransporte-AvenidaNorte-Arboleda",
        "_segmentIndex": 0,
        "_position": 1
      },
      "geometry": {
        "type": "Point",
        "coordinates": [
          -73.36077516402982,
          5.526303892199826,
          0
        ]
      }
    },
    {
      "type": "Feature",
      "properties": {
        "_source": "Ruta1-TerminaldeTransporte-AvenidaNorte-Arboleda",
        "_segmentIndex": 0,
        "_position": 2
      },
      "geometry": {
        "type": "Point",
        "coordinates": [
          -73.36050432773044,
          5.526663784276932,
          0
        ]
      }
    },
    {
      "type": "Feature",
      "properties": {
        "_source": "Ruta1-TerminaldeTransporte-AvenidaNorte-Arboleda",
        "_segmentIndex": 0,
        "_position": 3
      },
      "geometry": {
        "type": "Point",
        "coordinates": [
          -73.36023342640623,
          5.527023622820973,
          0
        ]
      }
    },
    {
      "type": "Feature",
      "properties": {
        "_source": "Ruta1-TerminaldeTransporte-AvenidaNorte-Arboleda",
        "_segmentIndex": 0,
        "_position": 4
      },
      "geometry": {
        "type": "Point",
        "coordinates": [
          -73.35992815828087,
          5.52735508952842,
          0
        ]
      }
    },
    {
      "type": "Feature",
      "properties": {
        "_source": "Ruta1-TerminaldeTransporte-AvenidaNorte-Arboleda",
        "_segmentIndex": 0,
        "_position": 0
      },
      "geometry": {
        "type": "Point",
        "coordinates": [
          -73.359733,
          5.527657,
          0
        ]
      }
    },
    {
      "type": "Feature",
      "properties": {
        "_source": "Ruta1-TerminaldeTransporte-AvenidaNorte-Arboleda",
        "_segmentIndex": 0,
        "_position": 0
      },
      "geometry": {
        "type": "Point",
        "coordinates": [
          -73.360106,
          5.527907,
          0
        ]
      }
    },
    {
      "type": "Feature",
      "properties": {
        "_source": "Ruta1-TerminaldeTransporte-AvenidaNorte-Arboleda",
        "_segmentIndex": 0,
        "_position": 1
      },
      "geometry": {
        "type": "Point",
        "coordinates": [
          -73.36023943440651,
          5.528191590488969,
          0
        ]
      }
    },
    {
      "type": "Feature",
      "properties": {
        "_source": "Ruta1-TerminaldeTransporte-AvenidaNorte-Arboleda",
        "_segmentIndex": 0,
        "_position": 2
      },
      "geometry": {
        "type": "Point",
        "coordinates": [
          -73.36067694430284,
          5.528303643323013,
          0
        ]
      }
    },
    {
      "type": "Feature",
      "properties": {
        "_source": "Ruta1-TerminaldeTransporte-AvenidaNorte-Arboleda",
        "_segmentIndex": 0,
        "_position": 3
      },
      "geometry": {
        "type": "Point",
        "coordinates": [
          -73.36107098568839,
          5.5284436036186415,
          0
        ]
      }
    },
    {
      "type": "Feature",
      "properties": {
        "_source": "Ruta1-TerminaldeTransporte-AvenidaNorte-Arboleda",
        "_segmentIndex": 0,
        "_position": 4
      },
      "geometry": {
        "type": "Point",
        "coordinates": [
          -73.36093956999825,
          5.52887379365174,
          0
        ]
      }
    },
    {
      "type": "Feature",
      "properties": {
        "_source": "Ruta1-TerminaldeTransporte-AvenidaNorte-Arboleda",
        "_segmentIndex": 0,
        "_position": 5
      },
      "geometry": {
        "type": "Point",
        "coordinates": [
          -73.3608123264263,
          5.529305248871783,
          0
        ]
      }
    },
    {
      "type": "Feature",
      "properties": {
        "_source": "Ruta1-TerminaldeTransporte-AvenidaNorte-Arboleda",
        "_segmentIndex": 0,
        "_position": 6
      },
      "geometry": {
        "type": "Point",
        "coordinates": [
          -73.36069967089176,
          5.529739866593682,
          0
        ]
      }
    },
    {
      "type": "Feature",
      "properties": {
        "_source": "Ruta1-TerminaldeTransporte-AvenidaNorte-Arboleda",
        "_segmentIndex": 0,
        "_position": 7
      },
      "geometry": {
        "type": "Point",
        "coordinates": [
          -73.36056732072758,
          5.530169650078308,
          0
        ]
      }
    },
    {
      "type": "Feature",
      "properties": {
        "_source": "Ruta1-TerminaldeTransporte-AvenidaNorte-Arboleda",
        "_segmentIndex": 0,
        "_position": 8
      },
      "geometry": {
        "type": "Point",
        "coordinates": [
          -73.36044618887344,
          5.530602844396381,
          0
        ]
      }
    },
    {
      "type": "Feature",
      "properties": {
        "_source": "Ruta1-TerminaldeTransporte-AvenidaNorte-Arboleda",
        "_segmentIndex": 0,
        "_position": 9
      },
      "geometry": {
        "type": "Point",
        "coordinates": [
          -73.36032595557306,
          5.531036287001779,
          0
        ]
      }
    },
    {
      "type": "Feature",
      "properties": {
        "_source": "Ruta1-TerminaldeTransporte-AvenidaNorte-Arboleda",
        "_segmentIndex": 0,
        "_position": 10
      },
      "geometry": {
        "type": "Point",
        "coordinates": [
          -73.36020705787335,
          5.531470093466147,
          0
        ]
      }
    },
    {
      "type": "Feature",
      "properties": {
        "_source": "Ruta1-TerminaldeTransporte-AvenidaNorte-Arboleda",
        "_segmentIndex": 0,
        "_position": 11
      },
      "geometry": {
        "type": "Point",
        "coordinates": [
          -73.36007560522356,
          5.531900283124828,
          0
        ]
      }
    },
    {
      "type": "Feature",
      "properties": {
        "_source": "Ruta1-TerminaldeTransporte-AvenidaNorte-Arboleda",
        "_segmentIndex": 0,
        "_position": 12
      },
      "geometry": {
        "type": "Point",
        "coordinates": [
          -73.35994419588476,
          5.532330499276338,
          0
        ]
      }
    },
    {
      "type": "Feature",
      "properties": {
        "_source": "Ruta1-TerminaldeTransporte-AvenidaNorte-Arboleda",
        "_segmentIndex": 0,
        "_position": 13
      },
      "geometry": {
        "type": "Point",
        "coordinates": [
          -73.35982448869761,
          5.532764050697972,
          0
        ]
      }
    },
    {
      "type": "Feature",
      "properties": {
        "_source": "Ruta1-TerminaldeTransporte-AvenidaNorte-Arboleda",
        "_segmentIndex": 0,
        "_position": 14
      },
      "geometry": {
        "type": "Point",
        "coordinates": [
          -73.35970245645008,
          5.533196935274725,
          0
        ]
      }
    },
    {
      "type": "Feature",
      "properties": {
        "_source": "Ruta1-TerminaldeTransporte-AvenidaNorte-Arboleda",
        "_segmentIndex": 0,
        "_position": 15
      },
      "geometry": {
        "type": "Point",
        "coordinates": [
          -73.35957137073382,
          5.533627249027823,
          0
        ]
      }
    },
    {
      "type": "Feature",
      "properties": {
        "_source": "Ruta1-TerminaldeTransporte-AvenidaNorte-Arboleda",
        "_segmentIndex": 0,
        "_position": 16
      },
      "geometry": {
        "type": "Point",
        "coordinates": [
          -73.3594410032053,
          5.5340577796740416,
          0
        ]
      }
    },
    {
      "type": "Feature",
      "properties": {
        "_source": "Ruta1-TerminaldeTransporte-AvenidaNorte-Arboleda",
        "_segmentIndex": 0,
        "_position": 17
      },
      "geometry": {
        "type": "Point",
        "coordinates": [
          -73.35931171067115,
          5.534488631341353,
          0
        ]
      }
    },
    {
      "type": "Feature",
      "properties": {
        "_source": "Ruta1-TerminaldeTransporte-AvenidaNorte-Arboleda",
        "_segmentIndex": 0,
        "_position": 18
      },
      "geometry": {
        "type": "Point",
        "coordinates": [
          -73.35918369203549,
          5.534919853307031,
          0
        ]
      }
    },
    {
      "type": "Feature",
      "properties": {
        "_source": "Ruta1-TerminaldeTransporte-AvenidaNorte-Arboleda",
        "_segmentIndex": 0,
        "_position": 19
      },
      "geometry": {
        "type": "Point",
        "coordinates": [
          -73.35905985772516,
          5.535352290603933,
          0
        ]
      }
    },
    {
      "type": "Feature",
      "properties": {
        "_source": "Ruta1-TerminaldeTransporte-AvenidaNorte-Arboleda",
        "_segmentIndex": 0,
        "_position": 0
      },
      "geometry": {
        "type": "Point",
        "coordinates": [
          -73.359023,
          5.535481,
          0
        ]
      }
    },
    {
      "type": "Feature",
      "properties": {
        "_source": "Ruta1-TerminaldeTransporte-AvenidaNorte-Arboleda",
        "_segmentIndex": 0,
        "_position": 1
      },
      "geometry": {
        "type": "Point",
        "coordinates": [
          -73.35943444082915,
          5.535652436486661,
          0
        ]
      }
    },
    {
      "type": "Feature",
      "properties": {
        "_source": "Ruta1-TerminaldeTransporte-AvenidaNorte-Arboleda",
        "_segmentIndex": 0,
        "_position": 2
      },
      "geometry": {
        "type": "Point",
        "coordinates": [
          -73.3598615257044,
          5.53579903175926,
          0
        ]
      }
    },
    {
      "type": "Feature",
      "properties": {
        "_source": "Ruta1-TerminaldeTransporte-AvenidaNorte-Arboleda",
        "_segmentIndex": 0,
        "_position": 0
      },
      "geometry": {
        "type": "Point",
        "coordinates": [
          -73.359876,
          5.535804,
          0
        ]
      }
    },
    {
      "type": "Feature",
      "properties": {
        "_source": "Ruta1-TerminaldeTransporte-AvenidaNorte-Arboleda",
        "_segmentIndex": 0,
        "_position": 1
      },
      "geometry": {
        "type": "Point",
        "coordinates": [
          -73.35974201178573,
          5.536233428131529,
          0
        ]
      }
    },
    {
      "type": "Feature",
      "properties": {
        "_source": "Ruta1-TerminaldeTransporte-AvenidaNorte-Arboleda",
        "_segmentIndex": 0,
        "_position": 0
      },
      "geometry": {
        "type": "Point",
        "coordinates": [
          -73.359715,
          5.53632,
          0
        ]
      }
    },
    {
      "type": "Feature",
      "properties": {
        "_source": "Ruta1-TerminaldeTransporte-AvenidaNorte-Arboleda",
        "_segmentIndex": 0,
        "_position": 1
      },
      "geometry": {
        "type": "Point",
        "coordinates": [
          -73.35928161282686,
          5.536193043229152,
          0
        ]
      }
    },
    {
      "type": "Feature",
      "properties": {
        "_source": "Ruta1-TerminaldeTransporte-AvenidaNorte-Arboleda",
        "_segmentIndex": 0,
        "_position": 2
      },
      "geometry": {
        "type": "Point",
        "coordinates": [
          -73.35885126596526,
          5.536081771792906,
          0
        ]
      }
    },
    {
      "type": "Feature",
      "properties": {
        "_source": "Ruta1-TerminaldeTransporte-AvenidaNorte-Arboleda",
        "_segmentIndex": 0,
        "_position": 0
      },
      "geometry": {
        "type": "Point",
        "coordinates": [
          -73.358814,
          5.536111,
          0
        ]
      }
    },
    {
      "type": "Feature",
      "properties": {
        "_source": "Ruta1-TerminaldeTransporte-AvenidaNorte-Arboleda",
        "_segmentIndex": 0,
        "_position": 1
      },
      "geometry": {
        "type": "Point",
        "coordinates": [
          -73.35870138969142,
          5.536546466681108,
          0
        ]
      }
    },
    {
      "type": "Feature",
      "properties": {
        "_source": "Ruta1-TerminaldeTransporte-AvenidaNorte-Arboleda",
        "_segmentIndex": 0,
        "_position": 2
      },
      "geometry": {
        "type": "Point",
        "coordinates": [
          -73.35858835834303,
          5.536981824866837,
          0
        ]
      }
    },
    {
      "type": "Feature",
      "properties": {
        "_source": "Ruta1-TerminaldeTransporte-AvenidaNorte-Arboleda",
        "_segmentIndex": 0,
        "_position": 0
      },
      "geometry": {
        "type": "Point",
        "coordinates": [
          -73.358559,
          5.537094,
          0
        ]
      }
    },
    {
      "type": "Feature",
      "properties": {
        "_source": "Ruta1-TerminaldeTransporte-AvenidaNorte-Arboleda",
        "_segmentIndex": 0,
        "_position": 1
      },
      "geometry": {
        "type": "Point",
        "coordinates": [
          -73.35898628783377,
          5.537240011189361,
          0
        ]
      }
    },
    {
      "type": "Feature",
      "properties": {
        "_source": "Ruta1-TerminaldeTransporte-AvenidaNorte-Arboleda",
        "_segmentIndex": 0,
        "_position": 2
      },
      "geometry": {
        "type": "Point",
        "coordinates": [
          -73.3594141474641,
          5.537384339090681,
          0
        ]
      }
    },
    {
      "type": "Feature",
      "properties": {
        "_source": "Ruta1-TerminaldeTransporte-AvenidaNorte-Arboleda",
        "_segmentIndex": 0,
        "_position": 3
      },
      "geometry": {
        "type": "Point",
        "coordinates": [
          -73.35983144497786,
          5.537555149209593,
          0
        ]
      }
    },
    {
      "type": "Feature",
      "properties": {
        "_source": "Ruta1-TerminaldeTransporte-AvenidaNorte-Arboleda",
        "_segmentIndex": 0,
        "_position": 4
      },
      "geometry": {
        "type": "Point",
        "coordinates": [
          -73.36024837170584,
          5.537728311274501,
          0
        ]
      }
    },
    {
      "type": "Feature",
      "properties": {
        "_source": "Ruta1-TerminaldeTransporte-AvenidaNorte-Arboleda",
        "_segmentIndex": 0,
        "_position": 0
      },
      "geometry": {
        "type": "Point",
        "coordinates": [
          -73.360323,
          5.538054,
          0
        ]
      }
    },
    {
      "type": "Feature",
      "properties": {
        "_source": "Ruta1-TerminaldeTransporte-AvenidaNorte-Arboleda",
        "_segmentIndex": 0,
        "_position": 1
      },
      "geometry": {
        "type": "Point",
        "coordinates": [
          -73.36021685406777,
          5.538491072378558,
          0
        ]
      }
    },
    {
      "type": "Feature",
      "properties": {
        "_source": "Ruta1-TerminaldeTransporte-AvenidaNorte-Arboleda",
        "_segmentIndex": 0,
        "_position": 2
      },
      "geometry": {
        "type": "Point",
        "coordinates": [
          -73.36011070797855,
          5.538928144738229,
          0
        ]
      }
    },
    {
      "type": "Feature",
      "properties": {
        "_source": "Ruta1-TerminaldeTransporte-AvenidaNorte-Arboleda",
        "_segmentIndex": 0,
        "_position": 3
      },
      "geometry": {
        "type": "Point",
        "coordinates": [
          -73.36000456173227,
          5.539365217079005,
          0
        ]
      }
    },
    {
      "type": "Feature",
      "properties": {
        "_source": "Ruta1-TerminaldeTransporte-AvenidaNorte-Arboleda",
        "_segmentIndex": 0,
        "_position": 4
      },
      "geometry": {
        "type": "Point",
        "coordinates": [
          -73.35988763635929,
          5.5397992463896735,
          0
        ]
      }
    },
    {
      "type": "Feature",
      "properties": {
        "_source": "Ruta1-TerminaldeTransporte-AvenidaNorte-Arboleda",
        "_segmentIndex": 0,
        "_position": 5
      },
      "geometry": {
        "type": "Point",
        "coordinates": [
          -73.35974742215987,
          5.540226701055789,
          0
        ]
      }
    },
    {
      "type": "Feature",
      "properties": {
        "_source": "Ruta1-TerminaldeTransporte-AvenidaNorte-Arboleda",
        "_segmentIndex": 0,
        "_position": 6
      },
      "geometry": {
        "type": "Point",
        "coordinates": [
          -73.35958018211446,
          5.540643613480308,
          0
        ]
      }
    },
    {
      "type": "Feature",
      "properties": {
        "_source": "Ruta1-TerminaldeTransporte-AvenidaNorte-Arboleda",
        "_segmentIndex": 0,
        "_position": 7
      },
      "geometry": {
        "type": "Point",
        "coordinates": [
          -73.35939110795273,
          5.5410519981545745,
          0
        ]
      }
    },
    {
      "type": "Feature",
      "properties": {
        "_source": "Ruta1-TerminaldeTransporte-AvenidaNorte-Arboleda",
        "_segmentIndex": 0,
        "_position": 8
      },
      "geometry": {
        "type": "Point",
        "coordinates": [
          -73.35919931387487,
          5.541459125045401,
          0
        ]
      }
    },
    {
      "type": "Feature",
      "properties": {
        "_source": "Ruta1-TerminaldeTransporte-AvenidaNorte-Arboleda",
        "_segmentIndex": 0,
        "_position": 9
      },
      "geometry": {
        "type": "Point",
        "coordinates": [
          -73.35900751953255,
          5.54186625187452,
          0
        ]
      }
    },
    {
      "type": "Feature",
      "properties": {
        "_source": "Ruta1-TerminaldeTransporte-AvenidaNorte-Arboleda",
        "_segmentIndex": 0,
        "_position": 10
      },
      "geometry": {
        "type": "Point",
        "coordinates": [
          -73.35887170613682,
          5.542293795317008,
          0
        ]
      }
    },
    {
      "type": "Feature",
      "properties": {
        "_source": "Ruta1-TerminaldeTransporte-AvenidaNorte-Arboleda",
        "_segmentIndex": 0,
        "_position": 11
      },
      "geometry": {
        "type": "Point",
        "coordinates": [
          -73.358818925271,
          5.542735365519084,
          0
        ]
      }
    },
    {
      "type": "Feature",
      "properties": {
        "_source": "Ruta1-TerminaldeTransporte-AvenidaNorte-Arboleda",
        "_segmentIndex": 0,
        "_position": 12
      },
      "geometry": {
        "type": "Point",
        "coordinates": [
          -73.35864527869853,
          5.543130539784227,
          0
        ]
      }
    },
    {
      "type": "Feature",
      "properties": {
        "_source": "Ruta1-TerminaldeTransporte-AvenidaNorte-Arboleda",
        "_segmentIndex": 0,
        "_position": 13
      },
      "geometry": {
        "type": "Point",
        "coordinates": [
          -73.35837429148982,
          5.54349032505364,
          0
        ]
      }
    },
    {
      "type": "Feature",
      "properties": {
        "_source": "Ruta1-TerminaldeTransporte-AvenidaNorte-Arboleda",
        "_segmentIndex": 0,
        "_position": 14
      },
      "geometry": {
        "type": "Point",
        "coordinates": [
          -73.35809470227152,
          5.543843383396515,
          0
        ]
      }
    },
    {
      "type": "Feature",
      "properties": {
        "_source": "Ruta1-TerminaldeTransporte-AvenidaNorte-Arboleda",
        "_segmentIndex": 0,
        "_position": 15
      },
      "geometry": {
        "type": "Point",
        "coordinates": [
          -73.3577870678125,
          5.544170168550576,
          0
        ]
      }
    },
    {
      "type": "Feature",
      "properties": {
        "_source": "Ruta1-TerminaldeTransporte-AvenidaNorte-Arboleda",
        "_segmentIndex": 0,
        "_position": 16
      },
      "geometry": {
        "type": "Point",
        "coordinates": [
          -73.35738525237069,
          5.544346977468393,
          0
        ]
      }
    },
    {
      "type": "Feature",
      "properties": {
        "_source": "Ruta1-TerminaldeTransporte-AvenidaNorte-Arboleda",
        "_segmentIndex": 0,
        "_position": 0
      },
      "geometry": {
        "type": "Point",
        "coordinates": [
          -73.357298,
          5.544736,
          0
        ]
      }
    },
    {
      "type": "Feature",
      "properties": {
        "_source": "Ruta1-TerminaldeTransporte-AvenidaNorte-Arboleda",
        "_segmentIndex": 0,
        "_position": 1
      },
      "geometry": {
        "type": "Point",
        "coordinates": [
          -73.35709429430867,
          5.545132686244957,
          0
        ]
      }
    },
    {
      "type": "Feature",
      "properties": {
        "_source": "Ruta1-TerminaldeTransporte-AvenidaNorte-Arboleda",
        "_segmentIndex": 0,
        "_position": 2
      },
      "geometry": {
        "type": "Point",
        "coordinates": [
          -73.35682962223186,
          5.545497099616359,
          0
        ]
      }
    },
    {
      "type": "Feature",
      "properties": {
        "_source": "Ruta1-TerminaldeTransporte-AvenidaNorte-Arboleda",
        "_segmentIndex": 0,
        "_position": 3
      },
      "geometry": {
        "type": "Point",
        "coordinates": [
          -73.35656494982817,
          5.545861512870164,
          0
        ]
      }
    },
    {
      "type": "Feature",
      "properties": {
        "_source": "Ruta1-TerminaldeTransporte-AvenidaNorte-Arboleda",
        "_segmentIndex": 0,
        "_position": 4
      },
      "geometry": {
        "type": "Point",
        "coordinates": [
          -73.35630027709757,
          5.546225926006365,
          0
        ]
      }
    },
    {
      "type": "Feature",
      "properties": {
        "_source": "Ruta1-TerminaldeTransporte-AvenidaNorte-Arboleda",
        "_segmentIndex": 0,
        "_position": 5
      },
      "geometry": {
        "type": "Point",
        "coordinates": [
          -73.35603560404007,
          5.546590339024952,
          0
        ]
      }
    },
    {
      "type": "Feature",
      "properties": {
        "_source": "Ruta1-TerminaldeTransporte-AvenidaNorte-Arboleda",
        "_segmentIndex": 0,
        "_position": 6
      },
      "geometry": {
        "type": "Point",
        "coordinates": [
          -73.35576881131327,
          5.54695321083575,
          0
        ]
      }
    },
    {
      "type": "Feature",
      "properties": {
        "_source": "Ruta1-TerminaldeTransporte-AvenidaNorte-Arboleda",
        "_segmentIndex": 0,
        "_position": 7
      },
      "geometry": {
        "type": "Point",
        "coordinates": [
          -73.35550047302803,
          5.547314958904907,
          0
        ]
      }
    },
    {
      "type": "Feature",
      "properties": {
        "_source": "Ruta1-TerminaldeTransporte-AvenidaNorte-Arboleda",
        "_segmentIndex": 0,
        "_position": 8
      },
      "geometry": {
        "type": "Point",
        "coordinates": [
          -73.35523213441371,
          5.547676706853147,
          0
        ]
      }
    },
    {
      "type": "Feature",
      "properties": {
        "_source": "Ruta1-TerminaldeTransporte-AvenidaNorte-Arboleda",
        "_segmentIndex": 0,
        "_position": 9
      },
      "geometry": {
        "type": "Point",
        "coordinates": [
          -73.35496379547025,
          5.548038454680462,
          0
        ]
      }
    },
    {
      "type": "Feature",
      "properties": {
        "_source": "Ruta1-TerminaldeTransporte-AvenidaNorte-Arboleda",
        "_segmentIndex": 0,
        "_position": 10
      },
      "geometry": {
        "type": "Point",
        "coordinates": [
          -73.35469545619769,
          5.548400202386846,
          0
        ]
      }
    },
    {
      "type": "Feature",
      "properties": {
        "_source": "Ruta1-TerminaldeTransporte-AvenidaNorte-Arboleda",
        "_segmentIndex": 0,
        "_position": 11
      },
      "geometry": {
        "type": "Point",
        "coordinates": [
          -73.35442547092754,
          5.548760719866535,
          0
        ]
      }
    },
    {
      "type": "Feature",
      "properties": {
        "_source": "Ruta1-TerminaldeTransporte-AvenidaNorte-Arboleda",
        "_segmentIndex": 0,
        "_position": 12
      },
      "geometry": {
        "type": "Point",
        "coordinates": [
          -73.3541512338508,
          5.549118059325061,
          0
        ]
      }
    },
    {
      "type": "Feature",
      "properties": {
        "_source": "Ruta1-TerminaldeTransporte-AvenidaNorte-Arboleda",
        "_segmentIndex": 0,
        "_position": 13
      },
      "geometry": {
        "type": "Point",
        "coordinates": [
          -73.35387699644174,
          5.549475398657257,
          0
        ]
      }
    },
    {
      "type": "Feature",
      "properties": {
        "_source": "Ruta1-TerminaldeTransporte-AvenidaNorte-Arboleda",
        "_segmentIndex": 0,
        "_position": 14
      },
      "geometry": {
        "type": "Point",
        "coordinates": [
          -73.35358701642781,
          5.549820120438084,
          0
        ]
      }
    },
    {
      "type": "Feature",
      "properties": {
        "_source": "Ruta1-TerminaldeTransporte-AvenidaNorte-Arboleda",
        "_segmentIndex": 0,
        "_position": 15
      },
      "geometry": {
        "type": "Point",
        "coordinates": [
          -73.35329473327869,
          5.550162996386602,
          0
        ]
      }
    },
    {
      "type": "Feature",
      "properties": {
        "_source": "Ruta1-TerminaldeTransporte-AvenidaNorte-Arboleda",
        "_segmentIndex": 0,
        "_position": 16
      },
      "geometry": {
        "type": "Point",
        "coordinates": [
          -73.35300244978961,
          5.550505872191588,
          0
        ]
      }
    },
    {
      "type": "Feature",
      "properties": {
        "_source": "Ruta1-TerminaldeTransporte-AvenidaNorte-Arboleda",
        "_segmentIndex": 0,
        "_position": 17
      },
      "geometry": {
        "type": "Point",
        "coordinates": [
          -73.35271214645277,
          5.55085026376102,
          0
        ]
      }
    },
    {
      "type": "Feature",
      "properties": {
        "_source": "Ruta1-TerminaldeTransporte-AvenidaNorte-Arboleda",
        "_segmentIndex": 0,
        "_position": 18
      },
      "geometry": {
        "type": "Point",
        "coordinates": [
          -73.3524542489391,
          5.5512194595165365,
          0
        ]
      }
    },
    {
      "type": "Feature",
      "properties": {
        "_source": "Ruta1-TerminaldeTransporte-AvenidaNorte-Arboleda",
        "_segmentIndex": 0,
        "_position": 19
      },
      "geometry": {
        "type": "Point",
        "coordinates": [
          -73.35219856550869,
          5.551589734976343,
          0
        ]
      }
    },
    {
      "type": "Feature",
      "properties": {
        "_source": "Ruta1-TerminaldeTransporte-AvenidaNorte-Arboleda",
        "_segmentIndex": 0,
        "_position": 20
      },
      "geometry": {
        "type": "Point",
        "coordinates": [
          -73.35206351179387,
          5.552018833438405,
          0
        ]
      }
    },
    {
      "type": "Feature",
      "properties": {
        "_source": "Ruta1-TerminaldeTransporte-AvenidaNorte-Arboleda",
        "_segmentIndex": 0,
        "_position": 21
      },
      "geometry": {
        "type": "Point",
        "coordinates": [
          -73.3519284578824,
          5.552447931869812,
          0
        ]
      }
    },
    {
      "type": "Feature",
      "properties": {
        "_source": "Ruta1-TerminaldeTransporte-AvenidaNorte-Arboleda",
        "_segmentIndex": 0,
        "_position": 22
      },
      "geometry": {
        "type": "Point",
        "coordinates": [
          -73.35179340377428,
          5.552877030270563,
          0
        ]
      }
    },
    {
      "type": "Feature",
      "properties": {
        "_source": "Ruta1-TerminaldeTransporte-AvenidaNorte-Arboleda",
        "_segmentIndex": 0,
        "_position": 23
      },
      "geometry": {
        "type": "Point",
        "coordinates": [
          -73.3516583494695,
          5.553306128640655,
          0
        ]
      }
    },
    {
      "type": "Feature",
      "properties": {
        "_source": "Ruta1-TerminaldeTransporte-AvenidaNorte-Arboleda",
        "_segmentIndex": 0,
        "_position": 24
      },
      "geometry": {
        "type": "Point",
        "coordinates": [
          -73.35152329496803,
          5.553735226980082,
          0
        ]
      }
    },
    {
      "type": "Feature",
      "properties": {
        "_source": "Ruta1-TerminaldeTransporte-AvenidaNorte-Arboleda",
        "_segmentIndex": 0,
        "_position": 25
      },
      "geometry": {
        "type": "Point",
        "coordinates": [
          -73.35137805222516,
          5.55416068942841,
          0
        ]
      }
    },
    {
      "type": "Feature",
      "properties": {
        "_source": "Ruta1-TerminaldeTransporte-AvenidaNorte-Arboleda",
        "_segmentIndex": 0,
        "_position": 26
      },
      "geometry": {
        "type": "Point",
        "coordinates": [
          -73.35120839082965,
          5.5545774375034025,
          0
        ]
      }
    },
    {
      "type": "Feature",
      "properties": {
        "_source": "Ruta1-TerminaldeTransporte-AvenidaNorte-Arboleda",
        "_segmentIndex": 0,
        "_position": 27
      },
      "geometry": {
        "type": "Point",
        "coordinates": [
          -73.35103872919414,
          5.554994185529992,
          0
        ]
      }
    },
    {
      "type": "Feature",
      "properties": {
        "_source": "Ruta1-TerminaldeTransporte-AvenidaNorte-Arboleda",
        "_segmentIndex": 0,
        "_position": 28
      },
      "geometry": {
        "type": "Point",
        "coordinates": [
          -73.35086353836519,
          5.555408570815086,
          0
        ]
      }
    },
    {
      "type": "Feature",
      "properties": {
        "_source": "Ruta1-TerminaldeTransporte-AvenidaNorte-Arboleda",
        "_segmentIndex": 0,
        "_position": 29
      },
      "geometry": {
        "type": "Point",
        "coordinates": [
          -73.35067679982555,
          5.555818021458524,
          0
        ]
      }
    },
    {
      "type": "Feature",
      "properties": {
        "_source": "Ruta1-TerminaldeTransporte-AvenidaNorte-Arboleda",
        "_segmentIndex": 0,
        "_position": 30
      },
      "geometry": {
        "type": "Point",
        "coordinates": [
          -73.35049006102628,
          5.556227472043318,
          0
        ]
      }
    },
    {
      "type": "Feature",
      "properties": {
        "_source": "Ruta1-TerminaldeTransporte-AvenidaNorte-Arboleda",
        "_segmentIndex": 0,
        "_position": 31
      },
      "geometry": {
        "type": "Point",
        "coordinates": [
          -73.35030332196737,
          5.556636922569459,
          0
        ]
      }
    },
    {
      "type": "Feature",
      "properties": {
        "_source": "Ruta1-TerminaldeTransporte-AvenidaNorte-Arboleda",
        "_segmentIndex": 0,
        "_position": 32
      },
      "geometry": {
        "type": "Point",
        "coordinates": [
          -73.35011658264884,
          5.557046373036943,
          0
        ]
      }
    },
    {
      "type": "Feature",
      "properties": {
        "_source": "Ruta1-TerminaldeTransporte-AvenidaNorte-Arboleda",
        "_segmentIndex": 0,
        "_position": 33
      },
      "geometry": {
        "type": "Point",
        "coordinates": [
          -73.3499298430706,
          5.557455823445769,
          0
        ]
      }
    },
    {
      "type": "Feature",
      "properties": {
        "_source": "Ruta1-TerminaldeTransporte-AvenidaNorte-Arboleda",
        "_segmentIndex": 0,
        "_position": 34
      },
      "geometry": {
        "type": "Point",
        "coordinates": [
          -73.34974310323268,
          5.5578652737959295,
          0
        ]
      }
    },
    {
      "type": "Feature",
      "properties": {
        "_source": "Ruta1-TerminaldeTransporte-AvenidaNorte-Arboleda",
        "_segmentIndex": 0,
        "_position": 35
      },
      "geometry": {
        "type": "Point",
        "coordinates": [
          -73.34955537276012,
          5.558274272491759,
          0
        ]
      }
    },
    {
      "type": "Feature",
      "properties": {
        "_source": "Ruta1-TerminaldeTransporte-AvenidaNorte-Arboleda",
        "_segmentIndex": 0,
        "_position": 36
      },
      "geometry": {
        "type": "Point",
        "coordinates": [
          -73.34936577114196,
          5.558682418033607,
          0
        ]
      }
    },
    {
      "type": "Feature",
      "properties": {
        "_source": "Ruta1-TerminaldeTransporte-AvenidaNorte-Arboleda",
        "_segmentIndex": 0,
        "_position": 37
      },
      "geometry": {
        "type": "Point",
        "coordinates": [
          -73.34917616926089,
          5.559090563514965,
          0
        ]
      }
    },
    {
      "type": "Feature",
      "properties": {
        "_source": "Ruta1-TerminaldeTransporte-AvenidaNorte-Arboleda",
        "_segmentIndex": 0,
        "_position": 38
      },
      "geometry": {
        "type": "Point",
        "coordinates": [
          -73.34898656711692,
          5.559498708935828,
          0
        ]
      }
    },
    {
      "type": "Feature",
      "properties": {
        "_source": "Ruta1-TerminaldeTransporte-AvenidaNorte-Arboleda",
        "_segmentIndex": 0,
        "_position": 39
      },
      "geometry": {
        "type": "Point",
        "coordinates": [
          -73.34879696471,
          5.559906854296192,
          0
        ]
      }
    },
    {
      "type": "Feature",
      "properties": {
        "_source": "Ruta1-TerminaldeTransporte-AvenidaNorte-Arboleda",
        "_segmentIndex": 0,
        "_position": 40
      },
      "geometry": {
        "type": "Point",
        "coordinates": [
          -73.34860736204014,
          5.560314999596052,
          0
        ]
      }
    },
    {
      "type": "Feature",
      "properties": {
        "_source": "Ruta1-TerminaldeTransporte-AvenidaNorte-Arboleda",
        "_segmentIndex": 0,
        "_position": 41
      },
      "geometry": {
        "type": "Point",
        "coordinates": [
          -73.34842019023733,
          5.560724254525949,
          0
        ]
      }
    },
    {
      "type": "Feature",
      "properties": {
        "_source": "Ruta1-TerminaldeTransporte-AvenidaNorte-Arboleda",
        "_segmentIndex": 0,
        "_position": 42
      },
      "geometry": {
        "type": "Point",
        "coordinates": [
          -73.34823313034111,
          5.5611335605955245,
          0
        ]
      }
    },
    {
      "type": "Feature",
      "properties": {
        "_source": "Ruta1-TerminaldeTransporte-AvenidaNorte-Arboleda",
        "_segmentIndex": 0,
        "_position": 43
      },
      "geometry": {
        "type": "Point",
        "coordinates": [
          -73.3480460701847,
          5.561542866606198,
          0
        ]
      }
    },
    {
      "type": "Feature",
      "properties": {
        "_source": "Ruta1-TerminaldeTransporte-AvenidaNorte-Arboleda",
        "_segmentIndex": 0,
        "_position": 44
      },
      "geometry": {
        "type": "Point",
        "coordinates": [
          -73.347859009768,
          5.561952172557959,
          0
        ]
      }
    },
    {
      "type": "Feature",
      "properties": {
        "_source": "Ruta1-TerminaldeTransporte-AvenidaNorte-Arboleda",
        "_segmentIndex": 0,
        "_position": 45
      },
      "geometry": {
        "type": "Point",
        "coordinates": [
          -73.34767194909107,
          5.562361478450808,
          0
        ]
      }
    },
    {
      "type": "Feature",
      "properties": {
        "_source": "Ruta1-TerminaldeTransporte-AvenidaNorte-Arboleda",
        "_segmentIndex": 0,
        "_position": 46
      },
      "geometry": {
        "type": "Point",
        "coordinates": [
          -73.34748488815384,
          5.562770784284737,
          0
        ]
      }
    },
    {
      "type": "Feature",
      "properties": {
        "_source": "Ruta1-TerminaldeTransporte-AvenidaNorte-Arboleda",
        "_segmentIndex": 0,
        "_position": 47
      },
      "geometry": {
        "type": "Point",
        "coordinates": [
          -73.34729648916282,
          5.563179472449484,
          0
        ]
      }
    },
    {
      "type": "Feature",
      "properties": {
        "_source": "Ruta1-TerminaldeTransporte-AvenidaNorte-Arboleda",
        "_segmentIndex": 0,
        "_position": 48
      },
      "geometry": {
        "type": "Point",
        "coordinates": [
          -73.3471033497099,
          5.563585972177357,
          0
        ]
      }
    },
    {
      "type": "Feature",
      "properties": {
        "_source": "Ruta1-TerminaldeTransporte-AvenidaNorte-Arboleda",
        "_segmentIndex": 0,
        "_position": 49
      },
      "geometry": {
        "type": "Point",
        "coordinates": [
          -73.34691020999001,
          5.563992471842408,
          0
        ]
      }
    },
    {
      "type": "Feature",
      "properties": {
        "_source": "Ruta1-TerminaldeTransporte-AvenidaNorte-Arboleda",
        "_segmentIndex": 0,
        "_position": 50
      },
      "geometry": {
        "type": "Point",
        "coordinates": [
          -73.34671859143437,
          5.564399677761831,
          0
        ]
      }
    },
    {
      "type": "Feature",
      "properties": {
        "_source": "Ruta1-TerminaldeTransporte-AvenidaNorte-Arboleda",
        "_segmentIndex": 0,
        "_position": 51
      },
      "geometry": {
        "type": "Point",
        "coordinates": [
          -73.34652977695058,
          5.564808185519831,
          0
        ]
      }
    },
    {
      "type": "Feature",
      "properties": {
        "_source": "Ruta1-TerminaldeTransporte-AvenidaNorte-Arboleda",
        "_segmentIndex": 0,
        "_position": 52
      },
      "geometry": {
        "type": "Point",
        "coordinates": [
          -73.34634096220448,
          5.565216693217778,
          0
        ]
      }
    },
    {
      "type": "Feature",
      "properties": {
        "_source": "Ruta1-TerminaldeTransporte-AvenidaNorte-Arboleda",
        "_segmentIndex": 0,
        "_position": 53
      },
      "geometry": {
        "type": "Point",
        "coordinates": [
          -73.34615214719602,
          5.565625200855665,
          0
        ]
      }
    },
    {
      "type": "Feature",
      "properties": {
        "_source": "Ruta1-TerminaldeTransporte-AvenidaNorte-Arboleda",
        "_segmentIndex": 0,
        "_position": 54
      },
      "geometry": {
        "type": "Point",
        "coordinates": [
          -73.34596333192522,
          5.566033708433489,
          0
        ]
      }
    },
    {
      "type": "Feature",
      "properties": {
        "_source": "Ruta1-TerminaldeTransporte-AvenidaNorte-Arboleda",
        "_segmentIndex": 0,
        "_position": 55
      },
      "geometry": {
        "type": "Point",
        "coordinates": [
          -73.34577451639201,
          5.5664422159512466,
          0
        ]
      }
    },
    {
      "type": "Feature",
      "properties": {
        "_source": "Ruta1-TerminaldeTransporte-AvenidaNorte-Arboleda",
        "_segmentIndex": 0,
        "_position": 56
      },
      "geometry": {
        "type": "Point",
        "coordinates": [
          -73.34554090228559,
          5.5668257511704615,
          0
        ]
      }
    },
    {
      "type": "Feature",
      "properties": {
        "_source": "Ruta1-TerminaldeTransporte-AvenidaNorte-Arboleda",
        "_segmentIndex": 0,
        "_position": 57
      },
      "geometry": {
        "type": "Point",
        "coordinates": [
          -73.34528956830977,
          5.567199408751554,
          0
        ]
      }
    },
    {
      "type": "Feature",
      "properties": {
        "_source": "Ruta1-TerminaldeTransporte-AvenidaNorte-Arboleda",
        "_segmentIndex": 0,
        "_position": 58
      },
      "geometry": {
        "type": "Point",
        "coordinates": [
          -73.34503823401438,
          5.567573066226194,
          0
        ]
      }
    },
    {
      "type": "Feature",
      "properties": {
        "_source": "Ruta1-TerminaldeTransporte-AvenidaNorte-Arboleda",
        "_segmentIndex": 0,
        "_position": 59
      },
      "geometry": {
        "type": "Point",
        "coordinates": [
          -73.34478689939945,
          5.567946723594375,
          0
        ]
      }
    },
    {
      "type": "Feature",
      "properties": {
        "_source": "Ruta1-TerminaldeTransporte-AvenidaNorte-Arboleda",
        "_segmentIndex": 0,
        "_position": 60
      },
      "geometry": {
        "type": "Point",
        "coordinates": [
          -73.34453556446496,
          5.568320380856086,
          0
        ]
      }
    },
    {
      "type": "Feature",
      "properties": {
        "_source": "Ruta1-TerminaldeTransporte-AvenidaNorte-Arboleda",
        "_segmentIndex": 0,
        "_position": 61
      },
      "geometry": {
        "type": "Point",
        "coordinates": [
          -73.34428422921084,
          5.568694038011324,
          0
        ]
      }
    },
    {
      "type": "Feature",
      "properties": {
        "_source": "Ruta1-TerminaldeTransporte-AvenidaNorte-Arboleda",
        "_segmentIndex": 0,
        "_position": 62
      },
      "geometry": {
        "type": "Point",
        "coordinates": [
          -73.34403289363712,
          5.569067695060078,
          0
        ]
      }
    },
    {
      "type": "Feature",
      "properties": {
        "_source": "Ruta1-TerminaldeTransporte-AvenidaNorte-Arboleda",
        "_segmentIndex": 0,
        "_position": 63
      },
      "geometry": {
        "type": "Point",
        "coordinates": [
          -73.34378155774375,
          5.569441352002344,
          0
        ]
      }
    },
    {
      "type": "Feature",
      "properties": {
        "_source": "Ruta1-TerminaldeTransporte-AvenidaNorte-Arboleda",
        "_segmentIndex": 0,
        "_position": 64
      },
      "geometry": {
        "type": "Point",
        "coordinates": [
          -73.34353022153071,
          5.5698150088381135,
          0
        ]
      }
    },
    {
      "type": "Feature",
      "properties": {
        "_source": "Ruta1-TerminaldeTransporte-AvenidaNorte-Arboleda",
        "_segmentIndex": 0,
        "_position": 65
      },
      "geometry": {
        "type": "Point",
        "coordinates": [
          -73.34327888499801,
          5.570188665567378,
          0
        ]
      }
    },
    {
      "type": "Feature",
      "properties": {
        "_source": "Ruta1-TerminaldeTransporte-AvenidaNorte-Arboleda",
        "_segmentIndex": 0,
        "_position": 66
      },
      "geometry": {
        "type": "Point",
        "coordinates": [
          -73.34302754814557,
          5.57056232219013,
          0
        ]
      }
    },
    {
      "type": "Feature",
      "properties": {
        "_source": "Ruta1-TerminaldeTransporte-AvenidaNorte-Arboleda",
        "_segmentIndex": 0,
        "_position": 67
      },
      "geometry": {
        "type": "Point",
        "coordinates": [
          -73.34277621097341,
          5.570935978706365,
          0
        ]
      }
    },
    {
      "type": "Feature",
      "properties": {
        "_source": "Ruta1-TerminaldeTransporte-AvenidaNorte-Arboleda",
        "_segmentIndex": 0,
        "_position": 0
      },
      "geometry": {
        "type": "Point",
        "coordinates": [
          -73.342604,
          5.571192,
          0
        ]
      }
    },
    {
      "type": "Feature",
      "properties": {
        "_source": "Ruta1-TerminaldeTransporte-AvenidaNorte-Arboleda",
        "_segmentIndex": 0,
        "_position": 1
      },
      "geometry": {
        "type": "Point",
        "coordinates": [
          -73.34222030587222,
          5.570989177207891,
          0
        ]
      }
    },
    {
      "type": "Feature",
      "properties": {
        "_source": "Ruta1-TerminaldeTransporte-AvenidaNorte-Arboleda",
        "_segmentIndex": 0,
        "_position": 2
      },
      "geometry": {
        "type": "Point",
        "coordinates": [
          -73.34185849436868,
          5.570719881141799,
          0
        ]
      }
    },
    {
      "type": "Feature",
      "properties": {
        "_source": "Ruta1-TerminaldeTransporte-AvenidaNorte-Arboleda",
        "_segmentIndex": 0,
        "_position": 3
      },
      "geometry": {
        "type": "Point",
        "coordinates": [
          -73.34149751512817,
          5.57044948645946,
          0
        ]
      }
    },
    {
      "type": "Feature",
      "properties": {
        "_source": "Ruta1-TerminaldeTransporte-AvenidaNorte-Arboleda",
        "_segmentIndex": 0,
        "_position": 4
      },
      "geometry": {
        "type": "Point",
        "coordinates": [
          -73.34113778999186,
          5.570177436208803,
          0
        ]
      }
    },
    {
      "type": "Feature",
      "properties": {
        "_source": "Ruta1-TerminaldeTransporte-AvenidaNorte-Arboleda",
        "_segmentIndex": 0,
        "_position": 5
      },
      "geometry": {
        "type": "Point",
        "coordinates": [
          -73.34085522038133,
          5.56983808079662,
          0
        ]
      }
    },
    {
      "type": "Feature",
      "properties": {
        "_source": "Ruta1-TerminaldeTransporte-AvenidaNorte-Arboleda",
        "_segmentIndex": 0,
        "_position": 6
      },
      "geometry": {
        "type": "Point",
        "coordinates": [
          -73.34064857614466,
          5.569445155567888,
          0
        ]
      }
    },
    {
      "type": "Feature",
      "properties": {
        "_source": "Ruta1-TerminaldeTransporte-AvenidaNorte-Arboleda",
        "_segmentIndex": 0,
        "_position": 7
      },
      "geometry": {
        "type": "Point",
        "coordinates": [
          -73.34031295080148,
          5.569145281258499,
          0
        ]
      }
    },
    {
      "type": "Feature",
      "properties": {
        "_source": "Ruta1-TerminaldeTransporte-AvenidaNorte-Arboleda",
        "_segmentIndex": 0,
        "_position": 8
      },
      "geometry": {
        "type": "Point",
        "coordinates": [
          -73.33995755348538,
          5.568867659519548,
          0
        ]
      }
    },
    {
      "type": "Feature",
      "properties": {
        "_source": "Ruta1-TerminaldeTransporte-AvenidaNorte-Arboleda",
        "_segmentIndex": 0,
        "_position": 9
      },
      "geometry": {
        "type": "Point",
        "coordinates": [
          -73.33959848562618,
          5.5685947517589085,
          0
        ]
      }
    },
    {
      "type": "Feature",
      "properties": {
        "_source": "Ruta1-TerminaldeTransporte-AvenidaNorte-Arboleda",
        "_segmentIndex": 0,
        "_position": 10
      },
      "geometry": {
        "type": "Point",
        "coordinates": [
          -73.33923941810049,
          5.568321843780942,
          0
        ]
      }
    },
    {
      "type": "Feature",
      "properties": {
        "_source": "Ruta1-TerminaldeTransporte-AvenidaNorte-Arboleda",
        "_segmentIndex": 0,
        "_position": 0
      },
      "geometry": {
        "type": "Point",
        "coordinates": [
          -73.339112,
          5.568225,
          0
        ]
      }
    },
    {
      "type": "Feature",
      "properties": {
        "_source": "Ruta1-TerminaldeTransporte-AvenidaNorte-Arboleda",
        "_segmentIndex": 0,
        "_position": 1
      },
      "geometry": {
        "type": "Point",
        "coordinates": [
          -73.33867442519444,
          5.568284881819654,
          0
        ]
      }
    },
    {
      "type": "Feature",
      "properties": {
        "_source": "Ruta1-TerminaldeTransporte-AvenidaNorte-Arboleda",
        "_segmentIndex": 0,
        "_position": 2
      },
      "geometry": {
        "type": "Point",
        "coordinates": [
          -73.33833464776124,
          5.568573135821433,
          0
        ]
      }
    },
    {
      "type": "Feature",
      "properties": {
        "_source": "Ruta1-TerminaldeTransporte-AvenidaNorte-Arboleda",
        "_segmentIndex": 0,
        "_position": 3
      },
      "geometry": {
        "type": "Point",
        "coordinates": [
          -73.33807385310375,
          5.568919665230815,
          0
        ]
      }
    },
    {
      "type": "Feature",
      "properties": {
        "_source": "Ruta1-TerminaldeTransporte-AvenidaNorte-Arboleda",
        "_segmentIndex": 0,
        "_position": 4
      },
      "geometry": {
        "type": "Point",
        "coordinates": [
          -73.33791769609921,
          5.569340820335669,
          0
        ]
      }
    },
    {
      "type": "Feature",
      "properties": {
        "_source": "Ruta1-TerminaldeTransporte-AvenidaNorte-Arboleda",
        "_segmentIndex": 0,
        "_position": 5
      },
      "geometry": {
        "type": "Point",
        "coordinates": [
          -73.33759197595413,
          5.569621343342812,
          0
        ]
      }
    },
    {
      "type": "Feature",
      "properties": {
        "_source": "Ruta1-TerminaldeTransporte-AvenidaNorte-Arboleda",
        "_segmentIndex": 0,
        "_position": 6
      },
      "geometry": {
        "type": "Point",
        "coordinates": [
          -73.33714733622679,
          5.569691793528164,
          0
        ]
      }
    },
    {
      "type": "Feature",
      "properties": {
        "_source": "Ruta1-TerminaldeTransporte-AvenidaNorte-Arboleda",
        "_segmentIndex": 0,
        "_position": 0
      },
      "geometry": {
        "type": "Point",
        "coordinates": [
          -73.337038,
          5.569697,
          0
        ]
      }
    },
    {
      "type": "Feature",
      "properties": {
        "_source": "Ruta1-TerminaldeTransporte-AvenidaNorte-Arboleda",
        "_segmentIndex": 0,
        "_position": 1
      },
      "geometry": {
        "type": "Point",
        "coordinates": [
          -73.33664428552555,
          5.569916651558998,
          0
        ]
      }
    },
    {
      "type": "Feature",
      "properties": {
        "_source": "Ruta1-TerminaldeTransporte-AvenidaNorte-Arboleda",
        "_segmentIndex": 0,
        "_position": 2
      },
      "geometry": {
        "type": "Point",
        "coordinates": [
          -73.33625914100064,
          5.570151495075478,
          0
        ]
      }
    },
    {
      "type": "Feature",
      "properties": {
        "_source": "Ruta1-TerminaldeTransporte-AvenidaNorte-Arboleda",
        "_segmentIndex": 0,
        "_position": 3
      },
      "geometry": {
        "type": "Point",
        "coordinates": [
          -73.33587005395277,
          5.570379992844052,
          0
        ]
      }
    },
    {
      "type": "Feature",
      "properties": {
        "_source": "Ruta1-TerminaldeTransporte-AvenidaNorte-Arboleda",
        "_segmentIndex": 0,
        "_position": 4
      },
      "geometry": {
        "type": "Point",
        "coordinates": [
          -73.33547473132099,
          5.570596270885606,
          0
        ]
      }
    },
    {
      "type": "Feature",
      "properties": {
        "_source": "Ruta1-TerminaldeTransporte-AvenidaNorte-Arboleda",
        "_segmentIndex": 0,
        "_position": 5
      },
      "geometry": {
        "type": "Point",
        "coordinates": [
          -73.33505171707618,
          5.570753187720374,
          0
        ]
      }
    },
    {
      "type": "Feature",
      "properties": {
        "_source": "Ruta1-TerminaldeTransporte-AvenidaNorte-Arboleda",
        "_segmentIndex": 0,
        "_position": 6
      },
      "geometry": {
        "type": "Point",
        "coordinates": [
          -73.33463609238211,
          5.570927777612402,
          0
        ]
      }
    },
    {
      "type": "Feature",
      "properties": {
        "_source": "Ruta1-TerminaldeTransporte-AvenidaNorte-Arboleda",
        "_segmentIndex": 0,
        "_position": 7
      },
      "geometry": {
        "type": "Point",
        "coordinates": [
          -73.33430887524243,
          5.571234832607958,
          0
        ]
      }
    },
    {
      "type": "Feature",
      "properties": {
        "_source": "Ruta1-TerminaldeTransporte-AvenidaNorte-Arboleda",
        "_segmentIndex": 0,
        "_position": 8
      },
      "geometry": {
        "type": "Point",
        "coordinates": [
          -73.33400512189047,
          5.571567695724556,
          0
        ]
      }
    },
    {
      "type": "Feature",
      "properties": {
        "_source": "Ruta1-TerminaldeTransporte-AvenidaNorte-Arboleda",
        "_segmentIndex": 0,
        "_position": 9
      },
      "geometry": {
        "type": "Point",
        "coordinates": [
          -73.33371202960397,
          5.571909689797675,
          0
        ]
      }
    },
    {
      "type": "Feature",
      "properties": {
        "_source": "Ruta1-TerminaldeTransporte-AvenidaNorte-Arboleda",
        "_segmentIndex": 0,
        "_position": 10
      },
      "geometry": {
        "type": "Point",
        "coordinates": [
          -73.33342660999722,
          5.572258255393663,
          0
        ]
      }
    },
    {
      "type": "Feature",
      "properties": {
        "_source": "Ruta1-TerminaldeTransporte-AvenidaNorte-Arboleda",
        "_segmentIndex": 0,
        "_position": 11
      },
      "geometry": {
        "type": "Point",
        "coordinates": [
          -73.33313789684844,
          5.572604020273809,
          0
        ]
      }
    },
    {
      "type": "Feature",
      "properties": {
        "_source": "Ruta1-TerminaldeTransporte-AvenidaNorte-Arboleda",
        "_segmentIndex": 0,
        "_position": 12
      },
      "geometry": {
        "type": "Point",
        "coordinates": [
          -73.33283649378332,
          5.572938993644908,
          0
        ]
      }
    },
    {
      "type": "Feature",
      "properties": {
        "_source": "Ruta1-TerminaldeTransporte-AvenidaNorte-Arboleda",
        "_segmentIndex": 0,
        "_position": 13
      },
      "geometry": {
        "type": "Point",
        "coordinates": [
          -73.3325066870063,
          5.573245758841438,
          0
        ]
      }
    },
    {
      "type": "Feature",
      "properties": {
        "_source": "Ruta1-TerminaldeTransporte-AvenidaNorte-Arboleda",
        "_segmentIndex": 0,
        "_position": 14
      },
      "geometry": {
        "type": "Point",
        "coordinates": [
          -73.33211598680396,
          5.573471562833873,
          0
        ]
      }
    },
    {
      "type": "Feature",
      "properties": {
        "_source": "Ruta1-TerminaldeTransporte-AvenidaNorte-Arboleda",
        "_segmentIndex": 0,
        "_position": 15
      },
      "geometry": {
        "type": "Point",
        "coordinates": [
          -73.33178491464069,
          5.573756262371852,
          0
        ]
      }
    },
    {
      "type": "Feature",
      "properties": {
        "_source": "Ruta1-TerminaldeTransporte-AvenidaNorte-Arboleda",
        "_segmentIndex": 0,
        "_position": 16
      },
      "geometry": {
        "type": "Point",
        "coordinates": [
          -73.33165755059416,
          5.574185276220978,
          0
        ]
      }
    },
    {
      "type": "Feature",
      "properties": {
        "_source": "Ruta1-TerminaldeTransporte-AvenidaNorte-Arboleda",
        "_segmentIndex": 0,
        "_position": 17
      },
      "geometry": {
        "type": "Point",
        "coordinates": [
          -73.33157387809435,
          5.5746271577132,
          0
        ]
      }
    },
    {
      "type": "Feature",
      "properties": {
        "_source": "Ruta1-TerminaldeTransporte-AvenidaNorte-Arboleda",
        "_segmentIndex": 0,
        "_position": 18
      },
      "geometry": {
        "type": "Point",
        "coordinates": [
          -73.33151431213344,
          5.575051672650123,
          0
        ]
      }
    }
  ]
}