{
  "type": "FeatureCollection",
  "features": [
    {
      "type": "Feature",
      "properties": {
        "_source": "Ruta2-Arboleda-Viaducto-SanFrancisco-PinosdeOriente",
        "_segmentIndex": 0,
        "_position": 0
      },
      "geometry": {
        "type": "Point",
        "coordinates": [
          -73.332293,
          5.573459,
          0
        ]
      }
    },
    {
      "type": "Feature",
      "properties": {
        "_source": "Ruta2-Arboleda-Viaducto-SanFrancisco-PinosdeOriente",
        "_segmentIndex": 0,
        "_position": 1
      },
      "geometry": {
        "type": "Point",
        "coordinates": [
          -73.33263893843448,
          5.573216744324184,
          0
        ]
      }
    },
    {
      "type": "Feature",
      "properties": {
        "_source": "Ruta2-Arboleda-Viaducto-SanFrancisco-PinosdeOriente",
        "_segmentIndex": 0,
        "_position": 2
      },
      "geometry": {
        "type": "Point",
        "coordinates": [
          -73.33295984941647,
          5.572900591648539,
          0
        ]
      }
    },
    {
      "type": "Feature",
      "properties": {
        "_source": "Ruta2-Arboleda-Viaducto-SanFrancisco-PinosdeOriente",
        "_segmentIndex": 0,
        "_position": 3
      },
      "geometry": {
        "type": "Point",
        "coordinates": [
          -73.33325836662257,
          5.572563068158789,
          0
        ]
      }
    },
    {
      "type": "Feature",
      "properties": {
        "_source": "Ruta2-Arboleda-Viaducto-SanFrancisco-PinosdeOriente",
        "_segmentIndex": 0,
        "_position": 4
      },
      "geometry": {
        "type": "Point",
        "coordinates": [
          -73.33354588071498,
          5.572216231577199,
          0
        ]
      }
    },
    {
      "type": "Feature",
      "properties": {
        "_source": "Ruta2-Arboleda-Viaducto-SanFrancisco-PinosdeOriente",
        "_segmentIndex": 0,
        "_position": 5
      },
      "geometry": {
        "type": "Point",
        "coordinates": [
          -73.33383257065422,
          5.571868702293897,
          0
        ]
      }
    },
    {
      "type": "Feature",
      "properties": {
        "_source": "Ruta2-Arboleda-Viaducto-SanFrancisco-PinosdeOriente",
        "_segmentIndex": 0,
        "_position": 0
      },
      "geometry": {
        "type": "Point",
        "coordinates": [
          -73.334028,
          5.571618,
          0
        ]
      }
    },
    {
      "type": "Feature",
      "properties": {
        "_source": "Ruta2-Arboleda-Viaducto-SanFrancisco-PinosdeOriente",
        "_segmentIndex": 0,
        "_position": 1
      },
      "geometry": {
        "type": "Point",
        "coordinates": [
          -73.33372937102223,
          5.571280575036949,
          0
        ]
      }
    },
    {
      "type": "Feature",
      "properties": {
        "_source": "Ruta2-Arboleda-Viaducto-SanFrancisco-PinosdeOriente",
        "_segmentIndex": 0,
        "_position": 2
      },
      "geometry": {
        "type": "Point",
        "coordinates": [
          -73.33343216998354,
          5.570942017550094,
          0
        ]
      }
    },
    {
      "type": "Feature",
      "properties": {
        "_source": "Ruta2-Arboleda-Viaducto-SanFrancisco-PinosdeOriente",
        "_segmentIndex": 0,
        "_position": 3
      },
      "geometry": {
        "type": "Point",
        "coordinates": [
          -73.33317917223738,
          5.570569970333942,
          0
        ]
      }
    },
    {
      "type": "Feature",
      "properties": {
        "_source": "Ruta2-Arboleda-Viaducto-SanFrancisco-PinosdeOriente",
        "_segmentIndex": 0,
        "_position": 4
      },
      "geometry": {
        "type": "Point",
        "coordinates": [
          -73.33295037498806,
          5.570182234165964,
          0
        ]
      }
    },
    {
      "type": "Feature",
      "properties": {
        "_source": "Ruta2-Arboleda-Viaducto-SanFrancisco-PinosdeOriente",
        "_segmentIndex": 0,
        "_position": 5
      },
      "geometry": {
        "type": "Point",
        "coordinates": [
          -73.33271811599236,
          5.569796641770717,
          0
        ]
      }
    },
    {
      "type": "Feature",
      "properties": {
        "_source": "Ruta2-Arboleda-Viaducto-SanFrancisco-PinosdeOriente",
        "_segmentIndex": 0,
        "_position": 6
      },
      "geometry": {
        "type": "Point",
        "coordinates": [
          -73.3324697234316,
          5.569421040122772,
          0
        ]
      }
    },
    {
      "type": "Feature",
      "properties": {
        "_source": "Ruta2-Arboleda-Viaducto-SanFrancisco-PinosdeOriente",
        "_segmentIndex": 0,
        "_position": 7
      },
      "geometry": {
        "type": "Point",
        "coordinates": [
          -73.33227959502986,
          5.569015616685314,
          0
        ]
      }
    },
    {
      "type": "Feature",
      "properties": {
        "_source": "Ruta2-Arboleda-Viaducto-SanFrancisco-PinosdeOriente",
        "_segmentIndex": 0,
        "_position": 8
      },
      "geometry": {
        "type": "Point",
        "coordinates": [
          -73.33239561371906,
          5.568600159906026,
          0
        ]
      }
    },
    {
      "type": "Feature",
      "properties": {
        "_source": "Ruta2-Arboleda-Viaducto-SanFrancisco-PinosdeOriente",
        "_segmentIndex": 0,
        "_position": 9
      },
      "geometry": {
        "type": "Point",
        "coordinates": [
          -73.33271090519189,
          5.568283331377221,
          0
        ]
      }
    },
    {
      "type": "Feature",
      "properties": {
        "_source": "Ruta2-Arboleda-Viaducto-SanFrancisco-PinosdeOriente",
        "_segmentIndex": 0,
        "_position": 10
      },
      "geometry": {
        "type": "Point",
        "coordinates": [
          -73.3330503917036,
          5.567986655668626,
          0
        ]
      }
    },
    {
      "type": "Feature",
      "properties": {
        "_source": "Ruta2-Arboleda-Viaducto-SanFrancisco-PinosdeOriente",
        "_segmentIndex": 0,
        "_position": 11
      },
      "geometry": {
        "type": "Point",
        "coordinates": [
          -73.33339271819942,
          5.567693210584098,
          0
        ]
      }
    },
    {
      "type": "Feature",
      "properties": {
        "_source": "Ruta2-Arboleda-Viaducto-SanFrancisco-PinosdeOriente",
        "_segmentIndex": 0,
        "_position": 12
      },
      "geometry": {
        "type": "Point",
        "coordinates": [
          -73.33373504435343,
          5.567399765302066,
          0
        ]
      }
    },
    {
      "type": "Feature",
      "properties": {
        "_source": "Ruta2-Arboleda-Viaducto-SanFrancisco-PinosdeOriente",
        "_segmentIndex": 0,
        "_position": 13
      },
      "geometry": {
        "type": "Point",
        "coordinates": [
          -73.33407737016564,
          5.567106319822542,
          0
        ]
      }
    },
    {
      "type": "Feature",
      "properties": {
        "_source": "Ruta2-Arboleda-Viaducto-SanFrancisco-PinosdeOriente",
        "_segmentIndex": 0,
        "_position": 14
      },
      "geometry": {
        "type": "Point",
        "coordinates": [
          -73.33441969563606,
          5.566812874145536,
          0
        ]
      }
    },
    {
      "type": "Feature",
      "properties": {
        "_source": "Ruta2-Arboleda-Viaducto-SanFrancisco-PinosdeOriente",
        "_segmentIndex": 0,
        "_position": 15
      },
      "geometry": {
        "type": "Point",
        "coordinates": [
          -73.33476202076471,
          5.566519428271061,
          0
        ]
      }
    },
    {
      "type": "Feature",
      "properties": {
        "_source": "Ruta2-Arboleda-Viaducto-SanFrancisco-PinosdeOriente",
        "_segmentIndex": 0,
        "_position": 16
      },
      "geometry": {
        "type": "Point",
        "coordinates": [
          -73.33510739006336,
          5.566229631180197,
          0
        ]
      }
    },
    {
      "type": "Feature",
      "properties": {
        "_source": "Ruta2-Arboleda-Viaducto-SanFrancisco-PinosdeOriente",
        "_segmentIndex": 0,
        "_position": 17
      },
      "geometry": {
        "type": "Point",
        "coordinates": [
          -73.33547512166517,
          5.565969196068345,
          0
        ]
      }
    },
    {
      "type": "Feature",
      "properties": {
        "_source": "Ruta2-Arboleda-Viaducto-SanFrancisco-PinosdeOriente",
        "_segmentIndex": 0,
        "_position": 18
      },
      "geometry": {
        "type": "Point",
        "coordinates": [
          -73.33585246252738,
          5.565721915706804,
          0
        ]
      }
    },
    {
      "type": "Feature",
      "properties": {
        "_source": "Ruta2-Arboleda-Viaducto-SanFrancisco-PinosdeOriente",
        "_segmentIndex": 0,
        "_position": 19
      },
      "geometry": {
        "type": "Point",
        "coordinates": [
          -73.33622980307221,
          5.565474635105373,
          0
        ]
      }
    },
    {
      "type": "Feature",
      "properties": {
        "_source": "Ruta2-Arboleda-Viaducto-SanFrancisco-PinosdeOriente",
        "_segmentIndex": 0,
        "_position": 20
      },
      "geometry": {
        "type": "Point",
        "coordinates": [
          -73.33660714329966,
          5.565227354264067,
          0
        ]
      }
    },
    {
      "type": "Feature",
      "properties": {
        "_source": "Ruta2-Arboleda-Viaducto-SanFrancisco-PinosdeOriente",
        "_segmentIndex": 0,
        "_position": 21
      },
      "geometry": {
        "type": "Point",
        "coordinates": [
          -73.33698448320972,
          5.564980073182895,
          0
        ]
      }
    },
    {
      "type": "Feature",
      "properties": {
        "_source": "Ruta2-Arboleda-Viaducto-SanFrancisco-PinosdeOriente",
        "_segmentIndex": 0,
        "_position": 22
      },
      "geometry": {
        "type": "Point",
        "coordinates": [
          -73.33735608097626,
          5.564724924683962,
          0
        ]
      }
    },
    {
      "type": "Feature",
      "properties": {
        "_source": "Ruta2-Arboleda-Viaducto-SanFrancisco-PinosdeOriente",
        "_segmentIndex": 0,
        "_position": 23
      },
      "geometry": {
        "type": "Point",
        "coordinates": [
          -73.33770902765563,
          5.564444221580151,
          0
        ]
      }
    },
    {
      "type": "Feature",
      "properties": {
        "_source": "Ruta2-Arboleda-Viaducto-SanFrancisco-PinosdeOriente",
        "_segmentIndex": 0,
        "_position": 24
      },
      "geometry": {
        "type": "Point",
        "coordinates": [
          -73.33806197399811,
          5.564163518266513,
          0
        ]
      }
    },
    {
      "type": "Feature",
      "properties": {
        "_source": "Ruta2-Arboleda-Viaducto-SanFrancisco-PinosdeOriente",
        "_segmentIndex": 0,
        "_position": 25
      },
      "geometry": {
        "type": "Point",
        "coordinates": [
          -73.33841492000366,
          5.563882814743058,
          0
        ]
      }
    },
    {
      "type": "Feature",
      "properties": {
        "_source": "Ruta2-Arboleda-Viaducto-SanFrancisco-PinosdeOriente",
        "_segmentIndex": 0,
        "_position": 26
      },
      "geometry": {
        "type": "Point",
        "coordinates": [
          -73.33876786567232,
          5.5636021110098,
          0
        ]
      }
    },
    {
      "type": "Feature",
      "properties": {
        "_source": "Ruta2-Arboleda-Viaducto-SanFrancisco-PinosdeOriente",
        "_segmentIndex": 0,
        "_position": 27
      },
      "geometry": {
        "type": "Point",
        "coordinates": [
          -73.33912081100412,
          5.563321407066747,
          0
        ]
      }
    },
    {
      "type": "Feature",
      "properties": {
        "_source": "Ruta2-Arboleda-Viaducto-SanFrancisco-PinosdeOriente",
        "_segmentIndex": 0,
        "_position": 28
      },
      "geometry": {
        "type": "Point",
        "coordinates": [
          -73.339474029345,
          5.563041045204692,
          0
        ]
      }
    },
    {
      "type": "Feature",
      "properties": {
        "_source": "Ruta2-Arboleda-Viaducto-SanFrancisco-PinosdeOriente",
        "_segmentIndex": 0,
        "_position": 29
      },
      "geometry": {
        "type": "Point",
        "coordinates": [
          -73.33982844118607,
          5.5627621780843794,
          0
        ]
      }
    },
    {
      "type": "Feature",
      "properties": {
        "_source": "Ruta2-Arboleda-Viaducto-SanFrancisco-PinosdeOriente",
        "_segmentIndex": 0,
        "_position": 30
      },
      "geometry": {
        "type": "Point",
        "coordinates": [
          -73.34018285269113,
          5.56248331075256,
          0
        ]
      }
    },
    {
      "type": "Feature",
      "properties": {
        "_source": "Ruta2-Arboleda-Viaducto-SanFrancisco-PinosdeOriente",
        "_segmentIndex": 0,
        "_position": 31
      },
      "geometry": {
        "type": "Point",
        "coordinates": [
          -73.3405372638602,
          5.56220444320924,
          0
        ]
      }
    },
    {
      "type": "Feature",
      "properties": {
        "_source": "Ruta2-Arboleda-Viaducto-SanFrancisco-PinosdeOriente",
        "_segmentIndex": 0,
        "_position": 32
      },
      "geometry": {
        "type": "Point",
        "coordinates": [
          -73.34089167469328,
          5.561925575454436,
          0
        ]
      }
    },
    {
      "type": "Feature",
      "properties": {
        "_source": "Ruta2-Arboleda-Viaducto-SanFrancisco-PinosdeOriente",
        "_segmentIndex": 0,
        "_position": 33
      },
      "geometry": {
        "type": "Point",
        "coordinates": [
          -73.34124608519042,
          5.561646707488151,
          0
        ]
      }
    },
    {
      "type": "Feature",
      "properties": {
        "_source": "Ruta2-Arboleda-Viaducto-SanFrancisco-PinosdeOriente",
        "_segmentIndex": 0,
        "_position": 34
      },
      "geometry": {
        "type": "Point",
        "coordinates": [
          -73.34160049535161,
          5.561367839310405,
          0
        ]
      }
    },
    {
      "type": "Feature",
      "properties": {
        "_source": "Ruta2-Arboleda-Viaducto-SanFrancisco-PinosdeOriente",
        "_segmentIndex": 0,
        "_position": 35
      },
      "geometry": {
        "type": "Point",
        "coordinates": [
          -73.34190817243137,
          5.561038830109971,
          0
        ]
      }
    },
    {
      "type": "Feature",
      "properties": {
        "_source": "Ruta2-Arboleda-Viaducto-SanFrancisco-PinosdeOriente",
        "_segmentIndex": 0,
        "_position": 36
      },
      "geometry": {
        "type": "Point",
        "coordinates": [
          -73.34221413999079,
          5.560707986929922,
          0
        ]
      }
    },
    {
      "type": "Feature",
      "properties": {
        "_source": "Ruta2-Arboleda-Viaducto-SanFrancisco-PinosdeOriente",
        "_segmentIndex": 0,
        "_position": 37
      },
      "geometry": {
        "type": "Point",
        "coordinates": [
          -73.34252010720618,
          5.560377143592291,
          0
        ]
      }
    },
    {
      "type": "Feature",
      "properties": {
        "_source": "Ruta2-Arboleda-Viaducto-SanFrancisco-PinosdeOriente",
        "_segmentIndex": 0,
        "_position": 38
      },
      "geometry": {
        "type": "Point",
        "coordinates": [
          -73.34282607407759,
          5.560046300097091,
          0
        ]
      }
    },
    {
      "type": "Feature",
      "properties": {
        "_source": "Ruta2-Arboleda-Viaducto-SanFrancisco-PinosdeOriente",
        "_segmentIndex": 0,
        "_position": 39
      },
      "geometry": {
        "type": "Point",
        "coordinates": [
          -73.34313204060503,
          5.559715456444326,
          0
        ]
      }
    },
    {
      "type": "Feature",
      "properties": {
        "_source": "Ruta2-Arboleda-Viaducto-SanFrancisco-PinosdeOriente",
        "_segmentIndex": 0,
        "_position": 40
      },
      "geometry": {
        "type": "Point",
        "coordinates": [
          -73.34343800678852,
          5.55938461263401,
          0
        ]
      }
    },
    {
      "type": "Feature",
      "properties": {
        "_source": "Ruta2-Arboleda-Viaducto-SanFrancisco-PinosdeOriente",
        "_segmentIndex": 0,
        "_position": 41
      },
      "geometry": {
        "type": "Point",
        "coordinates": [
          -73.34373861523818,
          5.559049159076994,
          0
        ]
      }
    },
    {
      "type": "Feature",
      "properties": {
        "_source": "Ruta2-Arboleda-Viaducto-SanFrancisco-PinosdeOriente",
        "_segmentIndex": 0,
        "_position": 42
      },
      "geometry": {
        "type": "Point",
        "coordinates": [
          -73.34402328514673,
          5.558699991877037,
          0
        ]
      }
    },
    {
      "type": "Feature",
      "properties": {
        "_source": "Ruta2-Arboleda-Viaducto-SanFrancisco-PinosdeOriente",
        "_segmentIndex": 0,
        "_position": 43
      },
      "geometry": {
        "type": "Point",
        "coordinates": [
          -73.3443079547176,
          5.558350824540724,
          0
        ]
      }
    },
    {
      "type": "Feature",
      "properties": {
        "_source": "Ruta2-Arboleda-Viaducto-SanFrancisco-PinosdeOriente",
        "_segmentIndex": 0,
        "_position": 44
      },
      "geometry": {
        "type": "Point",
        "coordinates": [
          -73.34459262395083,
          5.558001657068059,
          0
        ]
      }
    },
    {
      "type": "Feature",
      "properties": {
        "_source": "Ruta2-Arboleda-Viaducto-SanFrancisco-PinosdeOriente",
        "_segmentIndex": 0,
        "_position": 45
      },
      "geometry": {
        "type": "Point",
        "coordinates": [
          -73.34480074759406,
          5.557604729644527,
          0
        ]
      }
    },
    {
      "type": "Feature",
      "properties": {
        "_source": "Ruta2-Arboleda-Viaducto-SanFrancisco-PinosdeOriente",
        "_segmentIndex": 0,
        "_position": 46
      },
      "geometry": {
        "type": "Point",
        "coordinates": [
          -73.34493677392082,
          5.557175935230155,
          0
        ]
      }
    },
    {
      "type": "Feature",
      "properties": {
        "_source": "Ruta2-Arboleda-Viaducto-SanFrancisco-PinosdeOriente",
        "_segmentIndex": 0,
        "_position": 47
      },
      "geometry": {
        "type": "Point",
        "coordinates": [
          -73.34507280004946,
          5.556747140784658,
          0
        ]
      }
    },
    {
      "type": "Feature",
      "properties": {
        "_source": "Ruta2-Arboleda-Viaducto-SanFrancisco-PinosdeOriente",
        "_segmentIndex": 0,
        "_position": 48
      },
      "geometry": {
        "type": "Point",
        "coordinates": [
          -73.34520882598004,
          5.556318346308037,
          0
        ]
      }
    },
    {
      "type": "Feature",
      "properties": {
        "_source": "Ruta2-Arboleda-Viaducto-SanFrancisco-PinosdeOriente",
        "_segmentIndex": 0,
        "_position": 49
      },
      "geometry": {
        "type": "Point",
        "coordinates": [
          -73.34534485171255,
          5.555889551800293,
          0
        ]
      }
    },
    {
      "type": "Feature",
      "properties": {
        "_source": "Ruta2-Arboleda-Viaducto-SanFrancisco-PinosdeOriente",
        "_segmentIndex": 0,
        "_position": 50
      },
      "geometry": {
        "type": "Point",
        "coordinates": [
          -73.34548087724701,
          5.555460757261432,
          0
        ]
      }
    },
    {
      "type": "Feature",
      "properties": {
        "_source": "Ruta2-Arboleda-Viaducto-SanFrancisco-PinosdeOriente",
        "_segmentIndex": 0,
        "_position": 51
      },
      "geometry": {
        "type": "Point",
        "coordinates": [
          -73.34561690258344,
          5.555031962691454,
          0
        ]
      }
    },
    {
      "type": "Feature",
      "properties": {
        "_source": "Ruta2-Arboleda-Viaducto-SanFrancisco-PinosdeOriente",
        "_segmentIndex": 0,
        "_position": 52
      },
      "geometry": {
        "type": "Point",
        "coordinates": [
          -73.34572149745503,
          5.554596153108853,
          0
        ]
      }
    },
    {
      "type": "Feature",
      "properties": {
        "_source": "Ruta2-Arboleda-Viaducto-SanFrancisco-PinosdeOriente",
        "_segmentIndex": 0,
        "_position": 53
      },
      "geometry": {
        "type": "Point",
        "coordinates": [
          -73.34576278562336,
          5.554148374662876,
          0
        ]
      }
    },
    {
      "type": "Feature",
      "properties": {
        "_source": "Ruta2-Arboleda-Viaducto-SanFrancisco-PinosdeOriente",
        "_segmentIndex": 0,
        "_position": 54
      },
      "geometry": {
        "type": "Point",
        "coordinates": [
          -73.34580407372894,
          5.553700596214034,
          0
        ]
      }
    },
    {
      "type": "Feature",
      "properties": {
        "_source": "Ruta2-Arboleda-Viaducto-SanFrancisco-PinosdeOriente",
        "_segmentIndex": 0,
        "_position": 55
      },
      "geometry": {
        "type": "Point",
        "coordinates": [
          -73.34584536177175,
          5.553252817762327,
          0
        ]
      }
    },
    {
      "type": "Feature",
      "properties": {
        "_source": "Ruta2-Arboleda-Viaducto-SanFrancisco-PinosdeOriente",
        "_segmentIndex": 0,
        "_position": 56
      },
      "geometry": {
        "type": "Point",
        "coordinates": [
          -73.34588664975185,
          5.552805039307752,
          0
        ]
      }
    },
    {
      "type": "Feature",
      "properties": {
        "_source": "Ruta2-Arboleda-Viaducto-SanFrancisco-PinosdeOriente",
        "_segmentIndex": 0,
        "_position": 57
      },
      "geometry": {
        "type": "Point",
        "coordinates": [
          -73.34592793766917,
          5.5523572608503144,
          0
        ]
      }
    },
    {
      "type": "Feature",
      "properties": {
        "_source": "Ruta2-Arboleda-Viaducto-SanFrancisco-PinosdeOriente",
        "_segmentIndex": 0,
        "_position": 58
      },
      "geometry": {
        "type": "Point",
        "coordinates": [
          -73.34596938122257,
          5.551909496791361,
          0
        ]
      }
    },
    {
      "type": "Feature",
      "properties": {
        "_source": "Ruta2-Arboleda-Viaducto-SanFrancisco-PinosdeOriente",
        "_segmentIndex": 0,
        "_position": 59
      },
      "geometry": {
        "type": "Point",
        "coordinates": [
          -73.34601170161167,
          5.551461813838225,
          0
        ]
      }
    },
    {
      "type": "Feature",
      "properties": {
        "_source": "Ruta2-Arboleda-Viaducto-SanFrancisco-PinosdeOriente",
        "_segmentIndex": 0,
        "_position": 60
      },
      "geometry": {
        "type": "Point",
        "coordinates": [
          -73.34605402193648,
          5.5510141308820815,
          0
        ]
      }
    },
    {
      "type": "Feature",
      "properties": {
        "_source": "Ruta2-Arboleda-Viaducto-SanFrancisco-PinosdeOriente",
        "_segmentIndex": 0,
        "_position": 61
      },
      "geometry": {
        "type": "Point",
        "coordinates": [
          -73.3461205959801,
          5.550569613142344,
          0
        ]
      }
    },
    {
      "type": "Feature",
      "properties": {
        "_source": "Ruta2-Arboleda-Viaducto-SanFrancisco-PinosdeOriente",
        "_segmentIndex": 0,
        "_position": 62
      },
      "geometry": {
        "type": "Point",
        "coordinates": [
          -73.34621629560387,
          5.550130331200923,
          0
        ]
      }
    },
    {
      "type": "Feature",
      "properties": {
        "_source": "Ruta2-Arboleda-Viaducto-SanFrancisco-PinosdeOriente",
        "_segmentIndex": 0,
        "_position": 63
      },
      "geometry": {
        "type": "Point",
        "coordinates": [
          -73.34631918653369,
          5.5496924879006695,
          0
        ]
      }
    },
    {
      "type": "Feature",
      "properties": {
        "_source": "Ruta2-Arboleda-Viaducto-SanFrancisco-PinosdeOriente",
        "_segmentIndex": 0,
        "_position": 64
      },
      "geometry": {
        "type": "Point",
        "coordinates": [
          -73.34642701229757,
          5.549255852287067,
          0
        ]
      }
    },
    {
      "type": "Feature",
      "properties": {
        "_source": "Ruta2-Arboleda-Viaducto-SanFrancisco-PinosdeOriente",
        "_segmentIndex": 0,
        "_position": 65
      },
      "geometry": {
        "type": "Point",
        "coordinates": [
          -73.34653984400734,
          5.548820441762643,
          0
        ]
      }
    },
    {
      "type": "Feature",
      "properties": {
        "_source": "Ruta2-Arboleda-Viaducto-SanFrancisco-PinosdeOriente",
        "_segmentIndex": 0,
        "_position": 66
      },
      "geometry": {
        "type": "Point",
        "coordinates": [
          -73.3466526755505,
          5.548385031216834,
          0
        ]
      }
    },
    {
      "type": "Feature",
      "properties": {
        "_source": "Ruta2-Arboleda-Viaducto-SanFrancisco-PinosdeOriente",
        "_segmentIndex": 0,
        "_position": 67
      },
      "geometry": {
        "type": "Point",
        "coordinates": [
          -73.34676550692707,
          5.547949620649643,
          0
        ]
      }
    },
    {
      "type": "Feature",
      "properties": {
        "_source": "Ruta2-Arboleda-Viaducto-SanFrancisco-PinosdeOriente",
        "_segmentIndex": 0,
        "_position": 68
      },
      "geometry": {
        "type": "Point",
        "coordinates": [
          -73.34693154151725,
          5.547531549106747,
          0
        ]
      }
    },
    {
      "type": "Feature",
      "properties": {
        "_source": "Ruta2-Arboleda-Viaducto-SanFrancisco-PinosdeOriente",
        "_segmentIndex": 0,
        "_position": 69
      },
      "geometry": {
        "type": "Point",
        "coordinates": [
          -73.34716260208023,
          5.547150665227931,
          0
        ]
      }
    },
    {
      "type": "Feature",
      "properties": {
        "_source": "Ruta2-Arboleda-Viaducto-SanFrancisco-PinosdeOriente",
        "_segmentIndex": 0,
        "_position": 70
      },
      "geometry": {
        "type": "Point",
        "coordinates": [
          -73.34743893599726,
          5.5467949303279305,
          0
        ]
      }
    },
    {
      "type": "Feature",
      "properties": {
        "_source": "Ruta2-Arboleda-Viaducto-SanFrancisco-PinosdeOriente",
        "_segmentIndex": 0,
        "_position": 71
      },
      "geometry": {
        "type": "Point",
        "coordinates": [
          -73.34771526958107,
          5.546439195299715,
          0
        ]
      }
    },
    {
      "type": "Feature",
      "properties": {
        "_source": "Ruta2-Arboleda-Viaducto-SanFrancisco-PinosdeOriente",
        "_segmentIndex": 0,
        "_position": 72
      },
      "geometry": {
        "type": "Point",
        "coordinates": [
          -73.34799160283167,
          5.546083460143289,
          0
        ]
      }
    },
    {
      "type": "Feature",
      "properties": {
        "_source": "Ruta2-Arboleda-Viaducto-SanFrancisco-PinosdeOriente",
        "_segmentIndex": 0,
        "_position": 73
      },
      "geometry": {
        "type": "Point",
        "coordinates": [
          -73.34826793574906,
          5.545727724858664,
          0
        ]
      }
    },
    {
      "type": "Feature",
      "properties": {
        "_source": "Ruta2-Arboleda-Viaducto-SanFrancisco-PinosdeOriente",
        "_segmentIndex": 0,
        "_position": 74
      },
      "geometry": {
        "type": "Point",
        "coordinates": [
          -73.34853109955627,
          5.545362552975476,
          0
        ]
      }
    },
    {
      "type": "Feature",
      "properties": {
        "_source": "Ruta2-Arboleda-Viaducto-SanFrancisco-PinosdeOriente",
        "_segmentIndex": 0,
        "_position": 75
      },
      "geometry": {
        "type": "Point",
        "coordinates": [
          -73.34878238189171,
          5.54498886719728,
          0
        ]
      }
    },
    {
      "type": "Feature",
      "properties": {
        "_source": "Ruta2-Arboleda-Viaducto-SanFrancisco-PinosdeOriente",
        "_segmentIndex": 0,
        "_position": 76
      },
      "geometry": {
        "type": "Point",
        "coordinates": [
          -73.34903366390894,
          5.544615181313097,
          0
        ]
      }
    },
    {
      "type": "Feature",
      "properties": {
        "_source": "Ruta2-Arboleda-Viaducto-SanFrancisco-PinosdeOriente",
        "_segmentIndex": 0,
        "_position": 77
      },
      "geometry": {
        "type": "Point",
        "coordinates": [
          -73.34927377195643,
          5.5442348474456375,
          0
        ]
      }
    },
    {
      "type": "Feature",
      "properties": {
        "_source": "Ruta2-Arboleda-Viaducto-SanFrancisco-PinosdeOriente",
        "_segmentIndex": 0,
        "_position": 78
      },
      "geometry": {
        "type": "Point",
        "coordinates": [
          -73.34948547750678,
          5.543837615314843,
          0
        ]
      }
    },
    {
      "type": "Feature",
      "properties": {
        "_source": "Ruta2-Arboleda-Viaducto-SanFrancisco-PinosdeOriente",
        "_segmentIndex": 0,
        "_position": 79
      },
      "geometry": {
        "type": "Point",
        "coordinates": [
          -73.3496971827722,
          5.543440383108833,
          0
        ]
      }
    },
    {
      "type": "Feature",
      "properties": {
        "_source": "Ruta2-Arboleda-Viaducto-SanFrancisco-PinosdeOriente",
        "_segmentIndex": 0,
        "_position": 80
      },
      "geometry": {
        "type": "Point",
        "coordinates": [
          -73.34990905487555,
          5.543043239133678,
          0
        ]
      }
    },
    {
      "type": "Feature",
      "properties": {
        "_source": "Ruta2-Arboleda-Viaducto-SanFrancisco-PinosdeOriente",
        "_segmentIndex": 0,
        "_position": 81
      },
      "geometry": {
        "type": "Point",
        "coordinates": [
          -73.35012502254973,
          5.542648431689772,
          0
        ]
      }
    },
    {
      "type": "Feature",
      "properties": {
        "_source": "Ruta2-Arboleda-Viaducto-SanFrancisco-PinosdeOriente",
        "_segmentIndex": 0,
        "_position": 82
      },
      "geometry": {
        "type": "Point",
        "coordinates": [
          -73.35038453814084,
          5.542281327347192,
          0
        ]
      }
    },
    {
      "type": "Feature",
      "properties": {
        "_source": "Ruta2-Arboleda-Viaducto-SanFrancisco-PinosdeOriente",
        "_segmentIndex": 0,
        "_position": 0
      },
      "geometry": {
        "type": "Point",
        "coordinates": [
          -73.350561,
          5.541931,
          0
        ]
      }
    },
    {
      "type": "Feature",
      "properties": {
        "_source": "Ruta2-Arboleda-Viaducto-SanFrancisco-PinosdeOriente",
        "_segmentIndex": 0,
        "_position": 1
      },
      "geometry": {
        "type": "Point",
        "coordinates": [
          -73.35070678795533,
          5.541505397803553,
          0
        ]
      }
    },
    {
      "type": "Feature",
      "properties": {
        "_source": "Ruta2-Arboleda-Viaducto-SanFrancisco-PinosdeOriente",
        "_segmentIndex": 0,
        "_position": 2
      },
      "geometry": {
        "type": "Point",
        "coordinates": [
          -73.35084548404602,
          5.54107745266228,
          0
        ]
      }
    },
    {
      "type": "Feature",
      "properties": {
        "_source": "Ruta2-Arboleda-Viaducto-SanFrancisco-PinosdeOriente",
        "_segmentIndex": 0,
        "_position": 3
      },
      "geometry": {
        "type": "Point",
        "coordinates": [
          -73.3509841799357,
          5.540649507488738,
          0
        ]
      }
    },
    {
      "type": "Feature",
      "properties": {
        "_source": "Ruta2-Arboleda-Viaducto-SanFrancisco-PinosdeOriente",
        "_segmentIndex": 0,
        "_position": 4
      },
      "geometry": {
        "type": "Point",
        "coordinates": [
          -73.35114804092085,
          5.540233428829269,
          0
        ]
      }
    },
    {
      "type": "Feature",
      "properties": {
        "_source": "Ruta2-Arboleda-Viaducto-SanFrancisco-PinosdeOriente",
        "_segmentIndex": 0,
        "_position": 5
      },
      "geometry": {
        "type": "Point",
        "coordinates": [
          -73.3513929036365,
          5.539855546108594,
          0
        ]
      }
    },
    {
      "type": "Feature",
      "properties": {
        "_source": "Ruta2-Arboleda-Viaducto-SanFrancisco-PinosdeOriente",
        "_segmentIndex": 0,
        "_position": 6
      },
      "geometry": {
        "type": "Point",
        "coordinates": [
          -73.35162567928923,
          5.539470267705752,
          0
        ]
      }
    },
    {
      "type": "Feature",
      "properties": {
        "_source": "Ruta2-Arboleda-Viaducto-SanFrancisco-PinosdeOriente",
        "_segmentIndex": 0,
        "_position": 7
      },
      "geometry": {
        "type": "Point",
        "coordinates": [
          -73.35185389259665,
          5.539082197812677,
          0
        ]
      }
    },
    {
      "type": "Feature",
      "properties": {
        "_source": "Ruta2-Arboleda-Viaducto-SanFrancisco-PinosdeOriente",
        "_segmentIndex": 0,
        "_position": 8
      },
      "geometry": {
        "type": "Point",
        "coordinates": [
          -73.35208210560428,
          5.538694127832272,
          0
        ]
      }
    },
    {
      "type": "Feature",
      "properties": {
        "_source": "Ruta2-Arboleda-Viaducto-SanFrancisco-PinosdeOriente",
        "_segmentIndex": 0,
        "_position": 9
      },
      "geometry": {
        "type": "Point",
        "coordinates": [
          -73.35231083268665,
          5.538306406066663,
          0
        ]
      }
    },
    {
      "type": "Feature",
      "properties": {
        "_source": "Ruta2-Arboleda-Viaducto-SanFrancisco-PinosdeOriente",
        "_segmentIndex": 0,
        "_position": 10
      },
      "geometry": {
        "type": "Point",
        "coordinates": [
          -73.35258967964306,
          5.537952622437551,
          0
        ]
      }
    },
    {
      "type": "Feature",
      "properties": {
        "_source": "Ruta2-Arboleda-Viaducto-SanFrancisco-PinosdeOriente",
        "_segmentIndex": 0,
        "_position": 11
      },
      "geometry": {
        "type": "Point",
        "coordinates": [
          -73.3528663950586,
          5.537597368604921,
          0
        ]
      }
    },
    {
      "type": "Feature",
      "properties": {
        "_source": "Ruta2-Arboleda-Viaducto-SanFrancisco-PinosdeOriente",
        "_segmentIndex": 0,
        "_position": 12
      },
      "geometry": {
        "type": "Point",
        "coordinates": [
          -73.35310130613617,
          5.537213278905087,
          0
        ]
      }
    },
    {
      "type": "Feature",
      "properties": {
        "_source": "Ruta2-Arboleda-Viaducto-SanFrancisco-PinosdeOriente",
        "_segmentIndex": 0,
        "_position": 13
      },
      "geometry": {
        "type": "Point",
        "coordinates": [
          -73.35333621690842,
          5.53682918911275,
          0
        ]
      }
    },
    {
      "type": "Feature",
      "properties": {
        "_source": "Ruta2-Arboleda-Viaducto-SanFrancisco-PinosdeOriente",
        "_segmentIndex": 0,
        "_position": 14
      },
      "geometry": {
        "type": "Point",
        "coordinates": [
          -73.35357112737537,
          5.536445099227922,
          0
        ]
      }
    },
    {
      "type": "Feature",
      "properties": {
        "_source": "Ruta2-Arboleda-Viaducto-SanFrancisco-PinosdeOriente",
        "_segmentIndex": 0,
        "_position": 15
      },
      "geometry": {
        "type": "Point",
        "coordinates": [
          -73.35380603753701,
          5.536061009250605,
          0
        ]
      }
    },
    {
      "type": "Feature",
      "properties": {
        "_source": "Ruta2-Arboleda-Viaducto-SanFrancisco-PinosdeOriente",
        "_segmentIndex": 0,
        "_position": 16
      },
      "geometry": {
        "type": "Point",
        "coordinates": [
          -73.35404094739341,
          5.535676919180807,
          0
        ]
      }
    },
    {
      "type": "Feature",
      "properties": {
        "_source": "Ruta2-Arboleda-Viaducto-SanFrancisco-PinosdeOriente",
        "_segmentIndex": 0,
        "_position": 17
      },
      "geometry": {
        "type": "Point",
        "coordinates": [
          -73.35432411340116,
          5.535328223156389,
          0
        ]
      }
    },
    {
      "type": "Feature",
      "properties": {
        "_source": "Ruta2-Arboleda-Viaducto-SanFrancisco-PinosdeOriente",
        "_segmentIndex": 0,
        "_position": 18
      },
      "geometry": {
        "type": "Point",
        "coordinates": [
          -73.35470354697166,
          5.535103674740068,
          0
        ]
      }
    },
    {
      "type": "Feature",
      "properties": {
        "_source": "Ruta2-Arboleda-Viaducto-SanFrancisco-PinosdeOriente",
        "_segmentIndex": 0,
        "_position": 19
      },
      "geometry": {
        "type": "Point",
        "coordinates": [
          -73.35514646808599,
          5.535059000014676,
          0
        ]
      }
    },
    {
      "type": "Feature",
      "properties": {
        "_source": "Ruta2-Arboleda-Viaducto-SanFrancisco-PinosdeOriente",
        "_segmentIndex": 0,
        "_position": 20
      },
      "geometry": {
        "type": "Point",
        "coordinates": [
          -73.35557798749537,
          5.5351839409972055,
          0
        ]
      }
    },
    {
      "type": "Feature",
      "properties": {
        "_source": "Ruta2-Arboleda-Viaducto-SanFrancisco-PinosdeOriente",
        "_segmentIndex": 0,
        "_position": 0
      },
      "geometry": {
        "type": "Point",
        "coordinates": [
          -73.355745,
          5.535239,
          0
        ]
      }
    },
    {
      "type": "Feature",
      "properties": {
        "_source": "Ruta2-Arboleda-Viaducto-SanFrancisco-PinosdeOriente",
        "_segmentIndex": 0,
        "_position": 1
      },
      "geometry": {
        "type": "Point",
        "coordinates": [
          -73.356171723197,
          5.535386634183422,
          0
        ]
      }
    },
    {
      "type": "Feature",
      "properties": {
        "_source": "Ruta2-Arboleda-Viaducto-SanFrancisco-PinosdeOriente",
        "_segmentIndex": 0,
        "_position": 0
      },
      "geometry": {
        "type": "Point",
        "coordinates": [
          -73.356378,
          5.535458,
          0
        ]
      }
    },
    {
      "type": "Feature",
      "properties": {
        "_source": "Ruta2-Arboleda-Viaducto-SanFrancisco-PinosdeOriente",
        "_segmentIndex": 0,
        "_position": 1
      },
      "geometry": {
        "type": "Point",
        "coordinates": [
          -73.35627004740726,
          5.5358945641058686,
          0
        ]
      }
    },
    {
      "type": "Feature",
      "properties": {
        "_source": "Ruta2-Arboleda-Viaducto-SanFrancisco-PinosdeOriente",
        "_segmentIndex": 0,
        "_position": 0
      },
      "geometry": {
        "type": "Point",
        "coordinates": [
          -73.356183,
          5.536317,
          0
        ]
      }
    },
    {
      "type": "Feature",
      "properties": {
        "_source": "Ruta2-Arboleda-Viaducto-SanFrancisco-PinosdeOriente",
        "_segmentIndex": 0,
        "_position": 1
      },
      "geometry": {
        "type": "Point",
        "coordinates": [
          -73.35660298145277,
          5.536468318539319,
          0
        ]
      }
    },
    {
      "type": "Feature",
      "properties": {
        "_source": "Ruta2-Arboleda-Viaducto-SanFrancisco-PinosdeOriente",
        "_segmentIndex": 0,
        "_position": 2
      },
      "geometry": {
        "type": "Point",
        "coordinates": [
          -73.35703625780255,
          5.536595650183416,
          0
        ]
      }
    },
    {
      "type": "Feature",
      "properties": {
        "_source": "Ruta2-Arboleda-Viaducto-SanFrancisco-PinosdeOriente",
        "_segmentIndex": 0,
        "_position": 3
      },
      "geometry": {
        "type": "Point",
        "coordinates": [
          -73.357469534339,
          5.536722981512869,
          0
        ]
      }
    },
    {
      "type": "Feature",
      "properties": {
        "_source": "Ruta2-Arboleda-Viaducto-SanFrancisco-PinosdeOriente",
        "_segmentIndex": 0,
        "_position": 4
      },
      "geometry": {
        "type": "Point",
        "coordinates": [
          -73.35789779554068,
          5.536866131117796,
          0
        ]
      }
    },
    {
      "type": "Feature",
      "properties": {
        "_source": "Ruta2-Arboleda-Viaducto-SanFrancisco-PinosdeOriente",
        "_segmentIndex": 0,
        "_position": 5
      },
      "geometry": {
        "type": "Point",
        "coordinates": [
          -73.35832601650864,
          5.537009407964128,
          0
        ]
      }
    },
    {
      "type": "Feature",
      "properties": {
        "_source": "Ruta2-Arboleda-Viaducto-SanFrancisco-PinosdeOriente",
        "_segmentIndex": 0,
        "_position": 6
      },
      "geometry": {
        "type": "Point",
        "coordinates": [
          -73.35875545845441,
          5.537148964511897,
          0
        ]
      }
    },
    {
      "type": "Feature",
      "properties": {
        "_source": "Ruta2-Arboleda-Viaducto-SanFrancisco-PinosdeOriente",
        "_segmentIndex": 0,
        "_position": 7
      },
      "geometry": {
        "type": "Point",
        "coordinates": [
          -73.35918608622562,
          5.537284907854784,
          0
        ]
      }
    },
    {
      "type": "Feature",
      "properties": {
        "_source": "Ruta2-Arboleda-Viaducto-SanFrancisco-PinosdeOriente",
        "_segmentIndex": 0,
        "_position": 0
      },
      "geometry": {
        "type": "Point",
        "coordinates": [
          -73.359557,
          5.537402,
          0
        ]
      }
    },
    {
      "type": "Feature",
      "properties": {
        "_source": "Ruta2-Arboleda-Viaducto-SanFrancisco-PinosdeOriente",
        "_segmentIndex": 0,
        "_position": 1
      },
      "geometry": {
        "type": "Point",
        "coordinates": [
          -73.3596851993897,
          5.536970824609777,
          0
        ]
      }
    },
    {
      "type": "Feature",
      "properties": {
        "_source": "Ruta2-Arboleda-Viaducto-SanFrancisco-PinosdeOriente",
        "_segmentIndex": 0,
        "_position": 2
      },
      "geometry": {
        "type": "Point",
        "coordinates": [
          -73.35981339859237,
          5.536539649192007,
          0
        ]
      }
    },
    {
      "type": "Feature",
      "properties": {
        "_source": "Ruta2-Arboleda-Viaducto-SanFrancisco-PinosdeOriente",
        "_segmentIndex": 0,
        "_position": 3
      },
      "geometry": {
        "type": "Point",
        "coordinates": [
          -73.35991903362185,
          5.536103762372937,
          0
        ]
      }
    },
    {
      "type": "Feature",
      "properties": {
        "_source": "Ruta2-Arboleda-Viaducto-SanFrancisco-PinosdeOriente",
        "_segmentIndex": 0,
        "_position": 4
      },
      "geometry": {
        "type": "Point",
        "coordinates": [
          -73.36004820938972,
          5.535672875857983,
          0
        ]
      }
    },
    {
      "type": "Feature",
      "properties": {
        "_source": "Ruta2-Arboleda-Viaducto-SanFrancisco-PinosdeOriente",
        "_segmentIndex": 0,
        "_position": 5
      },
      "geometry": {
        "type": "Point",
        "coordinates": [
          -73.36017738496928,
          5.5352419893150655,
          0
        ]
      }
    },
    {
      "type": "Feature",
      "properties": {
        "_source": "Ruta2-Arboleda-Viaducto-SanFrancisco-PinosdeOriente",
        "_segmentIndex": 0,
        "_position": 6
      },
      "geometry": {
        "type": "Point",
        "coordinates": [
          -73.36030655350594,
          5.53481110070897,
          0
        ]
      }
    },
    {
      "type": "Feature",
      "properties": {
        "_source": "Ruta2-Arboleda-Viaducto-SanFrancisco-PinosdeOriente",
        "_segmentIndex": 0,
        "_position": 7
      },
      "geometry": {
        "type": "Point",
        "coordinates": [
          -73.36043565821362,
          5.534380193179198,
          0
        ]
      }
    },
    {
      "type": "Feature",
      "properties": {
        "_source": "Ruta2-Arboleda-Viaducto-SanFrancisco-PinosdeOriente",
        "_segmentIndex": 0,
        "_position": 8
      },
      "geometry": {
        "type": "Point",
        "coordinates": [
          -73.36056476273315,
          5.533949285621498,
          0
        ]
      }
    },
    {
      "type": "Feature",
      "properties": {
        "_source": "Ruta2-Arboleda-Viaducto-SanFrancisco-PinosdeOriente",
        "_segmentIndex": 0,
        "_position": 9
      },
      "geometry": {
        "type": "Point",
        "coordinates": [
          -73.36067451037832,
          5.533513280183159,
          0
        ]
      }
    },
    {
      "type": "Feature",
      "properties": {
        "_source": "Ruta2-Arboleda-Viaducto-SanFrancisco-PinosdeOriente",
        "_segmentIndex": 0,
        "_position": 10
      },
      "geometry": {
        "type": "Point",
        "coordinates": [
          -73.36082707006742,
          5.533091080920234,
          0
        ]
      }
    },
    {
      "type": "Feature",
      "properties": {
        "_source": "Ruta2-Arboleda-Viaducto-SanFrancisco-PinosdeOriente",
        "_segmentIndex": 0,
        "_position": 11
      },
      "geometry": {
        "type": "Point",
        "coordinates": [
          -73.36100357334863,
          5.532680643039896,
          0
        ]
      }
    },
    {
      "type": "Feature",
      "properties": {
        "_source": "Ruta2-Arboleda-Viaducto-SanFrancisco-PinosdeOriente",
        "_segmentIndex": 0,
        "_position": 12
      },
      "geometry": {
        "type": "Point",
        "coordinates": [
          -73.36115637994592,
          5.532257486500935,
          0
        ]
      }
    },
    {
      "type": "Feature",
      "properties": {
        "_source": "Ruta2-Arboleda-Viaducto-SanFrancisco-PinosdeOriente",
        "_segmentIndex": 0,
        "_position": 13
      },
      "geometry": {
        "type": "Point",
        "coordinates": [
          -73.36125325211862,
          5.53183041863285,
          0
        ]
      }
    },
    {
      "type": "Feature",
      "properties": {
        "_source": "Ruta2-Arboleda-Viaducto-SanFrancisco-PinosdeOriente",
        "_segmentIndex": 0,
        "_position": 14
      },
      "geometry": {
        "type": "Point",
        "coordinates": [
          -73.36132070845697,
          5.531405234023321,
          0
        ]
      }
    },
    {
      "type": "Feature",
      "properties": {
        "_source": "Ruta2-Arboleda-Viaducto-SanFrancisco-PinosdeOriente",
        "_segmentIndex": 0,
        "_position": 15
      },
      "geometry": {
        "type": "Point",
        "coordinates": [
          -73.36144614359128,
          5.530973254297219,
          0
        ]
      }
    },
    {
      "type": "Feature",
      "properties": {
        "_source": "Ruta2-Arboleda-Viaducto-SanFrancisco-PinosdeOriente",
        "_segmentIndex": 0,
        "_position": 16
      },
      "geometry": {
        "type": "Point",
        "coordinates": [
          -73.36157138887532,
          5.530541220055492,
          0
        ]
      }
    },
    {
      "type": "Feature",
      "properties": {
        "_source": "Ruta2-Arboleda-Viaducto-SanFrancisco-PinosdeOriente",
        "_segmentIndex": 0,
        "_position": 17
      },
      "geometry": {
        "type": "Point",
        "coordinates": [
          -73.36169651297078,
          5.530109151023891,
          0
        ]
      }
    },
    {
      "type": "Feature",
      "properties": {
        "_source": "Ruta2-Arboleda-Viaducto-SanFrancisco-PinosdeOriente",
        "_segmentIndex": 0,
        "_position": 0
      },
      "geometry": {
        "type": "Point",
        "coordinates": [
          -73.361815,
          5.5297,
          0
        ]
      }
    },
    {
      "type": "Feature",
      "properties": {
        "_source": "Ruta2-Arboleda-Viaducto-SanFrancisco-PinosdeOriente",
        "_segmentIndex": 0,
        "_position": 1
      },
      "geometry": {
        "type": "Point",
        "coordinates": [
          -73.36138285259166,
          5.529568939133985,
          0
        ]
      }
    },
    {
      "type": "Feature",
      "properties": {
        "_source": "Ruta2-Arboleda-Viaducto-SanFrancisco-PinosdeOriente",
        "_segmentIndex": 0,
        "_position": 2
      },
      "geometry": {
        "type": "Point",
        "coordinates": [
          -73.3609507053747,
          5.529437877955355,
          0
        ]
      }
    },
    {
      "type": "Feature",
      "properties": {
        "_source": "Ruta2-Arboleda-Viaducto-SanFrancisco-PinosdeOriente",
        "_segmentIndex": 0,
        "_position": 3
      },
      "geometry": {
        "type": "Point",
        "coordinates": [
          -73.36051467264849,
          5.529320558261423,
          0
        ]
      }
    },
    {
      "type": "Feature",
      "properties": {
        "_source": "Ruta2-Arboleda-Viaducto-SanFrancisco-PinosdeOriente",
        "_segmentIndex": 0,
        "_position": 4
      },
      "geometry": {
        "type": "Point",
        "coordinates": [
          -73.36007728554397,
          5.529208028612653,
          0
        ]
      }
    },
    {
      "type": "Feature",
      "properties": {
        "_source": "Ruta2-Arboleda-Viaducto-SanFrancisco-PinosdeOriente",
        "_segmentIndex": 0,
        "_position": 0
      },
      "geometry": {
        "type": "Point",
        "coordinates": [
          -73.359774,
          5.52913,
          0
        ]
      }
    },
    {
      "type": "Feature",
      "properties": {
        "_source": "Ruta2-Arboleda-Viaducto-SanFrancisco-PinosdeOriente",
        "_segmentIndex": 0,
        "_position": 1
      },
      "geometry": {
        "type": "Point",
        "coordinates": [
          -73.35989878817097,
          5.528698044227164,
          0
        ]
      }
    },
    {
      "type": "Feature",
      "properties": {
        "_source": "Ruta2-Arboleda-Viaducto-SanFrancisco-PinosdeOriente",
        "_segmentIndex": 0,
        "_position": 2
      },
      "geometry": {
        "type": "Point",
        "coordinates": [
          -73.36002678134703,
          5.528266811645545,
          0
        ]
      }
    },
    {
      "type": "Feature",
      "properties": {
        "_source": "Ruta2-Arboleda-Viaducto-SanFrancisco-PinosdeOriente",
        "_segmentIndex": 0,
        "_position": 3
      },
      "geometry": {
        "type": "Point",
        "coordinates": [
          -73.3601523492237,
          5.5278348967898046,
          0
        ]
      }
    },
    {
      "type": "Feature",
      "properties": {
        "_source": "Ruta2-Arboleda-Viaducto-SanFrancisco-PinosdeOriente",
        "_segmentIndex": 0,
        "_position": 4
      },
      "geometry": {
        "type": "Point",
        "coordinates": [
          -73.3602998534047,
          5.52741054568506,
          0
        ]
      }
    },
    {
      "type": "Feature",
      "properties": {
        "_source": "Ruta2-Arboleda-Viaducto-SanFrancisco-PinosdeOriente",
        "_segmentIndex": 0,
        "_position": 0
      },
      "geometry": {
        "type": "Point",
        "coordinates": [
          -73.360322,
          5.52723,
          0
        ]
      }
    },
    {
      "type": "Feature",
      "properties": {
        "_source": "Ruta2-Arboleda-Viaducto-SanFrancisco-PinosdeOriente",
        "_segmentIndex": 0,
        "_position": 1
      },
      "geometry": {
        "type": "Point",
        "coordinates": [
          -73.36058515751276,
          5.5268645078203384,
          0
        ]
      }
    },
    {
      "type": "Feature",
      "properties": {
        "_source": "Ruta2-Arboleda-Viaducto-SanFrancisco-PinosdeOriente",
        "_segmentIndex": 0,
        "_position": 2
      },
      "geometry": {
        "type": "Point",
        "coordinates": [
          -73.36084768197038,
          5.526498564592831,
          0
        ]
      }
    },
    {
      "type": "Feature",
      "properties": {
        "_source": "Ruta2-Arboleda-Viaducto-SanFrancisco-PinosdeOriente",
        "_segmentIndex": 0,
        "_position": 3
      },
      "geometry": {
        "type": "Point",
        "coordinates": [
          -73.36110218659142,
          5.526127078171088,
          0
        ]
      }
    },
    {
      "type": "Feature",
      "properties": {
        "_source": "Ruta2-Arboleda-Viaducto-SanFrancisco-PinosdeOriente",
        "_segmentIndex": 0,
        "_position": 4
      },
      "geometry": {
        "type": "Point",
        "coordinates": [
          -73.36135497286747,
          5.525754404143604,
          0
        ]
      }
    },
    {
      "type": "Feature",
      "properties": {
        "_source": "Ruta2-Arboleda-Viaducto-SanFrancisco-PinosdeOriente",
        "_segmentIndex": 0,
        "_position": 5
      },
      "geometry": {
        "type": "Point",
        "coordinates": [
          -73.36160788876603,
          5.525381817379813,
          0
        ]
      }
    },
    {
      "type": "Feature",
      "properties": {
        "_source": "Ruta2-Arboleda-Viaducto-SanFrancisco-PinosdeOriente",
        "_segmentIndex": 0,
        "_position": 6
      },
      "geometry": {
        "type": "Point",
        "coordinates": [
          -73.36186086789887,
          5.52500927324094,
          0
        ]
      }
    },
    {
      "type": "Feature",
      "properties": {
        "_source": "Ruta2-Arboleda-Viaducto-SanFrancisco-PinosdeOriente",
        "_segmentIndex": 0,
        "_position": 7
      },
      "geometry": {
        "type": "Point",
        "coordinates": [
          -73.36211320739052,
          5.524636300445594,
          0
        ]
      }
    },
    {
      "type": "Feature",
      "properties": {
        "_source": "Ruta2-Arboleda-Viaducto-SanFrancisco-PinosdeOriente",
        "_segmentIndex": 0,
        "_position": 8
      },
      "geometry": {
        "type": "Point",
        "coordinates": [
          -73.36236492081703,
          5.52426290809439,
          0
        ]
      }
    },
    {
      "type": "Feature",
      "properties": {
        "_source": "Ruta2-Arboleda-Viaducto-SanFrancisco-PinosdeOriente",
        "_segmentIndex": 0,
        "_position": 9
      },
      "geometry": {
        "type": "Point",
        "coordinates": [
          -73.36261487850969,
          5.523888353221026,
          0
        ]
      }
    },
    {
      "type": "Feature",
      "properties": {
        "_source": "Ruta2-Arboleda-Viaducto-SanFrancisco-PinosdeOriente",
        "_segmentIndex": 0,
        "_position": 10
      },
      "geometry": {
        "type": "Point",
        "coordinates": [
          -73.36286361848778,
          5.523512992096399,
          0
        ]
      }
    },
    {
      "type": "Feature",
      "properties": {
        "_source": "Ruta2-Arboleda-Viaducto-SanFrancisco-PinosdeOriente",
        "_segmentIndex": 0,
        "_position": 11
      },
      "geometry": {
        "type": "Point",
        "coordinates": [
          -73.36310972969105,
          5.523135921203698,
          0
        ]
      }
    },
    {
      "type": "Feature",
      "properties": {
        "_source": "Ruta2-Arboleda-Viaducto-SanFrancisco-PinosdeOriente",
        "_segmentIndex": 0,
        "_position": 12
      },
      "geometry": {
        "type": "Point",
        "coordinates": [
          -73.36335523812542,
          5.522758458346433,
          0
        ]
      }
    },
    {
      "type": "Feature",
      "properties": {
        "_source": "Ruta2-Arboleda-Viaducto-SanFrancisco-PinosdeOriente",
        "_segmentIndex": 0,
        "_position": 13
      },
      "geometry": {
        "type": "Point",
        "coordinates": [
          -73.36360999836971,
          5.522387135449305,
          0
        ]
      }
    },
    {
      "type": "Feature",
      "properties": {
        "_source": "Ruta2-Arboleda-Viaducto-SanFrancisco-PinosdeOriente",
        "_segmentIndex": 0,
        "_position": 14
      },
      "geometry": {
        "type": "Point",
        "coordinates": [
          -73.36386565816832,
          5.522016409633856,
          0
        ]
      }
    },
    {
      "type": "Feature",
      "properties": {
        "_source": "Ruta2-Arboleda-Viaducto-SanFrancisco-PinosdeOriente",
        "_segmentIndex": 0,
        "_position": 15
      },
      "geometry": {
        "type": "Point",
        "coordinates": [
          -73.36411947538373,
          5.521644448008707,
          0
        ]
      }
    },
    {
      "type": "Feature",
      "properties": {
        "_source": "Ruta2-Arboleda-Viaducto-SanFrancisco-PinosdeOriente",
        "_segmentIndex": 0,
        "_position": 16
      },
      "geometry": {
        "type": "Point",
        "coordinates": [
          -73.36436871055479,
          5.521269413078527,
          0
        ]
      }
    },
    {
      "type": "Feature",
      "properties": {
        "_source": "Ruta2-Arboleda-Viaducto-SanFrancisco-PinosdeOriente",
        "_segmentIndex": 0,
        "_position": 17
      },
      "geometry": {
        "type": "Point",
        "coordinates": [
          -73.36461820133741,
          5.5208945472736835,
          0
        ]
      }
    },
    {
      "type": "Feature",
      "properties": {
        "_source": "Ruta2-Arboleda-Viaducto-SanFrancisco-PinosdeOriente",
        "_segmentIndex": 0,
        "_position": 18
      },
      "geometry": {
        "type": "Point",
        "coordinates": [
          -73.36486892115539,
          5.520520494260657,
          0
        ]
      }
    },
    {
      "type": "Feature",
      "properties": {
        "_source": "Ruta2-Arboleda-Viaducto-SanFrancisco-PinosdeOriente",
        "_segmentIndex": 0,
        "_position": 19
      },
      "geometry": {
        "type": "Point",
        "coordinates": [
          -73.36512354792163,
          5.520149102526856,
          0
        ]
      }
    },
    {
      "type": "Feature",
      "properties": {
        "_source": "Ruta2-Arboleda-Viaducto-SanFrancisco-PinosdeOriente",
        "_segmentIndex": 0,
        "_position": 20
      },
      "geometry": {
        "type": "Point",
        "coordinates": [
          -73.3653830419265,
          5.5197810261594915,
          0
        ]
      }
    },
    {
      "type": "Feature",
      "properties": {
        "_source": "Ruta2-Arboleda-Viaducto-SanFrancisco-PinosdeOriente",
        "_segmentIndex": 0,
        "_position": 21
      },
      "geometry": {
        "type": "Point",
        "coordinates": [
          -73.36564253560918,
          5.519412949679606,
          0
        ]
      }
    },
    {
      "type": "Feature",
      "properties": {
        "_source": "Ruta2-Arboleda-Viaducto-SanFrancisco-PinosdeOriente",
        "_segmentIndex": 0,
        "_position": 22
      },
      "geometry": {
        "type": "Point",
        "coordinates": [
          -73.3658935120418,
          5.519039119951531,
          0
        ]
      }
    },
    {
      "type": "Feature",
      "properties": {
        "_source": "Ruta2-Arboleda-Viaducto-SanFrancisco-PinosdeOriente",
        "_segmentIndex": 0,
        "_position": 23
      },
      "geometry": {
        "type": "Point",
        "coordinates": [
          -73.36614131330306,
          5.518663145522576,
          0
        ]
      }
    },
    {
      "type": "Feature",
      "properties": {
        "_source": "Ruta2-Arboleda-Viaducto-SanFrancisco-PinosdeOriente",
        "_segmentIndex": 0,
        "_position": 24
      },
      "geometry": {
        "type": "Point",
        "coordinates": [
          -73.3663952967587,
          5.518291326028511,
          0
        ]
      }
    },
    {
      "type": "Feature",
      "properties": {
        "_source": "Ruta2-Arboleda-Viaducto-SanFrancisco-PinosdeOriente",
        "_segmentIndex": 0,
        "_position": 25
      },
      "geometry": {
        "type": "Point",
        "coordinates": [
          -73.36665303826506,
          5.517922032288109,
          0
        ]
      }
    },
    {
      "type": "Feature",
      "properties": {
        "_source": "Ruta2-Arboleda-Viaducto-SanFrancisco-PinosdeOriente",
        "_segmentIndex": 0,
        "_position": 26
      },
      "geometry": {
        "type": "Point",
        "coordinates": [
          -73.3669439662342,
          5.517579388996541,
          0
        ]
      }
    },
    {
      "type": "Feature",
      "properties": {
        "_source": "Ruta2-Arboleda-Viaducto-SanFrancisco-PinosdeOriente",
        "_segmentIndex": 0,
        "_position": 27
      },
      "geometry": {
        "type": "Point",
        "coordinates": [
          -73.36727944823515,
          5.51727857227669,
          0
        ]
      }
    },
    {
      "type": "Feature",
      "properties": {
        "_source": "Ruta2-Arboleda-Viaducto-SanFrancisco-PinosdeOriente",
        "_segmentIndex": 0,
        "_position": 28
      },
      "geometry": {
        "type": "Point",
        "coordinates": [
          -73.36761843990725,
          5.516981349884479,
          0
        ]
      }
    },
    {
      "type": "Feature",
      "properties": {
        "_source": "Ruta2-Arboleda-Viaducto-SanFrancisco-PinosdeOriente",
        "_segmentIndex": 0,
        "_position": 29
      },
      "geometry": {
        "type": "Point",
        "coordinates": [
          -73.36795661354701,
          5.516683207464412,
          0
        ]
      }
    },
    {
      "type": "Feature",
      "properties": {
        "_source": "Ruta2-Arboleda-Viaducto-SanFrancisco-PinosdeOriente",
        "_segmentIndex": 0,
        "_position": 30
      },
      "geometry": {
        "type": "Point",
        "coordinates": [
          -73.36829426823805,
          5.516384481462066,
          0
        ]
      }
    },
    {
      "type": "Feature",
      "properties": {
        "_source": "Ruta2-Arboleda-Viaducto-SanFrancisco-PinosdeOriente",
        "_segmentIndex": 0,
        "_position": 0
      },
      "geometry": {
        "type": "Point",
        "coordinates": [
          -73.368605,
          5.516112,
          0
        ]
      }
    },
    {
      "type": "Feature",
      "properties": {
        "_source": "Ruta2-Arboleda-Viaducto-SanFrancisco-PinosdeOriente",
        "_segmentIndex": 0,
        "_position": 1
      },
      "geometry": {
        "type": "Point",
        "coordinates": [
          -73.36858082986974,
          5.515663034410667,
          0
        ]
      }
    },
    {
      "type": "Feature",
      "properties": {
        "_source": "Ruta2-Arboleda-Viaducto-SanFrancisco-PinosdeOriente",
        "_segmentIndex": 0,
        "_position": 2
      },
      "geometry": {
        "type": "Point",
        "coordinates": [
          -73.36855599564915,
          5.515219749624733,
          0
        ]
      }
    },
    {
      "type": "Feature",
      "properties": {
        "_source": "Ruta2-Arboleda-Viaducto-SanFrancisco-PinosdeOriente",
        "_segmentIndex": 0,
        "_position": 3
      },
      "geometry": {
        "type": "Point",
        "coordinates": [
          -73.36842698514542,
          5.514796133691795,
          0
        ]
      }
    },
    {
      "type": "Feature",
      "properties": {
        "_source": "Ruta2-Arboleda-Viaducto-SanFrancisco-PinosdeOriente",
        "_segmentIndex": 0,
        "_position": 4
      },
      "geometry": {
        "type": "Point",
        "coordinates": [
          -73.36856488749676,
          5.514368164280283,
          0
        ]
      }
    },
    {
      "type": "Feature",
      "properties": {
        "_source": "Ruta2-Arboleda-Viaducto-SanFrancisco-PinosdeOriente",
        "_segmentIndex": 0,
        "_position": 5
      },
      "geometry": {
        "type": "Point",
        "coordinates": [
          -73.36853547944281,
          5.513936681749261,
          0
        ]
      }
    },
    {
      "type": "Feature",
      "properties": {
        "_source": "Ruta2-Arboleda-Viaducto-SanFrancisco-PinosdeOriente",
        "_segmentIndex": 0,
        "_position": 6
      },
      "geometry": {
        "type": "Point",
        "coordinates": [
          -73.3683603420451,
          5.5135221923699556,
          0
        ]
      }
    },
    {
      "type": "Feature",
      "properties": {
        "_source": "Ruta2-Arboleda-Viaducto-SanFrancisco-PinosdeOriente",
        "_segmentIndex": 0,
        "_position": 7
      },
      "geometry": {
        "type": "Point",
        "coordinates": [
          -73.36818239431229,
          5.5131088876864975,
          0
        ]
      }
    },
    {
      "type": "Feature",
      "properties": {
        "_source": "Ruta2-Arboleda-Viaducto-SanFrancisco-PinosdeOriente",
        "_segmentIndex": 0,
        "_position": 8
      },
      "geometry": {
        "type": "Point",
        "coordinates": [
          -73.3680043565689,
          5.512695621146105,
          0
        ]
      }
    },
    {
      "type": "Feature",
      "properties": {
        "_source": "Ruta2-Arboleda-Viaducto-SanFrancisco-PinosdeOriente",
        "_segmentIndex": 0,
        "_position": 9
      },
      "geometry": {
        "type": "Point",
        "coordinates": [
          -73.36786036124279,
          5.512270996975873,
          0
        ]
      }
    },
    {
      "type": "Feature",
      "properties": {
        "_source": "Ruta2-Arboleda-Viaducto-SanFrancisco-PinosdeOriente",
        "_segmentIndex": 0,
        "_position": 10
      },
      "geometry": {
        "type": "Point",
        "coordinates": [
          -73.36785032744913,
          5.511821590629988,
          0
        ]
      }
    },
    {
      "type": "Feature",
      "properties": {
        "_source": "Ruta2-Arboleda-Viaducto-SanFrancisco-PinosdeOriente",
        "_segmentIndex": 0,
        "_position": 11
      },
      "geometry": {
        "type": "Point",
        "coordinates": [
          -73.36791135159554,
          5.5113828078122395,
          0
        ]
      }
    },
    {
      "type": "Feature",
      "properties": {
        "_source": "Ruta2-Arboleda-Viaducto-SanFrancisco-PinosdeOriente",
        "_segmentIndex": 0,
        "_position": 12
      },
      "geometry": {
        "type": "Point",
        "coordinates": [
          -73.36823809602434,
          5.511085923403287,
          0
        ]
      }
    },
    {
      "type": "Feature",
      "properties": {
        "_source": "Ruta2-Arboleda-Viaducto-SanFrancisco-PinosdeOriente",
        "_segmentIndex": 0,
        "_position": 13
      },
      "geometry": {
        "type": "Point",
        "coordinates": [
          -73.36855355789797,
          5.5107849023717455,
          0
        ]
      }
    },
    {
      "type": "Feature",
      "properties": {
        "_source": "Ruta2-Arboleda-Viaducto-SanFrancisco-PinosdeOriente",
        "_segmentIndex": 0,
        "_position": 14
      },
      "geometry": {
        "type": "Point",
        "coordinates": [
          -73.3684165769401,
          5.510377288937062,
          0
        ]
      }
    },
    {
      "type": "Feature",
      "properties": {
        "_source": "Ruta2-Arboleda-Viaducto-SanFrancisco-PinosdeOriente",
        "_segmentIndex": 0,
        "_position": 15
      },
      "geometry": {
        "type": "Point",
        "coordinates": [
          -73.36823128807079,
          5.509973715425974,
          0
        ]
      }
    },
    {
      "type": "Feature",
      "properties": {
        "_source": "Ruta2-Arboleda-Viaducto-SanFrancisco-PinosdeOriente",
        "_segmentIndex": 0,
        "_position": 16
      },
      "geometry": {
        "type": "Point",
        "coordinates": [
          -73.36819326966264,
          5.509527623108202,
          0
        ]
      }
    },
    {
      "type": "Feature",
      "properties": {
        "_source": "Ruta2-Arboleda-Viaducto-SanFrancisco-PinosdeOriente",
        "_segmentIndex": 0,
        "_position": 17
      },
      "geometry": {
        "type": "Point",
        "coordinates": [
          -73.368082978986,
          5.509149980737176,
          0
        ]
      }
    },
    {
      "type": "Feature",
      "properties": {
        "_source": "Ruta2-Arboleda-Viaducto-SanFrancisco-PinosdeOriente",
        "_segmentIndex": 0,
        "_position": 18
      },
      "geometry": {
        "type": "Point",
        "coordinates": [
          -73.36769096704295,
          5.508930678862234,
          0
        ]
      }
    },
    {
      "type": "Feature",
      "properties": {
        "_source": "Ruta2-Arboleda-Viaducto-SanFrancisco-PinosdeOriente",
        "_segmentIndex": 0,
        "_position": 19
      },
      "geometry": {
        "type": "Point",
        "coordinates": [
          -73.36731355547751,
          5.508688047981256,
          0
        ]
      }
    },
    {
      "type": "Feature",
      "properties": {
        "_source": "Ruta2-Arboleda-Viaducto-SanFrancisco-PinosdeOriente",
        "_segmentIndex": 0,
        "_position": 20
      },
      "geometry": {
        "type": "Point",
        "coordinates": [
          -73.36705532647967,
          5.508320544870521,
          0
        ]
      }
    },
    {
      "type": "Feature",
      "properties": {
        "_source": "Ruta2-Arboleda-Viaducto-SanFrancisco-PinosdeOriente",
        "_segmentIndex": 0,
        "_position": 0
      },
      "geometry": {
        "type": "Point",
        "coordinates": [
          -73.366972,
          5.508195,
          0
        ]
      }
    },
    {
      "type": "Feature",
      "properties": {
        "_source": "Ruta2-Arboleda-Viaducto-SanFrancisco-PinosdeOriente",
        "_segmentIndex": 0,
        "_position": 1
      },
      "geometry": {
        "type": "Point",
        "coordinates": [
          -73.36656954081235,
          5.508159472870011,
          0
        ]
      }
    },
    {
      "type": "Feature",
      "properties": {
        "_source": "Ruta2-Arboleda-Viaducto-SanFrancisco-PinosdeOriente",
        "_segmentIndex": 0,
        "_position": 2
      },
      "geometry": {
        "type": "Point",
        "coordinates": [
          -73.36615350820034,
          5.508331245900548,
          0
        ]
      }
    },
    {
      "type": "Feature",
      "properties": {
        "_source": "Ruta2-Arboleda-Viaducto-SanFrancisco-PinosdeOriente",
        "_segmentIndex": 0,
        "_position": 3
      },
      "geometry": {
        "type": "Point",
        "coordinates": [
          -73.36571886535441,
          5.50833943267768,
          0
        ]
      }
    },
    {
      "type": "Feature",
      "properties": {
        "_source": "Ruta2-Arboleda-Viaducto-SanFrancisco-PinosdeOriente",
        "_segmentIndex": 0,
        "_position": 4
      },
      "geometry": {
        "type": "Point",
        "coordinates": [
          -73.36547254388753,
          5.507991629735069,
          0
        ]
      }
    },
    {
      "type": "Feature",
      "properties": {
        "_source": "Ruta2-Arboleda-Viaducto-SanFrancisco-PinosdeOriente",
        "_segmentIndex": 0,
        "_position": 5
      },
      "geometry": {
        "type": "Point",
        "coordinates": [
          -73.36551477785304,
          5.507546486483693,
          0
        ]
      }
    },
    {
      "type": "Feature",
      "properties": {
        "_source": "Ruta2-Arboleda-Viaducto-SanFrancisco-PinosdeOriente",
        "_segmentIndex": 0,
        "_position": 6
      },
      "geometry": {
        "type": "Point",
        "coordinates": [
          -73.36558849294988,
          5.507102873290938,
          0
        ]
      }
    },
    {
      "type": "Feature",
      "properties": {
        "_source": "Ruta2-Arboleda-Viaducto-SanFrancisco-PinosdeOriente",
        "_segmentIndex": 0,
        "_position": 7
      },
      "geometry": {
        "type": "Point",
        "coordinates": [
          -73.36567091550697,
          5.506660803049635,
          0
        ]
      }
    },
    {
      "type": "Feature",
      "properties": {
        "_source": "Ruta2-Arboleda-Viaducto-SanFrancisco-PinosdeOriente",
        "_segmentIndex": 0,
        "_position": 8
      },
      "geometry": {
        "type": "Point",
        "coordinates": [
          -73.36575610590575,
          5.5062193116148626,
          0
        ]
      }
    },
    {
      "type": "Feature",
      "properties": {
        "_source": "Ruta2-Arboleda-Viaducto-SanFrancisco-PinosdeOriente",
        "_segmentIndex": 0,
        "_position": 9
      },
      "geometry": {
        "type": "Point",
        "coordinates": [
          -73.36588432855291,
          5.5057888160786606,
          0
        ]
      }
    },
    {
      "type": "Feature",
      "properties": {
        "_source": "Ruta2-Arboleda-Viaducto-SanFrancisco-PinosdeOriente",
        "_segmentIndex": 0,
        "_position": 10
      },
      "geometry": {
        "type": "Point",
        "coordinates": [
          -73.36608541733744,
          5.505386778465936,
          0
        ]
      }
    },
    {
      "type": "Feature",
      "properties": {
        "_source": "Ruta2-Arboleda-Viaducto-SanFrancisco-PinosdeOriente",
        "_segmentIndex": 0,
        "_position": 11
      },
      "geometry": {
        "type": "Point",
        "coordinates": [
          -73.36630606593192,
          5.504994408089249,
          0
        ]
      }
    },
    {
      "type": "Feature",
      "properties": {
        "_source": "Ruta2-Arboleda-Viaducto-SanFrancisco-PinosdeOriente",
        "_segmentIndex": 0,
        "_position": 12
      },
      "geometry": {
        "type": "Point",
        "coordinates": [
          -73.36653211363144,
          5.5046051889960514,
          0
        ]
      }
    },
    {
      "type": "Feature",
      "properties": {
        "_source": "Ruta2-Arboleda-Viaducto-SanFrancisco-PinosdeOriente",
        "_segmentIndex": 0,
        "_position": 13
      },
      "geometry": {
        "type": "Point",
        "coordinates": [
          -73.36679881341007,
          5.504243234794806,
          0
        ]
      }
    },
    {
      "type": "Feature",
      "properties": {
        "_source": "Ruta2-Arboleda-Viaducto-SanFrancisco-PinosdeOriente",
        "_segmentIndex": 0,
        "_position": 14
      },
      "geometry": {
        "type": "Point",
        "coordinates": [
          -73.36707788367433,
          5.50388970357127,
          0
        ]
      }
    },
    {
      "type": "Feature",
      "properties": {
        "_source": "Ruta2-Arboleda-Viaducto-SanFrancisco-PinosdeOriente",
        "_segmentIndex": 0,
        "_position": 15
      },
      "geometry": {
        "type": "Point",
        "coordinates": [
          -73.36733270855714,
          5.503520621317563,
          0
        ]
      }
    },
    {
      "type": "Feature",
      "properties": {
        "_source": "Ruta2-Arboleda-Viaducto-SanFrancisco-PinosdeOriente",
        "_segmentIndex": 0,
        "_position": 16
      },
      "geometry": {
        "type": "Point",
        "coordinates": [
          -73.36763083042584,
          5.503182858539084,
          0
        ]
      }
    },
    {
      "type": "Feature",
      "properties": {
        "_source": "Ruta2-Arboleda-Viaducto-SanFrancisco-PinosdeOriente",
        "_segmentIndex": 0,
        "_position": 17
      },
      "geometry": {
        "type": "Point",
        "coordinates": [
          -73.36799893152805,
          5.5029356718805165,
          0
        ]
      }
    },
    {
      "type": "Feature",
      "properties": {
        "_source": "Ruta2-Arboleda-Viaducto-SanFrancisco-PinosdeOriente",
        "_segmentIndex": 0,
        "_position": 0
      },
      "geometry": {
        "type": "Point",
        "coordinates": [
          -73.368121,
          5.50289,
          0
        ]
      }
    },
    {
      "type": "Feature",
      "properties": {
        "_source": "Ruta2-Arboleda-Viaducto-SanFrancisco-PinosdeOriente",
        "_segmentIndex": 0,
        "_position": 1
      },
      "geometry": {
        "type": "Point",
        "coordinates": [
          -73.3683549834817,
          5.502635842605118,
          0
        ]
      }
    },
    {
      "type": "Feature",
      "properties": {
        "_source": "Ruta2-Arboleda-Viaducto-SanFrancisco-PinosdeOriente",
        "_segmentIndex": 0,
        "_position": 2
      },
      "geometry": {
        "type": "Point",
        "coordinates": [
          -73.36795721304236,
          5.502448311407428,
          0
        ]
      }
    },
    {
      "type": "Feature",
      "properties": {
        "_source": "Ruta2-Arboleda-Viaducto-SanFrancisco-PinosdeOriente",
        "_segmentIndex": 0,
        "_position": 3
      },
      "geometry": {
        "type": "Point",
        "coordinates": [
          -73.36763613639688,
          5.502132001636398,
          0
        ]
      }
    },
    {
      "type": "Feature",
      "properties": {
        "_source": "Ruta2-Arboleda-Viaducto-SanFrancisco-PinosdeOriente",
        "_segmentIndex": 0,
        "_position": 4
      },
      "geometry": {
        "type": "Point",
        "coordinates": [
          -73.36730535100394,
          5.50182633501096,
          0
        ]
      }
    },
    {
      "type": "Feature",
      "properties": {
        "_source": "Ruta2-Arboleda-Viaducto-SanFrancisco-PinosdeOriente",
        "_segmentIndex": 0,
        "_position": 5
      },
      "geometry": {
        "type": "Point",
        "coordinates": [
          -73.36703988204076,
          5.5014656804047775,
          0
        ]
      }
    },
    {
      "type": "Feature",
      "properties": {
        "_source": "Ruta2-Arboleda-Viaducto-SanFrancisco-PinosdeOriente",
        "_segmentIndex": 0,
        "_position": 6
      },
      "geometry": {
        "type": "Point",
        "coordinates": [
          -73.36688718848887,
          5.501059947869291,
          0
        ]
      }
    },
    {
      "type": "Feature",
      "properties": {
        "_source": "Ruta2-Arboleda-Viaducto-SanFrancisco-PinosdeOriente",
        "_segmentIndex": 0,
        "_position": 7
      },
      "geometry": {
        "type": "Point",
        "coordinates": [
          -73.36690955447844,
          5.50061287781218,
          0
        ]
      }
    },
    {
      "type": "Feature",
      "properties": {
        "_source": "Ruta2-Arboleda-Viaducto-SanFrancisco-PinosdeOriente",
        "_segmentIndex": 0,
        "_position": 8
      },
      "geometry": {
        "type": "Point",
        "coordinates": [
          -73.36706718401558,
          5.500192531534857,
          0
        ]
      }
    },
    {
      "type": "Feature",
      "properties": {
        "_source": "Ruta2-Arboleda-Viaducto-SanFrancisco-PinosdeOriente",
        "_segmentIndex": 0,
        "_position": 9
      },
      "geometry": {
        "type": "Point",
        "coordinates": [
          -73.3671659262558,
          5.499775559867086,
          0
        ]
      }
    },
    {
      "type": "Feature",
      "properties": {
        "_source": "Ruta2-Arboleda-Viaducto-SanFrancisco-PinosdeOriente",
        "_segmentIndex": 0,
        "_position": 10
      },
      "geometry": {
        "type": "Point",
        "coordinates": [
          -73.36677432431198,
          5.499629686491704,
          0
        ]
      }
    },
    {
      "type": "Feature",
      "properties": {
        "_source": "Ruta2-Arboleda-Viaducto-SanFrancisco-PinosdeOriente",
        "_segmentIndex": 0,
        "_position": 11
      },
      "geometry": {
        "type": "Point",
        "coordinates": [
          -73.3663610515061,
          5.499792331314695,
          0
        ]
      }
    },
    {
      "type": "Feature",
      "properties": {
        "_source": "Ruta2-Arboleda-Viaducto-SanFrancisco-PinosdeOriente",
        "_segmentIndex": 0,
        "_position": 12
      },
      "geometry": {
        "type": "Point",
        "coordinates": [
          -73.36591338406546,
          5.499752481940529,
          0
        ]
      }
    },
    {
      "type": "Feature",
      "properties": {
        "_source": "Ruta2-Arboleda-Viaducto-SanFrancisco-PinosdeOriente",
        "_segmentIndex": 0,
        "_position": 13
      },
      "geometry": {
        "type": "Point",
        "coordinates": [
          -73.36549660485487,
          5.49991096035287,
          0
        ]
      }
    },
    {
      "type": "Feature",
      "properties": {
        "_source": "Ruta2-Arboleda-Viaducto-SanFrancisco-PinosdeOriente",
        "_segmentIndex": 0,
        "_position": 14
      },
      "geometry": {
        "type": "Point",
        "coordinates": [
          -73.3651036491637,
          5.500132066798738,
          0
        ]
      }
    },
    {
      "type": "Feature",
      "properties": {
        "_source": "Ruta2-Arboleda-Viaducto-SanFrancisco-PinosdeOriente",
        "_segmentIndex": 0,
        "_position": 15
      },
      "geometry": {
        "type": "Point",
        "coordinates": [
          -73.36478624256344,
          5.50043608800313,
          0
        ]
      }
    },
    {
      "type": "Feature",
      "properties": {
        "_source": "Ruta2-Arboleda-Viaducto-SanFrancisco-PinosdeOriente",
        "_segmentIndex": 0,
        "_position": 16
      },
      "geometry": {
        "type": "Point",
        "coordinates": [
          -73.36464468201203,
          5.500851262258695,
          0
        ]
      }
    },
    {
      "type": "Feature",
      "properties": {
        "_source": "Ruta2-Arboleda-Viaducto-SanFrancisco-PinosdeOriente",
        "_segmentIndex": 0,
        "_position": 17
      },
      "geometry": {
        "type": "Point",
        "coordinates": [
          -73.3642419360693,
          5.501027849102061,
          0
        ]
      }
    },
    {
      "type": "Feature",
      "properties": {
        "_source": "Ruta2-Arboleda-Viaducto-SanFrancisco-PinosdeOriente",
        "_segmentIndex": 0,
        "_position": 18
      },
      "geometry": {
        "type": "Point",
        "coordinates": [
          -73.36379299615776,
          5.501075311463344,
          0
        ]
      }
    },
    {
      "type": "Feature",
      "properties": {
        "_source": "Ruta2-Arboleda-Viaducto-SanFrancisco-PinosdeOriente",
        "_segmentIndex": 0,
        "_position": 19
      },
      "geometry": {
        "type": "Point",
        "coordinates": [
          -73.36339532929716,
          5.50127882354787,
          0
        ]
      }
    },
    {
      "type": "Feature",
      "properties": {
        "_source": "Ruta2-Arboleda-Viaducto-SanFrancisco-PinosdeOriente",
        "_segmentIndex": 0,
        "_position": 0
      },
      "geometry": {
        "type": "Point",
        "coordinates": [
          -73.363329,
          5.501444,
          0
        ]
      }
    },
    {
      "type": "Feature",
      "properties": {
        "_source": "Ruta2-Arboleda-Viaducto-SanFrancisco-PinosdeOriente",
        "_segmentIndex": 0,
        "_position": 1
      },
      "geometry": {
        "type": "Point",
        "coordinates": [
          -73.36361035628514,
          5.501795761816329,
          0
        ]
      }
    },
    {
      "type": "Feature",
      "properties": {
        "_source": "Ruta2-Arboleda-Viaducto-SanFrancisco-PinosdeOriente",
        "_segmentIndex": 0,
        "_position": 2
      },
      "geometry": {
        "type": "Point",
        "coordinates": [
          -73.36388327204472,
          5.502154047409953,
          0
        ]
      }
    },
    {
      "type": "Feature",
      "properties": {
        "_source": "Ruta2-Arboleda-Viaducto-SanFrancisco-PinosdeOriente",
        "_segmentIndex": 0,
        "_position": 3
      },
      "geometry": {
        "type": "Point",
        "coordinates": [
          -73.3641590519842,
          5.502510173785559,
          0
        ]
      }
    },
    {
      "type": "Feature",
      "properties": {
        "_source": "Ruta2-Arboleda-Viaducto-SanFrancisco-PinosdeOriente",
        "_segmentIndex": 0,
        "_position": 4
      },
      "geometry": {
        "type": "Point",
        "coordinates": [
          -73.36444149313688,
          5.502860948821573,
          0
        ]
      }
    },
    {
      "type": "Feature",
      "properties": {
        "_source": "Ruta2-Arboleda-Viaducto-SanFrancisco-PinosdeOriente",
        "_segmentIndex": 0,
        "_position": 5
      },
      "geometry": {
        "type": "Point",
        "coordinates": [
          -73.36424854808511,
          5.502867188197565,
          0
        ]
      }
    }
  ]
}