{
  "type": "FeatureCollection",
  "features": [
    {
      "type": "Feature",
      "properties": {
        "_source": "Ruta5-Arboleda-Muiscas-RetenSur",
        "_segmentIndex": 0,
        "_position": 0
      },
      "geometry": {
        "type": "Point",
        "coordinates": [
          -73.333068,
          5.572808
        ]
      }
    },
    {
      "type": "Feature",
      "properties": {
        "_source": "Ruta5-Arboleda-Muiscas-RetenSur",
        "_segmentIndex": 0,
        "_position": 1
      },
      "geometry": {
        "type": "Point",
        "coordinates": [
          -73.3333534255401,
          5.572459439000029
        ]
      }
    },
    {
      "type": "Feature",
      "properties": {
        "_source": "Ruta5-Arboleda-Muiscas-RetenSur",
        "_segmentIndex": 0,
        "_position": 2
      },
      "geometry": {
        "type": "Point",
        "coordinates": [
          -73.33363955280024,
          5.572111449774167
        ]
      }
    },
    {
      "type": "Feature",
      "properties": {
        "_source": "Ruta5-Arboleda-Muiscas-RetenSur",
        "_segmentIndex": 0,
        "_position": 3
      },
      "geometry": {
        "type": "Point",
        "coordinates": [
          -73.33392644192354,
          5.571764081315487
        ]
      }
    },
    {
      "type": "Feature",
      "properties": {
        "_source": "Ruta5-Arboleda-Muiscas-RetenSur",
        "_segmentIndex": 0,
        "_position": 4
      },
      "geometry": {
        "type": "Point",
        "coordinates": [
          -73.33422242290565,
          5.571424528780797
        ]
      }
    },
    {
      "type": "Feature",
      "properties": {
        "_source": "Ruta5-Arboleda-Muiscas-RetenSur",
        "_segmentIndex": 0,
        "_position": 5
      },
      "geometry": {
        "type": "Point",
        "coordinates": [
          -73.33452599680142,
          5.571091503599768
        ]
      }
    },
    {
      "type": "Feature",
      "properties": {
        "_source": "Ruta5-Arboleda-Muiscas-RetenSur",
        "_segmentIndex": 0,
        "_position": 6
      },
      "geometry": {
        "type": "Point",
        "coordinates": [
          -73.33491029071706,
          5.570866128313489
        ]
      }
    },
    {
      "type": "Feature",
      "properties": {
        "_source": "Ruta5-Arboleda-Muiscas-RetenSur",
        "_segmentIndex": 0,
        "_position": 7
      },
      "geometry": {
        "type": "Point",
        "coordinates": [
          -73.33533696328436,
          5.570723092291215
        ]
      }
    },
    {
      "type": "Feature",
      "properties": {
        "_source": "Ruta5-Arboleda-Muiscas-RetenSur",
        "_segmentIndex": 0,
        "_position": 8
      },
      "geometry": {
        "type": "Point",
        "coordinates": [
          -73.33574443910582,
          5.570535544819499
        ]
      }
    },
    {
      "type": "Feature",
      "properties": {
        "_source": "Ruta5-Arboleda-Muiscas-RetenSur",
        "_segmentIndex": 0,
        "_position": 9
      },
      "geometry": {
        "type": "Point",
        "coordinates": [
          -73.33613597467998,
          5.570311355734424
        ]
      }
    },
    {
      "type": "Feature",
      "properties": {
        "_source": "Ruta5-Arboleda-Muiscas-RetenSur",
        "_segmentIndex": 0,
        "_position": 10
      },
      "geometry": {
        "type": "Point",
        "coordinates": [
          -73.33652017349063,
          5.570074762688159
        ]
      }
    },
    {
      "type": "Feature",
      "properties": {
        "_source": "Ruta5-Arboleda-Muiscas-RetenSur",
        "_segmentIndex": 0,
        "_position": 11
      },
      "geometry": {
        "type": "Point",
        "coordinates": [
          -73.33690779782266,
          5.5698437865489145
        ]
      }
    },
    {
      "type": "Feature",
      "properties": {
        "_source": "Ruta5-Arboleda-Muiscas-RetenSur",
        "_segmentIndex": 0,
        "_position": 0
      },
      "geometry": {
        "type": "Point",
        "coordinates": [
          -73.337061,
          5.569753
        ]
      }
    },
    {
      "type": "Feature",
      "properties": {
        "_source": "Ruta5-Arboleda-Muiscas-RetenSur",
        "_segmentIndex": 0,
        "_position": 1
      },
      "geometry": {
        "type": "Point",
        "coordinates": [
          -73.33750751475357,
          5.569712572515015
        ]
      }
    },
    {
      "type": "Feature",
      "properties": {
        "_source": "Ruta5-Arboleda-Muiscas-RetenSur",
        "_segmentIndex": 0,
        "_position": 2
      },
      "geometry": {
        "type": "Point",
        "coordinates": [
          -73.33789740534422,
          5.569505639428041
        ]
      }
    },
    {
      "type": "Feature",
      "properties": {
        "_source": "Ruta5-Arboleda-Muiscas-RetenSur",
        "_segmentIndex": 0,
        "_position": 3
      },
      "geometry": {
        "type": "Point",
        "coordinates": [
          -73.33807691747789,
          5.5690962431298
        ]
      }
    },
    {
      "type": "Feature",
      "properties": {
        "_source": "Ruta5-Arboleda-Muiscas-RetenSur",
        "_segmentIndex": 0,
        "_position": 4
      },
      "geometry": {
        "type": "Point",
        "coordinates": [
          -73.33826155503714,
          5.568687128152998
        ]
      }
    },
    {
      "type": "Feature",
      "properties": {
        "_source": "Ruta5-Arboleda-Muiscas-RetenSur",
        "_segmentIndex": 0,
        "_position": 0
      },
      "geometry": {
        "type": "Point",
        "coordinates": [
          -73.338346,
          5.568655
        ]
      }
    },
    {
      "type": "Feature",
      "properties": {
        "_source": "Ruta5-Arboleda-Muiscas-RetenSur",
        "_segmentIndex": 0,
        "_position": 1
      },
      "geometry": {
        "type": "Point",
        "coordinates": [
          -73.33838456181286,
          5.56909917225322
        ]
      }
    },
    {
      "type": "Feature",
      "properties": {
        "_source": "Ruta5-Arboleda-Muiscas-RetenSur",
        "_segmentIndex": 0,
        "_position": 2
      },
      "geometry": {
        "type": "Point",
        "coordinates": [
          -73.33862634954204,
          5.569470491776936
        ]
      }
    },
    {
      "type": "Feature",
      "properties": {
        "_source": "Ruta5-Arboleda-Muiscas-RetenSur",
        "_segmentIndex": 0,
        "_position": 3
      },
      "geometry": {
        "type": "Point",
        "coordinates": [
          -73.33897637308331,
          5.569753816834599
        ]
      }
    },
    {
      "type": "Feature",
      "properties": {
        "_source": "Ruta5-Arboleda-Muiscas-RetenSur",
        "_segmentIndex": 0,
        "_position": 4
      },
      "geometry": {
        "type": "Point",
        "coordinates": [
          -73.33933666187276,
          5.5700250598355066
        ]
      }
    },
    {
      "type": "Feature",
      "properties": {
        "_source": "Ruta5-Arboleda-Muiscas-RetenSur",
        "_segmentIndex": 0,
        "_position": 5
      },
      "geometry": {
        "type": "Point",
        "coordinates": [
          -73.3396939992013,
          5.570300209519798
        ]
      }
    },
    {
      "type": "Feature",
      "properties": {
        "_source": "Ruta5-Arboleda-Muiscas-RetenSur",
        "_segmentIndex": 0,
        "_position": 6
      },
      "geometry": {
        "type": "Point",
        "coordinates": [
          -73.34005160972791,
          5.570575007402611
        ]
      }
    },
    {
      "type": "Feature",
      "properties": {
        "_source": "Ruta5-Arboleda-Muiscas-RetenSur",
        "_segmentIndex": 0,
        "_position": 7
      },
      "geometry": {
        "type": "Point",
        "coordinates": [
          -73.34040937103771,
          5.570849611215583
        ]
      }
    },
    {
      "type": "Feature",
      "properties": {
        "_source": "Ruta5-Arboleda-Muiscas-RetenSur",
        "_segmentIndex": 0,
        "_position": 8
      },
      "geometry": {
        "type": "Point",
        "coordinates": [
          -73.34076713268202,
          5.571124214812718
        ]
      }
    },
    {
      "type": "Feature",
      "properties": {
        "_source": "Ruta5-Arboleda-Muiscas-RetenSur",
        "_segmentIndex": 0,
        "_position": 9
      },
      "geometry": {
        "type": "Point",
        "coordinates": [
          -73.34112489466081,
          5.571398818194006
        ]
      }
    },
    {
      "type": "Feature",
      "properties": {
        "_source": "Ruta5-Arboleda-Muiscas-RetenSur",
        "_segmentIndex": 0,
        "_position": 10
      },
      "geometry": {
        "type": "Point",
        "coordinates": [
          -73.34148265697412,
          5.5716734213594385
        ]
      }
    },
    {
      "type": "Feature",
      "properties": {
        "_source": "Ruta5-Arboleda-Muiscas-RetenSur",
        "_segmentIndex": 0,
        "_position": 11
      },
      "geometry": {
        "type": "Point",
        "coordinates": [
          -73.3418509252414,
          5.57192045256676
        ]
      }
    },
    {
      "type": "Feature",
      "properties": {
        "_source": "Ruta5-Arboleda-Muiscas-RetenSur",
        "_segmentIndex": 0,
        "_position": 0
      },
      "geometry": {
        "type": "Point",
        "coordinates": [
          -73.342036,
          5.571933
        ]
      }
    },
    {
      "type": "Feature",
      "properties": {
        "_source": "Ruta5-Arboleda-Muiscas-RetenSur",
        "_segmentIndex": 0,
        "_position": 1
      },
      "geometry": {
        "type": "Point",
        "coordinates": [
          -73.34237285509998,
          5.571679925482513
        ]
      }
    },
    {
      "type": "Feature",
      "properties": {
        "_source": "Ruta5-Arboleda-Muiscas-RetenSur",
        "_segmentIndex": 0,
        "_position": 2
      },
      "geometry": {
        "type": "Point",
        "coordinates": [
          -73.34262195630653,
          5.571304788486053
        ]
      }
    },
    {
      "type": "Feature",
      "properties": {
        "_source": "Ruta5-Arboleda-Muiscas-RetenSur",
        "_segmentIndex": 0,
        "_position": 3
      },
      "geometry": {
        "type": "Point",
        "coordinates": [
          -73.34287201399893,
          5.570930290653547
        ]
      }
    },
    {
      "type": "Feature",
      "properties": {
        "_source": "Ruta5-Arboleda-Muiscas-RetenSur",
        "_segmentIndex": 0,
        "_position": 4
      },
      "geometry": {
        "type": "Point",
        "coordinates": [
          -73.34312652436687,
          5.570558767889756
        ]
      }
    },
    {
      "type": "Feature",
      "properties": {
        "_source": "Ruta5-Arboleda-Muiscas-RetenSur",
        "_segmentIndex": 0,
        "_position": 5
      },
      "geometry": {
        "type": "Point",
        "coordinates": [
          -73.34338103441291,
          5.570187245016739
        ]
      }
    },
    {
      "type": "Feature",
      "properties": {
        "_source": "Ruta5-Arboleda-Muiscas-RetenSur",
        "_segmentIndex": 0,
        "_position": 6
      },
      "geometry": {
        "type": "Point",
        "coordinates": [
          -73.34363554413706,
          5.569815722034504
        ]
      }
    },
    {
      "type": "Feature",
      "properties": {
        "_source": "Ruta5-Arboleda-Muiscas-RetenSur",
        "_segmentIndex": 0,
        "_position": 7
      },
      "geometry": {
        "type": "Point",
        "coordinates": [
          -73.34388813966791,
          5.569442911808844
        ]
      }
    },
    {
      "type": "Feature",
      "properties": {
        "_source": "Ruta5-Arboleda-Muiscas-RetenSur",
        "_segmentIndex": 0,
        "_position": 8
      },
      "geometry": {
        "type": "Point",
        "coordinates": [
          -73.34414102924228,
          5.569070304377415
        ]
      }
    },
    {
      "type": "Feature",
      "properties": {
        "_source": "Ruta5-Arboleda-Muiscas-RetenSur",
        "_segmentIndex": 0,
        "_position": 9
      },
      "geometry": {
        "type": "Point",
        "coordinates": [
          -73.34439722446533,
          5.568699931057421
        ]
      }
    },
    {
      "type": "Feature",
      "properties": {
        "_source": "Ruta5-Arboleda-Muiscas-RetenSur",
        "_segmentIndex": 0,
        "_position": 10
      },
      "geometry": {
        "type": "Point",
        "coordinates": [
          -73.34465341936541,
          5.568329557626786
        ]
      }
    },
    {
      "type": "Feature",
      "properties": {
        "_source": "Ruta5-Arboleda-Muiscas-RetenSur",
        "_segmentIndex": 0,
        "_position": 11
      },
      "geometry": {
        "type": "Point",
        "coordinates": [
          -73.34490314080121,
          5.567954846312587
        ]
      }
    },
    {
      "type": "Feature",
      "properties": {
        "_source": "Ruta5-Arboleda-Muiscas-RetenSur",
        "_segmentIndex": 0,
        "_position": 12
      },
      "geometry": {
        "type": "Point",
        "coordinates": [
          -73.34515121472637,
          5.567579038274546
        ]
      }
    },
    {
      "type": "Feature",
      "properties": {
        "_source": "Ruta5-Arboleda-Muiscas-RetenSur",
        "_segmentIndex": 0,
        "_position": 13
      },
      "geometry": {
        "type": "Point",
        "coordinates": [
          -73.34539683704598,
          5.567201636902162
        ]
      }
    },
    {
      "type": "Feature",
      "properties": {
        "_source": "Ruta5-Arboleda-Muiscas-RetenSur",
        "_segmentIndex": 0,
        "_position": 14
      },
      "geometry": {
        "type": "Point",
        "coordinates": [
          -73.34564245905021,
          5.56682423542811
        ]
      }
    },
    {
      "type": "Feature",
      "properties": {
        "_source": "Ruta5-Arboleda-Muiscas-RetenSur",
        "_segmentIndex": 0,
        "_position": 15
      },
      "geometry": {
        "type": "Point",
        "coordinates": [
          -73.34586663715825,
          5.566435005029073
        ]
      }
    },
    {
      "type": "Feature",
      "properties": {
        "_source": "Ruta5-Arboleda-Muiscas-RetenSur",
        "_segmentIndex": 0,
        "_position": 16
      },
      "geometry": {
        "type": "Point",
        "coordinates": [
          -73.34605800468962,
          5.566027675564209
        ]
      }
    },
    {
      "type": "Feature",
      "properties": {
        "_source": "Ruta5-Arboleda-Muiscas-RetenSur",
        "_segmentIndex": 0,
        "_position": 17
      },
      "geometry": {
        "type": "Point",
        "coordinates": [
          -73.34624937195584,
          5.565620346037641
        ]
      }
    },
    {
      "type": "Feature",
      "properties": {
        "_source": "Ruta5-Arboleda-Muiscas-RetenSur",
        "_segmentIndex": 0,
        "_position": 18
      },
      "geometry": {
        "type": "Point",
        "coordinates": [
          -73.34644064628552,
          5.565212973350837
        ]
      }
    },
    {
      "type": "Feature",
      "properties": {
        "_source": "Ruta5-Arboleda-Muiscas-RetenSur",
        "_segmentIndex": 0,
        "_position": 19
      },
      "geometry": {
        "type": "Point",
        "coordinates": [
          -73.34663179605974,
          5.564805542798836
        ]
      }
    },
    {
      "type": "Feature",
      "properties": {
        "_source": "Ruta5-Arboleda-Muiscas-RetenSur",
        "_segmentIndex": 0,
        "_position": 20
      },
      "geometry": {
        "type": "Point",
        "coordinates": [
          -73.34682294556909,
          5.564398112185288
        ]
      }
    },
    {
      "type": "Feature",
      "properties": {
        "_source": "Ruta5-Arboleda-Muiscas-RetenSur",
        "_segmentIndex": 0,
        "_position": 21
      },
      "geometry": {
        "type": "Point",
        "coordinates": [
          -73.34701178876958,
          5.56398961958285
        ]
      }
    },
    {
      "type": "Feature",
      "properties": {
        "_source": "Ruta5-Arboleda-Muiscas-RetenSur",
        "_segmentIndex": 0,
        "_position": 22
      },
      "geometry": {
        "type": "Point",
        "coordinates": [
          -73.34720005850032,
          5.563580862959836
        ]
      }
    },
    {
      "type": "Feature",
      "properties": {
        "_source": "Ruta5-Arboleda-Muiscas-RetenSur",
        "_segmentIndex": 0,
        "_position": 23
      },
      "geometry": {
        "type": "Point",
        "coordinates": [
          -73.34738832796941,
          5.563172106277129
        ]
      }
    },
    {
      "type": "Feature",
      "properties": {
        "_source": "Ruta5-Arboleda-Muiscas-RetenSur",
        "_segmentIndex": 0,
        "_position": 24
      },
      "geometry": {
        "type": "Point",
        "coordinates": [
          -73.34757958822595,
          5.56276473027696
        ]
      }
    },
    {
      "type": "Feature",
      "properties": {
        "_source": "Ruta5-Arboleda-Muiscas-RetenSur",
        "_segmentIndex": 0,
        "_position": 25
      },
      "geometry": {
        "type": "Point",
        "coordinates": [
          -73.34777149968211,
          5.562357654947271
        ]
      }
    },
    {
      "type": "Feature",
      "properties": {
        "_source": "Ruta5-Arboleda-Muiscas-RetenSur",
        "_segmentIndex": 0,
        "_position": 26
      },
      "geometry": {
        "type": "Point",
        "coordinates": [
          -73.3479634108727,
          5.561950579555569
        ]
      }
    },
    {
      "type": "Feature",
      "properties": {
        "_source": "Ruta5-Arboleda-Muiscas-RetenSur",
        "_segmentIndex": 0,
        "_position": 27
      },
      "geometry": {
        "type": "Point",
        "coordinates": [
          -73.34815155418909,
          5.561541779715825
        ]
      }
    },
    {
      "type": "Feature",
      "properties": {
        "_source": "Ruta5-Arboleda-Muiscas-RetenSur",
        "_segmentIndex": 0,
        "_position": 28
      },
      "geometry": {
        "type": "Point",
        "coordinates": [
          -73.34833714020672,
          5.561131809493537
        ]
      }
    },
    {
      "type": "Feature",
      "properties": {
        "_source": "Ruta5-Arboleda-Muiscas-RetenSur",
        "_segmentIndex": 0,
        "_position": 29
      },
      "geometry": {
        "type": "Point",
        "coordinates": [
          -73.34852272596581,
          5.560721839213269
        ]
      }
    },
    {
      "type": "Feature",
      "properties": {
        "_source": "Ruta5-Arboleda-Muiscas-RetenSur",
        "_segmentIndex": 0,
        "_position": 30
      },
      "geometry": {
        "type": "Point",
        "coordinates": [
          -73.34872041144762,
          5.560317841395468
        ]
      }
    },
    {
      "type": "Feature",
      "properties": {
        "_source": "Ruta5-Arboleda-Muiscas-RetenSur",
        "_segmentIndex": 0,
        "_position": 31
      },
      "geometry": {
        "type": "Point",
        "coordinates": [
          -73.3489143406291,
          5.559911714803434
        ]
      }
    },
    {
      "type": "Feature",
      "properties": {
        "_source": "Ruta5-Arboleda-Muiscas-RetenSur",
        "_segmentIndex": 0,
        "_position": 32
      },
      "geometry": {
        "type": "Point",
        "coordinates": [
          -73.34910826954297,
          5.559505588148105
        ]
      }
    },
    {
      "type": "Feature",
      "properties": {
        "_source": "Ruta5-Arboleda-Muiscas-RetenSur",
        "_segmentIndex": 0,
        "_position": 33
      },
      "geometry": {
        "type": "Point",
        "coordinates": [
          -73.34929812366232,
          5.5590976068903775
        ]
      }
    },
    {
      "type": "Feature",
      "properties": {
        "_source": "Ruta5-Arboleda-Muiscas-RetenSur",
        "_segmentIndex": 0,
        "_position": 34
      },
      "geometry": {
        "type": "Point",
        "coordinates": [
          -73.34948060336403,
          5.558686261178744
        ]
      }
    },
    {
      "type": "Feature",
      "properties": {
        "_source": "Ruta5-Arboleda-Muiscas-RetenSur",
        "_segmentIndex": 0,
        "_position": 35
      },
      "geometry": {
        "type": "Point",
        "coordinates": [
          -73.34966635458579,
          5.55827636548318
        ]
      }
    },
    {
      "type": "Feature",
      "properties": {
        "_source": "Ruta5-Arboleda-Muiscas-RetenSur",
        "_segmentIndex": 0,
        "_position": 36
      },
      "geometry": {
        "type": "Point",
        "coordinates": [
          -73.34985210554892,
          5.557866469729562
        ]
      }
    },
    {
      "type": "Feature",
      "properties": {
        "_source": "Ruta5-Arboleda-Muiscas-RetenSur",
        "_segmentIndex": 0,
        "_position": 37
      },
      "geometry": {
        "type": "Point",
        "coordinates": [
          -73.35003785625341,
          5.557456573917896
        ]
      }
    },
    {
      "type": "Feature",
      "properties": {
        "_source": "Ruta5-Arboleda-Muiscas-RetenSur",
        "_segmentIndex": 0,
        "_position": 38
      },
      "geometry": {
        "type": "Point",
        "coordinates": [
          -73.3502245602588,
          5.557047108925291
        ]
      }
    },
    {
      "type": "Feature",
      "properties": {
        "_source": "Ruta5-Arboleda-Muiscas-RetenSur",
        "_segmentIndex": 0,
        "_position": 39
      },
      "geometry": {
        "type": "Point",
        "coordinates": [
          -73.35041233225371,
          5.55663812657497
        ]
      }
    },
    {
      "type": "Feature",
      "properties": {
        "_source": "Ruta5-Arboleda-Muiscas-RetenSur",
        "_segmentIndex": 0,
        "_position": 40
      },
      "geometry": {
        "type": "Point",
        "coordinates": [
          -73.35060010398783,
          5.556229144165345
        ]
      }
    },
    {
      "type": "Feature",
      "properties": {
        "_source": "Ruta5-Arboleda-Muiscas-RetenSur",
        "_segmentIndex": 0,
        "_position": 41
      },
      "geometry": {
        "type": "Point",
        "coordinates": [
          -73.35078787546121,
          5.555820161696414
        ]
      }
    },
    {
      "type": "Feature",
      "properties": {
        "_source": "Ruta5-Arboleda-Muiscas-RetenSur",
        "_segmentIndex": 0,
        "_position": 42
      },
      "geometry": {
        "type": "Point",
        "coordinates": [
          -73.35097506708688,
          5.5554109160687295
        ]
      }
    },
    {
      "type": "Feature",
      "properties": {
        "_source": "Ruta5-Arboleda-Muiscas-RetenSur",
        "_segmentIndex": 0,
        "_position": 43
      },
      "geometry": {
        "type": "Point",
        "coordinates": [
          -73.35116224219094,
          5.555001663000311
        ]
      }
    },
    {
      "type": "Feature",
      "properties": {
        "_source": "Ruta5-Arboleda-Muiscas-RetenSur",
        "_segmentIndex": 0,
        "_position": 44
      },
      "geometry": {
        "type": "Point",
        "coordinates": [
          -73.35134888014224,
          5.554592174897049
        ]
      }
    },
    {
      "type": "Feature",
      "properties": {
        "_source": "Ruta5-Arboleda-Muiscas-RetenSur",
        "_segmentIndex": 0,
        "_position": 45
      },
      "geometry": {
        "type": "Point",
        "coordinates": [
          -73.35150959337702,
          5.554172409322411
        ]
      }
    },
    {
      "type": "Feature",
      "properties": {
        "_source": "Ruta5-Arboleda-Muiscas-RetenSur",
        "_segmentIndex": 0,
        "_position": 46
      },
      "geometry": {
        "type": "Point",
        "coordinates": [
          -73.35164759331566,
          5.553744240336422
        ]
      }
    },
    {
      "type": "Feature",
      "properties": {
        "_source": "Ruta5-Arboleda-Muiscas-RetenSur",
        "_segmentIndex": 0,
        "_position": 47
      },
      "geometry": {
        "type": "Point",
        "coordinates": [
          -73.35178559305376,
          5.553316071318415
        ]
      }
    },
    {
      "type": "Feature",
      "properties": {
        "_source": "Ruta5-Arboleda-Muiscas-RetenSur",
        "_segmentIndex": 0,
        "_position": 48
      },
      "geometry": {
        "type": "Point",
        "coordinates": [
          -73.35192228589673,
          5.552887498291541
        ]
      }
    },
    {
      "type": "Feature",
      "properties": {
        "_source": "Ruta5-Arboleda-Muiscas-RetenSur",
        "_segmentIndex": 0,
        "_position": 49
      },
      "geometry": {
        "type": "Point",
        "coordinates": [
          -73.35205230372338,
          5.55245686165112
        ]
      }
    },
    {
      "type": "Feature",
      "properties": {
        "_source": "Ruta5-Arboleda-Muiscas-RetenSur",
        "_segmentIndex": 0,
        "_position": 50
      },
      "geometry": {
        "type": "Point",
        "coordinates": [
          -73.35218232136005,
          5.552026224982287
        ]
      }
    },
    {
      "type": "Feature",
      "properties": {
        "_source": "Ruta5-Arboleda-Muiscas-RetenSur",
        "_segmentIndex": 0,
        "_position": 51
      },
      "geometry": {
        "type": "Point",
        "coordinates": [
          -73.35232326770885,
          5.5515991598926755
        ]
      }
    },
    {
      "type": "Feature",
      "properties": {
        "_source": "Ruta5-Arboleda-Muiscas-RetenSur",
        "_segmentIndex": 0,
        "_position": 52
      },
      "geometry": {
        "type": "Point",
        "coordinates": [
          -73.35255879645533,
          5.551217033905984
        ]
      }
    },
    {
      "type": "Feature",
      "properties": {
        "_source": "Ruta5-Arboleda-Muiscas-RetenSur",
        "_segmentIndex": 0,
        "_position": 53
      },
      "geometry": {
        "type": "Point",
        "coordinates": [
          -73.35283467239414,
          5.5508611835364725
        ]
      }
    },
    {
      "type": "Feature",
      "properties": {
        "_source": "Ruta5-Arboleda-Muiscas-RetenSur",
        "_segmentIndex": 0,
        "_position": 54
      },
      "geometry": {
        "type": "Point",
        "coordinates": [
          -73.35312218295397,
          5.550514332928731
        ]
      }
    },
    {
      "type": "Feature",
      "properties": {
        "_source": "Ruta5-Arboleda-Muiscas-RetenSur",
        "_segmentIndex": 0,
        "_position": 55
      },
      "geometry": {
        "type": "Point",
        "coordinates": [
          -73.35340969317555,
          5.550167482182099
        ]
      }
    },
    {
      "type": "Feature",
      "properties": {
        "_source": "Ruta5-Arboleda-Muiscas-RetenSur",
        "_segmentIndex": 0,
        "_position": 56
      },
      "geometry": {
        "type": "Point",
        "coordinates": [
          -73.35369720305884,
          5.549820631296583
        ]
      }
    },
    {
      "type": "Feature",
      "properties": {
        "_source": "Ruta5-Arboleda-Muiscas-RetenSur",
        "_segmentIndex": 0,
        "_position": 57
      },
      "geometry": {
        "type": "Point",
        "coordinates": [
          -73.35398471260392,
          5.549473780272194
        ]
      }
    },
    {
      "type": "Feature",
      "properties": {
        "_source": "Ruta5-Arboleda-Muiscas-RetenSur",
        "_segmentIndex": 0,
        "_position": 58
      },
      "geometry": {
        "type": "Point",
        "coordinates": [
          -73.3542610333527,
          5.549118183086858
        ]
      }
    },
    {
      "type": "Feature",
      "properties": {
        "_source": "Ruta5-Arboleda-Muiscas-RetenSur",
        "_segmentIndex": 0,
        "_position": 59
      },
      "geometry": {
        "type": "Point",
        "coordinates": [
          -73.35453145183838,
          5.54875797223382
        ]
      }
    },
    {
      "type": "Feature",
      "properties": {
        "_source": "Ruta5-Arboleda-Muiscas-RetenSur",
        "_segmentIndex": 0,
        "_position": 60
      },
      "geometry": {
        "type": "Point",
        "coordinates": [
          -73.35480186999375,
          5.548397761257952
        ]
      }
    },
    {
      "type": "Feature",
      "properties": {
        "_source": "Ruta5-Arboleda-Muiscas-RetenSur",
        "_segmentIndex": 0,
        "_position": 61
      },
      "geometry": {
        "type": "Point",
        "coordinates": [
          -73.35507228781883,
          5.548037550159266
        ]
      }
    },
    {
      "type": "Feature",
      "properties": {
        "_source": "Ruta5-Arboleda-Muiscas-RetenSur",
        "_segmentIndex": 0,
        "_position": 62
      },
      "geometry": {
        "type": "Point",
        "coordinates": [
          -73.3553427053136,
          5.547677338937763
        ]
      }
    },
    {
      "type": "Feature",
      "properties": {
        "_source": "Ruta5-Arboleda-Muiscas-RetenSur",
        "_segmentIndex": 0,
        "_position": 63
      },
      "geometry": {
        "type": "Point",
        "coordinates": [
          -73.35561203698602,
          5.547316323295566
        ]
      }
    },
    {
      "type": "Feature",
      "properties": {
        "_source": "Ruta5-Arboleda-Muiscas-RetenSur",
        "_segmentIndex": 0,
        "_position": 64
      },
      "geometry": {
        "type": "Point",
        "coordinates": [
          -73.35588116707501,
          5.546955158412165
        ]
      }
    },
    {
      "type": "Feature",
      "properties": {
        "_source": "Ruta5-Arboleda-Muiscas-RetenSur",
        "_segmentIndex": 0,
        "_position": 65
      },
      "geometry": {
        "type": "Point",
        "coordinates": [
          -73.35615029683449,
          5.54659399340714
        ]
      }
    },
    {
      "type": "Feature",
      "properties": {
        "_source": "Ruta5-Arboleda-Muiscas-RetenSur",
        "_segmentIndex": 0,
        "_position": 66
      },
      "geometry": {
        "type": "Point",
        "coordinates": [
          -73.35641942626448,
          5.546232828280499
        ]
      }
    },
    {
      "type": "Feature",
      "properties": {
        "_source": "Ruta5-Arboleda-Muiscas-RetenSur",
        "_segmentIndex": 0,
        "_position": 67
      },
      "geometry": {
        "type": "Point",
        "coordinates": [
          -73.35668851006584,
          5.545871629602936
        ]
      }
    },
    {
      "type": "Feature",
      "properties": {
        "_source": "Ruta5-Arboleda-Muiscas-RetenSur",
        "_segmentIndex": 0,
        "_position": 68
      },
      "geometry": {
        "type": "Point",
        "coordinates": [
          -73.35695752548773,
          5.545510380585083
        ]
      }
    },
    {
      "type": "Feature",
      "properties": {
        "_source": "Ruta5-Arboleda-Muiscas-RetenSur",
        "_segmentIndex": 0,
        "_position": 69
      },
      "geometry": {
        "type": "Point",
        "coordinates": [
          -73.35722654058024,
          5.545149131445737
        ]
      }
    },
    {
      "type": "Feature",
      "properties": {
        "_source": "Ruta5-Arboleda-Muiscas-RetenSur",
        "_segmentIndex": 0,
        "_position": 0
      },
      "geometry": {
        "type": "Point",
        "coordinates": [
          -73.357316,
          5.545029
        ]
      }
    },
    {
      "type": "Feature",
      "properties": {
        "_source": "Ruta5-Arboleda-Muiscas-RetenSur",
        "_segmentIndex": 0,
        "_position": 1
      },
      "geometry": {
        "type": "Point",
        "coordinates": [
          -73.35771641202302,
          5.544900324275245
        ]
      }
    },
    {
      "type": "Feature",
      "properties": {
        "_source": "Ruta5-Arboleda-Muiscas-RetenSur",
        "_segmentIndex": 0,
        "_position": 0
      },
      "geometry": {
        "type": "Point",
        "coordinates": [
          -73.357903,
          5.545021
        ]
      }
    },
    {
      "type": "Feature",
      "properties": {
        "_source": "Ruta5-Arboleda-Muiscas-RetenSur",
        "_segmentIndex": 0,
        "_position": 1
      },
      "geometry": {
        "type": "Point",
        "coordinates": [
          -73.35809832034914,
          5.54542646327965
        ]
      }
    },
    {
      "type": "Feature",
      "properties": {
        "_source": "Ruta5-Arboleda-Muiscas-RetenSur",
        "_segmentIndex": 0,
        "_position": 2
      },
      "geometry": {
        "type": "Point",
        "coordinates": [
          -73.3582936409667,
          5.545831926495261
        ]
      }
    },
    {
      "type": "Feature",
      "properties": {
        "_source": "Ruta5-Arboleda-Muiscas-RetenSur",
        "_segmentIndex": 0,
        "_position": 3
      },
      "geometry": {
        "type": "Point",
        "coordinates": [
          -73.35848896185269,
          5.546237389646824
        ]
      }
    },
    {
      "type": "Feature",
      "properties": {
        "_source": "Ruta5-Arboleda-Muiscas-RetenSur",
        "_segmentIndex": 0,
        "_position": 4
      },
      "geometry": {
        "type": "Point",
        "coordinates": [
          -73.35869217008862,
          5.546638990920958
        ]
      }
    },
    {
      "type": "Feature",
      "properties": {
        "_source": "Ruta5-Arboleda-Muiscas-RetenSur",
        "_segmentIndex": 0,
        "_position": 5
      },
      "geometry": {
        "type": "Point",
        "coordinates": [
          -73.35889567342605,
          5.547040447768337
        ]
      }
    },
    {
      "type": "Feature",
      "properties": {
        "_source": "Ruta5-Arboleda-Muiscas-RetenSur",
        "_segmentIndex": 0,
        "_position": 6
      },
      "geometry": {
        "type": "Point",
        "coordinates": [
          -73.35909917704043,
          5.547441904546177
        ]
      }
    },
    {
      "type": "Feature",
      "properties": {
        "_source": "Ruta5-Arboleda-Muiscas-RetenSur",
        "_segmentIndex": 0,
        "_position": 7
      },
      "geometry": {
        "type": "Point",
        "coordinates": [
          -73.35930316225715,
          5.547843117548067
        ]
      }
    },
    {
      "type": "Feature",
      "properties": {
        "_source": "Ruta5-Arboleda-Muiscas-RetenSur",
        "_segmentIndex": 0,
        "_position": 8
      },
      "geometry": {
        "type": "Point",
        "coordinates": [
          -73.35950933679656,
          5.548243222114603
        ]
      }
    },
    {
      "type": "Feature",
      "properties": {
        "_source": "Ruta5-Arboleda-Muiscas-RetenSur",
        "_segmentIndex": 0,
        "_position": 9
      },
      "geometry": {
        "type": "Point",
        "coordinates": [
          -73.35971551161569,
          5.548643326609748
        ]
      }
    },
    {
      "type": "Feature",
      "properties": {
        "_source": "Ruta5-Arboleda-Muiscas-RetenSur",
        "_segmentIndex": 0,
        "_position": 10
      },
      "geometry": {
        "type": "Point",
        "coordinates": [
          -73.35992168671454,
          5.5490434310334935
        ]
      }
    },
    {
      "type": "Feature",
      "properties": {
        "_source": "Ruta5-Arboleda-Muiscas-RetenSur",
        "_segmentIndex": 0,
        "_position": 11
      },
      "geometry": {
        "type": "Point",
        "coordinates": [
          -73.36012563458624,
          5.549444660941456
        ]
      }
    },
    {
      "type": "Feature",
      "properties": {
        "_source": "Ruta5-Arboleda-Muiscas-RetenSur",
        "_segmentIndex": 0,
        "_position": 0
      },
      "geometry": {
        "type": "Point",
        "coordinates": [
          -73.360392,
          5.549688
        ]
      }
    },
    {
      "type": "Feature",
      "properties": {
        "_source": "Ruta5-Arboleda-Muiscas-RetenSur",
        "_segmentIndex": 0,
        "_position": 1
      },
      "geometry": {
        "type": "Point",
        "coordinates": [
          -73.36061259973549,
          5.549295590593981
        ]
      }
    },
    {
      "type": "Feature",
      "properties": {
        "_source": "Ruta5-Arboleda-Muiscas-RetenSur",
        "_segmentIndex": 0,
        "_position": 2
      },
      "geometry": {
        "type": "Point",
        "coordinates": [
          -73.3608331991774,
          5.548903181106211
        ]
      }
    },
    {
      "type": "Feature",
      "properties": {
        "_source": "Ruta5-Arboleda-Muiscas-RetenSur",
        "_segmentIndex": 0,
        "_position": 3
      },
      "geometry": {
        "type": "Point",
        "coordinates": [
          -73.36105379832576,
          5.5485107715367
        ]
      }
    },
    {
      "type": "Feature",
      "properties": {
        "_source": "Ruta5-Arboleda-Muiscas-RetenSur",
        "_segmentIndex": 0,
        "_position": 4
      },
      "geometry": {
        "type": "Point",
        "coordinates": [
          -73.36127251663724,
          5.548117323450378
        ]
      }
    },
    {
      "type": "Feature",
      "properties": {
        "_source": "Ruta5-Arboleda-Muiscas-RetenSur",
        "_segmentIndex": 0,
        "_position": 5
      },
      "geometry": {
        "type": "Point",
        "coordinates": [
          -73.36149027866722,
          5.547723347313519
        ]
      }
    },
    {
      "type": "Feature",
      "properties": {
        "_source": "Ruta5-Arboleda-Muiscas-RetenSur",
        "_segmentIndex": 0,
        "_position": 6
      },
      "geometry": {
        "type": "Point",
        "coordinates": [
          -73.36170820273665,
          5.547329460021789
        ]
      }
    },
    {
      "type": "Feature",
      "properties": {
        "_source": "Ruta5-Arboleda-Muiscas-RetenSur",
        "_segmentIndex": 0,
        "_position": 7
      },
      "geometry": {
        "type": "Point",
        "coordinates": [
          -73.36192612651507,
          5.546935572650311
        ]
      }
    },
    {
      "type": "Feature",
      "properties": {
        "_source": "Ruta5-Arboleda-Muiscas-RetenSur",
        "_segmentIndex": 0,
        "_position": 8
      },
      "geometry": {
        "type": "Point",
        "coordinates": [
          -73.36215690501113,
          5.546549046458708
        ]
      }
    },
    {
      "type": "Feature",
      "properties": {
        "_source": "Ruta5-Arboleda-Muiscas-RetenSur",
        "_segmentIndex": 0,
        "_position": 9
      },
      "geometry": {
        "type": "Point",
        "coordinates": [
          -73.36238770356535,
          5.546162498490477
        ]
      }
    },
    {
      "type": "Feature",
      "properties": {
        "_source": "Ruta5-Arboleda-Muiscas-RetenSur",
        "_segmentIndex": 0,
        "_position": 10
      },
      "geometry": {
        "type": "Point",
        "coordinates": [
          -73.36261545978691,
          5.5457741662820075
        ]
      }
    },
    {
      "type": "Feature",
      "properties": {
        "_source": "Ruta5-Arboleda-Muiscas-RetenSur",
        "_segmentIndex": 0,
        "_position": 11
      },
      "geometry": {
        "type": "Point",
        "coordinates": [
          -73.36284056719536,
          5.545384301994037
        ]
      }
    },
    {
      "type": "Feature",
      "properties": {
        "_source": "Ruta5-Arboleda-Muiscas-RetenSur",
        "_segmentIndex": 0,
        "_position": 12
      },
      "geometry": {
        "type": "Point",
        "coordinates": [
          -73.36305734182392,
          5.544989850624545
        ]
      }
    },
    {
      "type": "Feature",
      "properties": {
        "_source": "Ruta5-Arboleda-Muiscas-RetenSur",
        "_segmentIndex": 0,
        "_position": 13
      },
      "geometry": {
        "type": "Point",
        "coordinates": [
          -73.3632694836596,
          5.54459284900317
        ]
      }
    },
    {
      "type": "Feature",
      "properties": {
        "_source": "Ruta5-Arboleda-Muiscas-RetenSur",
        "_segmentIndex": 0,
        "_position": 14
      },
      "geometry": {
        "type": "Point",
        "coordinates": [
          -73.36348649151273,
          5.544198497683023
        ]
      }
    },
    {
      "type": "Feature",
      "properties": {
        "_source": "Ruta5-Arboleda-Muiscas-RetenSur",
        "_segmentIndex": 0,
        "_position": 15
      },
      "geometry": {
        "type": "Point",
        "coordinates": [
          -73.3637080498083,
          5.543806624788195
        ]
      }
    },
    {
      "type": "Feature",
      "properties": {
        "_source": "Ruta5-Arboleda-Muiscas-RetenSur",
        "_segmentIndex": 0,
        "_position": 16
      },
      "geometry": {
        "type": "Point",
        "coordinates": [
          -73.3639296078097,
          5.543414751810987
        ]
      }
    },
    {
      "type": "Feature",
      "properties": {
        "_source": "Ruta5-Arboleda-Muiscas-RetenSur",
        "_segmentIndex": 0,
        "_position": 17
      },
      "geometry": {
        "type": "Point",
        "coordinates": [
          -73.36415116551696,
          5.543022878751405
        ]
      }
    },
    {
      "type": "Feature",
      "properties": {
        "_source": "Ruta5-Arboleda-Muiscas-RetenSur",
        "_segmentIndex": 0,
        "_position": 0
      },
      "geometry": {
        "type": "Point",
        "coordinates": [
          -73.36419,
          5.542784
        ]
      }
    },
    {
      "type": "Feature",
      "properties": {
        "_source": "Ruta5-Arboleda-Muiscas-RetenSur",
        "_segmentIndex": 0,
        "_position": 1
      },
      "geometry": {
        "type": "Point",
        "coordinates": [
          -73.36376969177226,
          5.542619760525509
        ]
      }
    },
    {
      "type": "Feature",
      "properties": {
        "_source": "Ruta5-Arboleda-Muiscas-RetenSur",
        "_segmentIndex": 0,
        "_position": 2
      },
      "geometry": {
        "type": "Point",
        "coordinates": [
          -73.36333560445904,
          5.54249549045437
        ]
      }
    },
    {
      "type": "Feature",
      "properties": {
        "_source": "Ruta5-Arboleda-Muiscas-RetenSur",
        "_segmentIndex": 0,
        "_position": 3
      },
      "geometry": {
        "type": "Point",
        "coordinates": [
          -73.36290603121995,
          5.542356269478361
        ]
      }
    },
    {
      "type": "Feature",
      "properties": {
        "_source": "Ruta5-Arboleda-Muiscas-RetenSur",
        "_segmentIndex": 0,
        "_position": 4
      },
      "geometry": {
        "type": "Point",
        "coordinates": [
          -73.36247645818342,
          5.5422170481927475
        ]
      }
    },
    {
      "type": "Feature",
      "properties": {
        "_source": "Ruta5-Arboleda-Muiscas-RetenSur",
        "_segmentIndex": 0,
        "_position": 0
      },
      "geometry": {
        "type": "Point",
        "coordinates": [
          -73.362393,
          5.54219
        ]
      }
    },
    {
      "type": "Feature",
      "properties": {
        "_source": "Ruta5-Arboleda-Muiscas-RetenSur",
        "_segmentIndex": 0,
        "_position": 1
      },
      "geometry": {
        "type": "Point",
        "coordinates": [
          -73.3625572838125,
          5.541771124327394
        ]
      }
    },
    {
      "type": "Feature",
      "properties": {
        "_source": "Ruta5-Arboleda-Muiscas-RetenSur",
        "_segmentIndex": 0,
        "_position": 2
      },
      "geometry": {
        "type": "Point",
        "coordinates": [
          -73.36271335850167,
          5.541349154099537
        ]
      }
    },
    {
      "type": "Feature",
      "properties": {
        "_source": "Ruta5-Arboleda-Muiscas-RetenSur",
        "_segmentIndex": 0,
        "_position": 3
      },
      "geometry": {
        "type": "Point",
        "coordinates": [
          -73.36286950507434,
          5.540927208435993
        ]
      }
    },
    {
      "type": "Feature",
      "properties": {
        "_source": "Ruta5-Arboleda-Muiscas-RetenSur",
        "_segmentIndex": 0,
        "_position": 4
      },
      "geometry": {
        "type": "Point",
        "coordinates": [
          -73.36303057501767,
          5.540507098199161
        ]
      }
    },
    {
      "type": "Feature",
      "properties": {
        "_source": "Ruta5-Arboleda-Muiscas-RetenSur",
        "_segmentIndex": 0,
        "_position": 5
      },
      "geometry": {
        "type": "Point",
        "coordinates": [
          -73.36323069952172,
          5.540109417442348
        ]
      }
    },
    {
      "type": "Feature",
      "properties": {
        "_source": "Ruta5-Arboleda-Muiscas-RetenSur",
        "_segmentIndex": 0,
        "_position": 6
      },
      "geometry": {
        "type": "Point",
        "coordinates": [
          -73.36356467152939,
          5.539808819976544
        ]
      }
    },
    {
      "type": "Feature",
      "properties": {
        "_source": "Ruta5-Arboleda-Muiscas-RetenSur",
        "_segmentIndex": 0,
        "_position": 7
      },
      "geometry": {
        "type": "Point",
        "coordinates": [
          -73.36383105259341,
          5.53945873694071
        ]
      }
    },
    {
      "type": "Feature",
      "properties": {
        "_source": "Ruta5-Arboleda-Muiscas-RetenSur",
        "_segmentIndex": 0,
        "_position": 8
      },
      "geometry": {
        "type": "Point",
        "coordinates": [
          -73.36400690013824,
          5.5390445862799895
        ]
      }
    },
    {
      "type": "Feature",
      "properties": {
        "_source": "Ruta5-Arboleda-Muiscas-RetenSur",
        "_segmentIndex": 0,
        "_position": 9
      },
      "geometry": {
        "type": "Point",
        "coordinates": [
          -73.36418255997444,
          5.538630357116939
        ]
      }
    },
    {
      "type": "Feature",
      "properties": {
        "_source": "Ruta5-Arboleda-Muiscas-RetenSur",
        "_segmentIndex": 0,
        "_position": 10
      },
      "geometry": {
        "type": "Point",
        "coordinates": [
          -73.36435437805271,
          5.538214544558951
        ]
      }
    },
    {
      "type": "Feature",
      "properties": {
        "_source": "Ruta5-Arboleda-Muiscas-RetenSur",
        "_segmentIndex": 0,
        "_position": 11
      },
      "geometry": {
        "type": "Point",
        "coordinates": [
          -73.36453147323714,
          5.537800903632997
        ]
      }
    },
    {
      "type": "Feature",
      "properties": {
        "_source": "Ruta5-Arboleda-Muiscas-RetenSur",
        "_segmentIndex": 0,
        "_position": 12
      },
      "geometry": {
        "type": "Point",
        "coordinates": [
          -73.36470071062566,
          5.537383986742167
        ]
      }
    },
    {
      "type": "Feature",
      "properties": {
        "_source": "Ruta5-Arboleda-Muiscas-RetenSur",
        "_segmentIndex": 0,
        "_position": 13
      },
      "geometry": {
        "type": "Point",
        "coordinates": [
          -73.36487674279448,
          5.536969961188215
        ]
      }
    },
    {
      "type": "Feature",
      "properties": {
        "_source": "Ruta5-Arboleda-Muiscas-RetenSur",
        "_segmentIndex": 0,
        "_position": 14
      },
      "geometry": {
        "type": "Point",
        "coordinates": [
          -73.36506461594061,
          5.536561027767727
        ]
      }
    },
    {
      "type": "Feature",
      "properties": {
        "_source": "Ruta5-Arboleda-Muiscas-RetenSur",
        "_segmentIndex": 0,
        "_position": 15
      },
      "geometry": {
        "type": "Point",
        "coordinates": [
          -73.36523887349497,
          5.536146528735261
        ]
      }
    },
    {
      "type": "Feature",
      "properties": {
        "_source": "Ruta5-Arboleda-Muiscas-RetenSur",
        "_segmentIndex": 0,
        "_position": 16
      },
      "geometry": {
        "type": "Point",
        "coordinates": [
          -73.36538784706521,
          5.535722019967334
        ]
      }
    },
    {
      "type": "Feature",
      "properties": {
        "_source": "Ruta5-Arboleda-Muiscas-RetenSur",
        "_segmentIndex": 0,
        "_position": 17
      },
      "geometry": {
        "type": "Point",
        "coordinates": [
          -73.36556975493289,
          5.535310956046142
        ]
      }
    },
    {
      "type": "Feature",
      "properties": {
        "_source": "Ruta5-Arboleda-Muiscas-RetenSur",
        "_segmentIndex": 0,
        "_position": 18
      },
      "geometry": {
        "type": "Point",
        "coordinates": [
          -73.3657404352277,
          5.534894723399085
        ]
      }
    },
    {
      "type": "Feature",
      "properties": {
        "_source": "Ruta5-Arboleda-Muiscas-RetenSur",
        "_segmentIndex": 0,
        "_position": 19
      },
      "geometry": {
        "type": "Point",
        "coordinates": [
          -73.36591680662558,
          5.53448181672224
        ]
      }
    },
    {
      "type": "Feature",
      "properties": {
        "_source": "Ruta5-Arboleda-Muiscas-RetenSur",
        "_segmentIndex": 0,
        "_position": 20
      },
      "geometry": {
        "type": "Point",
        "coordinates": [
          -73.36610553859016,
          5.534074031861836
        ]
      }
    },
    {
      "type": "Feature",
      "properties": {
        "_source": "Ruta5-Arboleda-Muiscas-RetenSur",
        "_segmentIndex": 0,
        "_position": 21
      },
      "geometry": {
        "type": "Point",
        "coordinates": [
          -73.3663051036318,
          5.533671421201865
        ]
      }
    },
    {
      "type": "Feature",
      "properties": {
        "_source": "Ruta5-Arboleda-Muiscas-RetenSur",
        "_segmentIndex": 0,
        "_position": 0
      },
      "geometry": {
        "type": "Point",
        "coordinates": [
          -73.366395,
          5.533481
        ]
      }
    },
    {
      "type": "Feature",
      "properties": {
        "_source": "Ruta5-Arboleda-Muiscas-RetenSur",
        "_segmentIndex": 0,
        "_position": 1
      },
      "geometry": {
        "type": "Point",
        "coordinates": [
          -73.36682718153813,
          5.53361140977068
        ]
      }
    },
    {
      "type": "Feature",
      "properties": {
        "_source": "Ruta5-Arboleda-Muiscas-RetenSur",
        "_segmentIndex": 0,
        "_position": 2
      },
      "geometry": {
        "type": "Point",
        "coordinates": [
          -73.36725842325146,
          5.533745398692646
        ]
      }
    },
    {
      "type": "Feature",
      "properties": {
        "_source": "Ruta5-Arboleda-Muiscas-RetenSur",
        "_segmentIndex": 0,
        "_position": 0
      },
      "geometry": {
        "type": "Point",
        "coordinates": [
          -73.367368,
          5.533792
        ]
      }
    },
    {
      "type": "Feature",
      "properties": {
        "_source": "Ruta5-Arboleda-Muiscas-RetenSur",
        "_segmentIndex": 0,
        "_position": 1
      },
      "geometry": {
        "type": "Point",
        "coordinates": [
          -73.36759254382338,
          5.533407855678312
        ]
      }
    },
    {
      "type": "Feature",
      "properties": {
        "_source": "Ruta5-Arboleda-Muiscas-RetenSur",
        "_segmentIndex": 0,
        "_position": 2
      },
      "geometry": {
        "type": "Point",
        "coordinates": [
          -73.3677865063152,
          5.533001763576128
        ]
      }
    },
    {
      "type": "Feature",
      "properties": {
        "_source": "Ruta5-Arboleda-Muiscas-RetenSur",
        "_segmentIndex": 0,
        "_position": 3
      },
      "geometry": {
        "type": "Point",
        "coordinates": [
          -73.36798485352445,
          5.53259776112545
        ]
      }
    },
    {
      "type": "Feature",
      "properties": {
        "_source": "Ruta5-Arboleda-Muiscas-RetenSur",
        "_segmentIndex": 0,
        "_position": 4
      },
      "geometry": {
        "type": "Point",
        "coordinates": [
          -73.36817452507373,
          5.532189888559351
        ]
      }
    },
    {
      "type": "Feature",
      "properties": {
        "_source": "Ruta5-Arboleda-Muiscas-RetenSur",
        "_segmentIndex": 0,
        "_position": 5
      },
      "geometry": {
        "type": "Point",
        "coordinates": [
          -73.36833457877509,
          5.531769596089546
        ]
      }
    },
    {
      "type": "Feature",
      "properties": {
        "_source": "Ruta5-Arboleda-Muiscas-RetenSur",
        "_segmentIndex": 0,
        "_position": 6
      },
      "geometry": {
        "type": "Point",
        "coordinates": [
          -73.36848212011064,
          5.531344593119556
        ]
      }
    },
    {
      "type": "Feature",
      "properties": {
        "_source": "Ruta5-Arboleda-Muiscas-RetenSur",
        "_segmentIndex": 0,
        "_position": 7
      },
      "geometry": {
        "type": "Point",
        "coordinates": [
          -73.3685191043888,
          5.530899563610683
        ]
      }
    },
    {
      "type": "Feature",
      "properties": {
        "_source": "Ruta5-Arboleda-Muiscas-RetenSur",
        "_segmentIndex": 0,
        "_position": 8
      },
      "geometry": {
        "type": "Point",
        "coordinates": [
          -73.36859094769429,
          5.530455909782808
        ]
      }
    },
    {
      "type": "Feature",
      "properties": {
        "_source": "Ruta5-Arboleda-Muiscas-RetenSur",
        "_segmentIndex": 0,
        "_position": 9
      },
      "geometry": {
        "type": "Point",
        "coordinates": [
          -73.36867407382914,
          5.530013927317865
        ]
      }
    },
    {
      "type": "Feature",
      "properties": {
        "_source": "Ruta5-Arboleda-Muiscas-RetenSur",
        "_segmentIndex": 0,
        "_position": 10
      },
      "geometry": {
        "type": "Point",
        "coordinates": [
          -73.36875575179165,
          5.529571701518079
        ]
      }
    },
    {
      "type": "Feature",
      "properties": {
        "_source": "Ruta5-Arboleda-Muiscas-RetenSur",
        "_segmentIndex": 0,
        "_position": 11
      },
      "geometry": {
        "type": "Point",
        "coordinates": [
          -73.36882254107752,
          5.529126982633379
        ]
      }
    },
    {
      "type": "Feature",
      "properties": {
        "_source": "Ruta5-Arboleda-Muiscas-RetenSur",
        "_segmentIndex": 0,
        "_position": 12
      },
      "geometry": {
        "type": "Point",
        "coordinates": [
          -73.36890454222961,
          5.528684836058482
        ]
      }
    },
    {
      "type": "Feature",
      "properties": {
        "_source": "Ruta5-Arboleda-Muiscas-RetenSur",
        "_segmentIndex": 0,
        "_position": 13
      },
      "geometry": {
        "type": "Point",
        "coordinates": [
          -73.36898248481256,
          5.52824194650051
        ]
      }
    },
    {
      "type": "Feature",
      "properties": {
        "_source": "Ruta5-Arboleda-Muiscas-RetenSur",
        "_segmentIndex": 0,
        "_position": 14
      },
      "geometry": {
        "type": "Point",
        "coordinates": [
          -73.3690680492042,
          5.527800425501398
        ]
      }
    },
    {
      "type": "Feature",
      "properties": {
        "_source": "Ruta5-Arboleda-Muiscas-RetenSur",
        "_segmentIndex": 0,
        "_position": 15
      },
      "geometry": {
        "type": "Point",
        "coordinates": [
          -73.36915041167238,
          5.527358322852671
        ]
      }
    },
    {
      "type": "Feature",
      "properties": {
        "_source": "Ruta5-Arboleda-Muiscas-RetenSur",
        "_segmentIndex": 0,
        "_position": 0
      },
      "geometry": {
        "type": "Point",
        "coordinates": [
          -73.369198,
          5.527079
        ]
      }
    },
    {
      "type": "Feature",
      "properties": {
        "_source": "Ruta5-Arboleda-Muiscas-RetenSur",
        "_segmentIndex": 0,
        "_position": 1
      },
      "geometry": {
        "type": "Point",
        "coordinates": [
          -73.36933995686282,
          5.526652120628239
        ]
      }
    },
    {
      "type": "Feature",
      "properties": {
        "_source": "Ruta5-Arboleda-Muiscas-RetenSur",
        "_segmentIndex": 0,
        "_position": 2
      },
      "geometry": {
        "type": "Point",
        "coordinates": [
          -73.36948601634336,
          5.526226610619881
        ]
      }
    },
    {
      "type": "Feature",
      "properties": {
        "_source": "Ruta5-Arboleda-Muiscas-RetenSur",
        "_segmentIndex": 0,
        "_position": 3
      },
      "geometry": {
        "type": "Point",
        "coordinates": [
          -73.3696338486734,
          5.525801708568867
        ]
      }
    },
    {
      "type": "Feature",
      "properties": {
        "_source": "Ruta5-Arboleda-Muiscas-RetenSur",
        "_segmentIndex": 0,
        "_position": 4
      },
      "geometry": {
        "type": "Point",
        "coordinates": [
          -73.36977912114786,
          5.5253759376212574
        ]
      }
    },
    {
      "type": "Feature",
      "properties": {
        "_source": "Ruta5-Arboleda-Muiscas-RetenSur",
        "_segmentIndex": 0,
        "_position": 5
      },
      "geometry": {
        "type": "Point",
        "coordinates": [
          -73.36992287918248,
          5.524949651928218
        ]
      }
    },
    {
      "type": "Feature",
      "properties": {
        "_source": "Ruta5-Arboleda-Muiscas-RetenSur",
        "_segmentIndex": 0,
        "_position": 6
      },
      "geometry": {
        "type": "Point",
        "coordinates": [
          -73.37006119500234,
          5.524522448518345
        ]
      }
    },
    {
      "type": "Feature",
      "properties": {
        "_source": "Ruta5-Arboleda-Muiscas-RetenSur",
        "_segmentIndex": 0,
        "_position": 0
      },
      "geometry": {
        "type": "Point",
        "coordinates": [
          -73.370111,
          5.52412
        ]
      }
    },
    {
      "type": "Feature",
      "properties": {
        "_source": "Ruta5-Arboleda-Muiscas-RetenSur",
        "_segmentIndex": 0,
        "_position": 1
      },
      "geometry": {
        "type": "Point",
        "coordinates": [
          -73.37026384182077,
          5.5236968686864625
        ]
      }
    },
    {
      "type": "Feature",
      "properties": {
        "_source": "Ruta5-Arboleda-Muiscas-RetenSur",
        "_segmentIndex": 0,
        "_position": 2
      },
      "geometry": {
        "type": "Point",
        "coordinates": [
          -73.37040697698151,
          5.523271162811093
        ]
      }
    },
    {
      "type": "Feature",
      "properties": {
        "_source": "Ruta5-Arboleda-Muiscas-RetenSur",
        "_segmentIndex": 0,
        "_position": 3
      },
      "geometry": {
        "type": "Point",
        "coordinates": [
          -73.37038831356809,
          5.522825818773532
        ]
      }
    },
    {
      "type": "Feature",
      "properties": {
        "_source": "Ruta5-Arboleda-Muiscas-RetenSur",
        "_segmentIndex": 0,
        "_position": 4
      },
      "geometry": {
        "type": "Point",
        "coordinates": [
          -73.37032652698431,
          5.522381075130595
        ]
      }
    },
    {
      "type": "Feature",
      "properties": {
        "_source": "Ruta5-Arboleda-Muiscas-RetenSur",
        "_segmentIndex": 0,
        "_position": 5
      },
      "geometry": {
        "type": "Point",
        "coordinates": [
          -73.37038069167129,
          5.521934982510298
        ]
      }
    },
    {
      "type": "Feature",
      "properties": {
        "_source": "Ruta5-Arboleda-Muiscas-RetenSur",
        "_segmentIndex": 0,
        "_position": 6
      },
      "geometry": {
        "type": "Point",
        "coordinates": [
          -73.37043135353728,
          5.5214881711017565
        ]
      }
    },
    {
      "type": "Feature",
      "properties": {
        "_source": "Ruta5-Arboleda-Muiscas-RetenSur",
        "_segmentIndex": 0,
        "_position": 7
      },
      "geometry": {
        "type": "Point",
        "coordinates": [
          -73.37049626409623,
          5.5210432123965445
        ]
      }
    },
    {
      "type": "Feature",
      "properties": {
        "_source": "Ruta5-Arboleda-Muiscas-RetenSur",
        "_segmentIndex": 0,
        "_position": 0
      },
      "geometry": {
        "type": "Point",
        "coordinates": [
          -73.370539,
          5.520631
        ]
      }
    },
    {
      "type": "Feature",
      "properties": {
        "_source": "Ruta5-Arboleda-Muiscas-RetenSur",
        "_segmentIndex": 0,
        "_position": 1
      },
      "geometry": {
        "type": "Point",
        "coordinates": [
          -73.37009332400135,
          5.520557773708048
        ]
      }
    },
    {
      "type": "Feature",
      "properties": {
        "_source": "Ruta5-Arboleda-Muiscas-RetenSur",
        "_segmentIndex": 0,
        "_position": 0
      },
      "geometry": {
        "type": "Point",
        "coordinates": [
          -73.369737,
          5.520528
        ]
      }
    },
    {
      "type": "Feature",
      "properties": {
        "_source": "Ruta5-Arboleda-Muiscas-RetenSur",
        "_segmentIndex": 0,
        "_position": 1
      },
      "geometry": {
        "type": "Point",
        "coordinates": [
          -73.36979591886926,
          5.520082180562145
        ]
      }
    },
    {
      "type": "Feature",
      "properties": {
        "_source": "Ruta5-Arboleda-Muiscas-RetenSur",
        "_segmentIndex": 0,
        "_position": 2
      },
      "geometry": {
        "type": "Point",
        "coordinates": [
          -73.36985400431575,
          5.519636275614974
        ]
      }
    },
    {
      "type": "Feature",
      "properties": {
        "_source": "Ruta5-Arboleda-Muiscas-RetenSur",
        "_segmentIndex": 0,
        "_position": 3
      },
      "geometry": {
        "type": "Point",
        "coordinates": [
          -73.36991138822076,
          5.519190296384633
        ]
      }
    },
    {
      "type": "Feature",
      "properties": {
        "_source": "Ruta5-Arboleda-Muiscas-RetenSur",
        "_segmentIndex": 0,
        "_position": 4
      },
      "geometry": {
        "type": "Point",
        "coordinates": [
          -73.36997719642937,
          5.518745435885614
        ]
      }
    },
    {
      "type": "Feature",
      "properties": {
        "_source": "Ruta5-Arboleda-Muiscas-RetenSur",
        "_segmentIndex": 0,
        "_position": 5
      },
      "geometry": {
        "type": "Point",
        "coordinates": [
          -73.37002827193385,
          5.518298858901278
        ]
      }
    },
    {
      "type": "Feature",
      "properties": {
        "_source": "Ruta5-Arboleda-Muiscas-RetenSur",
        "_segmentIndex": 0,
        "_position": 6
      },
      "geometry": {
        "type": "Point",
        "coordinates": [
          -73.37013591121053,
          5.517864980086131
        ]
      }
    },
    {
      "type": "Feature",
      "properties": {
        "_source": "Ruta5-Arboleda-Muiscas-RetenSur",
        "_segmentIndex": 0,
        "_position": 7
      },
      "geometry": {
        "type": "Point",
        "coordinates": [
          -73.37030507660589,
          5.517450611176789
        ]
      }
    },
    {
      "type": "Feature",
      "properties": {
        "_source": "Ruta5-Arboleda-Muiscas-RetenSur",
        "_segmentIndex": 0,
        "_position": 8
      },
      "geometry": {
        "type": "Point",
        "coordinates": [
          -73.37041348115388,
          5.517014089283789
        ]
      }
    },
    {
      "type": "Feature",
      "properties": {
        "_source": "Ruta5-Arboleda-Muiscas-RetenSur",
        "_segmentIndex": 0,
        "_position": 9
      },
      "geometry": {
        "type": "Point",
        "coordinates": [
          -73.37050275464001,
          5.516573298684808
        ]
      }
    },
    {
      "type": "Feature",
      "properties": {
        "_source": "Ruta5-Arboleda-Muiscas-RetenSur",
        "_segmentIndex": 0,
        "_position": 10
      },
      "geometry": {
        "type": "Point",
        "coordinates": [
          -73.37059578375955,
          5.516133299671912
        ]
      }
    },
    {
      "type": "Feature",
      "properties": {
        "_source": "Ruta5-Arboleda-Muiscas-RetenSur",
        "_segmentIndex": 0,
        "_position": 11
      },
      "geometry": {
        "type": "Point",
        "coordinates": [
          -73.37069354887205,
          5.51569429711676
        ]
      }
    },
    {
      "type": "Feature",
      "properties": {
        "_source": "Ruta5-Arboleda-Muiscas-RetenSur",
        "_segmentIndex": 0,
        "_position": 12
      },
      "geometry": {
        "type": "Point",
        "coordinates": [
          -73.37079135358069,
          5.515255332040089
        ]
      }
    },
    {
      "type": "Feature",
      "properties": {
        "_source": "Ruta5-Arboleda-Muiscas-RetenSur",
        "_segmentIndex": 0,
        "_position": 13
      },
      "geometry": {
        "type": "Point",
        "coordinates": [
          -73.3709112337156,
          5.514821840100915
        ]
      }
    },
    {
      "type": "Feature",
      "properties": {
        "_source": "Ruta5-Arboleda-Muiscas-RetenSur",
        "_segmentIndex": 0,
        "_position": 14
      },
      "geometry": {
        "type": "Point",
        "coordinates": [
          -73.37110549934641,
          5.514416435715054
        ]
      }
    },
    {
      "type": "Feature",
      "properties": {
        "_source": "Ruta5-Arboleda-Muiscas-RetenSur",
        "_segmentIndex": 0,
        "_position": 15
      },
      "geometry": {
        "type": "Point",
        "coordinates": [
          -73.37132050373927,
          5.514020968597587
        ]
      }
    },
    {
      "type": "Feature",
      "properties": {
        "_source": "Ruta5-Arboleda-Muiscas-RetenSur",
        "_segmentIndex": 0,
        "_position": 16
      },
      "geometry": {
        "type": "Point",
        "coordinates": [
          -73.37153028626254,
          5.51362274181867
        ]
      }
    },
    {
      "type": "Feature",
      "properties": {
        "_source": "Ruta5-Arboleda-Muiscas-RetenSur",
        "_segmentIndex": 0,
        "_position": 0
      },
      "geometry": {
        "type": "Point",
        "coordinates": [
          -73.371578,
          5.51336
        ]
      }
    },
    {
      "type": "Feature",
      "properties": {
        "_source": "Ruta5-Arboleda-Muiscas-RetenSur",
        "_segmentIndex": 0,
        "_position": 1
      },
      "geometry": {
        "type": "Point",
        "coordinates": [
          -73.37179341790527,
          5.512965039249138
        ]
      }
    },
    {
      "type": "Feature",
      "properties": {
        "_source": "Ruta5-Arboleda-Muiscas-RetenSur",
        "_segmentIndex": 0,
        "_position": 2
      },
      "geometry": {
        "type": "Point",
        "coordinates": [
          -73.37198101459151,
          5.512556661270992
        ]
      }
    },
    {
      "type": "Feature",
      "properties": {
        "_source": "Ruta5-Arboleda-Muiscas-RetenSur",
        "_segmentIndex": 0,
        "_position": 3
      },
      "geometry": {
        "type": "Point",
        "coordinates": [
          -73.3721800877062,
          5.512153015553982
        ]
      }
    },
    {
      "type": "Feature",
      "properties": {
        "_source": "Ruta5-Arboleda-Muiscas-RetenSur",
        "_segmentIndex": 0,
        "_position": 4
      },
      "geometry": {
        "type": "Point",
        "coordinates": [
          -73.37235721430493,
          5.511739406821805
        ]
      }
    },
    {
      "type": "Feature",
      "properties": {
        "_source": "Ruta5-Arboleda-Muiscas-RetenSur",
        "_segmentIndex": 0,
        "_position": 5
      },
      "geometry": {
        "type": "Point",
        "coordinates": [
          -73.37254683977788,
          5.5113312791884095
        ]
      }
    },
    {
      "type": "Feature",
      "properties": {
        "_source": "Ruta5-Arboleda-Muiscas-RetenSur",
        "_segmentIndex": 0,
        "_position": 6
      },
      "geometry": {
        "type": "Point",
        "coordinates": [
          -73.37273646499018,
          5.5109231514950165
        ]
      }
    },
    {
      "type": "Feature",
      "properties": {
        "_source": "Ruta5-Arboleda-Muiscas-RetenSur",
        "_segmentIndex": 0,
        "_position": 7
      },
      "geometry": {
        "type": "Point",
        "coordinates": [
          -73.37291407248138,
          5.510509702247793
        ]
      }
    },
    {
      "type": "Feature",
      "properties": {
        "_source": "Ruta5-Arboleda-Muiscas-RetenSur",
        "_segmentIndex": 0,
        "_position": 8
      },
      "geometry": {
        "type": "Point",
        "coordinates": [
          -73.37309305843004,
          5.510096845043977
        ]
      }
    },
    {
      "type": "Feature",
      "properties": {
        "_source": "Ruta5-Arboleda-Muiscas-RetenSur",
        "_segmentIndex": 0,
        "_position": 9
      },
      "geometry": {
        "type": "Point",
        "coordinates": [
          -73.37327363048567,
          5.509684669570033
        ]
      }
    }
  ]
}