{
  "type": "FeatureCollection",
  "features": [
    {
      "type": "Feature",
      "properties": {
        "_source": "Ruta8AT-LaFuente-Runta",
        "_segmentIndex": 0,
        "_position": 0
      },
      "geometry": {
        "type": "Point",
        "coordinates": [
          -73.366296,
          5.5484
        ]
      }
    },
    {
      "type": "Feature",
      "properties": {
        "_source": "Ruta8AT-LaFuente-Runta",
        "_segmentIndex": 0,
        "_position": 1
      },
      "geometry": {
        "type": "Point",
        "coordinates": [
          -73.36585219749891,
          5.54831588794846
        ]
      }
    },
    {
      "type": "Feature",
      "properties": {
        "_source": "Ruta8AT-LaFuente-Runta",
        "_segmentIndex": 0,
        "_position": 2
      },
      "geometry": {
        "type": "Point",
        "coordinates": [
          -73.36540888040565,
          5.5482294175578035
        ]
      }
    },
    {
      "type": "Feature",
      "properties": {
        "_source": "Ruta8AT-LaFuente-Runta",
        "_segmentIndex": 0,
        "_position": 0
      },
      "geometry": {
        "type": "Point",
        "coordinates": [
          -73.365352,
          5.548217
        ]
      }
    },
    {
      "type": "Feature",
      "properties": {
        "_source": "Ruta8AT-LaFuente-Runta",
        "_segmentIndex": 0,
        "_position": 1
      },
      "geometry": {
        "type": "Point",
        "coordinates": [
          -73.36547076657982,
          5.5486507904099
        ]
      }
    },
    {
      "type": "Feature",
      "properties": {
        "_source": "Ruta8AT-LaFuente-Runta",
        "_segmentIndex": 0,
        "_position": 2
      },
      "geometry": {
        "type": "Point",
        "coordinates": [
          -73.36550239389148,
          5.549091675311098
        ]
      }
    },
    {
      "type": "Feature",
      "properties": {
        "_source": "Ruta8AT-LaFuente-Runta",
        "_segmentIndex": 0,
        "_position": 3
      },
      "geometry": {
        "type": "Point",
        "coordinates": [
          -73.36563817517484,
          5.549519998930693
        ]
      }
    },
    {
      "type": "Feature",
      "properties": {
        "_source": "Ruta8AT-LaFuente-Runta",
        "_segmentIndex": 0,
        "_position": 0
      },
      "geometry": {
        "type": "Point",
        "coordinates": [
          -73.36561,
          5.549682
        ]
      }
    },
    {
      "type": "Feature",
      "properties": {
        "_source": "Ruta8AT-LaFuente-Runta",
        "_segmentIndex": 0,
        "_position": 1
      },
      "geometry": {
        "type": "Point",
        "coordinates": [
          -73.36515968192928,
          5.549645882391027
        ]
      }
    },
    {
      "type": "Feature",
      "properties": {
        "_source": "Ruta8AT-LaFuente-Runta",
        "_segmentIndex": 0,
        "_position": 2
      },
      "geometry": {
        "type": "Point",
        "coordinates": [
          -73.36470935664599,
          5.549609854368526
        ]
      }
    },
    {
      "type": "Feature",
      "properties": {
        "_source": "Ruta8AT-LaFuente-Runta",
        "_segmentIndex": 0,
        "_position": 3
      },
      "geometry": {
        "type": "Point",
        "coordinates": [
          -73.36425887666766,
          5.5495758321040505
        ]
      }
    },
    {
      "type": "Feature",
      "properties": {
        "_source": "Ruta8AT-LaFuente-Runta",
        "_segmentIndex": 0,
        "_position": 4
      },
      "geometry": {
        "type": "Point",
        "coordinates": [
          -73.36380830184393,
          5.5495430408438375
        ]
      }
    },
    {
      "type": "Feature",
      "properties": {
        "_source": "Ruta8AT-LaFuente-Runta",
        "_segmentIndex": 0,
        "_position": 5
      },
      "geometry": {
        "type": "Point",
        "coordinates": [
          -73.3633581263751,
          5.549505342729658
        ]
      }
    },
    {
      "type": "Feature",
      "properties": {
        "_source": "Ruta8AT-LaFuente-Runta",
        "_segmentIndex": 0,
        "_position": 6
      },
      "geometry": {
        "type": "Point",
        "coordinates": [
          -73.36290870640127,
          5.549461612266888
        ]
      }
    },
    {
      "type": "Feature",
      "properties": {
        "_source": "Ruta8AT-LaFuente-Runta",
        "_segmentIndex": 0,
        "_position": 7
      },
      "geometry": {
        "type": "Point",
        "coordinates": [
          -73.36247362265583,
          5.5493479190305655
        ]
      }
    },
    {
      "type": "Feature",
      "properties": {
        "_source": "Ruta8AT-LaFuente-Runta",
        "_segmentIndex": 0,
        "_position": 8
      },
      "geometry": {
        "type": "Point",
        "coordinates": [
          -73.36204539661648,
          5.549209295674056
        ]
      }
    },
    {
      "type": "Feature",
      "properties": {
        "_source": "Ruta8AT-LaFuente-Runta",
        "_segmentIndex": 0,
        "_position": 9
      },
      "geometry": {
        "type": "Point",
        "coordinates": [
          -73.3615947952954,
          5.549183506324037
        ]
      }
    },
    {
      "type": "Feature",
      "properties": {
        "_source": "Ruta8AT-LaFuente-Runta",
        "_segmentIndex": 0,
        "_position": 10
      },
      "geometry": {
        "type": "Point",
        "coordinates": [
          -73.36114471791883,
          5.54914475901167
        ]
      }
    },
    {
      "type": "Feature",
      "properties": {
        "_source": "Ruta8AT-LaFuente-Runta",
        "_segmentIndex": 0,
        "_position": 0
      },
      "geometry": {
        "type": "Point",
        "coordinates": [
          -73.360729,
          5.549101
        ]
      }
    },
    {
      "type": "Feature",
      "properties": {
        "_source": "Ruta8AT-LaFuente-Runta",
        "_segmentIndex": 0,
        "_position": 1
      },
      "geometry": {
        "type": "Point",
        "coordinates": [
          -73.36092106558812,
          5.548695082532771
        ]
      }
    },
    {
      "type": "Feature",
      "properties": {
        "_source": "Ruta8AT-LaFuente-Runta",
        "_segmentIndex": 0,
        "_position": 2
      },
      "geometry": {
        "type": "Point",
        "coordinates": [
          -73.36114120032072,
          5.548302439732388
        ]
      }
    },
    {
      "type": "Feature",
      "properties": {
        "_source": "Ruta8AT-LaFuente-Runta",
        "_segmentIndex": 0,
        "_position": 3
      },
      "geometry": {
        "type": "Point",
        "coordinates": [
          -73.36136658962484,
          5.5479127931561765
        ]
      }
    },
    {
      "type": "Feature",
      "properties": {
        "_source": "Ruta8AT-LaFuente-Runta",
        "_segmentIndex": 0,
        "_position": 4
      },
      "geometry": {
        "type": "Point",
        "coordinates": [
          -73.36159370885031,
          5.547524213701749
        ]
      }
    },
    {
      "type": "Feature",
      "properties": {
        "_source": "Ruta8AT-LaFuente-Runta",
        "_segmentIndex": 0,
        "_position": 5
      },
      "geometry": {
        "type": "Point",
        "coordinates": [
          -73.36181039548347,
          5.547129652534887
        ]
      }
    },
    {
      "type": "Feature",
      "properties": {
        "_source": "Ruta8AT-LaFuente-Runta",
        "_segmentIndex": 0,
        "_position": 6
      },
      "geometry": {
        "type": "Point",
        "coordinates": [
          -73.3620404491092,
          5.546742658861118
        ]
      }
    },
    {
      "type": "Feature",
      "properties": {
        "_source": "Ruta8AT-LaFuente-Runta",
        "_segmentIndex": 0,
        "_position": 7
      },
      "geometry": {
        "type": "Point",
        "coordinates": [
          -73.3622705024331,
          5.546355665098485
        ]
      }
    },
    {
      "type": "Feature",
      "properties": {
        "_source": "Ruta8AT-LaFuente-Runta",
        "_segmentIndex": 0,
        "_position": 8
      },
      "geometry": {
        "type": "Point",
        "coordinates": [
          -73.36250055545527,
          5.5459686712469916
        ]
      }
    },
    {
      "type": "Feature",
      "properties": {
        "_source": "Ruta8AT-LaFuente-Runta",
        "_segmentIndex": 0,
        "_position": 0
      },
      "geometry": {
        "type": "Point",
        "coordinates": [
          -73.362539,
          5.545904
        ]
      }
    },
    {
      "type": "Feature",
      "properties": {
        "_source": "Ruta8AT-LaFuente-Runta",
        "_segmentIndex": 0,
        "_position": 1
      },
      "geometry": {
        "type": "Point",
        "coordinates": [
          -73.36209037192607,
          5.545860314197904
        ]
      }
    },
    {
      "type": "Feature",
      "properties": {
        "_source": "Ruta8AT-LaFuente-Runta",
        "_segmentIndex": 0,
        "_position": 2
      },
      "geometry": {
        "type": "Point",
        "coordinates": [
          -73.36163908303399,
          5.545840047210294
        ]
      }
    },
    {
      "type": "Feature",
      "properties": {
        "_source": "Ruta8AT-LaFuente-Runta",
        "_segmentIndex": 0,
        "_position": 3
      },
      "geometry": {
        "type": "Point",
        "coordinates": [
          -73.3611876067538,
          5.545823702186484
        ]
      }
    },
    {
      "type": "Feature",
      "properties": {
        "_source": "Ruta8AT-LaFuente-Runta",
        "_segmentIndex": 0,
        "_position": 4
      },
      "geometry": {
        "type": "Point",
        "coordinates": [
          -73.36073626828542,
          5.545804375679716
        ]
      }
    },
    {
      "type": "Feature",
      "properties": {
        "_source": "Ruta8AT-LaFuente-Runta",
        "_segmentIndex": 0,
        "_position": 5
      },
      "geometry": {
        "type": "Point",
        "coordinates": [
          -73.36028519116383,
          5.545779395093186
        ]
      }
    },
    {
      "type": "Feature",
      "properties": {
        "_source": "Ruta8AT-LaFuente-Runta",
        "_segmentIndex": 0,
        "_position": 0
      },
      "geometry": {
        "type": "Point",
        "coordinates": [
          -73.360199,
          5.545782
        ]
      }
    },
    {
      "type": "Feature",
      "properties": {
        "_source": "Ruta8AT-LaFuente-Runta",
        "_segmentIndex": 0,
        "_position": 1
      },
      "geometry": {
        "type": "Point",
        "coordinates": [
          -73.36007424561949,
          5.545349987198022
        ]
      }
    },
    {
      "type": "Feature",
      "properties": {
        "_source": "Ruta8AT-LaFuente-Runta",
        "_segmentIndex": 0,
        "_position": 2
      },
      "geometry": {
        "type": "Point",
        "coordinates": [
          -73.35992316772376,
          5.544926336901657
        ]
      }
    },
    {
      "type": "Feature",
      "properties": {
        "_source": "Ruta8AT-LaFuente-Runta",
        "_segmentIndex": 0,
        "_position": 3
      },
      "geometry": {
        "type": "Point",
        "coordinates": [
          -73.3597558075879,
          5.544508685555849
        ]
      }
    },
    {
      "type": "Feature",
      "properties": {
        "_source": "Ruta8AT-LaFuente-Runta",
        "_segmentIndex": 0,
        "_position": 4
      },
      "geometry": {
        "type": "Point",
        "coordinates": [
          -73.35957624319995,
          5.544096069649071
        ]
      }
    },
    {
      "type": "Feature",
      "properties": {
        "_source": "Ruta8AT-LaFuente-Runta",
        "_segmentIndex": 0,
        "_position": 5
      },
      "geometry": {
        "type": "Point",
        "coordinates": [
          -73.35939592006717,
          5.543683782544151
        ]
      }
    },
    {
      "type": "Feature",
      "properties": {
        "_source": "Ruta8AT-LaFuente-Runta",
        "_segmentIndex": 0,
        "_position": 6
      },
      "geometry": {
        "type": "Point",
        "coordinates": [
          -73.35921484724791,
          5.5432718203161775
        ]
      }
    },
    {
      "type": "Feature",
      "properties": {
        "_source": "Ruta8AT-LaFuente-Runta",
        "_segmentIndex": 0,
        "_position": 0
      },
      "geometry": {
        "type": "Point",
        "coordinates": [
          -73.359069,
          5.54294
        ]
      }
    },
    {
      "type": "Feature",
      "properties": {
        "_source": "Ruta8AT-LaFuente-Runta",
        "_segmentIndex": 0,
        "_position": 1
      },
      "geometry": {
        "type": "Point",
        "coordinates": [
          -73.3589348677742,
          5.5425266191854785
        ]
      }
    },
    {
      "type": "Feature",
      "properties": {
        "_source": "Ruta8AT-LaFuente-Runta",
        "_segmentIndex": 0,
        "_position": 2
      },
      "geometry": {
        "type": "Point",
        "coordinates": [
          -73.35900640954762,
          5.542086530039388
        ]
      }
    },
    {
      "type": "Feature",
      "properties": {
        "_source": "Ruta8AT-LaFuente-Runta",
        "_segmentIndex": 0,
        "_position": 3
      },
      "geometry": {
        "type": "Point",
        "coordinates": [
          -73.35918708761515,
          5.541674602936173
        ]
      }
    },
    {
      "type": "Feature",
      "properties": {
        "_source": "Ruta8AT-LaFuente-Runta",
        "_segmentIndex": 0,
        "_position": 4
      },
      "geometry": {
        "type": "Point",
        "coordinates": [
          -73.35937843237858,
          5.541267269640149
        ]
      }
    },
    {
      "type": "Feature",
      "properties": {
        "_source": "Ruta8AT-LaFuente-Runta",
        "_segmentIndex": 0,
        "_position": 5
      },
      "geometry": {
        "type": "Point",
        "coordinates": [
          -73.35957080163514,
          5.540860417852183
        ]
      }
    },
    {
      "type": "Feature",
      "properties": {
        "_source": "Ruta8AT-LaFuente-Runta",
        "_segmentIndex": 0,
        "_position": 6
      },
      "geometry": {
        "type": "Point",
        "coordinates": [
          -73.35974703270546,
          5.540446381120781
        ]
      }
    },
    {
      "type": "Feature",
      "properties": {
        "_source": "Ruta8AT-LaFuente-Runta",
        "_segmentIndex": 0,
        "_position": 7
      },
      "geometry": {
        "type": "Point",
        "coordinates": [
          -73.35989747135237,
          5.54002296456248
        ]
      }
    },
    {
      "type": "Feature",
      "properties": {
        "_source": "Ruta8AT-LaFuente-Runta",
        "_segmentIndex": 0,
        "_position": 8
      },
      "geometry": {
        "type": "Point",
        "coordinates": [
          -73.36001911446893,
          5.53959003803665
        ]
      }
    },
    {
      "type": "Feature",
      "properties": {
        "_source": "Ruta8AT-LaFuente-Runta",
        "_segmentIndex": 0,
        "_position": 9
      },
      "geometry": {
        "type": "Point",
        "coordinates": [
          -73.36012047304641,
          5.539151901774375
        ]
      }
    },
    {
      "type": "Feature",
      "properties": {
        "_source": "Ruta8AT-LaFuente-Runta",
        "_segmentIndex": 0,
        "_position": 0
      },
      "geometry": {
        "type": "Point",
        "coordinates": [
          -73.360211,
          5.538742
        ]
      }
    },
    {
      "type": "Feature",
      "properties": {
        "_source": "Ruta8AT-LaFuente-Runta",
        "_segmentIndex": 0,
        "_position": 1
      },
      "geometry": {
        "type": "Point",
        "coordinates": [
          -73.36034089490929,
          5.538311327568846
        ]
      }
    },
    {
      "type": "Feature",
      "properties": {
        "_source": "Ruta8AT-LaFuente-Runta",
        "_segmentIndex": 0,
        "_position": 2
      },
      "geometry": {
        "type": "Point",
        "coordinates": [
          -73.3605185747134,
          5.5379029685861125
        ]
      }
    },
    {
      "type": "Feature",
      "properties": {
        "_source": "Ruta8AT-LaFuente-Runta",
        "_segmentIndex": 0,
        "_position": 0
      },
      "geometry": {
        "type": "Point",
        "coordinates": [
          -73.360768,
          5.537755
        ]
      }
    },
    {
      "type": "Feature",
      "properties": {
        "_source": "Ruta8AT-LaFuente-Runta",
        "_segmentIndex": 0,
        "_position": 1
      },
      "geometry": {
        "type": "Point",
        "coordinates": [
          -73.36114121403591,
          5.537507267484095
        ]
      }
    },
    {
      "type": "Feature",
      "properties": {
        "_source": "Ruta8AT-LaFuente-Runta",
        "_segmentIndex": 0,
        "_position": 2
      },
      "geometry": {
        "type": "Point",
        "coordinates": [
          -73.36136760835115,
          5.53712250656022
        ]
      }
    },
    {
      "type": "Feature",
      "properties": {
        "_source": "Ruta8AT-LaFuente-Runta",
        "_segmentIndex": 0,
        "_position": 3
      },
      "geometry": {
        "type": "Point",
        "coordinates": [
          -73.3616259360282,
          5.53676360447502
        ]
      }
    },
    {
      "type": "Feature",
      "properties": {
        "_source": "Ruta8AT-LaFuente-Runta",
        "_segmentIndex": 0,
        "_position": 4
      },
      "geometry": {
        "type": "Point",
        "coordinates": [
          -73.36199185922808,
          5.53651937683843
        ]
      }
    },
    {
      "type": "Feature",
      "properties": {
        "_source": "Ruta8AT-LaFuente-Runta",
        "_segmentIndex": 0,
        "_position": 5
      },
      "geometry": {
        "type": "Point",
        "coordinates": [
          -73.362439733688,
          5.536462706905053
        ]
      }
    },
    {
      "type": "Feature",
      "properties": {
        "_source": "Ruta8AT-LaFuente-Runta",
        "_segmentIndex": 0,
        "_position": 6
      },
      "geometry": {
        "type": "Point",
        "coordinates": [
          -73.36288898685709,
          5.536415330545347
        ]
      }
    },
    {
      "type": "Feature",
      "properties": {
        "_source": "Ruta8AT-LaFuente-Runta",
        "_segmentIndex": 0,
        "_position": 7
      },
      "geometry": {
        "type": "Point",
        "coordinates": [
          -73.3633368843555,
          5.5363582207698245
        ]
      }
    },
    {
      "type": "Feature",
      "properties": {
        "_source": "Ruta8AT-LaFuente-Runta",
        "_segmentIndex": 0,
        "_position": 8
      },
      "geometry": {
        "type": "Point",
        "coordinates": [
          -73.36378632921117,
          5.536314083416493
        ]
      }
    },
    {
      "type": "Feature",
      "properties": {
        "_source": "Ruta8AT-LaFuente-Runta",
        "_segmentIndex": 0,
        "_position": 9
      },
      "geometry": {
        "type": "Point",
        "coordinates": [
          -73.3642360357539,
          5.53627120734154
        ]
      }
    },
    {
      "type": "Feature",
      "properties": {
        "_source": "Ruta8AT-LaFuente-Runta",
        "_segmentIndex": 0,
        "_position": 10
      },
      "geometry": {
        "type": "Point",
        "coordinates": [
          -73.36467639980098,
          5.536185438408118
        ]
      }
    },
    {
      "type": "Feature",
      "properties": {
        "_source": "Ruta8AT-LaFuente-Runta",
        "_segmentIndex": 0,
        "_position": 0
      },
      "geometry": {
        "type": "Point",
        "coordinates": [
          -73.364738,
          5.536153
        ]
      }
    },
    {
      "type": "Feature",
      "properties": {
        "_source": "Ruta8AT-LaFuente-Runta",
        "_segmentIndex": 0,
        "_position": 1
      },
      "geometry": {
        "type": "Point",
        "coordinates": [
          -73.36490052977742,
          5.5357354772788945
        ]
      }
    },
    {
      "type": "Feature",
      "properties": {
        "_source": "Ruta8AT-LaFuente-Runta",
        "_segmentIndex": 0,
        "_position": 2
      },
      "geometry": {
        "type": "Point",
        "coordinates": [
          -73.36533200480389,
          5.535613244831544
        ]
      }
    },
    {
      "type": "Feature",
      "properties": {
        "_source": "Ruta8AT-LaFuente-Runta",
        "_segmentIndex": 0,
        "_position": 0
      },
      "geometry": {
        "type": "Point",
        "coordinates": [
          -73.365417,
          5.535597
        ]
      }
    },
    {
      "type": "Feature",
      "properties": {
        "_source": "Ruta8AT-LaFuente-Runta",
        "_segmentIndex": 0,
        "_position": 1
      },
      "geometry": {
        "type": "Point",
        "coordinates": [
          -73.36562165742534,
          5.535200287402232
        ]
      }
    },
    {
      "type": "Feature",
      "properties": {
        "_source": "Ruta8AT-LaFuente-Runta",
        "_segmentIndex": 0,
        "_position": 2
      },
      "geometry": {
        "type": "Point",
        "coordinates": [
          -73.36578805660356,
          5.534782241528036
        ]
      }
    },
    {
      "type": "Feature",
      "properties": {
        "_source": "Ruta8AT-LaFuente-Runta",
        "_segmentIndex": 0,
        "_position": 3
      },
      "geometry": {
        "type": "Point",
        "coordinates": [
          -73.3659769630491,
          5.534374471614837
        ]
      }
    },
    {
      "type": "Feature",
      "properties": {
        "_source": "Ruta8AT-LaFuente-Runta",
        "_segmentIndex": 0,
        "_position": 4
      },
      "geometry": {
        "type": "Point",
        "coordinates": [
          -73.36615518094204,
          5.533961789802077
        ]
      }
    },
    {
      "type": "Feature",
      "properties": {
        "_source": "Ruta8AT-LaFuente-Runta",
        "_segmentIndex": 0,
        "_position": 5
      },
      "geometry": {
        "type": "Point",
        "coordinates": [
          -73.36635511661208,
          5.533558687109545
        ]
      }
    },
    {
      "type": "Feature",
      "properties": {
        "_source": "Ruta8AT-LaFuente-Runta",
        "_segmentIndex": 0,
        "_position": 6
      },
      "geometry": {
        "type": "Point",
        "coordinates": [
          -73.36652893068963,
          5.533144159149514
        ]
      }
    },
    {
      "type": "Feature",
      "properties": {
        "_source": "Ruta8AT-LaFuente-Runta",
        "_segmentIndex": 0,
        "_position": 7
      },
      "geometry": {
        "type": "Point",
        "coordinates": [
          -73.36667560650945,
          5.5327207395489095
        ]
      }
    },
    {
      "type": "Feature",
      "properties": {
        "_source": "Ruta8AT-LaFuente-Runta",
        "_segmentIndex": 0,
        "_position": 8
      },
      "geometry": {
        "type": "Point",
        "coordinates": [
          -73.36674210630741,
          5.532276213809723
        ]
      }
    },
    {
      "type": "Feature",
      "properties": {
        "_source": "Ruta8AT-LaFuente-Runta",
        "_segmentIndex": 0,
        "_position": 9
      },
      "geometry": {
        "type": "Point",
        "coordinates": [
          -73.36679511223589,
          5.531829781010718
        ]
      }
    },
    {
      "type": "Feature",
      "properties": {
        "_source": "Ruta8AT-LaFuente-Runta",
        "_segmentIndex": 0,
        "_position": 10
      },
      "geometry": {
        "type": "Point",
        "coordinates": [
          -73.36687995307476,
          5.531388350281992
        ]
      }
    },
    {
      "type": "Feature",
      "properties": {
        "_source": "Ruta8AT-LaFuente-Runta",
        "_segmentIndex": 0,
        "_position": 0
      },
      "geometry": {
        "type": "Point",
        "coordinates": [
          -73.366922,
          5.531123
        ]
      }
    },
    {
      "type": "Feature",
      "properties": {
        "_source": "Ruta8AT-LaFuente-Runta",
        "_segmentIndex": 0,
        "_position": 1
      },
      "geometry": {
        "type": "Point",
        "coordinates": [
          -73.36648258334951,
          5.531018593767621
        ]
      }
    },
    {
      "type": "Feature",
      "properties": {
        "_source": "Ruta8AT-LaFuente-Runta",
        "_segmentIndex": 0,
        "_position": 2
      },
      "geometry": {
        "type": "Point",
        "coordinates": [
          -73.36604267581126,
          5.530916258192427
        ]
      }
    },
    {
      "type": "Feature",
      "properties": {
        "_source": "Ruta8AT-LaFuente-Runta",
        "_segmentIndex": 0,
        "_position": 3
      },
      "geometry": {
        "type": "Point",
        "coordinates": [
          -73.3656017124674,
          5.5308185505678695
        ]
      }
    },
    {
      "type": "Feature",
      "properties": {
        "_source": "Ruta8AT-LaFuente-Runta",
        "_segmentIndex": 0,
        "_position": 4
      },
      "geometry": {
        "type": "Point",
        "coordinates": [
          -73.36516031081798,
          5.530722860725863
        ]
      }
    },
    {
      "type": "Feature",
      "properties": {
        "_source": "Ruta8AT-LaFuente-Runta",
        "_segmentIndex": 0,
        "_position": 5
      },
      "geometry": {
        "type": "Point",
        "coordinates": [
          -73.36472135437096,
          5.530619148235195
        ]
      }
    },
    {
      "type": "Feature",
      "properties": {
        "_source": "Ruta8AT-LaFuente-Runta",
        "_segmentIndex": 0,
        "_position": 6
      },
      "geometry": {
        "type": "Point",
        "coordinates": [
          -73.36428825634837,
          5.530491231654689
        ]
      }
    },
    {
      "type": "Feature",
      "properties": {
        "_source": "Ruta8AT-LaFuente-Runta",
        "_segmentIndex": 0,
        "_position": 7
      },
      "geometry": {
        "type": "Point",
        "coordinates": [
          -73.36385441683949,
          5.5303662424872355
        ]
      }
    },
    {
      "type": "Feature",
      "properties": {
        "_source": "Ruta8AT-LaFuente-Runta",
        "_segmentIndex": 0,
        "_position": 0
      },
      "geometry": {
        "type": "Point",
        "coordinates": [
          -73.363851,
          5.530365
        ]
      }
    },
    {
      "type": "Feature",
      "properties": {
        "_source": "Ruta8AT-LaFuente-Runta",
        "_segmentIndex": 0,
        "_position": 1
      },
      "geometry": {
        "type": "Point",
        "coordinates": [
          -73.36397265710231,
          5.529932240131639
        ]
      }
    },
    {
      "type": "Feature",
      "properties": {
        "_source": "Ruta8AT-LaFuente-Runta",
        "_segmentIndex": 0,
        "_position": 2
      },
      "geometry": {
        "type": "Point",
        "coordinates": [
          -73.3641074218322,
          5.529503055169983
        ]
      }
    },
    {
      "type": "Feature",
      "properties": {
        "_source": "Ruta8AT-LaFuente-Runta",
        "_segmentIndex": 0,
        "_position": 3
      },
      "geometry": {
        "type": "Point",
        "coordinates": [
          -73.36423019027828,
          5.529070455393202
        ]
      }
    },
    {
      "type": "Feature",
      "properties": {
        "_source": "Ruta8AT-LaFuente-Runta",
        "_segmentIndex": 0,
        "_position": 4
      },
      "geometry": {
        "type": "Point",
        "coordinates": [
          -73.36435275627174,
          5.528637742462952
        ]
      }
    },
    {
      "type": "Feature",
      "properties": {
        "_source": "Ruta8AT-LaFuente-Runta",
        "_segmentIndex": 0,
        "_position": 5
      },
      "geometry": {
        "type": "Point",
        "coordinates": [
          -73.36448632839891,
          5.5282081899417825
        ]
      }
    },
    {
      "type": "Feature",
      "properties": {
        "_source": "Ruta8AT-LaFuente-Runta",
        "_segmentIndex": 0,
        "_position": 6
      },
      "geometry": {
        "type": "Point",
        "coordinates": [
          -73.36461190380534,
          5.527776274892532
        ]
      }
    },
    {
      "type": "Feature",
      "properties": {
        "_source": "Ruta8AT-LaFuente-Runta",
        "_segmentIndex": 0,
        "_position": 7
      },
      "geometry": {
        "type": "Point",
        "coordinates": [
          -73.36473583178419,
          5.527343865230256
        ]
      }
    },
    {
      "type": "Feature",
      "properties": {
        "_source": "Ruta8AT-LaFuente-Runta",
        "_segmentIndex": 0,
        "_position": 8
      },
      "geometry": {
        "type": "Point",
        "coordinates": [
          -73.36488329747773,
          5.5269214553961925
        ]
      }
    },
    {
      "type": "Feature",
      "properties": {
        "_source": "Ruta8AT-LaFuente-Runta",
        "_segmentIndex": 0,
        "_position": 9
      },
      "geometry": {
        "type": "Point",
        "coordinates": [
          -73.36521035229303,
          5.526624981174907
        ]
      }
    },
    {
      "type": "Feature",
      "properties": {
        "_source": "Ruta8AT-LaFuente-Runta",
        "_segmentIndex": 0,
        "_position": 10
      },
      "geometry": {
        "type": "Point",
        "coordinates": [
          -73.36543719757651,
          5.526236817684129
        ]
      }
    },
    {
      "type": "Feature",
      "properties": {
        "_source": "Ruta8AT-LaFuente-Runta",
        "_segmentIndex": 0,
        "_position": 11
      },
      "geometry": {
        "type": "Point",
        "coordinates": [
          -73.36563323449018,
          5.525831919966273
        ]
      }
    },
    {
      "type": "Feature",
      "properties": {
        "_source": "Ruta8AT-LaFuente-Runta",
        "_segmentIndex": 0,
        "_position": 12
      },
      "geometry": {
        "type": "Point",
        "coordinates": [
          -73.3658132237765,
          5.525419659068291
        ]
      }
    },
    {
      "type": "Feature",
      "properties": {
        "_source": "Ruta8AT-LaFuente-Runta",
        "_segmentIndex": 0,
        "_position": 13
      },
      "geometry": {
        "type": "Point",
        "coordinates": [
          -73.36597634416614,
          5.525000339038724
        ]
      }
    },
    {
      "type": "Feature",
      "properties": {
        "_source": "Ruta8AT-LaFuente-Runta",
        "_segmentIndex": 0,
        "_position": 14
      },
      "geometry": {
        "type": "Point",
        "coordinates": [
          -73.36612569339363,
          5.524575962039578
        ]
      }
    },
    {
      "type": "Feature",
      "properties": {
        "_source": "Ruta8AT-LaFuente-Runta",
        "_segmentIndex": 0,
        "_position": 15
      },
      "geometry": {
        "type": "Point",
        "coordinates": [
          -73.36626876352788,
          5.52414960560352
        ]
      }
    },
    {
      "type": "Feature",
      "properties": {
        "_source": "Ruta8AT-LaFuente-Runta",
        "_segmentIndex": 0,
        "_position": 16
      },
      "geometry": {
        "type": "Point",
        "coordinates": [
          -73.36638824339715,
          5.523716055423504
        ]
      }
    },
    {
      "type": "Feature",
      "properties": {
        "_source": "Ruta8AT-LaFuente-Runta",
        "_segmentIndex": 0,
        "_position": 17
      },
      "geometry": {
        "type": "Point",
        "coordinates": [
          -73.3664866997937,
          5.523277204164879
        ]
      }
    },
    {
      "type": "Feature",
      "properties": {
        "_source": "Ruta8AT-LaFuente-Runta",
        "_segmentIndex": 0,
        "_position": 18
      },
      "geometry": {
        "type": "Point",
        "coordinates": [
          -73.36657678651422,
          5.5228366609101425
        ]
      }
    },
    {
      "type": "Feature",
      "properties": {
        "_source": "Ruta8AT-LaFuente-Runta",
        "_segmentIndex": 0,
        "_position": 19
      },
      "geometry": {
        "type": "Point",
        "coordinates": [
          -73.36667966543331,
          5.522399357200875
        ]
      }
    },
    {
      "type": "Feature",
      "properties": {
        "_source": "Ruta8AT-LaFuente-Runta",
        "_segmentIndex": 0,
        "_position": 20
      },
      "geometry": {
        "type": "Point",
        "coordinates": [
          -73.36682117000545,
          5.521972925308384
        ]
      }
    },
    {
      "type": "Feature",
      "properties": {
        "_source": "Ruta8AT-LaFuente-Runta",
        "_segmentIndex": 0,
        "_position": 21
      },
      "geometry": {
        "type": "Point",
        "coordinates": [
          -73.36696081823567,
          5.521546486865062
        ]
      }
    },
    {
      "type": "Feature",
      "properties": {
        "_source": "Ruta8AT-LaFuente-Runta",
        "_segmentIndex": 0,
        "_position": 22
      },
      "geometry": {
        "type": "Point",
        "coordinates": [
          -73.36706721567984,
          5.521109475809603
        ]
      }
    },
    {
      "type": "Feature",
      "properties": {
        "_source": "Ruta8AT-LaFuente-Runta",
        "_segmentIndex": 0,
        "_position": 23
      },
      "geometry": {
        "type": "Point",
        "coordinates": [
          -73.36717747336591,
          5.520673418461725
        ]
      }
    },
    {
      "type": "Feature",
      "properties": {
        "_source": "Ruta8AT-LaFuente-Runta",
        "_segmentIndex": 0,
        "_position": 24
      },
      "geometry": {
        "type": "Point",
        "coordinates": [
          -73.36728088500404,
          5.520235728315293
        ]
      }
    },
    {
      "type": "Feature",
      "properties": {
        "_source": "Ruta8AT-LaFuente-Runta",
        "_segmentIndex": 0,
        "_position": 25
      },
      "geometry": {
        "type": "Point",
        "coordinates": [
          -73.36738105734199,
          5.519797262087462
        ]
      }
    },
    {
      "type": "Feature",
      "properties": {
        "_source": "Ruta8AT-LaFuente-Runta",
        "_segmentIndex": 0,
        "_position": 26
      },
      "geometry": {
        "type": "Point",
        "coordinates": [
          -73.36746240330106,
          5.519355704160858
        ]
      }
    },
    {
      "type": "Feature",
      "properties": {
        "_source": "Ruta8AT-LaFuente-Runta",
        "_segmentIndex": 0,
        "_position": 27
      },
      "geometry": {
        "type": "Point",
        "coordinates": [
          -73.36751197707622,
          5.5189088140089195
        ]
      }
    },
    {
      "type": "Feature",
      "properties": {
        "_source": "Ruta8AT-LaFuente-Runta",
        "_segmentIndex": 0,
        "_position": 28
      },
      "geometry": {
        "type": "Point",
        "coordinates": [
          -73.36757803355991,
          5.518463986877747
        ]
      }
    },
    {
      "type": "Feature",
      "properties": {
        "_source": "Ruta8AT-LaFuente-Runta",
        "_segmentIndex": 0,
        "_position": 0
      },
      "geometry": {
        "type": "Point",
        "coordinates": [
          -73.367596,
          5.518343
        ]
      }
    },
    {
      "type": "Feature",
      "properties": {
        "_source": "Ruta8AT-LaFuente-Runta",
        "_segmentIndex": 0,
        "_position": 1
      },
      "geometry": {
        "type": "Point",
        "coordinates": [
          -73.3680355102956,
          5.518239036121183
        ]
      }
    },
    {
      "type": "Feature",
      "properties": {
        "_source": "Ruta8AT-LaFuente-Runta",
        "_segmentIndex": 0,
        "_position": 2
      },
      "geometry": {
        "type": "Point",
        "coordinates": [
          -73.36847485976607,
          5.518134466188073
        ]
      }
    },
    {
      "type": "Feature",
      "properties": {
        "_source": "Ruta8AT-LaFuente-Runta",
        "_segmentIndex": 0,
        "_position": 3
      },
      "geometry": {
        "type": "Point",
        "coordinates": [
          -73.36891298245763,
          5.518024842108335
        ]
      }
    },
    {
      "type": "Feature",
      "properties": {
        "_source": "Ruta8AT-LaFuente-Runta",
        "_segmentIndex": 0,
        "_position": 4
      },
      "geometry": {
        "type": "Point",
        "coordinates": [
          -73.36935597116761,
          5.517944228221282
        ]
      }
    },
    {
      "type": "Feature",
      "properties": {
        "_source": "Ruta8AT-LaFuente-Runta",
        "_segmentIndex": 0,
        "_position": 5
      },
      "geometry": {
        "type": "Point",
        "coordinates": [
          -73.36980649517966,
          5.5179110753337435
        ]
      }
    },
    {
      "type": "Feature",
      "properties": {
        "_source": "Ruta8AT-LaFuente-Runta",
        "_segmentIndex": 0,
        "_position": 0
      },
      "geometry": {
        "type": "Point",
        "coordinates": [
          -73.370136,
          5.517808
        ]
      }
    },
    {
      "type": "Feature",
      "properties": {
        "_source": "Ruta8AT-LaFuente-Runta",
        "_segmentIndex": 0,
        "_position": 1
      },
      "geometry": {
        "type": "Point",
        "coordinates": [
          -73.37028602573717,
          5.517389663744249
        ]
      }
    },
    {
      "type": "Feature",
      "properties": {
        "_source": "Ruta8AT-LaFuente-Runta",
        "_segmentIndex": 0,
        "_position": 2
      },
      "geometry": {
        "type": "Point",
        "coordinates": [
          -73.37039643977232,
          5.51695364113919
        ]
      }
    },
    {
      "type": "Feature",
      "properties": {
        "_source": "Ruta8AT-LaFuente-Runta",
        "_segmentIndex": 0,
        "_position": 3
      },
      "geometry": {
        "type": "Point",
        "coordinates": [
          -73.37049739120513,
          5.516515540045773
        ]
      }
    },
    {
      "type": "Feature",
      "properties": {
        "_source": "Ruta8AT-LaFuente-Runta",
        "_segmentIndex": 0,
        "_position": 4
      },
      "geometry": {
        "type": "Point",
        "coordinates": [
          -73.37058200394407,
          5.516073837821219
        ]
      }
    },
    {
      "type": "Feature",
      "properties": {
        "_source": "Ruta8AT-LaFuente-Runta",
        "_segmentIndex": 0,
        "_position": 5
      },
      "geometry": {
        "type": "Point",
        "coordinates": [
          -73.37066724111848,
          5.515632254272979
        ]
      }
    },
    {
      "type": "Feature",
      "properties": {
        "_source": "Ruta8AT-LaFuente-Runta",
        "_segmentIndex": 0,
        "_position": 6
      },
      "geometry": {
        "type": "Point",
        "coordinates": [
          -73.37077039507359,
          5.515194750044692
        ]
      }
    },
    {
      "type": "Feature",
      "properties": {
        "_source": "Ruta8AT-LaFuente-Runta",
        "_segmentIndex": 0,
        "_position": 7
      },
      "geometry": {
        "type": "Point",
        "coordinates": [
          -73.37088875781177,
          5.514760879194667
        ]
      }
    },
    {
      "type": "Feature",
      "properties": {
        "_source": "Ruta8AT-LaFuente-Runta",
        "_segmentIndex": 0,
        "_position": 8
      },
      "geometry": {
        "type": "Point",
        "coordinates": [
          -73.37109455653417,
          5.514363064498486
        ]
      }
    },
    {
      "type": "Feature",
      "properties": {
        "_source": "Ruta8AT-LaFuente-Runta",
        "_segmentIndex": 0,
        "_position": 9
      },
      "geometry": {
        "type": "Point",
        "coordinates": [
          -73.37131232383068,
          5.513969098044174
        ]
      }
    },
    {
      "type": "Feature",
      "properties": {
        "_source": "Ruta8AT-LaFuente-Runta",
        "_segmentIndex": 0,
        "_position": 10
      },
      "geometry": {
        "type": "Point",
        "coordinates": [
          -73.37151993986467,
          5.513571385663257
        ]
      }
    },
    {
      "type": "Feature",
      "properties": {
        "_source": "Ruta8AT-LaFuente-Runta",
        "_segmentIndex": 0,
        "_position": 0
      },
      "geometry": {
        "type": "Point",
        "coordinates": [
          -73.371543,
          5.513394
        ]
      }
    },
    {
      "type": "Feature",
      "properties": {
        "_source": "Ruta8AT-LaFuente-Runta",
        "_segmentIndex": 0,
        "_position": 1
      },
      "geometry": {
        "type": "Point",
        "coordinates": [
          -73.37176666105738,
          5.513005016671213
        ]
      }
    },
    {
      "type": "Feature",
      "properties": {
        "_source": "Ruta8AT-LaFuente-Runta",
        "_segmentIndex": 0,
        "_position": 2
      },
      "geometry": {
        "type": "Point",
        "coordinates": [
          -73.37196026203605,
          5.512599113035671
        ]
      }
    },
    {
      "type": "Feature",
      "properties": {
        "_source": "Ruta8AT-LaFuente-Runta",
        "_segmentIndex": 0,
        "_position": 3
      },
      "geometry": {
        "type": "Point",
        "coordinates": [
          -73.3721540854967,
          5.512192943848581
        ]
      }
    },
    {
      "type": "Feature",
      "properties": {
        "_source": "Ruta8AT-LaFuente-Runta",
        "_segmentIndex": 0,
        "_position": 4
      },
      "geometry": {
        "type": "Point",
        "coordinates": [
          -73.37234164100545,
          5.5117839144578005
        ]
      }
    },
    {
      "type": "Feature",
      "properties": {
        "_source": "Ruta8AT-LaFuente-Runta",
        "_segmentIndex": 0,
        "_position": 5
      },
      "geometry": {
        "type": "Point",
        "coordinates": [
          -73.37252545071208,
          5.511373160472236
        ]
      }
    },
    {
      "type": "Feature",
      "properties": {
        "_source": "Ruta8AT-LaFuente-Runta",
        "_segmentIndex": 0,
        "_position": 6
      },
      "geometry": {
        "type": "Point",
        "coordinates": [
          -73.37271007990691,
          5.510962769494787
        ]
      }
    },
    {
      "type": "Feature",
      "properties": {
        "_source": "Ruta8AT-LaFuente-Runta",
        "_segmentIndex": 0,
        "_position": 7
      },
      "geometry": {
        "type": "Point",
        "coordinates": [
          -73.37289223501196,
          5.510551295702263
        ]
      }
    },
    {
      "type": "Feature",
      "properties": {
        "_source": "Ruta8AT-LaFuente-Runta",
        "_segmentIndex": 0,
        "_position": 8
      },
      "geometry": {
        "type": "Point",
        "coordinates": [
          -73.3730712738377,
          5.510138458018921
        ]
      }
    },
    {
      "type": "Feature",
      "properties": {
        "_source": "Ruta8AT-LaFuente-Runta",
        "_segmentIndex": 0,
        "_position": 9
      },
      "geometry": {
        "type": "Point",
        "coordinates": [
          -73.37325031241456,
          5.509725620282105
        ]
      }
    },
    {
      "type": "Feature",
      "properties": {
        "_source": "Ruta8AT-LaFuente-Runta",
        "_segmentIndex": 0,
        "_position": 10
      },
      "geometry": {
        "type": "Point",
        "coordinates": [
          -73.37344804818271,
          5.5093214036040274
        ]
      }
    },
    {
      "type": "Feature",
      "properties": {
        "_source": "Ruta8AT-LaFuente-Runta",
        "_segmentIndex": 0,
        "_position": 11
      },
      "geometry": {
        "type": "Point",
        "coordinates": [
          -73.37364863462841,
          5.508918501389615
        ]
      }
    },
    {
      "type": "Feature",
      "properties": {
        "_source": "Ruta8AT-LaFuente-Runta",
        "_segmentIndex": 0,
        "_position": 12
      },
      "geometry": {
        "type": "Point",
        "coordinates": [
          -73.37383902427838,
          5.508511192124232
        ]
      }
    },
    {
      "type": "Feature",
      "properties": {
        "_source": "Ruta8AT-LaFuente-Runta",
        "_segmentIndex": 0,
        "_position": 13
      },
      "geometry": {
        "type": "Point",
        "coordinates": [
          -73.37407836272227,
          5.50813141075721
        ]
      }
    },
    {
      "type": "Feature",
      "properties": {
        "_source": "Ruta8AT-LaFuente-Runta",
        "_segmentIndex": 0,
        "_position": 14
      },
      "geometry": {
        "type": "Point",
        "coordinates": [
          -73.37434752318461,
          5.507770281451712
        ]
      }
    },
    {
      "type": "Feature",
      "properties": {
        "_source": "Ruta8AT-LaFuente-Runta",
        "_segmentIndex": 0,
        "_position": 15
      },
      "geometry": {
        "type": "Point",
        "coordinates": [
          -73.37461668331979,
          5.50740915202541
        ]
      }
    },
    {
      "type": "Feature",
      "properties": {
        "_source": "Ruta8AT-LaFuente-Runta",
        "_segmentIndex": 0,
        "_position": 16
      },
      "geometry": {
        "type": "Point",
        "coordinates": [
          -73.37486333553858,
          5.507034461827332
        ]
      }
    },
    {
      "type": "Feature",
      "properties": {
        "_source": "Ruta8AT-LaFuente-Runta",
        "_segmentIndex": 0,
        "_position": 17
      },
      "geometry": {
        "type": "Point",
        "coordinates": [
          -73.3749744528371,
          5.506601561977748
        ]
      }
    },
    {
      "type": "Feature",
      "properties": {
        "_source": "Ruta8AT-LaFuente-Runta",
        "_segmentIndex": 0,
        "_position": 18
      },
      "geometry": {
        "type": "Point",
        "coordinates": [
          -73.37505206787974,
          5.506158588330481
        ]
      }
    },
    {
      "type": "Feature",
      "properties": {
        "_source": "Ruta8AT-LaFuente-Runta",
        "_segmentIndex": 0,
        "_position": 19
      },
      "geometry": {
        "type": "Point",
        "coordinates": [
          -73.37518827224304,
          5.505732814068692
        ]
      }
    },
    {
      "type": "Feature",
      "properties": {
        "_source": "Ruta8AT-LaFuente-Runta",
        "_segmentIndex": 0,
        "_position": 20
      },
      "geometry": {
        "type": "Point",
        "coordinates": [
          -73.37543461921275,
          5.505357161710265
        ]
      }
    },
    {
      "type": "Feature",
      "properties": {
        "_source": "Ruta8AT-LaFuente-Runta",
        "_segmentIndex": 0,
        "_position": 21
      },
      "geometry": {
        "type": "Point",
        "coordinates": [
          -73.37577213392815,
          5.505062851665242
        ]
      }
    },
    {
      "type": "Feature",
      "properties": {
        "_source": "Ruta8AT-LaFuente-Runta",
        "_segmentIndex": 0,
        "_position": 22
      },
      "geometry": {
        "type": "Point",
        "coordinates": [
          -73.37617349930082,
          5.504856496012344
        ]
      }
    },
    {
      "type": "Feature",
      "properties": {
        "_source": "Ruta8AT-LaFuente-Runta",
        "_segmentIndex": 0,
        "_position": 23
      },
      "geometry": {
        "type": "Point",
        "coordinates": [
          -73.37657892598173,
          5.504658283424653
        ]
      }
    },
    {
      "type": "Feature",
      "properties": {
        "_source": "Ruta8AT-LaFuente-Runta",
        "_segmentIndex": 0,
        "_position": 24
      },
      "geometry": {
        "type": "Point",
        "coordinates": [
          -73.37695209104646,
          5.504406022105054
        ]
      }
    },
    {
      "type": "Feature",
      "properties": {
        "_source": "Ruta8AT-LaFuente-Runta",
        "_segmentIndex": 0,
        "_position": 25
      },
      "geometry": {
        "type": "Point",
        "coordinates": [
          -73.3772830223064,
          5.504102235923464
        ]
      }
    },
    {
      "type": "Feature",
      "properties": {
        "_source": "Ruta8AT-LaFuente-Runta",
        "_segmentIndex": 0,
        "_position": 26
      },
      "geometry": {
        "type": "Point",
        "coordinates": [
          -73.37753261154714,
          5.503728952897754
        ]
      }
    },
    {
      "type": "Feature",
      "properties": {
        "_source": "Ruta8AT-LaFuente-Runta",
        "_segmentIndex": 0,
        "_position": 27
      },
      "geometry": {
        "type": "Point",
        "coordinates": [
          -73.37774327379182,
          5.503331209478215
        ]
      }
    },
    {
      "type": "Feature",
      "properties": {
        "_source": "Ruta8AT-LaFuente-Runta",
        "_segmentIndex": 0,
        "_position": 28
      },
      "geometry": {
        "type": "Point",
        "coordinates": [
          -73.37795038022868,
          5.502931590054629
        ]
      }
    },
    {
      "type": "Feature",
      "properties": {
        "_source": "Ruta8AT-LaFuente-Runta",
        "_segmentIndex": 0,
        "_position": 29
      },
      "geometry": {
        "type": "Point",
        "coordinates": [
          -73.37815748638718,
          5.502531970559582
        ]
      }
    },
    {
      "type": "Feature",
      "properties": {
        "_source": "Ruta8AT-LaFuente-Runta",
        "_segmentIndex": 0,
        "_position": 30
      },
      "geometry": {
        "type": "Point",
        "coordinates": [
          -73.3783645922674,
          5.502132350993081
        ]
      }
    },
    {
      "type": "Feature",
      "properties": {
        "_source": "Ruta8AT-LaFuente-Runta",
        "_segmentIndex": 0,
        "_position": 31
      },
      "geometry": {
        "type": "Point",
        "coordinates": [
          -73.37857169786932,
          5.501732731355131
        ]
      }
    },
    {
      "type": "Feature",
      "properties": {
        "_source": "Ruta8AT-LaFuente-Runta",
        "_segmentIndex": 0,
        "_position": 32
      },
      "geometry": {
        "type": "Point",
        "coordinates": [
          -73.37877880319299,
          5.501333111645738
        ]
      }
    },
    {
      "type": "Feature",
      "properties": {
        "_source": "Ruta8AT-LaFuente-Runta",
        "_segmentIndex": 0,
        "_position": 33
      },
      "geometry": {
        "type": "Point",
        "coordinates": [
          -73.37898491964374,
          5.500932985908555
        ]
      }
    },
    {
      "type": "Feature",
      "properties": {
        "_source": "Ruta8AT-LaFuente-Runta",
        "_segmentIndex": 0,
        "_position": 34
      },
      "geometry": {
        "type": "Point",
        "coordinates": [
          -73.37919094058984,
          5.50053281136385
        ]
      }
    },
    {
      "type": "Feature",
      "properties": {
        "_source": "Ruta8AT-LaFuente-Runta",
        "_segmentIndex": 0,
        "_position": 35
      },
      "geometry": {
        "type": "Point",
        "coordinates": [
          -73.37945872193546,
          5.500172830244599
        ]
      }
    },
    {
      "type": "Feature",
      "properties": {
        "_source": "Ruta8AT-LaFuente-Runta",
        "_segmentIndex": 0,
        "_position": 36
      },
      "geometry": {
        "type": "Point",
        "coordinates": [
          -73.37978884558026,
          5.4998673741871675
        ]
      }
    },
    {
      "type": "Feature",
      "properties": {
        "_source": "Ruta8AT-LaFuente-Runta",
        "_segmentIndex": 0,
        "_position": 37
      },
      "geometry": {
        "type": "Point",
        "coordinates": [
          -73.380132021521,
          5.4995750178956895
        ]
      }
    },
    {
      "type": "Feature",
      "properties": {
        "_source": "Ruta8AT-LaFuente-Runta",
        "_segmentIndex": 0,
        "_position": 38
      },
      "geometry": {
        "type": "Point",
        "coordinates": [
          -73.38046538464818,
          5.499271564463216
        ]
      }
    },
    {
      "type": "Feature",
      "properties": {
        "_source": "Ruta8AT-LaFuente-Runta",
        "_segmentIndex": 0,
        "_position": 39
      },
      "geometry": {
        "type": "Point",
        "coordinates": [
          -73.38079874743538,
          5.4989681108457225
        ]
      }
    },
    {
      "type": "Feature",
      "properties": {
        "_source": "Ruta8AT-LaFuente-Runta",
        "_segmentIndex": 0,
        "_position": 40
      },
      "geometry": {
        "type": "Point",
        "coordinates": [
          -73.38113210988263,
          5.498664657043217
        ]
      }
    },
    {
      "type": "Feature",
      "properties": {
        "_source": "Ruta8AT-LaFuente-Runta",
        "_segmentIndex": 0,
        "_position": 41
      },
      "geometry": {
        "type": "Point",
        "coordinates": [
          -73.38142111954309,
          5.498320697684985
        ]
      }
    },
    {
      "type": "Feature",
      "properties": {
        "_source": "Ruta8AT-LaFuente-Runta",
        "_segmentIndex": 0,
        "_position": 42
      },
      "geometry": {
        "type": "Point",
        "coordinates": [
          -73.38162788594028,
          5.497921509788362
        ]
      }
    },
    {
      "type": "Feature",
      "properties": {
        "_source": "Ruta8AT-LaFuente-Runta",
        "_segmentIndex": 0,
        "_position": 43
      },
      "geometry": {
        "type": "Point",
        "coordinates": [
          -73.38176188036445,
          5.49749256533885
        ]
      }
    },
    {
      "type": "Feature",
      "properties": {
        "_source": "Ruta8AT-LaFuente-Runta",
        "_segmentIndex": 0,
        "_position": 44
      },
      "geometry": {
        "type": "Point",
        "coordinates": [
          -73.38180685170536,
          5.49704615425187
        ]
      }
    },
    {
      "type": "Feature",
      "properties": {
        "_source": "Ruta8AT-LaFuente-Runta",
        "_segmentIndex": 0,
        "_position": 45
      },
      "geometry": {
        "type": "Point",
        "coordinates": [
          -73.38180667871997,
          5.496597069297217
        ]
      }
    },
    {
      "type": "Feature",
      "properties": {
        "_source": "Ruta8AT-LaFuente-Runta",
        "_segmentIndex": 0,
        "_position": 46
      },
      "geometry": {
        "type": "Point",
        "coordinates": [
          -73.3818353991466,
          5.4961483237570485
        ]
      }
    },
    {
      "type": "Feature",
      "properties": {
        "_source": "Ruta8AT-LaFuente-Runta",
        "_segmentIndex": 0,
        "_position": 47
      },
      "geometry": {
        "type": "Point",
        "coordinates": [
          -73.38194696840571,
          5.49571313291183
        ]
      }
    },
    {
      "type": "Feature",
      "properties": {
        "_source": "Ruta8AT-LaFuente-Runta",
        "_segmentIndex": 0,
        "_position": 48
      },
      "geometry": {
        "type": "Point",
        "coordinates": [
          -73.38213892939591,
          5.495308824489561
        ]
      }
    },
    {
      "type": "Feature",
      "properties": {
        "_source": "Ruta8AT-LaFuente-Runta",
        "_segmentIndex": 0,
        "_position": 49
      },
      "geometry": {
        "type": "Point",
        "coordinates": [
          -73.3824229566185,
          5.494961749122307
        ]
      }
    },
    {
      "type": "Feature",
      "properties": {
        "_source": "Ruta8AT-LaFuente-Runta",
        "_segmentIndex": 0,
        "_position": 50
      },
      "geometry": {
        "type": "Point",
        "coordinates": [
          -73.3827851377927,
          5.49469662448738
        ]
      }
    },
    {
      "type": "Feature",
      "properties": {
        "_source": "Ruta8AT-LaFuente-Runta",
        "_segmentIndex": 0,
        "_position": 51
      },
      "geometry": {
        "type": "Point",
        "coordinates": [
          -73.38317598545518,
          5.494471448023495
        ]
      }
    },
    {
      "type": "Feature",
      "properties": {
        "_source": "Ruta8AT-LaFuente-Runta",
        "_segmentIndex": 0,
        "_position": 52
      },
      "geometry": {
        "type": "Point",
        "coordinates": [
          -73.38357835845837,
          5.494267061258828
        ]
      }
    },
    {
      "type": "Feature",
      "properties": {
        "_source": "Ruta8AT-LaFuente-Runta",
        "_segmentIndex": 0,
        "_position": 53
      },
      "geometry": {
        "type": "Point",
        "coordinates": [
          -73.38397884624412,
          5.494059036960194
        ]
      }
    },
    {
      "type": "Feature",
      "properties": {
        "_source": "Ruta8AT-LaFuente-Runta",
        "_segmentIndex": 0,
        "_position": 54
      },
      "geometry": {
        "type": "Point",
        "coordinates": [
          -73.3843635196205,
          5.493823870920576
        ]
      }
    },
    {
      "type": "Feature",
      "properties": {
        "_source": "Ruta8AT-LaFuente-Runta",
        "_segmentIndex": 0,
        "_position": 55
      },
      "geometry": {
        "type": "Point",
        "coordinates": [
          -73.38472798793289,
          5.493561500367356
        ]
      }
    },
    {
      "type": "Feature",
      "properties": {
        "_source": "Ruta8AT-LaFuente-Runta",
        "_segmentIndex": 0,
        "_position": 56
      },
      "geometry": {
        "type": "Point",
        "coordinates": [
          -73.38502360710878,
          5.493224455842436
        ]
      }
    },
    {
      "type": "Feature",
      "properties": {
        "_source": "Ruta8AT-LaFuente-Runta",
        "_segmentIndex": 0,
        "_position": 57
      },
      "geometry": {
        "type": "Point",
        "coordinates": [
          -73.38525022528579,
          5.492835690859381
        ]
      }
    },
    {
      "type": "Feature",
      "properties": {
        "_source": "Ruta8AT-LaFuente-Runta",
        "_segmentIndex": 0,
        "_position": 58
      },
      "geometry": {
        "type": "Point",
        "coordinates": [
          -73.38537816827112,
          5.492405698743545
        ]
      }
    },
    {
      "type": "Feature",
      "properties": {
        "_source": "Ruta8AT-LaFuente-Runta",
        "_segmentIndex": 0,
        "_position": 59
      },
      "geometry": {
        "type": "Point",
        "coordinates": [
          -73.38544095605424,
          5.4919639383503815
        ]
      }
    },
    {
      "type": "Feature",
      "properties": {
        "_source": "Ruta8AT-LaFuente-Runta",
        "_segmentIndex": 0,
        "_position": 60
      },
      "geometry": {
        "type": "Point",
        "coordinates": [
          -73.38536434495089,
          5.491520881466501
        ]
      }
    },
    {
      "type": "Feature",
      "properties": {
        "_source": "Ruta8AT-LaFuente-Runta",
        "_segmentIndex": 0,
        "_position": 61
      },
      "geometry": {
        "type": "Point",
        "coordinates": [
          -73.38496259735653,
          5.491454696372545
        ]
      }
    },
    {
      "type": "Feature",
      "properties": {
        "_source": "Ruta8AT-LaFuente-Runta",
        "_segmentIndex": 0,
        "_position": 62
      },
      "geometry": {
        "type": "Point",
        "coordinates": [
          -73.38453109316137,
          5.491559050522106
        ]
      }
    },
    {
      "type": "Feature",
      "properties": {
        "_source": "Ruta8AT-LaFuente-Runta",
        "_segmentIndex": 0,
        "_position": 63
      },
      "geometry": {
        "type": "Point",
        "coordinates": [
          -73.38408602183091,
          5.4916050000100105
        ]
      }
    },
    {
      "type": "Feature",
      "properties": {
        "_source": "Ruta8AT-LaFuente-Runta",
        "_segmentIndex": 0,
        "_position": 64
      },
      "geometry": {
        "type": "Point",
        "coordinates": [
          -73.38363731416756,
          5.491559093382748
        ]
      }
    }
  ]
}