{
  "type": "FeatureCollection",
  "features": [
    {
      "type": "Feature",
      "properties": {
        "_source": "Ruta15A-RamalSoldeOriente-AntoniaSantos-AvenidaNorte-Muiscas",
        "_segmentIndex": 0,
        "_position": 0
      },
      "geometry": {
        "type": "Point",
        "coordinates": [
          -73.361851,
          5.518167
        ]
      }
    },
    {
      "type": "Feature",
      "properties": {
        "_source": "Ruta15A-RamalSoldeOriente-AntoniaSantos-AvenidaNorte-Muiscas",
        "_segmentIndex": 0,
        "_position": 1
      },
      "geometry": {
        "type": "Point",
        "coordinates": [
          -73.36189636422917,
          5.517721197402738
        ]
      }
    },
    {
      "type": "Feature",
      "properties": {
        "_source": "Ruta15A-RamalSoldeOriente-AntoniaSantos-AvenidaNorte-Muiscas",
        "_segmentIndex": 0,
        "_position": 2
      },
      "geometry": {
        "type": "Point",
        "coordinates": [
          -73.36193153912939,
          5.517303218382334
        ]
      }
    },
    {
      "type": "Feature",
      "properties": {
        "_source": "Ruta15A-RamalSoldeOriente-AntoniaSantos-AvenidaNorte-Muiscas",
        "_segmentIndex": 0,
        "_position": 3
      },
      "geometry": {
        "type": "Point",
        "coordinates": [
          -73.36150273272123,
          5.51716172964669
        ]
      }
    },
    {
      "type": "Feature",
      "properties": {
        "_source": "Ruta15A-RamalSoldeOriente-AntoniaSantos-AvenidaNorte-Muiscas",
        "_segmentIndex": 0,
        "_position": 4
      },
      "geometry": {
        "type": "Point",
        "coordinates": [
          -73.36153584199849,
          5.516760557986448
        ]
      }
    },
    {
      "type": "Feature",
      "properties": {
        "_source": "Ruta15A-RamalSoldeOriente-AntoniaSantos-AvenidaNorte-Muiscas",
        "_segmentIndex": 0,
        "_position": 5
      },
      "geometry": {
        "type": "Point",
        "coordinates": [
          -73.36164173515964,
          5.516323425803018
        ]
      }
    },
    {
      "type": "Feature",
      "properties": {
        "_source": "Ruta15A-RamalSoldeOriente-AntoniaSantos-AvenidaNorte-Muiscas",
        "_segmentIndex": 0,
        "_position": 6
      },
      "geometry": {
        "type": "Point",
        "coordinates": [
          -73.36174748903228,
          5.5158862602303005
        ]
      }
    },
    {
      "type": "Feature",
      "properties": {
        "_source": "Ruta15A-RamalSoldeOriente-AntoniaSantos-AvenidaNorte-Muiscas",
        "_segmentIndex": 0,
        "_position": 7
      },
      "geometry": {
        "type": "Point",
        "coordinates": [
          -73.36186861605914,
          5.515453187978159
        ]
      }
    },
    {
      "type": "Feature",
      "properties": {
        "_source": "Ruta15A-RamalSoldeOriente-AntoniaSantos-AvenidaNorte-Muiscas",
        "_segmentIndex": 0,
        "_position": 8
      },
      "geometry": {
        "type": "Point",
        "coordinates": [
          -73.3619962678184,
          5.515021853041261
        ]
      }
    },
    {
      "type": "Feature",
      "properties": {
        "_source": "Ruta15A-RamalSoldeOriente-AntoniaSantos-AvenidaNorte-Muiscas",
        "_segmentIndex": 0,
        "_position": 9
      },
      "geometry": {
        "type": "Point",
        "coordinates": [
          -73.36200009737688,
          5.514574527186155
        ]
      }
    },
    {
      "type": "Feature",
      "properties": {
        "_source": "Ruta15A-RamalSoldeOriente-AntoniaSantos-AvenidaNorte-Muiscas",
        "_segmentIndex": 0,
        "_position": 0
      },
      "geometry": {
        "type": "Point",
        "coordinates": [
          -73.361948,
          5.514173
        ]
      }
    },
    {
      "type": "Feature",
      "properties": {
        "_source": "Ruta15A-RamalSoldeOriente-AntoniaSantos-AvenidaNorte-Muiscas",
        "_segmentIndex": 0,
        "_position": 1
      },
      "geometry": {
        "type": "Point",
        "coordinates": [
          -73.36239450186324,
          5.514104654122577
        ]
      }
    },
    {
      "type": "Feature",
      "properties": {
        "_source": "Ruta15A-RamalSoldeOriente-AntoniaSantos-AvenidaNorte-Muiscas",
        "_segmentIndex": 0,
        "_position": 2
      },
      "geometry": {
        "type": "Point",
        "coordinates": [
          -73.36284096554654,
          5.514036061588775
        ]
      }
    },
    {
      "type": "Feature",
      "properties": {
        "_source": "Ruta15A-RamalSoldeOriente-AntoniaSantos-AvenidaNorte-Muiscas",
        "_segmentIndex": 0,
        "_position": 3
      },
      "geometry": {
        "type": "Point",
        "coordinates": [
          -73.36328000565796,
          5.513940516245783
        ]
      }
    },
    {
      "type": "Feature",
      "properties": {
        "_source": "Ruta15A-RamalSoldeOriente-AntoniaSantos-AvenidaNorte-Muiscas",
        "_segmentIndex": 0,
        "_position": 4
      },
      "geometry": {
        "type": "Point",
        "coordinates": [
          -73.36372246400263,
          5.513851382704166
        ]
      }
    },
    {
      "type": "Feature",
      "properties": {
        "_source": "Ruta15A-RamalSoldeOriente-AntoniaSantos-AvenidaNorte-Muiscas",
        "_segmentIndex": 0,
        "_position": 5
      },
      "geometry": {
        "type": "Point",
        "coordinates": [
          -73.36417020318815,
          5.513791593553512
        ]
      }
    },
    {
      "type": "Feature",
      "properties": {
        "_source": "Ruta15A-RamalSoldeOriente-AntoniaSantos-AvenidaNorte-Muiscas",
        "_segmentIndex": 0,
        "_position": 0
      },
      "geometry": {
        "type": "Point",
        "coordinates": [
          -73.364321,
          5.51385
        ]
      }
    },
    {
      "type": "Feature",
      "properties": {
        "_source": "Ruta15A-RamalSoldeOriente-AntoniaSantos-AvenidaNorte-Muiscas",
        "_segmentIndex": 0,
        "_position": 1
      },
      "geometry": {
        "type": "Point",
        "coordinates": [
          -73.36452517413124,
          5.514104398884041
        ]
      }
    },
    {
      "type": "Feature",
      "properties": {
        "_source": "Ruta15A-RamalSoldeOriente-AntoniaSantos-AvenidaNorte-Muiscas",
        "_segmentIndex": 0,
        "_position": 0
      },
      "geometry": {
        "type": "Point",
        "coordinates": [
          -73.364903,
          5.514219
        ]
      }
    },
    {
      "type": "Feature",
      "properties": {
        "_source": "Ruta15A-RamalSoldeOriente-AntoniaSantos-AvenidaNorte-Muiscas",
        "_segmentIndex": 0,
        "_position": 1
      },
      "geometry": {
        "type": "Point",
        "coordinates": [
          -73.36479694551706,
          5.514651352439127
        ]
      }
    },
    {
      "type": "Feature",
      "properties": {
        "_source": "Ruta15A-RamalSoldeOriente-AntoniaSantos-AvenidaNorte-Muiscas",
        "_segmentIndex": 0,
        "_position": 2
      },
      "geometry": {
        "type": "Point",
        "coordinates": [
          -73.36478776416766,
          5.515100181385577
        ]
      }
    },
    {
      "type": "Feature",
      "properties": {
        "_source": "Ruta15A-RamalSoldeOriente-AntoniaSantos-AvenidaNorte-Muiscas",
        "_segmentIndex": 0,
        "_position": 3
      },
      "geometry": {
        "type": "Point",
        "coordinates": [
          -73.36488631231585,
          5.515534873407766
        ]
      }
    },
    {
      "type": "Feature",
      "properties": {
        "_source": "Ruta15A-RamalSoldeOriente-AntoniaSantos-AvenidaNorte-Muiscas",
        "_segmentIndex": 0,
        "_position": 4
      },
      "geometry": {
        "type": "Point",
        "coordinates": [
          -73.36504264410547,
          5.515956739278613
        ]
      }
    },
    {
      "type": "Feature",
      "properties": {
        "_source": "Ruta15A-RamalSoldeOriente-AntoniaSantos-AvenidaNorte-Muiscas",
        "_segmentIndex": 0,
        "_position": 5
      },
      "geometry": {
        "type": "Point",
        "coordinates": [
          -73.36519457860481,
          5.516379846439656
        ]
      }
    },
    {
      "type": "Feature",
      "properties": {
        "_source": "Ruta15A-RamalSoldeOriente-AntoniaSantos-AvenidaNorte-Muiscas",
        "_segmentIndex": 0,
        "_position": 6
      },
      "geometry": {
        "type": "Point",
        "coordinates": [
          -73.36524573425206,
          5.516822237404065
        ]
      }
    },
    {
      "type": "Feature",
      "properties": {
        "_source": "Ruta15A-RamalSoldeOriente-AntoniaSantos-AvenidaNorte-Muiscas",
        "_segmentIndex": 0,
        "_position": 7
      },
      "geometry": {
        "type": "Point",
        "coordinates": [
          -73.36521575957445,
          5.517269673290945
        ]
      }
    },
    {
      "type": "Feature",
      "properties": {
        "_source": "Ruta15A-RamalSoldeOriente-AntoniaSantos-AvenidaNorte-Muiscas",
        "_segmentIndex": 0,
        "_position": 8
      },
      "geometry": {
        "type": "Point",
        "coordinates": [
          -73.36509974866028,
          5.517704192108958
        ]
      }
    },
    {
      "type": "Feature",
      "properties": {
        "_source": "Ruta15A-RamalSoldeOriente-AntoniaSantos-AvenidaNorte-Muiscas",
        "_segmentIndex": 0,
        "_position": 9
      },
      "geometry": {
        "type": "Point",
        "coordinates": [
          -73.36505555442191,
          5.518136483941749
        ]
      }
    },
    {
      "type": "Feature",
      "properties": {
        "_source": "Ruta15A-RamalSoldeOriente-AntoniaSantos-AvenidaNorte-Muiscas",
        "_segmentIndex": 0,
        "_position": 10
      },
      "geometry": {
        "type": "Point",
        "coordinates": [
          -73.36492342034074,
          5.518566479664809
        ]
      }
    },
    {
      "type": "Feature",
      "properties": {
        "_source": "Ruta15A-RamalSoldeOriente-AntoniaSantos-AvenidaNorte-Muiscas",
        "_segmentIndex": 0,
        "_position": 11
      },
      "geometry": {
        "type": "Point",
        "coordinates": [
          -73.36478996400497,
          5.518996069812897
        ]
      }
    },
    {
      "type": "Feature",
      "properties": {
        "_source": "Ruta15A-RamalSoldeOriente-AntoniaSantos-AvenidaNorte-Muiscas",
        "_segmentIndex": 0,
        "_position": 0
      },
      "geometry": {
        "type": "Point",
        "coordinates": [
          -73.364712,
          5.519246
        ]
      }
    },
    {
      "type": "Feature",
      "properties": {
        "_source": "Ruta15A-RamalSoldeOriente-AntoniaSantos-AvenidaNorte-Muiscas",
        "_segmentIndex": 0,
        "_position": 1
      },
      "geometry": {
        "type": "Point",
        "coordinates": [
          -73.36513976161102,
          5.519331995097461
        ]
      }
    },
    {
      "type": "Feature",
      "properties": {
        "_source": "Ruta15A-RamalSoldeOriente-AntoniaSantos-AvenidaNorte-Muiscas",
        "_segmentIndex": 0,
        "_position": 0
      },
      "geometry": {
        "type": "Point",
        "coordinates": [
          -73.365464,
          5.519424
        ]
      }
    },
    {
      "type": "Feature",
      "properties": {
        "_source": "Ruta15A-RamalSoldeOriente-AntoniaSantos-AvenidaNorte-Muiscas",
        "_segmentIndex": 0,
        "_position": 1
      },
      "geometry": {
        "type": "Point",
        "coordinates": [
          -73.36522386750903,
          5.5198047966851345
        ]
      }
    },
    {
      "type": "Feature",
      "properties": {
        "_source": "Ruta15A-RamalSoldeOriente-AntoniaSantos-AvenidaNorte-Muiscas",
        "_segmentIndex": 0,
        "_position": 2
      },
      "geometry": {
        "type": "Point",
        "coordinates": [
          -73.36497415805388,
          5.520179504422517
        ]
      }
    },
    {
      "type": "Feature",
      "properties": {
        "_source": "Ruta15A-RamalSoldeOriente-AntoniaSantos-AvenidaNorte-Muiscas",
        "_segmentIndex": 0,
        "_position": 3
      },
      "geometry": {
        "type": "Point",
        "coordinates": [
          -73.36471680105666,
          5.520549052329839
        ]
      }
    },
    {
      "type": "Feature",
      "properties": {
        "_source": "Ruta15A-RamalSoldeOriente-AntoniaSantos-AvenidaNorte-Muiscas",
        "_segmentIndex": 0,
        "_position": 4
      },
      "geometry": {
        "type": "Point",
        "coordinates": [
          -73.36445710598346,
          5.520916979112882
        ]
      }
    },
    {
      "type": "Feature",
      "properties": {
        "_source": "Ruta15A-RamalSoldeOriente-AntoniaSantos-AvenidaNorte-Muiscas",
        "_segmentIndex": 0,
        "_position": 5
      },
      "geometry": {
        "type": "Point",
        "coordinates": [
          -73.3641997401138,
          5.5212865140806935
        ]
      }
    },
    {
      "type": "Feature",
      "properties": {
        "_source": "Ruta15A-RamalSoldeOriente-AntoniaSantos-AvenidaNorte-Muiscas",
        "_segmentIndex": 0,
        "_position": 6
      },
      "geometry": {
        "type": "Point",
        "coordinates": [
          -73.36394394572456,
          5.521657147688305
        ]
      }
    },
    {
      "type": "Feature",
      "properties": {
        "_source": "Ruta15A-RamalSoldeOriente-AntoniaSantos-AvenidaNorte-Muiscas",
        "_segmentIndex": 0,
        "_position": 7
      },
      "geometry": {
        "type": "Point",
        "coordinates": [
          -73.3636881510154,
          5.5220277811865435
        ]
      }
    },
    {
      "type": "Feature",
      "properties": {
        "_source": "Ruta15A-RamalSoldeOriente-AntoniaSantos-AvenidaNorte-Muiscas",
        "_segmentIndex": 0,
        "_position": 8
      },
      "geometry": {
        "type": "Point",
        "coordinates": [
          -73.3634449694585,
          5.522406733055353
        ]
      }
    },
    {
      "type": "Feature",
      "properties": {
        "_source": "Ruta15A-RamalSoldeOriente-AntoniaSantos-AvenidaNorte-Muiscas",
        "_segmentIndex": 0,
        "_position": 9
      },
      "geometry": {
        "type": "Point",
        "coordinates": [
          -73.36319956200347,
          5.522784245634742
        ]
      }
    },
    {
      "type": "Feature",
      "properties": {
        "_source": "Ruta15A-RamalSoldeOriente-AntoniaSantos-AvenidaNorte-Muiscas",
        "_segmentIndex": 0,
        "_position": 10
      },
      "geometry": {
        "type": "Point",
        "coordinates": [
          -73.36295049802342,
          5.523159393642395
        ]
      }
    },
    {
      "type": "Feature",
      "properties": {
        "_source": "Ruta15A-RamalSoldeOriente-AntoniaSantos-AvenidaNorte-Muiscas",
        "_segmentIndex": 0,
        "_position": 11
      },
      "geometry": {
        "type": "Point",
        "coordinates": [
          -73.362701433728,
          5.523534541546328
        ]
      }
    },
    {
      "type": "Feature",
      "properties": {
        "_source": "Ruta15A-RamalSoldeOriente-AntoniaSantos-AvenidaNorte-Muiscas",
        "_segmentIndex": 0,
        "_position": 12
      },
      "geometry": {
        "type": "Point",
        "coordinates": [
          -73.3624460579974,
          5.523905442541522
        ]
      }
    },
    {
      "type": "Feature",
      "properties": {
        "_source": "Ruta15A-RamalSoldeOriente-AntoniaSantos-AvenidaNorte-Muiscas",
        "_segmentIndex": 0,
        "_position": 13
      },
      "geometry": {
        "type": "Point",
        "coordinates": [
          -73.36219003033526,
          5.524275916531044
        ]
      }
    },
    {
      "type": "Feature",
      "properties": {
        "_source": "Ruta15A-RamalSoldeOriente-AntoniaSantos-AvenidaNorte-Muiscas",
        "_segmentIndex": 0,
        "_position": 14
      },
      "geometry": {
        "type": "Point",
        "coordinates": [
          -73.36193443760071,
          5.524646688823757
        ]
      }
    },
    {
      "type": "Feature",
      "properties": {
        "_source": "Ruta15A-RamalSoldeOriente-AntoniaSantos-AvenidaNorte-Muiscas",
        "_segmentIndex": 0,
        "_position": 15
      },
      "geometry": {
        "type": "Point",
        "coordinates": [
          -73.36167959595089,
          5.525017969170923
        ]
      }
    },
    {
      "type": "Feature",
      "properties": {
        "_source": "Ruta15A-RamalSoldeOriente-AntoniaSantos-AvenidaNorte-Muiscas",
        "_segmentIndex": 0,
        "_position": 16
      },
      "geometry": {
        "type": "Point",
        "coordinates": [
          -73.36142742261815,
          5.525391054168791
        ]
      }
    },
    {
      "type": "Feature",
      "properties": {
        "_source": "Ruta15A-RamalSoldeOriente-AntoniaSantos-AvenidaNorte-Muiscas",
        "_segmentIndex": 0,
        "_position": 17
      },
      "geometry": {
        "type": "Point",
        "coordinates": [
          -73.36117427412586,
          5.525763466424622
        ]
      }
    },
    {
      "type": "Feature",
      "properties": {
        "_source": "Ruta15A-RamalSoldeOriente-AntoniaSantos-AvenidaNorte-Muiscas",
        "_segmentIndex": 0,
        "_position": 18
      },
      "geometry": {
        "type": "Point",
        "coordinates": [
          -73.3609117498852,
          5.52612940957472
        ]
      }
    },
    {
      "type": "Feature",
      "properties": {
        "_source": "Ruta15A-RamalSoldeOriente-AntoniaSantos-AvenidaNorte-Muiscas",
        "_segmentIndex": 0,
        "_position": 19
      },
      "geometry": {
        "type": "Point",
        "coordinates": [
          -73.36064922532009,
          5.526495352609521
        ]
      }
    },
    {
      "type": "Feature",
      "properties": {
        "_source": "Ruta15A-RamalSoldeOriente-AntoniaSantos-AvenidaNorte-Muiscas",
        "_segmentIndex": 0,
        "_position": 20
      },
      "geometry": {
        "type": "Point",
        "coordinates": [
          -73.36036077860258,
          5.526841335622332
        ]
      }
    },
    {
      "type": "Feature",
      "properties": {
        "_source": "Ruta15A-RamalSoldeOriente-AntoniaSantos-AvenidaNorte-Muiscas",
        "_segmentIndex": 0,
        "_position": 21
      },
      "geometry": {
        "type": "Point",
        "coordinates": [
          -73.36006308351446,
          5.527179557481376
        ]
      }
    },
    {
      "type": "Feature",
      "properties": {
        "_source": "Ruta15A-RamalSoldeOriente-AntoniaSantos-AvenidaNorte-Muiscas",
        "_segmentIndex": 0,
        "_position": 22
      },
      "geometry": {
        "type": "Point",
        "coordinates": [
          -73.35977602387622,
          5.527524744986112
        ]
      }
    },
    {
      "type": "Feature",
      "properties": {
        "_source": "Ruta15A-RamalSoldeOriente-AntoniaSantos-AvenidaNorte-Muiscas",
        "_segmentIndex": 0,
        "_position": 0
      },
      "geometry": {
        "type": "Point",
        "coordinates": [
          -73.359718,
          5.527646
        ]
      }
    },
    {
      "type": "Feature",
      "properties": {
        "_source": "Ruta15A-RamalSoldeOriente-AntoniaSantos-AvenidaNorte-Muiscas",
        "_segmentIndex": 0,
        "_position": 0
      },
      "geometry": {
        "type": "Point",
        "coordinates": [
          -73.35999,
          5.527717
        ]
      }
    },
    {
      "type": "Feature",
      "properties": {
        "_source": "Ruta15A-RamalSoldeOriente-AntoniaSantos-AvenidaNorte-Muiscas",
        "_segmentIndex": 0,
        "_position": 1
      },
      "geometry": {
        "type": "Point",
        "coordinates": [
          -73.36023624577473,
          5.527340189805947
        ]
      }
    },
    {
      "type": "Feature",
      "properties": {
        "_source": "Ruta15A-RamalSoldeOriente-AntoniaSantos-AvenidaNorte-Muiscas",
        "_segmentIndex": 0,
        "_position": 2
      },
      "geometry": {
        "type": "Point",
        "coordinates": [
          -73.36048592028914,
          5.526965772548351
        ]
      }
    },
    {
      "type": "Feature",
      "properties": {
        "_source": "Ruta15A-RamalSoldeOriente-AntoniaSantos-AvenidaNorte-Muiscas",
        "_segmentIndex": 0,
        "_position": 3
      },
      "geometry": {
        "type": "Point",
        "coordinates": [
          -73.36074562786705,
          5.526597854832751
        ]
      }
    },
    {
      "type": "Feature",
      "properties": {
        "_source": "Ruta15A-RamalSoldeOriente-AntoniaSantos-AvenidaNorte-Muiscas",
        "_segmentIndex": 0,
        "_position": 4
      },
      "geometry": {
        "type": "Point",
        "coordinates": [
          -73.36100177217473,
          5.526227459264538
        ]
      }
    },
    {
      "type": "Feature",
      "properties": {
        "_source": "Ruta15A-RamalSoldeOriente-AntoniaSantos-AvenidaNorte-Muiscas",
        "_segmentIndex": 0,
        "_position": 5
      },
      "geometry": {
        "type": "Point",
        "coordinates": [
          -73.3612582053115,
          5.525857262870905
        ]
      }
    },
    {
      "type": "Feature",
      "properties": {
        "_source": "Ruta15A-RamalSoldeOriente-AntoniaSantos-AvenidaNorte-Muiscas",
        "_segmentIndex": 0,
        "_position": 6
      },
      "geometry": {
        "type": "Point",
        "coordinates": [
          -73.36151641110962,
          5.525488288321403
        ]
      }
    },
    {
      "type": "Feature",
      "properties": {
        "_source": "Ruta15A-RamalSoldeOriente-AntoniaSantos-AvenidaNorte-Muiscas",
        "_segmentIndex": 0,
        "_position": 7
      },
      "geometry": {
        "type": "Point",
        "coordinates": [
          -73.36176840108809,
          5.5251150958334305
        ]
      }
    },
    {
      "type": "Feature",
      "properties": {
        "_source": "Ruta15A-RamalSoldeOriente-AntoniaSantos-AvenidaNorte-Muiscas",
        "_segmentIndex": 0,
        "_position": 8
      },
      "geometry": {
        "type": "Point",
        "coordinates": [
          -73.36201912837504,
          5.524741046594507
        ]
      }
    },
    {
      "type": "Feature",
      "properties": {
        "_source": "Ruta15A-RamalSoldeOriente-AntoniaSantos-AvenidaNorte-Muiscas",
        "_segmentIndex": 0,
        "_position": 9
      },
      "geometry": {
        "type": "Point",
        "coordinates": [
          -73.36227303030097,
          5.524369156939383
        ]
      }
    },
    {
      "type": "Feature",
      "properties": {
        "_source": "Ruta15A-RamalSoldeOriente-AntoniaSantos-AvenidaNorte-Muiscas",
        "_segmentIndex": 0,
        "_position": 10
      },
      "geometry": {
        "type": "Point",
        "coordinates": [
          -73.36252736422429,
          5.523997547786683
        ]
      }
    },
    {
      "type": "Feature",
      "properties": {
        "_source": "Ruta15A-RamalSoldeOriente-AntoniaSantos-AvenidaNorte-Muiscas",
        "_segmentIndex": 0,
        "_position": 11
      },
      "geometry": {
        "type": "Point",
        "coordinates": [
          -73.36277956179187,
          5.523624479416076
        ]
      }
    },
    {
      "type": "Feature",
      "properties": {
        "_source": "Ruta15A-RamalSoldeOriente-AntoniaSantos-AvenidaNorte-Muiscas",
        "_segmentIndex": 0,
        "_position": 12
      },
      "geometry": {
        "type": "Point",
        "coordinates": [
          -73.3630581480878,
          5.523274644839799
        ]
      }
    },
    {
      "type": "Feature",
      "properties": {
        "_source": "Ruta15A-RamalSoldeOriente-AntoniaSantos-AvenidaNorte-Muiscas",
        "_segmentIndex": 0,
        "_position": 0
      },
      "geometry": {
        "type": "Point",
        "coordinates": [
          -73.363089,
          5.523248
        ]
      }
    },
    {
      "type": "Feature",
      "properties": {
        "_source": "Ruta15A-RamalSoldeOriente-AntoniaSantos-AvenidaNorte-Muiscas",
        "_segmentIndex": 0,
        "_position": 1
      },
      "geometry": {
        "type": "Point",
        "coordinates": [
          -73.36343231951693,
          5.52295580425724
        ]
      }
    },
    {
      "type": "Feature",
      "properties": {
        "_source": "Ruta15A-RamalSoldeOriente-AntoniaSantos-AvenidaNorte-Muiscas",
        "_segmentIndex": 0,
        "_position": 2
      },
      "geometry": {
        "type": "Point",
        "coordinates": [
          -73.36380960602673,
          5.522834615492425
        ]
      }
    },
    {
      "type": "Feature",
      "properties": {
        "_source": "Ruta15A-RamalSoldeOriente-AntoniaSantos-AvenidaNorte-Muiscas",
        "_segmentIndex": 0,
        "_position": 3
      },
      "geometry": {
        "type": "Point",
        "coordinates": [
          -73.36421152731904,
          5.523039587101197
        ]
      }
    },
    {
      "type": "Feature",
      "properties": {
        "_source": "Ruta15A-RamalSoldeOriente-AntoniaSantos-AvenidaNorte-Muiscas",
        "_segmentIndex": 0,
        "_position": 4
      },
      "geometry": {
        "type": "Point",
        "coordinates": [
          -73.36457187995057,
          5.523306589167431
        ]
      }
    },
    {
      "type": "Feature",
      "properties": {
        "_source": "Ruta15A-RamalSoldeOriente-AntoniaSantos-AvenidaNorte-Muiscas",
        "_segmentIndex": 0,
        "_position": 0
      },
      "geometry": {
        "type": "Point",
        "coordinates": [
          -73.364762,
          5.52354
        ]
      }
    },
    {
      "type": "Feature",
      "properties": {
        "_source": "Ruta15A-RamalSoldeOriente-AntoniaSantos-AvenidaNorte-Muiscas",
        "_segmentIndex": 0,
        "_position": 1
      },
      "geometry": {
        "type": "Point",
        "coordinates": [
          -73.36519718749105,
          5.5236606683063485
        ]
      }
    },
    {
      "type": "Feature",
      "properties": {
        "_source": "Ruta15A-RamalSoldeOriente-AntoniaSantos-AvenidaNorte-Muiscas",
        "_segmentIndex": 0,
        "_position": 2
      },
      "geometry": {
        "type": "Point",
        "coordinates": [
          -73.36563092348678,
          5.523786044560608
        ]
      }
    },
    {
      "type": "Feature",
      "properties": {
        "_source": "Ruta15A-RamalSoldeOriente-AntoniaSantos-AvenidaNorte-Muiscas",
        "_segmentIndex": 0,
        "_position": 3
      },
      "geometry": {
        "type": "Point",
        "coordinates": [
          -73.3660599242899,
          5.523926888556005
        ]
      }
    },
    {
      "type": "Feature",
      "properties": {
        "_source": "Ruta15A-RamalSoldeOriente-AntoniaSantos-AvenidaNorte-Muiscas",
        "_segmentIndex": 0,
        "_position": 0
      },
      "geometry": {
        "type": "Point",
        "coordinates": [
          -73.366207,
          5.523972
        ]
      }
    },
    {
      "type": "Feature",
      "properties": {
        "_source": "Ruta15A-RamalSoldeOriente-AntoniaSantos-AvenidaNorte-Muiscas",
        "_segmentIndex": 0,
        "_position": 1
      },
      "geometry": {
        "type": "Point",
        "coordinates": [
          -73.3662467429202,
          5.524387010432374
        ]
      }
    },
    {
      "type": "Feature",
      "properties": {
        "_source": "Ruta15A-RamalSoldeOriente-AntoniaSantos-AvenidaNorte-Muiscas",
        "_segmentIndex": 0,
        "_position": 0
      },
      "geometry": {
        "type": "Point",
        "coordinates": [
          -73.36625,
          5.524392
        ]
      }
    },
    {
      "type": "Feature",
      "properties": {
        "_source": "Ruta15A-RamalSoldeOriente-AntoniaSantos-AvenidaNorte-Muiscas",
        "_segmentIndex": 0,
        "_position": 1
      },
      "geometry": {
        "type": "Point",
        "coordinates": [
          -73.36647600146867,
          5.524781190020692
        ]
      }
    },
    {
      "type": "Feature",
      "properties": {
        "_source": "Ruta15A-RamalSoldeOriente-AntoniaSantos-AvenidaNorte-Muiscas",
        "_segmentIndex": 0,
        "_position": 2
      },
      "geometry": {
        "type": "Point",
        "coordinates": [
          -73.36655605799803,
          5.525201620943887
        ]
      }
    },
    {
      "type": "Feature",
      "properties": {
        "_source": "Ruta15A-RamalSoldeOriente-AntoniaSantos-AvenidaNorte-Muiscas",
        "_segmentIndex": 0,
        "_position": 3
      },
      "geometry": {
        "type": "Point",
        "coordinates": [
          -73.36644030244348,
          5.5256362354040505
        ]
      }
    },
    {
      "type": "Feature",
      "properties": {
        "_source": "Ruta15A-RamalSoldeOriente-AntoniaSantos-AvenidaNorte-Muiscas",
        "_segmentIndex": 0,
        "_position": 4
      },
      "geometry": {
        "type": "Point",
        "coordinates": [
          -73.3663543490156,
          5.5260764176179284
        ]
      }
    },
    {
      "type": "Feature",
      "properties": {
        "_source": "Ruta15A-RamalSoldeOriente-AntoniaSantos-AvenidaNorte-Muiscas",
        "_segmentIndex": 0,
        "_position": 5
      },
      "geometry": {
        "type": "Point",
        "coordinates": [
          -73.36633343626603,
          5.526524627952427
        ]
      }
    },
    {
      "type": "Feature",
      "properties": {
        "_source": "Ruta15A-RamalSoldeOriente-AntoniaSantos-AvenidaNorte-Muiscas",
        "_segmentIndex": 0,
        "_position": 6
      },
      "geometry": {
        "type": "Point",
        "coordinates": [
          -73.36635437752909,
          5.526973785920464
        ]
      }
    },
    {
      "type": "Feature",
      "properties": {
        "_source": "Ruta15A-RamalSoldeOriente-AntoniaSantos-AvenidaNorte-Muiscas",
        "_segmentIndex": 0,
        "_position": 7
      },
      "geometry": {
        "type": "Point",
        "coordinates": [
          -73.366329545881,
          5.5274225471070215
        ]
      }
    },
    {
      "type": "Feature",
      "properties": {
        "_source": "Ruta15A-RamalSoldeOriente-AntoniaSantos-AvenidaNorte-Muiscas",
        "_segmentIndex": 0,
        "_position": 8
      },
      "geometry": {
        "type": "Point",
        "coordinates": [
          -73.36632881812555,
          5.527868437009997
        ]
      }
    },
    {
      "type": "Feature",
      "properties": {
        "_source": "Ruta15A-RamalSoldeOriente-AntoniaSantos-AvenidaNorte-Muiscas",
        "_segmentIndex": 0,
        "_position": 0
      },
      "geometry": {
        "type": "Point",
        "coordinates": [
          -73.366423,
          5.528169
        ]
      }
    },
    {
      "type": "Feature",
      "properties": {
        "_source": "Ruta15A-RamalSoldeOriente-AntoniaSantos-AvenidaNorte-Muiscas",
        "_segmentIndex": 0,
        "_position": 1
      },
      "geometry": {
        "type": "Point",
        "coordinates": [
          -73.36600837578827,
          5.528329289705648
        ]
      }
    },
    {
      "type": "Feature",
      "properties": {
        "_source": "Ruta15A-RamalSoldeOriente-AntoniaSantos-AvenidaNorte-Muiscas",
        "_segmentIndex": 0,
        "_position": 2
      },
      "geometry": {
        "type": "Point",
        "coordinates": [
          -73.36569911199436,
          5.528656694841519
        ]
      }
    },
    {
      "type": "Feature",
      "properties": {
        "_source": "Ruta15A-RamalSoldeOriente-AntoniaSantos-AvenidaNorte-Muiscas",
        "_segmentIndex": 0,
        "_position": 3
      },
      "geometry": {
        "type": "Point",
        "coordinates": [
          -73.36540637328544,
          5.528998960490241
        ]
      }
    },
    {
      "type": "Feature",
      "properties": {
        "_source": "Ruta15A-RamalSoldeOriente-AntoniaSantos-AvenidaNorte-Muiscas",
        "_segmentIndex": 0,
        "_position": 4
      },
      "geometry": {
        "type": "Point",
        "coordinates": [
          -73.36522598912566,
          5.529409122248924
        ]
      }
    },
    {
      "type": "Feature",
      "properties": {
        "_source": "Ruta15A-RamalSoldeOriente-AntoniaSantos-AvenidaNorte-Muiscas",
        "_segmentIndex": 0,
        "_position": 5
      },
      "geometry": {
        "type": "Point",
        "coordinates": [
          -73.36510022042707,
          5.529840747193645
        ]
      }
    },
    {
      "type": "Feature",
      "properties": {
        "_source": "Ruta15A-RamalSoldeOriente-AntoniaSantos-AvenidaNorte-Muiscas",
        "_segmentIndex": 0,
        "_position": 6
      },
      "geometry": {
        "type": "Point",
        "coordinates": [
          -73.36498374171168,
          5.53027520430827
        ]
      }
    },
    {
      "type": "Feature",
      "properties": {
        "_source": "Ruta15A-RamalSoldeOriente-AntoniaSantos-AvenidaNorte-Muiscas",
        "_segmentIndex": 0,
        "_position": 7
      },
      "geometry": {
        "type": "Point",
        "coordinates": [
          -73.36485554412502,
          5.53070636069837
        ]
      }
    },
    {
      "type": "Feature",
      "properties": {
        "_source": "Ruta15A-RamalSoldeOriente-AntoniaSantos-AvenidaNorte-Muiscas",
        "_segmentIndex": 0,
        "_position": 8
      },
      "geometry": {
        "type": "Point",
        "coordinates": [
          -73.36472603260793,
          5.531137147030459
        ]
      }
    },
    {
      "type": "Feature",
      "properties": {
        "_source": "Ruta15A-RamalSoldeOriente-AntoniaSantos-AvenidaNorte-Muiscas",
        "_segmentIndex": 0,
        "_position": 9
      },
      "geometry": {
        "type": "Point",
        "coordinates": [
          -73.3646024226266,
          5.531569631021647
        ]
      }
    },
    {
      "type": "Feature",
      "properties": {
        "_source": "Ruta15A-RamalSoldeOriente-AntoniaSantos-AvenidaNorte-Muiscas",
        "_segmentIndex": 0,
        "_position": 10
      },
      "geometry": {
        "type": "Point",
        "coordinates": [
          -73.36447669169365,
          5.532001470426754
        ]
      }
    },
    {
      "type": "Feature",
      "properties": {
        "_source": "Ruta15A-RamalSoldeOriente-AntoniaSantos-AvenidaNorte-Muiscas",
        "_segmentIndex": 0,
        "_position": 11
      },
      "geometry": {
        "type": "Point",
        "coordinates": [
          -73.3643409072768,
          5.532430338971486
        ]
      }
    },
    {
      "type": "Feature",
      "properties": {
        "_source": "Ruta15A-RamalSoldeOriente-AntoniaSantos-AvenidaNorte-Muiscas",
        "_segmentIndex": 0,
        "_position": 12
      },
      "geometry": {
        "type": "Point",
        "coordinates": [
          -73.36420549150071,
          5.532859322366815
        ]
      }
    },
    {
      "type": "Feature",
      "properties": {
        "_source": "Ruta15A-RamalSoldeOriente-AntoniaSantos-AvenidaNorte-Muiscas",
        "_segmentIndex": 0,
        "_position": 13
      },
      "geometry": {
        "type": "Point",
        "coordinates": [
          -73.3640714410103,
          5.5332887310367
        ]
      }
    },
    {
      "type": "Feature",
      "properties": {
        "_source": "Ruta15A-RamalSoldeOriente-AntoniaSantos-AvenidaNorte-Muiscas",
        "_segmentIndex": 0,
        "_position": 14
      },
      "geometry": {
        "type": "Point",
        "coordinates": [
          -73.36393739032522,
          5.533718139676483
        ]
      }
    },
    {
      "type": "Feature",
      "properties": {
        "_source": "Ruta15A-RamalSoldeOriente-AntoniaSantos-AvenidaNorte-Muiscas",
        "_segmentIndex": 0,
        "_position": 15
      },
      "geometry": {
        "type": "Point",
        "coordinates": [
          -73.363824570711,
          5.534153538189572
        ]
      }
    },
    {
      "type": "Feature",
      "properties": {
        "_source": "Ruta15A-RamalSoldeOriente-AntoniaSantos-AvenidaNorte-Muiscas",
        "_segmentIndex": 0,
        "_position": 16
      },
      "geometry": {
        "type": "Point",
        "coordinates": [
          -73.36371230183137,
          5.534589092105042
        ]
      }
    },
    {
      "type": "Feature",
      "properties": {
        "_source": "Ruta15A-RamalSoldeOriente-AntoniaSantos-AvenidaNorte-Muiscas",
        "_segmentIndex": 0,
        "_position": 17
      },
      "geometry": {
        "type": "Point",
        "coordinates": [
          -73.36358725400439,
          5.535021006604625
        ]
      }
    },
    {
      "type": "Feature",
      "properties": {
        "_source": "Ruta15A-RamalSoldeOriente-AntoniaSantos-AvenidaNorte-Muiscas",
        "_segmentIndex": 0,
        "_position": 18
      },
      "geometry": {
        "type": "Point",
        "coordinates": [
          -73.3634510606606,
          5.535449746888416
        ]
      }
    },
    {
      "type": "Feature",
      "properties": {
        "_source": "Ruta15A-RamalSoldeOriente-AntoniaSantos-AvenidaNorte-Muiscas",
        "_segmentIndex": 0,
        "_position": 0
      },
      "geometry": {
        "type": "Point",
        "coordinates": [
          -73.363356,
          5.535749
        ]
      }
    },
    {
      "type": "Feature",
      "properties": {
        "_source": "Ruta15A-RamalSoldeOriente-AntoniaSantos-AvenidaNorte-Muiscas",
        "_segmentIndex": 0,
        "_position": 1
      },
      "geometry": {
        "type": "Point",
        "coordinates": [
          -73.36330238406418,
          5.536187161333055
        ]
      }
    },
    {
      "type": "Feature",
      "properties": {
        "_source": "Ruta15A-RamalSoldeOriente-AntoniaSantos-AvenidaNorte-Muiscas",
        "_segmentIndex": 0,
        "_position": 0
      },
      "geometry": {
        "type": "Point",
        "coordinates": [
          -73.363164,
          5.536345
        ]
      }
    },
    {
      "type": "Feature",
      "properties": {
        "_source": "Ruta15A-RamalSoldeOriente-AntoniaSantos-AvenidaNorte-Muiscas",
        "_segmentIndex": 0,
        "_position": 1
      },
      "geometry": {
        "type": "Point",
        "coordinates": [
          -73.3627146643515,
          5.5363913835641245
        ]
      }
    },
    {
      "type": "Feature",
      "properties": {
        "_source": "Ruta15A-RamalSoldeOriente-AntoniaSantos-AvenidaNorte-Muiscas",
        "_segmentIndex": 0,
        "_position": 2
      },
      "geometry": {
        "type": "Point",
        "coordinates": [
          -73.36226586557267,
          5.536442848461791
        ]
      }
    },
    {
      "type": "Feature",
      "properties": {
        "_source": "Ruta15A-RamalSoldeOriente-AntoniaSantos-AvenidaNorte-Muiscas",
        "_segmentIndex": 0,
        "_position": 3
      },
      "geometry": {
        "type": "Point",
        "coordinates": [
          -73.36183176572423,
          5.536550679181148
        ]
      }
    },
    {
      "type": "Feature",
      "properties": {
        "_source": "Ruta15A-RamalSoldeOriente-AntoniaSantos-AvenidaNorte-Muiscas",
        "_segmentIndex": 0,
        "_position": 4
      },
      "geometry": {
        "type": "Point",
        "coordinates": [
          -73.36149498453551,
          5.536845326740211
        ]
      }
    },
    {
      "type": "Feature",
      "properties": {
        "_source": "Ruta15A-RamalSoldeOriente-AntoniaSantos-AvenidaNorte-Muiscas",
        "_segmentIndex": 0,
        "_position": 5
      },
      "geometry": {
        "type": "Point",
        "coordinates": [
          -73.36125394972596,
          5.537223104659902
        ]
      }
    },
    {
      "type": "Feature",
      "properties": {
        "_source": "Ruta15A-RamalSoldeOriente-AntoniaSantos-AvenidaNorte-Muiscas",
        "_segmentIndex": 0,
        "_position": 6
      },
      "geometry": {
        "type": "Point",
        "coordinates": [
          -73.36097787416571,
          5.537564394699519
        ]
      }
    },
    {
      "type": "Feature",
      "properties": {
        "_source": "Ruta15A-RamalSoldeOriente-AntoniaSantos-AvenidaNorte-Muiscas",
        "_segmentIndex": 0,
        "_position": 7
      },
      "geometry": {
        "type": "Point",
        "coordinates": [
          -73.36057873158418,
          5.537772181714243
        ]
      }
    },
    {
      "type": "Feature",
      "properties": {
        "_source": "Ruta15A-RamalSoldeOriente-AntoniaSantos-AvenidaNorte-Muiscas",
        "_segmentIndex": 0,
        "_position": 0
      },
      "geometry": {
        "type": "Point",
        "coordinates": [
          -73.360312,
          5.538052
        ]
      }
    },
    {
      "type": "Feature",
      "properties": {
        "_source": "Ruta15A-RamalSoldeOriente-AntoniaSantos-AvenidaNorte-Muiscas",
        "_segmentIndex": 0,
        "_position": 1
      },
      "geometry": {
        "type": "Point",
        "coordinates": [
          -73.36019123077944,
          5.538481860288651
        ]
      }
    },
    {
      "type": "Feature",
      "properties": {
        "_source": "Ruta15A-RamalSoldeOriente-AntoniaSantos-AvenidaNorte-Muiscas",
        "_segmentIndex": 0,
        "_position": 0
      },
      "geometry": {
        "type": "Point",
        "coordinates": [
          -73.360146,
          5.538708
        ]
      }
    },
    {
      "type": "Feature",
      "properties": {
        "_source": "Ruta15A-RamalSoldeOriente-AntoniaSantos-AvenidaNorte-Muiscas",
        "_segmentIndex": 0,
        "_position": 1
      },
      "geometry": {
        "type": "Point",
        "coordinates": [
          -73.360040450014,
          5.53914520627711
        ]
      }
    },
    {
      "type": "Feature",
      "properties": {
        "_source": "Ruta15A-RamalSoldeOriente-AntoniaSantos-AvenidaNorte-Muiscas",
        "_segmentIndex": 0,
        "_position": 2
      },
      "geometry": {
        "type": "Point",
        "coordinates": [
          -73.35992628989852,
          5.539580273149888
        ]
      }
    },
    {
      "type": "Feature",
      "properties": {
        "_source": "Ruta15A-RamalSoldeOriente-AntoniaSantos-AvenidaNorte-Muiscas",
        "_segmentIndex": 0,
        "_position": 3
      },
      "geometry": {
        "type": "Point",
        "coordinates": [
          -73.35981858994823,
          5.540016963965605
        ]
      }
    },
    {
      "type": "Feature",
      "properties": {
        "_source": "Ruta15A-RamalSoldeOriente-AntoniaSantos-AvenidaNorte-Muiscas",
        "_segmentIndex": 0,
        "_position": 4
      },
      "geometry": {
        "type": "Point",
        "coordinates": [
          -73.35966870473277,
          5.540440040699637
        ]
      }
    },
    {
      "type": "Feature",
      "properties": {
        "_source": "Ruta15A-RamalSoldeOriente-AntoniaSantos-AvenidaNorte-Muiscas",
        "_segmentIndex": 0,
        "_position": 5
      },
      "geometry": {
        "type": "Point",
        "coordinates": [
          -73.35948340665601,
          5.540850117583579
        ]
      }
    },
    {
      "type": "Feature",
      "properties": {
        "_source": "Ruta15A-RamalSoldeOriente-AntoniaSantos-AvenidaNorte-Muiscas",
        "_segmentIndex": 0,
        "_position": 6
      },
      "geometry": {
        "type": "Point",
        "coordinates": [
          -73.3592914538685,
          5.5412571689666414
        ]
      }
    },
    {
      "type": "Feature",
      "properties": {
        "_source": "Ruta15A-RamalSoldeOriente-AntoniaSantos-AvenidaNorte-Muiscas",
        "_segmentIndex": 0,
        "_position": 7
      },
      "geometry": {
        "type": "Point",
        "coordinates": [
          -73.35910005390137,
          5.541664476736898
        ]
      }
    },
    {
      "type": "Feature",
      "properties": {
        "_source": "Ruta15A-RamalSoldeOriente-AntoniaSantos-AvenidaNorte-Muiscas",
        "_segmentIndex": 0,
        "_position": 8
      },
      "geometry": {
        "type": "Point",
        "coordinates": [
          -73.3589254133477,
          5.542079076532492
        ]
      }
    },
    {
      "type": "Feature",
      "properties": {
        "_source": "Ruta15A-RamalSoldeOriente-AntoniaSantos-AvenidaNorte-Muiscas",
        "_segmentIndex": 0,
        "_position": 9
      },
      "geometry": {
        "type": "Point",
        "coordinates": [
          -73.35884249053524,
          5.542519172008584
        ]
      }
    },
    {
      "type": "Feature",
      "properties": {
        "_source": "Ruta15A-RamalSoldeOriente-AntoniaSantos-AvenidaNorte-Muiscas",
        "_segmentIndex": 0,
        "_position": 10
      },
      "geometry": {
        "type": "Point",
        "coordinates": [
          -73.35875712717981,
          5.542936506146825
        ]
      }
    },
    {
      "type": "Feature",
      "properties": {
        "_source": "Ruta15A-RamalSoldeOriente-AntoniaSantos-AvenidaNorte-Muiscas",
        "_segmentIndex": 0,
        "_position": 11
      },
      "geometry": {
        "type": "Point",
        "coordinates": [
          -73.35848941780164,
          5.543298604666699
        ]
      }
    },
    {
      "type": "Feature",
      "properties": {
        "_source": "Ruta15A-RamalSoldeOriente-AntoniaSantos-AvenidaNorte-Muiscas",
        "_segmentIndex": 0,
        "_position": 12
      },
      "geometry": {
        "type": "Point",
        "coordinates": [
          -73.35822359919881,
          5.54366217178849
        ]
      }
    },
    {
      "type": "Feature",
      "properties": {
        "_source": "Ruta15A-RamalSoldeOriente-AntoniaSantos-AvenidaNorte-Muiscas",
        "_segmentIndex": 0,
        "_position": 13
      },
      "geometry": {
        "type": "Point",
        "coordinates": [
          -73.35793778012037,
          5.544010380961493
        ]
      }
    },
    {
      "type": "Feature",
      "properties": {
        "_source": "Ruta15A-RamalSoldeOriente-AntoniaSantos-AvenidaNorte-Muiscas",
        "_segmentIndex": 0,
        "_position": 0
      },
      "geometry": {
        "type": "Point",
        "coordinates": [
          -73.357794,
          5.544181
        ]
      }
    },
    {
      "type": "Feature",
      "properties": {
        "_source": "Ruta15A-RamalSoldeOriente-AntoniaSantos-AvenidaNorte-Muiscas",
        "_segmentIndex": 0,
        "_position": 1
      },
      "geometry": {
        "type": "Point",
        "coordinates": [
          -73.35737785457314,
          5.544317466791893
        ]
      }
    },
    {
      "type": "Feature",
      "properties": {
        "_source": "Ruta15A-RamalSoldeOriente-AntoniaSantos-AvenidaNorte-Muiscas",
        "_segmentIndex": 0,
        "_position": 2
      },
      "geometry": {
        "type": "Point",
        "coordinates": [
          -73.35730565545103,
          5.544731103775989
        ]
      }
    },
    {
      "type": "Feature",
      "properties": {
        "_source": "Ruta15A-RamalSoldeOriente-AntoniaSantos-AvenidaNorte-Muiscas",
        "_segmentIndex": 0,
        "_position": 0
      },
      "geometry": {
        "type": "Point",
        "coordinates": [
          -73.357177,
          5.545016
        ]
      }
    },
    {
      "type": "Feature",
      "properties": {
        "_source": "Ruta15A-RamalSoldeOriente-AntoniaSantos-AvenidaNorte-Muiscas",
        "_segmentIndex": 0,
        "_position": 1
      },
      "geometry": {
        "type": "Point",
        "coordinates": [
          -73.3569125208454,
          5.545380311641636
        ]
      }
    },
    {
      "type": "Feature",
      "properties": {
        "_source": "Ruta15A-RamalSoldeOriente-AntoniaSantos-AvenidaNorte-Muiscas",
        "_segmentIndex": 0,
        "_position": 2
      },
      "geometry": {
        "type": "Point",
        "coordinates": [
          -73.35665679371034,
          5.5457509862522105
        ]
      }
    },
    {
      "type": "Feature",
      "properties": {
        "_source": "Ruta15A-RamalSoldeOriente-AntoniaSantos-AvenidaNorte-Muiscas",
        "_segmentIndex": 0,
        "_position": 3
      },
      "geometry": {
        "type": "Point",
        "coordinates": [
          -73.35638724772478,
          5.546111843341672
        ]
      }
    },
    {
      "type": "Feature",
      "properties": {
        "_source": "Ruta15A-RamalSoldeOriente-AntoniaSantos-AvenidaNorte-Muiscas",
        "_segmentIndex": 0,
        "_position": 4
      },
      "geometry": {
        "type": "Point",
        "coordinates": [
          -73.35611770140952,
          5.546472700309151
        ]
      }
    },
    {
      "type": "Feature",
      "properties": {
        "_source": "Ruta15A-RamalSoldeOriente-AntoniaSantos-AvenidaNorte-Muiscas",
        "_segmentIndex": 0,
        "_position": 5
      },
      "geometry": {
        "type": "Point",
        "coordinates": [
          -73.35585031027561,
          5.546835133405653
        ]
      }
    },
    {
      "type": "Feature",
      "properties": {
        "_source": "Ruta15A-RamalSoldeOriente-AntoniaSantos-AvenidaNorte-Muiscas",
        "_segmentIndex": 0,
        "_position": 6
      },
      "geometry": {
        "type": "Point",
        "coordinates": [
          -73.35558488847553,
          5.5471990067288335
        ]
      }
    },
    {
      "type": "Feature",
      "properties": {
        "_source": "Ruta15A-RamalSoldeOriente-AntoniaSantos-AvenidaNorte-Muiscas",
        "_segmentIndex": 0,
        "_position": 7
      },
      "geometry": {
        "type": "Point",
        "coordinates": [
          -73.35531946634804,
          5.547562879933714
        ]
      }
    },
    {
      "type": "Feature",
      "properties": {
        "_source": "Ruta15A-RamalSoldeOriente-AntoniaSantos-AvenidaNorte-Muiscas",
        "_segmentIndex": 0,
        "_position": 8
      },
      "geometry": {
        "type": "Point",
        "coordinates": [
          -73.35505404389309,
          5.547926753020284
        ]
      }
    },
    {
      "type": "Feature",
      "properties": {
        "_source": "Ruta15A-RamalSoldeOriente-AntoniaSantos-AvenidaNorte-Muiscas",
        "_segmentIndex": 0,
        "_position": 9
      },
      "geometry": {
        "type": "Point",
        "coordinates": [
          -73.35478710532178,
          5.548289520633812
        ]
      }
    },
    {
      "type": "Feature",
      "properties": {
        "_source": "Ruta15A-RamalSoldeOriente-AntoniaSantos-AvenidaNorte-Muiscas",
        "_segmentIndex": 0,
        "_position": 10
      },
      "geometry": {
        "type": "Point",
        "coordinates": [
          -73.35451852371983,
          5.548651090223845
        ]
      }
    },
    {
      "type": "Feature",
      "properties": {
        "_source": "Ruta15A-RamalSoldeOriente-AntoniaSantos-AvenidaNorte-Muiscas",
        "_segmentIndex": 0,
        "_position": 11
      },
      "geometry": {
        "type": "Point",
        "coordinates": [
          -73.3542456030202,
          5.549009310796035
        ]
      }
    },
    {
      "type": "Feature",
      "properties": {
        "_source": "Ruta15A-RamalSoldeOriente-AntoniaSantos-AvenidaNorte-Muiscas",
        "_segmentIndex": 0,
        "_position": 12
      },
      "geometry": {
        "type": "Point",
        "coordinates": [
          -73.35396062130843,
          5.549358222152345
        ]
      }
    },
    {
      "type": "Feature",
      "properties": {
        "_source": "Ruta15A-RamalSoldeOriente-AntoniaSantos-AvenidaNorte-Muiscas",
        "_segmentIndex": 0,
        "_position": 13
      },
      "geometry": {
        "type": "Point",
        "coordinates": [
          -73.35367563925944,
          5.549707133372223
        ]
      }
    },
    {
      "type": "Feature",
      "properties": {
        "_source": "Ruta15A-RamalSoldeOriente-AntoniaSantos-AvenidaNorte-Muiscas",
        "_segmentIndex": 0,
        "_position": 14
      },
      "geometry": {
        "type": "Point",
        "coordinates": [
          -73.35339065687319,
          5.550056044455662
        ]
      }
    },
    {
      "type": "Feature",
      "properties": {
        "_source": "Ruta15A-RamalSoldeOriente-AntoniaSantos-AvenidaNorte-Muiscas",
        "_segmentIndex": 0,
        "_position": 15
      },
      "geometry": {
        "type": "Point",
        "coordinates": [
          -73.35309778924048,
          5.550398373642853
        ]
      }
    },
    {
      "type": "Feature",
      "properties": {
        "_source": "Ruta15A-RamalSoldeOriente-AntoniaSantos-AvenidaNorte-Muiscas",
        "_segmentIndex": 0,
        "_position": 16
      },
      "geometry": {
        "type": "Point",
        "coordinates": [
          -73.35280222308812,
          5.550738450437056
        ]
      }
    },
    {
      "type": "Feature",
      "properties": {
        "_source": "Ruta15A-RamalSoldeOriente-AntoniaSantos-AvenidaNorte-Muiscas",
        "_segmentIndex": 0,
        "_position": 17
      },
      "geometry": {
        "type": "Point",
        "coordinates": [
          -73.35251422960626,
          5.5510843242792625
        ]
      }
    },
    {
      "type": "Feature",
      "properties": {
        "_source": "Ruta15A-RamalSoldeOriente-AntoniaSantos-AvenidaNorte-Muiscas",
        "_segmentIndex": 0,
        "_position": 18
      },
      "geometry": {
        "type": "Point",
        "coordinates": [
          -73.35225985139715,
          5.551455930982352
        ]
      }
    },
    {
      "type": "Feature",
      "properties": {
        "_source": "Ruta15A-RamalSoldeOriente-AntoniaSantos-AvenidaNorte-Muiscas",
        "_segmentIndex": 0,
        "_position": 19
      },
      "geometry": {
        "type": "Point",
        "coordinates": [
          -73.35211461029937,
          5.551879366227179
        ]
      }
    },
    {
      "type": "Feature",
      "properties": {
        "_source": "Ruta15A-RamalSoldeOriente-AntoniaSantos-AvenidaNorte-Muiscas",
        "_segmentIndex": 0,
        "_position": 20
      },
      "geometry": {
        "type": "Point",
        "coordinates": [
          -73.35198443225036,
          5.5523099548757715
        ]
      }
    },
    {
      "type": "Feature",
      "properties": {
        "_source": "Ruta15A-RamalSoldeOriente-AntoniaSantos-AvenidaNorte-Muiscas",
        "_segmentIndex": 0,
        "_position": 21
      },
      "geometry": {
        "type": "Point",
        "coordinates": [
          -73.35184511576608,
          5.552737699166207
        ]
      }
    },
    {
      "type": "Feature",
      "properties": {
        "_source": "Ruta15A-RamalSoldeOriente-AntoniaSantos-AvenidaNorte-Muiscas",
        "_segmentIndex": 0,
        "_position": 22
      },
      "geometry": {
        "type": "Point",
        "coordinates": [
          -73.35170562508954,
          5.553165389268642
        ]
      }
    },
    {
      "type": "Feature",
      "properties": {
        "_source": "Ruta15A-RamalSoldeOriente-AntoniaSantos-AvenidaNorte-Muiscas",
        "_segmentIndex": 0,
        "_position": 23
      },
      "geometry": {
        "type": "Point",
        "coordinates": [
          -73.35156613421053,
          5.553593079338368
        ]
      }
    },
    {
      "type": "Feature",
      "properties": {
        "_source": "Ruta15A-RamalSoldeOriente-AntoniaSantos-AvenidaNorte-Muiscas",
        "_segmentIndex": 0,
        "_position": 24
      },
      "geometry": {
        "type": "Point",
        "coordinates": [
          -73.35142664312903,
          5.554020769375384
        ]
      }
    },
    {
      "type": "Feature",
      "properties": {
        "_source": "Ruta15A-RamalSoldeOriente-AntoniaSantos-AvenidaNorte-Muiscas",
        "_segmentIndex": 0,
        "_position": 25
      },
      "geometry": {
        "type": "Point",
        "coordinates": [
          -73.35128438264638,
          5.554447463529232
        ]
      }
    },
    {
      "type": "Feature",
      "properties": {
        "_source": "Ruta15A-RamalSoldeOriente-AntoniaSantos-AvenidaNorte-Muiscas",
        "_segmentIndex": 0,
        "_position": 26
      },
      "geometry": {
        "type": "Point",
        "coordinates": [
          -73.3511169972208,
          5.5548651223696215
        ]
      }
    },
    {
      "type": "Feature",
      "properties": {
        "_source": "Ruta15A-RamalSoldeOriente-AntoniaSantos-AvenidaNorte-Muiscas",
        "_segmentIndex": 0,
        "_position": 27
      },
      "geometry": {
        "type": "Point",
        "coordinates": [
          -73.35093099823409,
          5.55527482324134
        ]
      }
    },
    {
      "type": "Feature",
      "properties": {
        "_source": "Ruta15A-RamalSoldeOriente-AntoniaSantos-AvenidaNorte-Muiscas",
        "_segmentIndex": 0,
        "_position": 28
      },
      "geometry": {
        "type": "Point",
        "coordinates": [
          -73.35074188389379,
          5.555683192230076
        ]
      }
    },
    {
      "type": "Feature",
      "properties": {
        "_source": "Ruta15A-RamalSoldeOriente-AntoniaSantos-AvenidaNorte-Muiscas",
        "_segmentIndex": 0,
        "_position": 29
      },
      "geometry": {
        "type": "Point",
        "coordinates": [
          -73.35055276929127,
          5.556091561158665
        ]
      }
    },
    {
      "type": "Feature",
      "properties": {
        "_source": "Ruta15A-RamalSoldeOriente-AntoniaSantos-AvenidaNorte-Muiscas",
        "_segmentIndex": 0,
        "_position": 30
      },
      "geometry": {
        "type": "Point",
        "coordinates": [
          -73.35036584709157,
          5.556500921038581
        ]
      }
    },
    {
      "type": "Feature",
      "properties": {
        "_source": "Ruta15A-RamalSoldeOriente-AntoniaSantos-AvenidaNorte-Muiscas",
        "_segmentIndex": 0,
        "_position": 31
      },
      "geometry": {
        "type": "Point",
        "coordinates": [
          -73.35018137311272,
          5.55691138749149
        ]
      }
    },
    {
      "type": "Feature",
      "properties": {
        "_source": "Ruta15A-RamalSoldeOriente-AntoniaSantos-AvenidaNorte-Muiscas",
        "_segmentIndex": 0,
        "_position": 32
      },
      "geometry": {
        "type": "Point",
        "coordinates": [
          -73.3499965392949,
          5.557321693266054
        ]
      }
    },
    {
      "type": "Feature",
      "properties": {
        "_source": "Ruta15A-RamalSoldeOriente-AntoniaSantos-AvenidaNorte-Muiscas",
        "_segmentIndex": 0,
        "_position": 33
      },
      "geometry": {
        "type": "Point",
        "coordinates": [
          -73.34981104586906,
          5.557731704458765
        ]
      }
    },
    {
      "type": "Feature",
      "properties": {
        "_source": "Ruta15A-RamalSoldeOriente-AntoniaSantos-AvenidaNorte-Muiscas",
        "_segmentIndex": 0,
        "_position": 34
      },
      "geometry": {
        "type": "Point",
        "coordinates": [
          -73.3496255521849,
          5.558141715593588
        ]
      }
    },
    {
      "type": "Feature",
      "properties": {
        "_source": "Ruta15A-RamalSoldeOriente-AntoniaSantos-AvenidaNorte-Muiscas",
        "_segmentIndex": 0,
        "_position": 35
      },
      "geometry": {
        "type": "Point",
        "coordinates": [
          -73.3494400582424,
          5.5585517266705216
        ]
      }
    },
    {
      "type": "Feature",
      "properties": {
        "_source": "Ruta15A-RamalSoldeOriente-AntoniaSantos-AvenidaNorte-Muiscas",
        "_segmentIndex": 0,
        "_position": 36
      },
      "geometry": {
        "type": "Point",
        "coordinates": [
          -73.34925456404153,
          5.558961737689557
        ]
      }
    },
    {
      "type": "Feature",
      "properties": {
        "_source": "Ruta15A-RamalSoldeOriente-AntoniaSantos-AvenidaNorte-Muiscas",
        "_segmentIndex": 0,
        "_position": 37
      },
      "geometry": {
        "type": "Point",
        "coordinates": [
          -73.34906906958224,
          5.559371748650693
        ]
      }
    },
    {
      "type": "Feature",
      "properties": {
        "_source": "Ruta15A-RamalSoldeOriente-AntoniaSantos-AvenidaNorte-Muiscas",
        "_segmentIndex": 0,
        "_position": 38
      },
      "geometry": {
        "type": "Point",
        "coordinates": [
          -73.34887635349861,
          5.559778419777674
        ]
      }
    },
    {
      "type": "Feature",
      "properties": {
        "_source": "Ruta15A-RamalSoldeOriente-AntoniaSantos-AvenidaNorte-Muiscas",
        "_segmentIndex": 0,
        "_position": 39
      },
      "geometry": {
        "type": "Point",
        "coordinates": [
          -73.34868292680525,
          5.560184778242095
        ]
      }
    },
    {
      "type": "Feature",
      "properties": {
        "_source": "Ruta15A-RamalSoldeOriente-AntoniaSantos-AvenidaNorte-Muiscas",
        "_segmentIndex": 0,
        "_position": 40
      },
      "geometry": {
        "type": "Point",
        "coordinates": [
          -73.34849150044664,
          5.560592079438969
        ]
      }
    },
    {
      "type": "Feature",
      "properties": {
        "_source": "Ruta15A-RamalSoldeOriente-AntoniaSantos-AvenidaNorte-Muiscas",
        "_segmentIndex": 0,
        "_position": 41
      },
      "geometry": {
        "type": "Point",
        "coordinates": [
          -73.3483000738231,
          5.560999380574164
        ]
      }
    },
    {
      "type": "Feature",
      "properties": {
        "_source": "Ruta15A-RamalSoldeOriente-AntoniaSantos-AvenidaNorte-Muiscas",
        "_segmentIndex": 0,
        "_position": 42
      },
      "geometry": {
        "type": "Point",
        "coordinates": [
          -73.34810864693455,
          5.5614066816476715
        ]
      }
    },
    {
      "type": "Feature",
      "properties": {
        "_source": "Ruta15A-RamalSoldeOriente-AntoniaSantos-AvenidaNorte-Muiscas",
        "_segmentIndex": 0,
        "_position": 43
      },
      "geometry": {
        "type": "Point",
        "coordinates": [
          -73.34791762889847,
          5.561814172491456
        ]
      }
    },
    {
      "type": "Feature",
      "properties": {
        "_source": "Ruta15A-RamalSoldeOriente-AntoniaSantos-AvenidaNorte-Muiscas",
        "_segmentIndex": 0,
        "_position": 44
      },
      "geometry": {
        "type": "Point",
        "coordinates": [
          -73.34772822843647,
          5.56222240806992
        ]
      }
    },
    {
      "type": "Feature",
      "properties": {
        "_source": "Ruta15A-RamalSoldeOriente-AntoniaSantos-AvenidaNorte-Muiscas",
        "_segmentIndex": 0,
        "_position": 45
      },
      "geometry": {
        "type": "Point",
        "coordinates": [
          -73.34754093895104,
          5.562631610337792
        ]
      }
    },
    {
      "type": "Feature",
      "properties": {
        "_source": "Ruta15A-RamalSoldeOriente-AntoniaSantos-AvenidaNorte-Muiscas",
        "_segmentIndex": 0,
        "_position": 46
      },
      "geometry": {
        "type": "Point",
        "coordinates": [
          -73.34735364920509,
          5.563040812546601
        ]
      }
    },
    {
      "type": "Feature",
      "properties": {
        "_source": "Ruta15A-RamalSoldeOriente-AntoniaSantos-AvenidaNorte-Muiscas",
        "_segmentIndex": 0,
        "_position": 47
      },
      "geometry": {
        "type": "Point",
        "coordinates": [
          -73.34716635919855,
          5.563450014696337
        ]
      }
    },
    {
      "type": "Feature",
      "properties": {
        "_source": "Ruta15A-RamalSoldeOriente-AntoniaSantos-AvenidaNorte-Muiscas",
        "_segmentIndex": 0,
        "_position": 48
      },
      "geometry": {
        "type": "Point",
        "coordinates": [
          -73.3469791433409,
          5.5638592505112765
        ]
      }
    },
    {
      "type": "Feature",
      "properties": {
        "_source": "Ruta15A-RamalSoldeOriente-AntoniaSantos-AvenidaNorte-Muiscas",
        "_segmentIndex": 0,
        "_position": 49
      },
      "geometry": {
        "type": "Point",
        "coordinates": [
          -73.34679196805388,
          5.564268504772923
        ]
      }
    },
    {
      "type": "Feature",
      "properties": {
        "_source": "Ruta15A-RamalSoldeOriente-AntoniaSantos-AvenidaNorte-Muiscas",
        "_segmentIndex": 0,
        "_position": 50
      },
      "geometry": {
        "type": "Point",
        "coordinates": [
          -73.34660445494937,
          5.564677601676567
        ]
      }
    },
    {
      "type": "Feature",
      "properties": {
        "_source": "Ruta15A-RamalSoldeOriente-AntoniaSantos-AvenidaNorte-Muiscas",
        "_segmentIndex": 0,
        "_position": 51
      },
      "geometry": {
        "type": "Point",
        "coordinates": [
          -73.34640851291908,
          5.565082770826538
        ]
      }
    },
    {
      "type": "Feature",
      "properties": {
        "_source": "Ruta15A-RamalSoldeOriente-AntoniaSantos-AvenidaNorte-Muiscas",
        "_segmentIndex": 0,
        "_position": 52
      },
      "geometry": {
        "type": "Point",
        "coordinates": [
          -73.34621257061876,
          5.565487939911831
        ]
      }
    },
    {
      "type": "Feature",
      "properties": {
        "_source": "Ruta15A-RamalSoldeOriente-AntoniaSantos-AvenidaNorte-Muiscas",
        "_segmentIndex": 0,
        "_position": 53
      },
      "geometry": {
        "type": "Point",
        "coordinates": [
          -73.3460166280484,
          5.5658931089324435
        ]
      }
    },
    {
      "type": "Feature",
      "properties": {
        "_source": "Ruta15A-RamalSoldeOriente-AntoniaSantos-AvenidaNorte-Muiscas",
        "_segmentIndex": 0,
        "_position": 54
      },
      "geometry": {
        "type": "Point",
        "coordinates": [
          -73.34582121360465,
          5.566298527650221
        ]
      }
    },
    {
      "type": "Feature",
      "properties": {
        "_source": "Ruta15A-RamalSoldeOriente-AntoniaSantos-AvenidaNorte-Muiscas",
        "_segmentIndex": 0,
        "_position": 55
      },
      "geometry": {
        "type": "Point",
        "coordinates": [
          -73.34561320340579,
          5.56669659667446
        ]
      }
    },
    {
      "type": "Feature",
      "properties": {
        "_source": "Ruta15A-RamalSoldeOriente-AntoniaSantos-AvenidaNorte-Muiscas",
        "_segmentIndex": 0,
        "_position": 56
      },
      "geometry": {
        "type": "Point",
        "coordinates": [
          -73.34536406957508,
          5.567071710924348
        ]
      }
    },
    {
      "type": "Feature",
      "properties": {
        "_source": "Ruta15A-RamalSoldeOriente-AntoniaSantos-AvenidaNorte-Muiscas",
        "_segmentIndex": 0,
        "_position": 57
      },
      "geometry": {
        "type": "Point",
        "coordinates": [
          -73.3451149354264,
          5.567446825069642
        ]
      }
    },
    {
      "type": "Feature",
      "properties": {
        "_source": "Ruta15A-RamalSoldeOriente-AntoniaSantos-AvenidaNorte-Muiscas",
        "_segmentIndex": 0,
        "_position": 58
      },
      "geometry": {
        "type": "Point",
        "coordinates": [
          -73.34486716914782,
          5.567822834863232
        ]
      }
    },
    {
      "type": "Feature",
      "properties": {
        "_source": "Ruta15A-RamalSoldeOriente-AntoniaSantos-AvenidaNorte-Muiscas",
        "_segmentIndex": 0,
        "_position": 59
      },
      "geometry": {
        "type": "Point",
        "coordinates": [
          -73.34461972852172,
          5.568199057965665
        ]
      }
    },
    {
      "type": "Feature",
      "properties": {
        "_source": "Ruta15A-RamalSoldeOriente-AntoniaSantos-AvenidaNorte-Muiscas",
        "_segmentIndex": 0,
        "_position": 60
      },
      "geometry": {
        "type": "Point",
        "coordinates": [
          -73.34437002729045,
          5.568573779640869
        ]
      }
    },
    {
      "type": "Feature",
      "properties": {
        "_source": "Ruta15A-RamalSoldeOriente-AntoniaSantos-AvenidaNorte-Muiscas",
        "_segmentIndex": 0,
        "_position": 61
      },
      "geometry": {
        "type": "Point",
        "coordinates": [
          -73.34411590496265,
          5.568945564850089
        ]
      }
    },
    {
      "type": "Feature",
      "properties": {
        "_source": "Ruta15A-RamalSoldeOriente-AntoniaSantos-AvenidaNorte-Muiscas",
        "_segmentIndex": 0,
        "_position": 62
      },
      "geometry": {
        "type": "Point",
        "coordinates": [
          -73.34386178231327,
          5.5693173499504445
        ]
      }
    },
    {
      "type": "Feature",
      "properties": {
        "_source": "Ruta15A-RamalSoldeOriente-AntoniaSantos-AvenidaNorte-Muiscas",
        "_segmentIndex": 0,
        "_position": 63
      },
      "geometry": {
        "type": "Point",
        "coordinates": [
          -73.34360765934231,
          5.5696891349419335
        ]
      }
    },
    {
      "type": "Feature",
      "properties": {
        "_source": "Ruta15A-RamalSoldeOriente-AntoniaSantos-AvenidaNorte-Muiscas",
        "_segmentIndex": 0,
        "_position": 64
      },
      "geometry": {
        "type": "Point",
        "coordinates": [
          -73.34335338162624,
          5.570060813669368
        ]
      }
    },
    {
      "type": "Feature",
      "properties": {
        "_source": "Ruta15A-RamalSoldeOriente-AntoniaSantos-AvenidaNorte-Muiscas",
        "_segmentIndex": 0,
        "_position": 65
      },
      "geometry": {
        "type": "Point",
        "coordinates": [
          -73.34309400038738,
          5.570428984199071
        ]
      }
    },
    {
      "type": "Feature",
      "properties": {
        "_source": "Ruta15A-RamalSoldeOriente-AntoniaSantos-AvenidaNorte-Muiscas",
        "_segmentIndex": 0,
        "_position": 66
      },
      "geometry": {
        "type": "Point",
        "coordinates": [
          -73.34283536206623,
          5.570797648811331
        ]
      }
    },
    {
      "type": "Feature",
      "properties": {
        "_source": "Ruta15A-RamalSoldeOriente-AntoniaSantos-AvenidaNorte-Muiscas",
        "_segmentIndex": 0,
        "_position": 0
      },
      "geometry": {
        "type": "Point",
        "coordinates": [
          -73.3426,
          5.571166
        ]
      }
    },
    {
      "type": "Feature",
      "properties": {
        "_source": "Ruta15A-RamalSoldeOriente-AntoniaSantos-AvenidaNorte-Muiscas",
        "_segmentIndex": 0,
        "_position": 1
      },
      "geometry": {
        "type": "Point",
        "coordinates": [
          -73.34218079292744,
          5.5709993910515365
        ]
      }
    },
    {
      "type": "Feature",
      "properties": {
        "_source": "Ruta15A-RamalSoldeOriente-AntoniaSantos-AvenidaNorte-Muiscas",
        "_segmentIndex": 0,
        "_position": 2
      },
      "geometry": {
        "type": "Point",
        "coordinates": [
          -73.34181867332362,
          5.570730505510148
        ]
      }
    },
    {
      "type": "Feature",
      "properties": {
        "_source": "Ruta15A-RamalSoldeOriente-AntoniaSantos-AvenidaNorte-Muiscas",
        "_segmentIndex": 0,
        "_position": 3
      },
      "geometry": {
        "type": "Point",
        "coordinates": [
          -73.34145655405129,
          5.570461619747635
        ]
      }
    },
    {
      "type": "Feature",
      "properties": {
        "_source": "Ruta15A-RamalSoldeOriente-AntoniaSantos-AvenidaNorte-Muiscas",
        "_segmentIndex": 0,
        "_position": 4
      },
      "geometry": {
        "type": "Point",
        "coordinates": [
          -73.34110423593451,
          5.5701809546020495
        ]
      }
    },
    {
      "type": "Feature",
      "properties": {
        "_source": "Ruta15A-RamalSoldeOriente-AntoniaSantos-AvenidaNorte-Muiscas",
        "_segmentIndex": 0,
        "_position": 5
      },
      "geometry": {
        "type": "Point",
        "coordinates": [
          -73.34083098594958,
          5.569835619728456
        ]
      }
    },
    {
      "type": "Feature",
      "properties": {
        "_source": "Ruta15A-RamalSoldeOriente-AntoniaSantos-AvenidaNorte-Muiscas",
        "_segmentIndex": 0,
        "_position": 6
      },
      "geometry": {
        "type": "Point",
        "coordinates": [
          -73.3406185512209,
          5.569445730189425
        ]
      }
    },
    {
      "type": "Feature",
      "properties": {
        "_source": "Ruta15A-RamalSoldeOriente-AntoniaSantos-AvenidaNorte-Muiscas",
        "_segmentIndex": 0,
        "_position": 7
      },
      "geometry": {
        "type": "Point",
        "coordinates": [
          -73.34028949263637,
          5.569140045976941
        ]
      }
    },
    {
      "type": "Feature",
      "properties": {
        "_source": "Ruta15A-RamalSoldeOriente-AntoniaSantos-AvenidaNorte-Muiscas",
        "_segmentIndex": 0,
        "_position": 8
      },
      "geometry": {
        "type": "Point",
        "coordinates": [
          -73.3399293483632,
          5.568868546648447
        ]
      }
    },
    {
      "type": "Feature",
      "properties": {
        "_source": "Ruta15A-RamalSoldeOriente-AntoniaSantos-AvenidaNorte-Muiscas",
        "_segmentIndex": 0,
        "_position": 9
      },
      "geometry": {
        "type": "Point",
        "coordinates": [
          -73.33956920442282,
          5.568597047101311
        ]
      }
    },
    {
      "type": "Feature",
      "properties": {
        "_source": "Ruta15A-RamalSoldeOriente-AntoniaSantos-AvenidaNorte-Muiscas",
        "_segmentIndex": 0,
        "_position": 10
      },
      "geometry": {
        "type": "Point",
        "coordinates": [
          -73.33921394346655,
          5.568319261159772
        ]
      }
    },
    {
      "type": "Feature",
      "properties": {
        "_source": "Ruta15A-RamalSoldeOriente-AntoniaSantos-AvenidaNorte-Muiscas",
        "_segmentIndex": 0,
        "_position": 11
      },
      "geometry": {
        "type": "Point",
        "coordinates": [
          -73.3387949447972,
          5.568293622455156
        ]
      }
    },
    {
      "type": "Feature",
      "properties": {
        "_source": "Ruta15A-RamalSoldeOriente-AntoniaSantos-AvenidaNorte-Muiscas",
        "_segmentIndex": 0,
        "_position": 0
      },
      "geometry": {
        "type": "Point",
        "coordinates": [
          -73.338405,
          5.568489
        ]
      }
    },
    {
      "type": "Feature",
      "properties": {
        "_source": "Ruta15A-RamalSoldeOriente-AntoniaSantos-AvenidaNorte-Muiscas",
        "_segmentIndex": 0,
        "_position": 1
      },
      "geometry": {
        "type": "Point",
        "coordinates": [
          -73.33812186389001,
          5.568820648923339
        ]
      }
    },
    {
      "type": "Feature",
      "properties": {
        "_source": "Ruta15A-RamalSoldeOriente-AntoniaSantos-AvenidaNorte-Muiscas",
        "_segmentIndex": 0,
        "_position": 2
      },
      "geometry": {
        "type": "Point",
        "coordinates": [
          -73.33797124159636,
          5.569243711267053
        ]
      }
    },
    {
      "type": "Feature",
      "properties": {
        "_source": "Ruta15A-RamalSoldeOriente-AntoniaSantos-AvenidaNorte-Muiscas",
        "_segmentIndex": 0,
        "_position": 3
      },
      "geometry": {
        "type": "Point",
        "coordinates": [
          -73.33769785212375,
          5.569576417226157
        ]
      }
    },
    {
      "type": "Feature",
      "properties": {
        "_source": "Ruta15A-RamalSoldeOriente-AntoniaSantos-AvenidaNorte-Muiscas",
        "_segmentIndex": 0,
        "_position": 4
      },
      "geometry": {
        "type": "Point",
        "coordinates": [
          -73.33726908158248,
          5.5697107893569795
        ]
      }
    },
    {
      "type": "Feature",
      "properties": {
        "_source": "Ruta15A-RamalSoldeOriente-AntoniaSantos-AvenidaNorte-Muiscas",
        "_segmentIndex": 0,
        "_position": 5
      },
      "geometry": {
        "type": "Point",
        "coordinates": [
          -73.3368434574119,
          5.569822409173673
        ]
      }
    },
    {
      "type": "Feature",
      "properties": {
        "_source": "Ruta15A-RamalSoldeOriente-AntoniaSantos-AvenidaNorte-Muiscas",
        "_segmentIndex": 0,
        "_position": 6
      },
      "geometry": {
        "type": "Point",
        "coordinates": [
          -73.3364533594634,
          5.570049229359333
        ]
      }
    },
    {
      "type": "Feature",
      "properties": {
        "_source": "Ruta15A-RamalSoldeOriente-AntoniaSantos-AvenidaNorte-Muiscas",
        "_segmentIndex": 0,
        "_position": 7
      },
      "geometry": {
        "type": "Point",
        "coordinates": [
          -73.33606436999206,
          5.570277935736185
        ]
      }
    },
    {
      "type": "Feature",
      "properties": {
        "_source": "Ruta15A-RamalSoldeOriente-AntoniaSantos-AvenidaNorte-Muiscas",
        "_segmentIndex": 0,
        "_position": 8
      },
      "geometry": {
        "type": "Point",
        "coordinates": [
          -73.33567411223852,
          5.570504430166804
        ]
      }
    },
    {
      "type": "Feature",
      "properties": {
        "_source": "Ruta15A-RamalSoldeOriente-AntoniaSantos-AvenidaNorte-Muiscas",
        "_segmentIndex": 0,
        "_position": 9
      },
      "geometry": {
        "type": "Point",
        "coordinates": [
          -73.3352636427179,
          5.570688463888967
        ]
      }
    },
    {
      "type": "Feature",
      "properties": {
        "_source": "Ruta15A-RamalSoldeOriente-AntoniaSantos-AvenidaNorte-Muiscas",
        "_segmentIndex": 0,
        "_position": 10
      },
      "geometry": {
        "type": "Point",
        "coordinates": [
          -73.3348366183116,
          5.57083438771411
        ]
      }
    },
    {
      "type": "Feature",
      "properties": {
        "_source": "Ruta15A-RamalSoldeOriente-AntoniaSantos-AvenidaNorte-Muiscas",
        "_segmentIndex": 0,
        "_position": 11
      },
      "geometry": {
        "type": "Point",
        "coordinates": [
          -73.33447325914878,
          5.571093204171708
        ]
      }
    },
    {
      "type": "Feature",
      "properties": {
        "_source": "Ruta15A-RamalSoldeOriente-AntoniaSantos-AvenidaNorte-Muiscas",
        "_segmentIndex": 0,
        "_position": 12
      },
      "geometry": {
        "type": "Point",
        "coordinates": [
          -73.33416339608125,
          5.571420015637104
        ]
      }
    },
    {
      "type": "Feature",
      "properties": {
        "_source": "Ruta15A-RamalSoldeOriente-AntoniaSantos-AvenidaNorte-Muiscas",
        "_segmentIndex": 0,
        "_position": 13
      },
      "geometry": {
        "type": "Point",
        "coordinates": [
          -73.33387126217622,
          5.571762943556117
        ]
      }
    },
    {
      "type": "Feature",
      "properties": {
        "_source": "Ruta15A-RamalSoldeOriente-AntoniaSantos-AvenidaNorte-Muiscas",
        "_segmentIndex": 0,
        "_position": 14
      },
      "geometry": {
        "type": "Point",
        "coordinates": [
          -73.33358274106179,
          5.572108970483142
        ]
      }
    },
    {
      "type": "Feature",
      "properties": {
        "_source": "Ruta15A-RamalSoldeOriente-AntoniaSantos-AvenidaNorte-Muiscas",
        "_segmentIndex": 0,
        "_position": 15
      },
      "geometry": {
        "type": "Point",
        "coordinates": [
          -73.33328725879927,
          5.572449076385234
        ]
      }
    },
    {
      "type": "Feature",
      "properties": {
        "_source": "Ruta15A-RamalSoldeOriente-AntoniaSantos-AvenidaNorte-Muiscas",
        "_segmentIndex": 0,
        "_position": 16
      },
      "geometry": {
        "type": "Point",
        "coordinates": [
          -73.33298939296503,
          5.572787169220969
        ]
      }
    },
    {
      "type": "Feature",
      "properties": {
        "_source": "Ruta15A-RamalSoldeOriente-AntoniaSantos-AvenidaNorte-Muiscas",
        "_segmentIndex": 0,
        "_position": 17
      },
      "geometry": {
        "type": "Point",
        "coordinates": [
          -73.33267744698789,
          5.573111412123673
        ]
      }
    },
    {
      "type": "Feature",
      "properties": {
        "_source": "Ruta15A-RamalSoldeOriente-AntoniaSantos-AvenidaNorte-Muiscas",
        "_segmentIndex": 0,
        "_position": 18
      },
      "geometry": {
        "type": "Point",
        "coordinates": [
          -73.33231076626191,
          5.573370380182613
        ]
      }
    }
  ]
}