{
  "type": "FeatureCollection",
  "features": [
    {
      "type": "Feature",
      "properties": {
        "_source": "Ruta9-Arboleda-AvenidaNorte-LaFuente",
        "_segmentIndex": 0,
        "_position": 0
      },
      "geometry": {
        "type": "Point",
        "coordinates": [
          -73.332241,
          5.573475
        ]
      }
    },
    {
      "type": "Feature",
      "properties": {
        "_source": "Ruta9-Arboleda-AvenidaNorte-LaFuente",
        "_segmentIndex": 0,
        "_position": 1
      },
      "geometry": {
        "type": "Point",
        "coordinates": [
          -73.33262217126189,
          5.573234454625364
        ]
      }
    },
    {
      "type": "Feature",
      "properties": {
        "_source": "Ruta9-Arboleda-AvenidaNorte-LaFuente",
        "_segmentIndex": 0,
        "_position": 2
      },
      "geometry": {
        "type": "Point",
        "coordinates": [
          -73.33294083193864,
          5.572915886301852
        ]
      }
    },
    {
      "type": "Feature",
      "properties": {
        "_source": "Ruta9-Arboleda-AvenidaNorte-LaFuente",
        "_segmentIndex": 0,
        "_position": 3
      },
      "geometry": {
        "type": "Point",
        "coordinates": [
          -73.3332393265601,
          5.572578395585772
        ]
      }
    },
    {
      "type": "Feature",
      "properties": {
        "_source": "Ruta9-Arboleda-AvenidaNorte-LaFuente",
        "_segmentIndex": 0,
        "_position": 4
      },
      "geometry": {
        "type": "Point",
        "coordinates": [
          -73.33353261243997,
          5.572236393636029
        ]
      }
    },
    {
      "type": "Feature",
      "properties": {
        "_source": "Ruta9-Arboleda-AvenidaNorte-LaFuente",
        "_segmentIndex": 0,
        "_position": 5
      },
      "geometry": {
        "type": "Point",
        "coordinates": [
          -73.3338214372083,
          5.571890617683192
        ]
      }
    },
    {
      "type": "Feature",
      "properties": {
        "_source": "Ruta9-Arboleda-AvenidaNorte-LaFuente",
        "_segmentIndex": 0,
        "_position": 6
      },
      "geometry": {
        "type": "Point",
        "coordinates": [
          -73.33410683284656,
          5.571542147415797
        ]
      }
    },
    {
      "type": "Feature",
      "properties": {
        "_source": "Ruta9-Arboleda-AvenidaNorte-LaFuente",
        "_segmentIndex": 0,
        "_position": 7
      },
      "geometry": {
        "type": "Point",
        "coordinates": [
          -73.33442425161124,
          5.571222512904773
        ]
      }
    },
    {
      "type": "Feature",
      "properties": {
        "_source": "Ruta9-Arboleda-AvenidaNorte-LaFuente",
        "_segmentIndex": 0,
        "_position": 8
      },
      "geometry": {
        "type": "Point",
        "coordinates": [
          -73.33476371582282,
          5.570932743369842
        ]
      }
    },
    {
      "type": "Feature",
      "properties": {
        "_source": "Ruta9-Arboleda-AvenidaNorte-LaFuente",
        "_segmentIndex": 0,
        "_position": 9
      },
      "geometry": {
        "type": "Point",
        "coordinates": [
          -73.33518718557104,
          5.570776838731089
        ]
      }
    },
    {
      "type": "Feature",
      "properties": {
        "_source": "Ruta9-Arboleda-AvenidaNorte-LaFuente",
        "_segmentIndex": 0,
        "_position": 10
      },
      "geometry": {
        "type": "Point",
        "coordinates": [
          -73.3356089285409,
          5.570616791152582
        ]
      }
    },
    {
      "type": "Feature",
      "properties": {
        "_source": "Ruta9-Arboleda-AvenidaNorte-LaFuente",
        "_segmentIndex": 0,
        "_position": 11
      },
      "geometry": {
        "type": "Point",
        "coordinates": [
          -73.33599648596824,
          5.570386505599394
        ]
      }
    },
    {
      "type": "Feature",
      "properties": {
        "_source": "Ruta9-Arboleda-AvenidaNorte-LaFuente",
        "_segmentIndex": 0,
        "_position": 12
      },
      "geometry": {
        "type": "Point",
        "coordinates": [
          -73.33638504566865,
          5.570157075555426
        ]
      }
    },
    {
      "type": "Feature",
      "properties": {
        "_source": "Ruta9-Arboleda-AvenidaNorte-LaFuente",
        "_segmentIndex": 0,
        "_position": 13
      },
      "geometry": {
        "type": "Point",
        "coordinates": [
          -73.3367746042788,
          5.569929337048833
        ]
      }
    },
    {
      "type": "Feature",
      "properties": {
        "_source": "Ruta9-Arboleda-AvenidaNorte-LaFuente",
        "_segmentIndex": 0,
        "_position": 0
      },
      "geometry": {
        "type": "Point",
        "coordinates": [
          -73.337065,
          5.569761
        ]
      }
    },
    {
      "type": "Feature",
      "properties": {
        "_source": "Ruta9-Arboleda-AvenidaNorte-LaFuente",
        "_segmentIndex": 0,
        "_position": 1
      },
      "geometry": {
        "type": "Point",
        "coordinates": [
          -73.33751166460875,
          5.569715032000933
        ]
      }
    },
    {
      "type": "Feature",
      "properties": {
        "_source": "Ruta9-Arboleda-AvenidaNorte-LaFuente",
        "_segmentIndex": 0,
        "_position": 2
      },
      "geometry": {
        "type": "Point",
        "coordinates": [
          -73.33790370858733,
          5.569508173319552
        ]
      }
    },
    {
      "type": "Feature",
      "properties": {
        "_source": "Ruta9-Arboleda-AvenidaNorte-LaFuente",
        "_segmentIndex": 0,
        "_position": 3
      },
      "geometry": {
        "type": "Point",
        "coordinates": [
          -73.33807471306261,
          5.569095551709628
        ]
      }
    },
    {
      "type": "Feature",
      "properties": {
        "_source": "Ruta9-Arboleda-AvenidaNorte-LaFuente",
        "_segmentIndex": 0,
        "_position": 4
      },
      "geometry": {
        "type": "Point",
        "coordinates": [
          -73.33825759961277,
          5.5686848874287245
        ]
      }
    },
    {
      "type": "Feature",
      "properties": {
        "_source": "Ruta9-Arboleda-AvenidaNorte-LaFuente",
        "_segmentIndex": 0,
        "_position": 0
      },
      "geometry": {
        "type": "Point",
        "coordinates": [
          -73.338346,
          5.568653
        ]
      }
    },
    {
      "type": "Feature",
      "properties": {
        "_source": "Ruta9-Arboleda-AvenidaNorte-LaFuente",
        "_segmentIndex": 0,
        "_position": 1
      },
      "geometry": {
        "type": "Point",
        "coordinates": [
          -73.33839901911031,
          5.569096728879787
        ]
      }
    },
    {
      "type": "Feature",
      "properties": {
        "_source": "Ruta9-Arboleda-AvenidaNorte-LaFuente",
        "_segmentIndex": 0,
        "_position": 2
      },
      "geometry": {
        "type": "Point",
        "coordinates": [
          -73.33863388177176,
          5.569473660532752
        ]
      }
    },
    {
      "type": "Feature",
      "properties": {
        "_source": "Ruta9-Arboleda-AvenidaNorte-LaFuente",
        "_segmentIndex": 0,
        "_position": 3
      },
      "geometry": {
        "type": "Point",
        "coordinates": [
          -73.33897819713108,
          5.569763891436302
        ]
      }
    },
    {
      "type": "Feature",
      "properties": {
        "_source": "Ruta9-Arboleda-AvenidaNorte-LaFuente",
        "_segmentIndex": 0,
        "_position": 4
      },
      "geometry": {
        "type": "Point",
        "coordinates": [
          -73.33933994830586,
          5.57003326699126
        ]
      }
    },
    {
      "type": "Feature",
      "properties": {
        "_source": "Ruta9-Arboleda-AvenidaNorte-LaFuente",
        "_segmentIndex": 0,
        "_position": 5
      },
      "geometry": {
        "type": "Point",
        "coordinates": [
          -73.33970003511533,
          5.570304826195735
        ]
      }
    },
    {
      "type": "Feature",
      "properties": {
        "_source": "Ruta9-Arboleda-AvenidaNorte-LaFuente",
        "_segmentIndex": 0,
        "_position": 6
      },
      "geometry": {
        "type": "Point",
        "coordinates": [
          -73.34005813056501,
          5.570578998030392
        ]
      }
    },
    {
      "type": "Feature",
      "properties": {
        "_source": "Ruta9-Arboleda-AvenidaNorte-LaFuente",
        "_segmentIndex": 0,
        "_position": 7
      },
      "geometry": {
        "type": "Point",
        "coordinates": [
          -73.34041622634894,
          5.57085316964882
        ]
      }
    },
    {
      "type": "Feature",
      "properties": {
        "_source": "Ruta9-Arboleda-AvenidaNorte-LaFuente",
        "_segmentIndex": 0,
        "_position": 8
      },
      "geometry": {
        "type": "Point",
        "coordinates": [
          -73.34077427389755,
          5.571127403783197
        ]
      }
    },
    {
      "type": "Feature",
      "properties": {
        "_source": "Ruta9-Arboleda-AvenidaNorte-LaFuente",
        "_segmentIndex": 0,
        "_position": 9
      },
      "geometry": {
        "type": "Point",
        "coordinates": [
          -73.3411319165018,
          5.571402161157258
        ]
      }
    },
    {
      "type": "Feature",
      "properties": {
        "_source": "Ruta9-Arboleda-AvenidaNorte-LaFuente",
        "_segmentIndex": 0,
        "_position": 10
      },
      "geometry": {
        "type": "Point",
        "coordinates": [
          -73.34148955944063,
          5.571676918315606
        ]
      }
    },
    {
      "type": "Feature",
      "properties": {
        "_source": "Ruta9-Arboleda-AvenidaNorte-LaFuente",
        "_segmentIndex": 0,
        "_position": 11
      },
      "geometry": {
        "type": "Point",
        "coordinates": [
          -73.34186168293894,
          5.571924351149903
        ]
      }
    },
    {
      "type": "Feature",
      "properties": {
        "_source": "Ruta9-Arboleda-AvenidaNorte-LaFuente",
        "_segmentIndex": 0,
        "_position": 0
      },
      "geometry": {
        "type": "Point",
        "coordinates": [
          -73.34204,
          5.571936
        ]
      }
    },
    {
      "type": "Feature",
      "properties": {
        "_source": "Ruta9-Arboleda-AvenidaNorte-LaFuente",
        "_segmentIndex": 0,
        "_position": 1
      },
      "geometry": {
        "type": "Point",
        "coordinates": [
          -73.34236379241145,
          5.571688583455553
        ]
      }
    },
    {
      "type": "Feature",
      "properties": {
        "_source": "Ruta9-Arboleda-AvenidaNorte-LaFuente",
        "_segmentIndex": 0,
        "_position": 2
      },
      "geometry": {
        "type": "Point",
        "coordinates": [
          -73.34261080299375,
          5.571312079571693
        ]
      }
    },
    {
      "type": "Feature",
      "properties": {
        "_source": "Ruta9-Arboleda-AvenidaNorte-LaFuente",
        "_segmentIndex": 0,
        "_position": 3
      },
      "geometry": {
        "type": "Point",
        "coordinates": [
          -73.34285781325939,
          5.570935575584935
        ]
      }
    },
    {
      "type": "Feature",
      "properties": {
        "_source": "Ruta9-Arboleda-AvenidaNorte-LaFuente",
        "_segmentIndex": 0,
        "_position": 4
      },
      "geometry": {
        "type": "Point",
        "coordinates": [
          -73.34310942276569,
          5.570562103162763
        ]
      }
    },
    {
      "type": "Feature",
      "properties": {
        "_source": "Ruta9-Arboleda-AvenidaNorte-LaFuente",
        "_segmentIndex": 0,
        "_position": 5
      },
      "geometry": {
        "type": "Point",
        "coordinates": [
          -73.34336435207082,
          5.5701908651376
        ]
      }
    },
    {
      "type": "Feature",
      "properties": {
        "_source": "Ruta9-Arboleda-AvenidaNorte-LaFuente",
        "_segmentIndex": 0,
        "_position": 6
      },
      "geometry": {
        "type": "Point",
        "coordinates": [
          -73.34361928105379,
          5.56981962700286
        ]
      }
    },
    {
      "type": "Feature",
      "properties": {
        "_source": "Ruta9-Arboleda-AvenidaNorte-LaFuente",
        "_segmentIndex": 0,
        "_position": 7
      },
      "geometry": {
        "type": "Point",
        "coordinates": [
          -73.34387369626585,
          5.569448041286509
        ]
      }
    },
    {
      "type": "Feature",
      "properties": {
        "_source": "Ruta9-Arboleda-AvenidaNorte-LaFuente",
        "_segmentIndex": 0,
        "_position": 8
      },
      "geometry": {
        "type": "Point",
        "coordinates": [
          -73.3441268366904,
          5.569075592977505
        ]
      }
    },
    {
      "type": "Feature",
      "properties": {
        "_source": "Ruta9-Arboleda-AvenidaNorte-LaFuente",
        "_segmentIndex": 0,
        "_position": 9
      },
      "geometry": {
        "type": "Point",
        "coordinates": [
          -73.34437909864663,
          5.568702557476103
        ]
      }
    },
    {
      "type": "Feature",
      "properties": {
        "_source": "Ruta9-Arboleda-AvenidaNorte-LaFuente",
        "_segmentIndex": 0,
        "_position": 10
      },
      "geometry": {
        "type": "Point",
        "coordinates": [
          -73.34462979501363,
          5.568328475409089
        ]
      }
    },
    {
      "type": "Feature",
      "properties": {
        "_source": "Ruta9-Arboleda-AvenidaNorte-LaFuente",
        "_segmentIndex": 0,
        "_position": 11
      },
      "geometry": {
        "type": "Point",
        "coordinates": [
          -73.34488049106147,
          5.567954393236139
        ]
      }
    },
    {
      "type": "Feature",
      "properties": {
        "_source": "Ruta9-Arboleda-AvenidaNorte-LaFuente",
        "_segmentIndex": 0,
        "_position": 12
      },
      "geometry": {
        "type": "Point",
        "coordinates": [
          -73.34513118679018,
          5.567580310957264
        ]
      }
    },
    {
      "type": "Feature",
      "properties": {
        "_source": "Ruta9-Arboleda-AvenidaNorte-LaFuente",
        "_segmentIndex": 0,
        "_position": 13
      },
      "geometry": {
        "type": "Point",
        "coordinates": [
          -73.3453818821998,
          5.567206228572468
        ]
      }
    },
    {
      "type": "Feature",
      "properties": {
        "_source": "Ruta9-Arboleda-AvenidaNorte-LaFuente",
        "_segmentIndex": 0,
        "_position": 14
      },
      "geometry": {
        "type": "Point",
        "coordinates": [
          -73.34563257729033,
          5.566832146081761
        ]
      }
    },
    {
      "type": "Feature",
      "properties": {
        "_source": "Ruta9-Arboleda-AvenidaNorte-LaFuente",
        "_segmentIndex": 0,
        "_position": 15
      },
      "geometry": {
        "type": "Point",
        "coordinates": [
          -73.3458596721758,
          5.566443965154651
        ]
      }
    },
    {
      "type": "Feature",
      "properties": {
        "_source": "Ruta9-Arboleda-AvenidaNorte-LaFuente",
        "_segmentIndex": 0,
        "_position": 16
      },
      "geometry": {
        "type": "Point",
        "coordinates": [
          -73.34604992142164,
          5.566036117100239
        ]
      }
    },
    {
      "type": "Feature",
      "properties": {
        "_source": "Ruta9-Arboleda-AvenidaNorte-LaFuente",
        "_segmentIndex": 0,
        "_position": 17
      },
      "geometry": {
        "type": "Point",
        "coordinates": [
          -73.3462401704035,
          5.565628268984843
        ]
      }
    },
    {
      "type": "Feature",
      "properties": {
        "_source": "Ruta9-Arboleda-AvenidaNorte-LaFuente",
        "_segmentIndex": 0,
        "_position": 18
      },
      "geometry": {
        "type": "Point",
        "coordinates": [
          -73.34643041912146,
          5.56522042080847
        ]
      }
    },
    {
      "type": "Feature",
      "properties": {
        "_source": "Ruta9-Arboleda-AvenidaNorte-LaFuente",
        "_segmentIndex": 0,
        "_position": 19
      },
      "geometry": {
        "type": "Point",
        "coordinates": [
          -73.34662237356513,
          5.564813366628615
        ]
      }
    },
    {
      "type": "Feature",
      "properties": {
        "_source": "Ruta9-Arboleda-AvenidaNorte-LaFuente",
        "_segmentIndex": 0,
        "_position": 20
      },
      "geometry": {
        "type": "Point",
        "coordinates": [
          -73.3468132610218,
          5.564405814327349
        ]
      }
    },
    {
      "type": "Feature",
      "properties": {
        "_source": "Ruta9-Arboleda-AvenidaNorte-LaFuente",
        "_segmentIndex": 0,
        "_position": 21
      },
      "geometry": {
        "type": "Point",
        "coordinates": [
          -73.34700414821391,
          5.56399826196471
        ]
      }
    },
    {
      "type": "Feature",
      "properties": {
        "_source": "Ruta9-Arboleda-AvenidaNorte-LaFuente",
        "_segmentIndex": 0,
        "_position": 22
      },
      "geometry": {
        "type": "Point",
        "coordinates": [
          -73.34719494325627,
          5.563590667171923
        ]
      }
    },
    {
      "type": "Feature",
      "properties": {
        "_source": "Ruta9-Arboleda-AvenidaNorte-LaFuente",
        "_segmentIndex": 0,
        "_position": 23
      },
      "geometry": {
        "type": "Point",
        "coordinates": [
          -73.34738388864761,
          5.563182219555588
        ]
      }
    },
    {
      "type": "Feature",
      "properties": {
        "_source": "Ruta9-Arboleda-AvenidaNorte-LaFuente",
        "_segmentIndex": 0,
        "_position": 24
      },
      "geometry": {
        "type": "Point",
        "coordinates": [
          -73.34757283377658,
          5.562773771879132
        ]
      }
    },
    {
      "type": "Feature",
      "properties": {
        "_source": "Ruta9-Arboleda-AvenidaNorte-LaFuente",
        "_segmentIndex": 0,
        "_position": 25
      },
      "geometry": {
        "type": "Point",
        "coordinates": [
          -73.34776177864316,
          5.562365324142562
        ]
      }
    },
    {
      "type": "Feature",
      "properties": {
        "_source": "Ruta9-Arboleda-AvenidaNorte-LaFuente",
        "_segmentIndex": 0,
        "_position": 26
      },
      "geometry": {
        "type": "Point",
        "coordinates": [
          -73.34795072324742,
          5.561956876345881
        ]
      }
    },
    {
      "type": "Feature",
      "properties": {
        "_source": "Ruta9-Arboleda-AvenidaNorte-LaFuente",
        "_segmentIndex": 0,
        "_position": 27
      },
      "geometry": {
        "type": "Point",
        "coordinates": [
          -73.34813974725503,
          5.561548465007842
        ]
      }
    },
    {
      "type": "Feature",
      "properties": {
        "_source": "Ruta9-Arboleda-AvenidaNorte-LaFuente",
        "_segmentIndex": 0,
        "_position": 28
      },
      "geometry": {
        "type": "Point",
        "coordinates": [
          -73.34832879610681,
          5.561140065118498
        ]
      }
    },
    {
      "type": "Feature",
      "properties": {
        "_source": "Ruta9-Arboleda-AvenidaNorte-LaFuente",
        "_segmentIndex": 0,
        "_position": 29
      },
      "geometry": {
        "type": "Point",
        "coordinates": [
          -73.34851507632942,
          5.560730416122141
        ]
      }
    },
    {
      "type": "Feature",
      "properties": {
        "_source": "Ruta9-Arboleda-AvenidaNorte-LaFuente",
        "_segmentIndex": 0,
        "_position": 30
      },
      "geometry": {
        "type": "Point",
        "coordinates": [
          -73.34870334799712,
          5.560321709753718
        ]
      }
    },
    {
      "type": "Feature",
      "properties": {
        "_source": "Ruta9-Arboleda-AvenidaNorte-LaFuente",
        "_segmentIndex": 0,
        "_position": 31
      },
      "geometry": {
        "type": "Point",
        "coordinates": [
          -73.34889940902119,
          5.559916598390635
        ]
      }
    },
    {
      "type": "Feature",
      "properties": {
        "_source": "Ruta9-Arboleda-AvenidaNorte-LaFuente",
        "_segmentIndex": 0,
        "_position": 32
      },
      "geometry": {
        "type": "Point",
        "coordinates": [
          -73.34909546977535,
          5.559511486962856
        ]
      }
    },
    {
      "type": "Feature",
      "properties": {
        "_source": "Ruta9-Arboleda-AvenidaNorte-LaFuente",
        "_segmentIndex": 0,
        "_position": 33
      },
      "geometry": {
        "type": "Point",
        "coordinates": [
          -73.34928474979732,
          5.559103201858707
        ]
      }
    },
    {
      "type": "Feature",
      "properties": {
        "_source": "Ruta9-Arboleda-AvenidaNorte-LaFuente",
        "_segmentIndex": 0,
        "_position": 34
      },
      "geometry": {
        "type": "Point",
        "coordinates": [
          -73.34947319311325,
          5.558694525194933
        ]
      }
    },
    {
      "type": "Feature",
      "properties": {
        "_source": "Ruta9-Arboleda-AvenidaNorte-LaFuente",
        "_segmentIndex": 0,
        "_position": 35
      },
      "geometry": {
        "type": "Point",
        "coordinates": [
          -73.34966163616755,
          5.558285848471405
        ]
      }
    },
    {
      "type": "Feature",
      "properties": {
        "_source": "Ruta9-Arboleda-AvenidaNorte-LaFuente",
        "_segmentIndex": 0,
        "_position": 36
      },
      "geometry": {
        "type": "Point",
        "coordinates": [
          -73.34985007896024,
          5.557877171688131
        ]
      }
    },
    {
      "type": "Feature",
      "properties": {
        "_source": "Ruta9-Arboleda-AvenidaNorte-LaFuente",
        "_segmentIndex": 0,
        "_position": 37
      },
      "geometry": {
        "type": "Point",
        "coordinates": [
          -73.35003766262287,
          5.557468112384897
        ]
      }
    },
    {
      "type": "Feature",
      "properties": {
        "_source": "Ruta9-Arboleda-AvenidaNorte-LaFuente",
        "_segmentIndex": 0,
        "_position": 38
      },
      "geometry": {
        "type": "Point",
        "coordinates": [
          -73.35021821817746,
          5.557055923472721
        ]
      }
    },
    {
      "type": "Feature",
      "properties": {
        "_source": "Ruta9-Arboleda-AvenidaNorte-LaFuente",
        "_segmentIndex": 0,
        "_position": 39
      },
      "geometry": {
        "type": "Point",
        "coordinates": [
          -73.35039877347933,
          5.556643734505704
        ]
      }
    },
    {
      "type": "Feature",
      "properties": {
        "_source": "Ruta9-Arboleda-AvenidaNorte-LaFuente",
        "_segmentIndex": 0,
        "_position": 40
      },
      "geometry": {
        "type": "Point",
        "coordinates": [
          -73.35058401557163,
          5.5562336336648155
        ]
      }
    },
    {
      "type": "Feature",
      "properties": {
        "_source": "Ruta9-Arboleda-AvenidaNorte-LaFuente",
        "_segmentIndex": 0,
        "_position": 41
      },
      "geometry": {
        "type": "Point",
        "coordinates": [
          -73.35077260492743,
          5.555825024160511
        ]
      }
    },
    {
      "type": "Feature",
      "properties": {
        "_source": "Ruta9-Arboleda-AvenidaNorte-LaFuente",
        "_segmentIndex": 0,
        "_position": 42
      },
      "geometry": {
        "type": "Point",
        "coordinates": [
          -73.35096119402155,
          5.555416414596394
        ]
      }
    },
    {
      "type": "Feature",
      "properties": {
        "_source": "Ruta9-Arboleda-AvenidaNorte-LaFuente",
        "_segmentIndex": 0,
        "_position": 43
      },
      "geometry": {
        "type": "Point",
        "coordinates": [
          -73.35114978285408,
          5.555007804972466
        ]
      }
    },
    {
      "type": "Feature",
      "properties": {
        "_source": "Ruta9-Arboleda-AvenidaNorte-LaFuente",
        "_segmentIndex": 0,
        "_position": 44
      },
      "geometry": {
        "type": "Point",
        "coordinates": [
          -73.35133837142499,
          5.5545991952887315
        ]
      }
    },
    {
      "type": "Feature",
      "properties": {
        "_source": "Ruta9-Arboleda-AvenidaNorte-LaFuente",
        "_segmentIndex": 0,
        "_position": 45
      },
      "geometry": {
        "type": "Point",
        "coordinates": [
          -73.351505171161,
          5.554181324889526
        ]
      }
    },
    {
      "type": "Feature",
      "properties": {
        "_source": "Ruta9-Arboleda-AvenidaNorte-LaFuente",
        "_segmentIndex": 0,
        "_position": 46
      },
      "geometry": {
        "type": "Point",
        "coordinates": [
          -73.3516468632895,
          5.55375442887151
        ]
      }
    },
    {
      "type": "Feature",
      "properties": {
        "_source": "Ruta9-Arboleda-AvenidaNorte-LaFuente",
        "_segmentIndex": 0,
        "_position": 47
      },
      "geometry": {
        "type": "Point",
        "coordinates": [
          -73.35178356429125,
          5.553325868441437
        ]
      }
    },
    {
      "type": "Feature",
      "properties": {
        "_source": "Ruta9-Arboleda-AvenidaNorte-LaFuente",
        "_segmentIndex": 0,
        "_position": 48
      },
      "geometry": {
        "type": "Point",
        "coordinates": [
          -73.35191385712142,
          5.552895314118512
        ]
      }
    },
    {
      "type": "Feature",
      "properties": {
        "_source": "Ruta9-Arboleda-AvenidaNorte-LaFuente",
        "_segmentIndex": 0,
        "_position": 49
      },
      "geometry": {
        "type": "Point",
        "coordinates": [
          -73.3520441497612,
          5.5524647597670524
        ]
      }
    },
    {
      "type": "Feature",
      "properties": {
        "_source": "Ruta9-Arboleda-AvenidaNorte-LaFuente",
        "_segmentIndex": 0,
        "_position": 50
      },
      "geometry": {
        "type": "Point",
        "coordinates": [
          -73.35217444221061,
          5.552034205387058
        ]
      }
    },
    {
      "type": "Feature",
      "properties": {
        "_source": "Ruta9-Arboleda-AvenidaNorte-LaFuente",
        "_segmentIndex": 0,
        "_position": 51
      },
      "geometry": {
        "type": "Point",
        "coordinates": [
          -73.3523345938453,
          5.5516157335203005
        ]
      }
    },
    {
      "type": "Feature",
      "properties": {
        "_source": "Ruta9-Arboleda-AvenidaNorte-LaFuente",
        "_segmentIndex": 0,
        "_position": 52
      },
      "geometry": {
        "type": "Point",
        "coordinates": [
          -73.35255612467793,
          5.551225342112202
        ]
      }
    },
    {
      "type": "Feature",
      "properties": {
        "_source": "Ruta9-Arboleda-AvenidaNorte-LaFuente",
        "_segmentIndex": 0,
        "_position": 53
      },
      "geometry": {
        "type": "Point",
        "coordinates": [
          -73.35282898081128,
          5.550866956207967
        ]
      }
    },
    {
      "type": "Feature",
      "properties": {
        "_source": "Ruta9-Arboleda-AvenidaNorte-LaFuente",
        "_segmentIndex": 0,
        "_position": 54
      },
      "geometry": {
        "type": "Point",
        "coordinates": [
          -73.35310782458178,
          5.5505133482673665
        ]
      }
    },
    {
      "type": "Feature",
      "properties": {
        "_source": "Ruta9-Arboleda-AvenidaNorte-LaFuente",
        "_segmentIndex": 0,
        "_position": 55
      },
      "geometry": {
        "type": "Point",
        "coordinates": [
          -73.3533999388464,
          5.5501703296249785
        ]
      }
    },
    {
      "type": "Feature",
      "properties": {
        "_source": "Ruta9-Arboleda-AvenidaNorte-LaFuente",
        "_segmentIndex": 0,
        "_position": 56
      },
      "geometry": {
        "type": "Point",
        "coordinates": [
          -73.35369205277112,
          5.549827310839221
        ]
      }
    },
    {
      "type": "Feature",
      "properties": {
        "_source": "Ruta9-Arboleda-AvenidaNorte-LaFuente",
        "_segmentIndex": 0,
        "_position": 57
      },
      "geometry": {
        "type": "Point",
        "coordinates": [
          -73.35397476304831,
          5.549476640342304
        ]
      }
    },
    {
      "type": "Feature",
      "properties": {
        "_source": "Ruta9-Arboleda-AvenidaNorte-LaFuente",
        "_segmentIndex": 0,
        "_position": 58
      },
      "geometry": {
        "type": "Point",
        "coordinates": [
          -73.35425445653553,
          5.549123515192647
        ]
      }
    },
    {
      "type": "Feature",
      "properties": {
        "_source": "Ruta9-Arboleda-AvenidaNorte-LaFuente",
        "_segmentIndex": 0,
        "_position": 59
      },
      "geometry": {
        "type": "Point",
        "coordinates": [
          -73.35453414968778,
          5.548770389911582
        ]
      }
    },
    {
      "type": "Feature",
      "properties": {
        "_source": "Ruta9-Arboleda-AvenidaNorte-LaFuente",
        "_segmentIndex": 0,
        "_position": 60
      },
      "geometry": {
        "type": "Point",
        "coordinates": [
          -73.3548138425051,
          5.548417264499118
        ]
      }
    },
    {
      "type": "Feature",
      "properties": {
        "_source": "Ruta9-Arboleda-AvenidaNorte-LaFuente",
        "_segmentIndex": 0,
        "_position": 61
      },
      "geometry": {
        "type": "Point",
        "coordinates": [
          -73.3550816174871,
          5.548055195338078
        ]
      }
    },
    {
      "type": "Feature",
      "properties": {
        "_source": "Ruta9-Arboleda-AvenidaNorte-LaFuente",
        "_segmentIndex": 0,
        "_position": 62
      },
      "geometry": {
        "type": "Point",
        "coordinates": [
          -73.3553457726199,
          5.547690409749078
        ]
      }
    },
    {
      "type": "Feature",
      "properties": {
        "_source": "Ruta9-Arboleda-AvenidaNorte-LaFuente",
        "_segmentIndex": 0,
        "_position": 63
      },
      "geometry": {
        "type": "Point",
        "coordinates": [
          -73.355609927426,
          5.547325624042892
        ]
      }
    },
    {
      "type": "Feature",
      "properties": {
        "_source": "Ruta9-Arboleda-AvenidaNorte-LaFuente",
        "_segmentIndex": 0,
        "_position": 64
      },
      "geometry": {
        "type": "Point",
        "coordinates": [
          -73.35587844902682,
          5.546964011377983
        ]
      }
    },
    {
      "type": "Feature",
      "properties": {
        "_source": "Ruta9-Arboleda-AvenidaNorte-LaFuente",
        "_segmentIndex": 0,
        "_position": 65
      },
      "geometry": {
        "type": "Point",
        "coordinates": [
          -73.35614703868237,
          5.546602448279833
        ]
      }
    },
    {
      "type": "Feature",
      "properties": {
        "_source": "Ruta9-Arboleda-AvenidaNorte-LaFuente",
        "_segmentIndex": 0,
        "_position": 66
      },
      "geometry": {
        "type": "Point",
        "coordinates": [
          -73.3564157053513,
          5.546240942012397
        ]
      }
    },
    {
      "type": "Feature",
      "properties": {
        "_source": "Ruta9-Arboleda-AvenidaNorte-LaFuente",
        "_segmentIndex": 0,
        "_position": 67
      },
      "geometry": {
        "type": "Point",
        "coordinates": [
          -73.35668450285787,
          5.545879532209528
        ]
      }
    },
    {
      "type": "Feature",
      "properties": {
        "_source": "Ruta9-Arboleda-AvenidaNorte-LaFuente",
        "_segmentIndex": 0,
        "_position": 68
      },
      "geometry": {
        "type": "Point",
        "coordinates": [
          -73.3569533000352,
          5.545518122285361
        ]
      }
    },
    {
      "type": "Feature",
      "properties": {
        "_source": "Ruta9-Arboleda-AvenidaNorte-LaFuente",
        "_segmentIndex": 0,
        "_position": 69
      },
      "geometry": {
        "type": "Point",
        "coordinates": [
          -73.35722209688329,
          5.545156712239903
        ]
      }
    },
    {
      "type": "Feature",
      "properties": {
        "_source": "Ruta9-Arboleda-AvenidaNorte-LaFuente",
        "_segmentIndex": 0,
        "_position": 0
      },
      "geometry": {
        "type": "Point",
        "coordinates": [
          -73.357416,
          5.544896
        ]
      }
    },
    {
      "type": "Feature",
      "properties": {
        "_source": "Ruta9-Arboleda-AvenidaNorte-LaFuente",
        "_segmentIndex": 0,
        "_position": 1
      },
      "geometry": {
        "type": "Point",
        "coordinates": [
          -73.3578023349125,
          5.544710630913543
        ]
      }
    },
    {
      "type": "Feature",
      "properties": {
        "_source": "Ruta9-Arboleda-AvenidaNorte-LaFuente",
        "_segmentIndex": 0,
        "_position": 0
      },
      "geometry": {
        "type": "Point",
        "coordinates": [
          -73.357835,
          5.544525
        ]
      }
    },
    {
      "type": "Feature",
      "properties": {
        "_source": "Ruta9-Arboleda-AvenidaNorte-LaFuente",
        "_segmentIndex": 0,
        "_position": 1
      },
      "geometry": {
        "type": "Point",
        "coordinates": [
          -73.35801475238969,
          5.544117041126371
        ]
      }
    },
    {
      "type": "Feature",
      "properties": {
        "_source": "Ruta9-Arboleda-AvenidaNorte-LaFuente",
        "_segmentIndex": 0,
        "_position": 2
      },
      "geometry": {
        "type": "Point",
        "coordinates": [
          -73.35827835558503,
          5.543751889381004
        ]
      }
    },
    {
      "type": "Feature",
      "properties": {
        "_source": "Ruta9-Arboleda-AvenidaNorte-LaFuente",
        "_segmentIndex": 0,
        "_position": 3
      },
      "geometry": {
        "type": "Point",
        "coordinates": [
          -73.35854369935763,
          5.543387960805834
        ]
      }
    },
    {
      "type": "Feature",
      "properties": {
        "_source": "Ruta9-Arboleda-AvenidaNorte-LaFuente",
        "_segmentIndex": 0,
        "_position": 4
      },
      "geometry": {
        "type": "Point",
        "coordinates": [
          -73.35880904280309,
          5.543024032112513
        ]
      }
    },
    {
      "type": "Feature",
      "properties": {
        "_source": "Ruta9-Arboleda-AvenidaNorte-LaFuente",
        "_segmentIndex": 0,
        "_position": 5
      },
      "geometry": {
        "type": "Point",
        "coordinates": [
          -73.3589299560411,
          5.542680763256114
        ]
      }
    },
    {
      "type": "Feature",
      "properties": {
        "_source": "Ruta9-Arboleda-AvenidaNorte-LaFuente",
        "_segmentIndex": 0,
        "_position": 6
      },
      "geometry": {
        "type": "Point",
        "coordinates": [
          -73.35896288832586,
          5.542236224647238
        ]
      }
    },
    {
      "type": "Feature",
      "properties": {
        "_source": "Ruta9-Arboleda-AvenidaNorte-LaFuente",
        "_segmentIndex": 0,
        "_position": 7
      },
      "geometry": {
        "type": "Point",
        "coordinates": [
          -73.35912756575827,
          5.541819687947875
        ]
      }
    },
    {
      "type": "Feature",
      "properties": {
        "_source": "Ruta9-Arboleda-AvenidaNorte-LaFuente",
        "_segmentIndex": 0,
        "_position": 8
      },
      "geometry": {
        "type": "Point",
        "coordinates": [
          -73.35931596534898,
          5.541411010256566
        ]
      }
    },
    {
      "type": "Feature",
      "properties": {
        "_source": "Ruta9-Arboleda-AvenidaNorte-LaFuente",
        "_segmentIndex": 0,
        "_position": 9
      },
      "geometry": {
        "type": "Point",
        "coordinates": [
          -73.35950057783047,
          5.541000607656607
        ]
      }
    },
    {
      "type": "Feature",
      "properties": {
        "_source": "Ruta9-Arboleda-AvenidaNorte-LaFuente",
        "_segmentIndex": 0,
        "_position": 10
      },
      "geometry": {
        "type": "Point",
        "coordinates": [
          -73.35968539102262,
          5.540590294617789
        ]
      }
    },
    {
      "type": "Feature",
      "properties": {
        "_source": "Ruta9-Arboleda-AvenidaNorte-LaFuente",
        "_segmentIndex": 0,
        "_position": 11
      },
      "geometry": {
        "type": "Point",
        "coordinates": [
          -73.35984074648492,
          5.540168265226889
        ]
      }
    },
    {
      "type": "Feature",
      "properties": {
        "_source": "Ruta9-Arboleda-AvenidaNorte-LaFuente",
        "_segmentIndex": 0,
        "_position": 12
      },
      "geometry": {
        "type": "Point",
        "coordinates": [
          -73.35997334519026,
          5.539738710288639
        ]
      }
    },
    {
      "type": "Feature",
      "properties": {
        "_source": "Ruta9-Arboleda-AvenidaNorte-LaFuente",
        "_segmentIndex": 0,
        "_position": 13
      },
      "geometry": {
        "type": "Point",
        "coordinates": [
          -73.36008429548268,
          5.539302891846807
        ]
      }
    },
    {
      "type": "Feature",
      "properties": {
        "_source": "Ruta9-Arboleda-AvenidaNorte-LaFuente",
        "_segmentIndex": 0,
        "_position": 14
      },
      "geometry": {
        "type": "Point",
        "coordinates": [
          -73.36018810491248,
          5.5388652638250795
        ]
      }
    },
    {
      "type": "Feature",
      "properties": {
        "_source": "Ruta9-Arboleda-AvenidaNorte-LaFuente",
        "_segmentIndex": 0,
        "_position": 15
      },
      "geometry": {
        "type": "Point",
        "coordinates": [
          -73.3603112728602,
          5.538432990199376
        ]
      }
    },
    {
      "type": "Feature",
      "properties": {
        "_source": "Ruta9-Arboleda-AvenidaNorte-LaFuente",
        "_segmentIndex": 0,
        "_position": 16
      },
      "geometry": {
        "type": "Point",
        "coordinates": [
          -73.36045348545315,
          5.538006240752734
        ]
      }
    },
    {
      "type": "Feature",
      "properties": {
        "_source": "Ruta9-Arboleda-AvenidaNorte-LaFuente",
        "_segmentIndex": 0,
        "_position": 0
      },
      "geometry": {
        "type": "Point",
        "coordinates": [
          -73.3605,
          5.537865
        ]
      }
    },
    {
      "type": "Feature",
      "properties": {
        "_source": "Ruta9-Arboleda-AvenidaNorte-LaFuente",
        "_segmentIndex": 0,
        "_position": 1
      },
      "geometry": {
        "type": "Point",
        "coordinates": [
          -73.36064996419915,
          5.537442125371241
        ]
      }
    },
    {
      "type": "Feature",
      "properties": {
        "_source": "Ruta9-Arboleda-AvenidaNorte-LaFuente",
        "_segmentIndex": 0,
        "_position": 2
      },
      "geometry": {
        "type": "Point",
        "coordinates": [
          -73.3607699198482,
          5.537008615092171
        ]
      }
    },
    {
      "type": "Feature",
      "properties": {
        "_source": "Ruta9-Arboleda-AvenidaNorte-LaFuente",
        "_segmentIndex": 0,
        "_position": 3
      },
      "geometry": {
        "type": "Point",
        "coordinates": [
          -73.36089043219077,
          5.536575262538151
        ]
      }
    },
    {
      "type": "Feature",
      "properties": {
        "_source": "Ruta9-Arboleda-AvenidaNorte-LaFuente",
        "_segmentIndex": 0,
        "_position": 4
      },
      "geometry": {
        "type": "Point",
        "coordinates": [
          -73.36101526772516,
          5.536143110456345
        ]
      }
    },
    {
      "type": "Feature",
      "properties": {
        "_source": "Ruta9-Arboleda-AvenidaNorte-LaFuente",
        "_segmentIndex": 0,
        "_position": 5
      },
      "geometry": {
        "type": "Point",
        "coordinates": [
          -73.36114010307703,
          5.5357109583484245
        ]
      }
    },
    {
      "type": "Feature",
      "properties": {
        "_source": "Ruta9-Arboleda-AvenidaNorte-LaFuente",
        "_segmentIndex": 0,
        "_position": 6
      },
      "geometry": {
        "type": "Point",
        "coordinates": [
          -73.36126702994247,
          5.535279412046099
        ]
      }
    },
    {
      "type": "Feature",
      "properties": {
        "_source": "Ruta9-Arboleda-AvenidaNorte-LaFuente",
        "_segmentIndex": 0,
        "_position": 7
      },
      "geometry": {
        "type": "Point",
        "coordinates": [
          -73.36139464459461,
          5.534848064978622
        ]
      }
    },
    {
      "type": "Feature",
      "properties": {
        "_source": "Ruta9-Arboleda-AvenidaNorte-LaFuente",
        "_segmentIndex": 0,
        "_position": 8
      },
      "geometry": {
        "type": "Point",
        "coordinates": [
          -73.36152848039121,
          5.534418618682034
        ]
      }
    },
    {
      "type": "Feature",
      "properties": {
        "_source": "Ruta9-Arboleda-AvenidaNorte-LaFuente",
        "_segmentIndex": 0,
        "_position": 0
      },
      "geometry": {
        "type": "Point",
        "coordinates": [
          -73.361616,
          5.534146
        ]
      }
    },
    {
      "type": "Feature",
      "properties": {
        "_source": "Ruta9-Arboleda-AvenidaNorte-LaFuente",
        "_segmentIndex": 0,
        "_position": 1
      },
      "geometry": {
        "type": "Point",
        "coordinates": [
          -73.36204808428437,
          5.53427727772224
        ]
      }
    },
    {
      "type": "Feature",
      "properties": {
        "_source": "Ruta9-Arboleda-AvenidaNorte-LaFuente",
        "_segmentIndex": 0,
        "_position": 2
      },
      "geometry": {
        "type": "Point",
        "coordinates": [
          -73.36248022927502,
          5.534408357720072
        ]
      }
    },
    {
      "type": "Feature",
      "properties": {
        "_source": "Ruta9-Arboleda-AvenidaNorte-LaFuente",
        "_segmentIndex": 0,
        "_position": 3
      },
      "geometry": {
        "type": "Point",
        "coordinates": [
          -73.36291237786705,
          5.534539426267331
        ]
      }
    },
    {
      "type": "Feature",
      "properties": {
        "_source": "Ruta9-Arboleda-AvenidaNorte-LaFuente",
        "_segmentIndex": 0,
        "_position": 4
      },
      "geometry": {
        "type": "Point",
        "coordinates": [
          -73.36334452853418,
          5.534670488349368
        ]
      }
    },
    {
      "type": "Feature",
      "properties": {
        "_source": "Ruta9-Arboleda-AvenidaNorte-LaFuente",
        "_segmentIndex": 0,
        "_position": 0
      },
      "geometry": {
        "type": "Point",
        "coordinates": [
          -73.36361,
          5.534751
        ]
      }
    },
    {
      "type": "Feature",
      "properties": {
        "_source": "Ruta9-Arboleda-AvenidaNorte-LaFuente",
        "_segmentIndex": 0,
        "_position": 1
      },
      "geometry": {
        "type": "Point",
        "coordinates": [
          -73.36354827713038,
          5.53515658784545
        ]
      }
    },
    {
      "type": "Feature",
      "properties": {
        "_source": "Ruta9-Arboleda-AvenidaNorte-LaFuente",
        "_segmentIndex": 0,
        "_position": 2
      },
      "geometry": {
        "type": "Point",
        "coordinates": [
          -73.36340356930306,
          5.535581214935471
        ]
      }
    },
    {
      "type": "Feature",
      "properties": {
        "_source": "Ruta9-Arboleda-AvenidaNorte-LaFuente",
        "_segmentIndex": 0,
        "_position": 3
      },
      "geometry": {
        "type": "Point",
        "coordinates": [
          -73.36337394342274,
          5.536001601462104
        ]
      }
    },
    {
      "type": "Feature",
      "properties": {
        "_source": "Ruta9-Arboleda-AvenidaNorte-LaFuente",
        "_segmentIndex": 0,
        "_position": 0
      },
      "geometry": {
        "type": "Point",
        "coordinates": [
          -73.36331,
          5.536319
        ]
      }
    },
    {
      "type": "Feature",
      "properties": {
        "_source": "Ruta9-Arboleda-AvenidaNorte-LaFuente",
        "_segmentIndex": 0,
        "_position": 1
      },
      "geometry": {
        "type": "Point",
        "coordinates": [
          -73.36374647873882,
          5.53634840846389
        ]
      }
    },
    {
      "type": "Feature",
      "properties": {
        "_source": "Ruta9-Arboleda-AvenidaNorte-LaFuente",
        "_segmentIndex": 0,
        "_position": 2
      },
      "geometry": {
        "type": "Point",
        "coordinates": [
          -73.36419606287639,
          5.536304252768127
        ]
      }
    },
    {
      "type": "Feature",
      "properties": {
        "_source": "Ruta9-Arboleda-AvenidaNorte-LaFuente",
        "_segmentIndex": 0,
        "_position": 3
      },
      "geometry": {
        "type": "Point",
        "coordinates": [
          -73.36464128859767,
          5.536241280862821
        ]
      }
    },
    {
      "type": "Feature",
      "properties": {
        "_source": "Ruta9-Arboleda-AvenidaNorte-LaFuente",
        "_segmentIndex": 0,
        "_position": 4
      },
      "geometry": {
        "type": "Point",
        "coordinates": [
          -73.36506865527727,
          5.536330002022072
        ]
      }
    },
    {
      "type": "Feature",
      "properties": {
        "_source": "Ruta9-Arboleda-AvenidaNorte-LaFuente",
        "_segmentIndex": 0,
        "_position": 5
      },
      "geometry": {
        "type": "Point",
        "coordinates": [
          -73.36548505732924,
          5.536504138353013
        ]
      }
    },
    {
      "type": "Feature",
      "properties": {
        "_source": "Ruta9-Arboleda-AvenidaNorte-LaFuente",
        "_segmentIndex": 0,
        "_position": 6
      },
      "geometry": {
        "type": "Point",
        "coordinates": [
          -73.36590010601081,
          5.536681712057693
        ]
      }
    },
    {
      "type": "Feature",
      "properties": {
        "_source": "Ruta9-Arboleda-AvenidaNorte-LaFuente",
        "_segmentIndex": 0,
        "_position": 7
      },
      "geometry": {
        "type": "Point",
        "coordinates": [
          -73.36631583721952,
          5.536857653191449
        ]
      }
    },
    {
      "type": "Feature",
      "properties": {
        "_source": "Ruta9-Arboleda-AvenidaNorte-LaFuente",
        "_segmentIndex": 0,
        "_position": 8
      },
      "geometry": {
        "type": "Point",
        "coordinates": [
          -73.36673531355237,
          5.537024599302165
        ]
      }
    },
    {
      "type": "Feature",
      "properties": {
        "_source": "Ruta9-Arboleda-AvenidaNorte-LaFuente",
        "_segmentIndex": 0,
        "_position": 9
      },
      "geometry": {
        "type": "Point",
        "coordinates": [
          -73.36715622267745,
          5.537187937168592
        ]
      }
    },
    {
      "type": "Feature",
      "properties": {
        "_source": "Ruta9-Arboleda-AvenidaNorte-LaFuente",
        "_segmentIndex": 0,
        "_position": 10
      },
      "geometry": {
        "type": "Point",
        "coordinates": [
          -73.36750921577956,
          5.537462033651431
        ]
      }
    },
    {
      "type": "Feature",
      "properties": {
        "_source": "Ruta9-Arboleda-AvenidaNorte-LaFuente",
        "_segmentIndex": 0,
        "_position": 0
      },
      "geometry": {
        "type": "Point",
        "coordinates": [
          -73.367711,
          5.537708
        ]
      }
    },
    {
      "type": "Feature",
      "properties": {
        "_source": "Ruta9-Arboleda-AvenidaNorte-LaFuente",
        "_segmentIndex": 0,
        "_position": 1
      },
      "geometry": {
        "type": "Point",
        "coordinates": [
          -73.36787287098177,
          5.53812593082823
        ]
      }
    },
    {
      "type": "Feature",
      "properties": {
        "_source": "Ruta9-Arboleda-AvenidaNorte-LaFuente",
        "_segmentIndex": 0,
        "_position": 2
      },
      "geometry": {
        "type": "Point",
        "coordinates": [
          -73.36793759321135,
          5.538570620674864
        ]
      }
    },
    {
      "type": "Feature",
      "properties": {
        "_source": "Ruta9-Arboleda-AvenidaNorte-LaFuente",
        "_segmentIndex": 0,
        "_position": 3
      },
      "geometry": {
        "type": "Point",
        "coordinates": [
          -73.36797592804304,
          5.539018659077601
        ]
      }
    },
    {
      "type": "Feature",
      "properties": {
        "_source": "Ruta9-Arboleda-AvenidaNorte-LaFuente",
        "_segmentIndex": 0,
        "_position": 4
      },
      "geometry": {
        "type": "Point",
        "coordinates": [
          -73.36801886489283,
          5.53946627748707
        ]
      }
    },
    {
      "type": "Feature",
      "properties": {
        "_source": "Ruta9-Arboleda-AvenidaNorte-LaFuente",
        "_segmentIndex": 0,
        "_position": 5
      },
      "geometry": {
        "type": "Point",
        "coordinates": [
          -73.3680630292789,
          5.539913783870163
        ]
      }
    },
    {
      "type": "Feature",
      "properties": {
        "_source": "Ruta9-Arboleda-AvenidaNorte-LaFuente",
        "_segmentIndex": 0,
        "_position": 6
      },
      "geometry": {
        "type": "Point",
        "coordinates": [
          -73.36810765875924,
          5.540361243736618
        ]
      }
    },
    {
      "type": "Feature",
      "properties": {
        "_source": "Ruta9-Arboleda-AvenidaNorte-LaFuente",
        "_segmentIndex": 0,
        "_position": 7
      },
      "geometry": {
        "type": "Point",
        "coordinates": [
          -73.3681453558921,
          5.540808785402859
        ]
      }
    },
    {
      "type": "Feature",
      "properties": {
        "_source": "Ruta9-Arboleda-AvenidaNorte-LaFuente",
        "_segmentIndex": 0,
        "_position": 8
      },
      "geometry": {
        "type": "Point",
        "coordinates": [
          -73.36812544939866,
          5.541258000792252
        ]
      }
    },
    {
      "type": "Feature",
      "properties": {
        "_source": "Ruta9-Arboleda-AvenidaNorte-LaFuente",
        "_segmentIndex": 0,
        "_position": 9
      },
      "geometry": {
        "type": "Point",
        "coordinates": [
          -73.3681127774007,
          5.54170748404782
        ]
      }
    },
    {
      "type": "Feature",
      "properties": {
        "_source": "Ruta9-Arboleda-AvenidaNorte-LaFuente",
        "_segmentIndex": 0,
        "_position": 10
      },
      "geometry": {
        "type": "Point",
        "coordinates": [
          -73.36807472436259,
          5.542155080665932
        ]
      }
    },
    {
      "type": "Feature",
      "properties": {
        "_source": "Ruta9-Arboleda-AvenidaNorte-LaFuente",
        "_segmentIndex": 0,
        "_position": 11
      },
      "geometry": {
        "type": "Point",
        "coordinates": [
          -73.36798524385773,
          5.542595730266913
        ]
      }
    },
    {
      "type": "Feature",
      "properties": {
        "_source": "Ruta9-Arboleda-AvenidaNorte-LaFuente",
        "_segmentIndex": 0,
        "_position": 12
      },
      "geometry": {
        "type": "Point",
        "coordinates": [
          -73.367882409891,
          5.543033586536352
        ]
      }
    },
    {
      "type": "Feature",
      "properties": {
        "_source": "Ruta9-Arboleda-AvenidaNorte-LaFuente",
        "_segmentIndex": 0,
        "_position": 13
      },
      "geometry": {
        "type": "Point",
        "coordinates": [
          -73.3677903024097,
          5.543473656054191
        ]
      }
    },
    {
      "type": "Feature",
      "properties": {
        "_source": "Ruta9-Arboleda-AvenidaNorte-LaFuente",
        "_segmentIndex": 0,
        "_position": 14
      },
      "geometry": {
        "type": "Point",
        "coordinates": [
          -73.36771220041066,
          5.543916508338773
        ]
      }
    },
    {
      "type": "Feature",
      "properties": {
        "_source": "Ruta9-Arboleda-AvenidaNorte-LaFuente",
        "_segmentIndex": 0,
        "_position": 15
      },
      "geometry": {
        "type": "Point",
        "coordinates": [
          -73.3676475979651,
          5.544361547391374
        ]
      }
    },
    {
      "type": "Feature",
      "properties": {
        "_source": "Ruta9-Arboleda-AvenidaNorte-LaFuente",
        "_segmentIndex": 0,
        "_position": 16
      },
      "geometry": {
        "type": "Point",
        "coordinates": [
          -73.3675868088834,
          5.544807116458416
        ]
      }
    },
    {
      "type": "Feature",
      "properties": {
        "_source": "Ruta9-Arboleda-AvenidaNorte-LaFuente",
        "_segmentIndex": 0,
        "_position": 17
      },
      "geometry": {
        "type": "Point",
        "coordinates": [
          -73.36752645348813,
          5.545252745808774
        ]
      }
    },
    {
      "type": "Feature",
      "properties": {
        "_source": "Ruta9-Arboleda-AvenidaNorte-LaFuente",
        "_segmentIndex": 0,
        "_position": 18
      },
      "geometry": {
        "type": "Point",
        "coordinates": [
          -73.36746609800169,
          5.545698375153018
        ]
      }
    },
    {
      "type": "Feature",
      "properties": {
        "_source": "Ruta9-Arboleda-AvenidaNorte-LaFuente",
        "_segmentIndex": 0,
        "_position": 19
      },
      "geometry": {
        "type": "Point",
        "coordinates": [
          -73.36739995803244,
          5.546143174152541
        ]
      }
    },
    {
      "type": "Feature",
      "properties": {
        "_source": "Ruta9-Arboleda-AvenidaNorte-LaFuente",
        "_segmentIndex": 0,
        "_position": 20
      },
      "geometry": {
        "type": "Point",
        "coordinates": [
          -73.36733134063053,
          5.546587617528177
        ]
      }
    },
    {
      "type": "Feature",
      "properties": {
        "_source": "Ruta9-Arboleda-AvenidaNorte-LaFuente",
        "_segmentIndex": 0,
        "_position": 21
      },
      "geometry": {
        "type": "Point",
        "coordinates": [
          -73.3672759766834,
          5.547033665648914
        ]
      }
    },
    {
      "type": "Feature",
      "properties": {
        "_source": "Ruta9-Arboleda-AvenidaNorte-LaFuente",
        "_segmentIndex": 0,
        "_position": 0
      },
      "geometry": {
        "type": "Point",
        "coordinates": [
          -73.367325,
          5.547463
        ]
      }
    },
    {
      "type": "Feature",
      "properties": {
        "_source": "Ruta9-Arboleda-AvenidaNorte-LaFuente",
        "_segmentIndex": 0,
        "_position": 1
      },
      "geometry": {
        "type": "Point",
        "coordinates": [
          -73.36727588622325,
          5.547889287173003
        ]
      }
    },
    {
      "type": "Feature",
      "properties": {
        "_source": "Ruta9-Arboleda-AvenidaNorte-LaFuente",
        "_segmentIndex": 0,
        "_position": 2
      },
      "geometry": {
        "type": "Point",
        "coordinates": [
          -73.3670434318431,
          5.547615795263707
        ]
      }
    },
    {
      "type": "Feature",
      "properties": {
        "_source": "Ruta9-Arboleda-AvenidaNorte-LaFuente",
        "_segmentIndex": 0,
        "_position": 3
      },
      "geometry": {
        "type": "Point",
        "coordinates": [
          -73.36688354620149,
          5.547195236409699
        ]
      }
    },
    {
      "type": "Feature",
      "properties": {
        "_source": "Ruta9-Arboleda-AvenidaNorte-LaFuente",
        "_segmentIndex": 0,
        "_position": 4
      },
      "geometry": {
        "type": "Point",
        "coordinates": [
          -73.36669670892378,
          5.54678688331011
        ]
      }
    },
    {
      "type": "Feature",
      "properties": {
        "_source": "Ruta9-Arboleda-AvenidaNorte-LaFuente",
        "_segmentIndex": 0,
        "_position": 0
      },
      "geometry": {
        "type": "Point",
        "coordinates": [
          -73.366509,
          5.546593
        ]
      }
    },
    {
      "type": "Feature",
      "properties": {
        "_source": "Ruta9-Arboleda-AvenidaNorte-LaFuente",
        "_segmentIndex": 0,
        "_position": 1
      },
      "geometry": {
        "type": "Point",
        "coordinates": [
          -73.36613695650735,
          5.546848062282772
        ]
      }
    },
    {
      "type": "Feature",
      "properties": {
        "_source": "Ruta9-Arboleda-AvenidaNorte-LaFuente",
        "_segmentIndex": 0,
        "_position": 0
      },
      "geometry": {
        "type": "Point",
        "coordinates": [
          -73.366048,
          5.546946
        ]
      }
    },
    {
      "type": "Feature",
      "properties": {
        "_source": "Ruta9-Arboleda-AvenidaNorte-LaFuente",
        "_segmentIndex": 0,
        "_position": 1
      },
      "geometry": {
        "type": "Point",
        "coordinates": [
          -73.36616600649539,
          5.5473798056808326
        ]
      }
    },
    {
      "type": "Feature",
      "properties": {
        "_source": "Ruta9-Arboleda-AvenidaNorte-LaFuente",
        "_segmentIndex": 0,
        "_position": 2
      },
      "geometry": {
        "type": "Point",
        "coordinates": [
          -73.36626909456729,
          5.547817600810295
        ]
      }
    },
    {
      "type": "Feature",
      "properties": {
        "_source": "Ruta9-Arboleda-AvenidaNorte-LaFuente",
        "_segmentIndex": 0,
        "_position": 3
      },
      "geometry": {
        "type": "Point",
        "coordinates": [
          -73.3663894419921,
          5.548224467904694
        ]
      }
    },
    {
      "type": "Feature",
      "properties": {
        "_source": "Ruta9-Arboleda-AvenidaNorte-LaFuente",
        "_segmentIndex": 0,
        "_position": 4
      },
      "geometry": {
        "type": "Point",
        "coordinates": [
          -73.36630151834571,
          5.548665482322555
        ]
      }
    },
    {
      "type": "Feature",
      "properties": {
        "_source": "Ruta9-Arboleda-AvenidaNorte-LaFuente",
        "_segmentIndex": 0,
        "_position": 5
      },
      "geometry": {
        "type": "Point",
        "coordinates": [
          -73.36621795036596,
          5.549107382388078
        ]
      }
    }
  ]
}