{
  "type": "FeatureCollection",
  "features": [
    {
      "type": "Feature",
      "properties": {
        "_source": "Ruta10-Muiscas-AvenidaNorte-Triunfo",
        "_segmentIndex": 0,
        "_position": 0
      },
      "geometry": {
        "type": "Point",
        "coordinates": [
          -73.332553,
          5.569376
        ]
      }
    },
    {
      "type": "Feature",
      "properties": {
        "_source": "Ruta10-Muiscas-AvenidaNorte-Triunfo",
        "_segmentIndex": 0,
        "_position": 1
      },
      "geometry": {
        "type": "Point",
        "coordinates": [
          -73.33233754538637,
          5.56916220737989
        ]
      }
    },
    {
      "type": "Feature",
      "properties": {
        "_source": "Ruta10-Muiscas-AvenidaNorte-Triunfo",
        "_segmentIndex": 0,
        "_position": 2
      },
      "geometry": {
        "type": "Point",
        "coordinates": [
          -73.33202307601731,
          5.56903538289214
        ]
      }
    },
    {
      "type": "Feature",
      "properties": {
        "_source": "Ruta10-Muiscas-AvenidaNorte-Triunfo",
        "_segmentIndex": 0,
        "_position": 3
      },
      "geometry": {
        "type": "Point",
        "coordinates": [
          -73.33219184105566,
          5.569345067783079
        ]
      }
    },
    {
      "type": "Feature",
      "properties": {
        "_source": "Ruta10-Muiscas-AvenidaNorte-Triunfo",
        "_segmentIndex": 0,
        "_position": 4
      },
      "geometry": {
        "type": "Point",
        "coordinates": [
          -73.33250680169965,
          5.569652346541136
        ]
      }
    },
    {
      "type": "Feature",
      "properties": {
        "_source": "Ruta10-Muiscas-AvenidaNorte-Triunfo",
        "_segmentIndex": 0,
        "_position": 5
      },
      "geometry": {
        "type": "Point",
        "coordinates": [
          -73.33274425896458,
          5.570034890013528
        ]
      }
    },
    {
      "type": "Feature",
      "properties": {
        "_source": "Ruta10-Muiscas-AvenidaNorte-Triunfo",
        "_segmentIndex": 0,
        "_position": 6
      },
      "geometry": {
        "type": "Point",
        "coordinates": [
          -73.33298171653874,
          5.570417433390851
        ]
      }
    },
    {
      "type": "Feature",
      "properties": {
        "_source": "Ruta10-Muiscas-AvenidaNorte-Triunfo",
        "_segmentIndex": 0,
        "_position": 7
      },
      "geometry": {
        "type": "Point",
        "coordinates": [
          -73.33320797489303,
          5.570806632824817
        ]
      }
    },
    {
      "type": "Feature",
      "properties": {
        "_source": "Ruta10-Muiscas-AvenidaNorte-Triunfo",
        "_segmentIndex": 0,
        "_position": 8
      },
      "geometry": {
        "type": "Point",
        "coordinates": [
          -73.33348440161443,
          5.5711599617048355
        ]
      }
    },
    {
      "type": "Feature",
      "properties": {
        "_source": "Ruta10-Muiscas-AvenidaNorte-Triunfo",
        "_segmentIndex": 0,
        "_position": 9
      },
      "geometry": {
        "type": "Point",
        "coordinates": [
          -73.33378268406881,
          5.5714976900921815
        ]
      }
    },
    {
      "type": "Feature",
      "properties": {
        "_source": "Ruta10-Muiscas-AvenidaNorte-Triunfo",
        "_segmentIndex": 0,
        "_position": 10
      },
      "geometry": {
        "type": "Point",
        "coordinates": [
          -73.33409686827005,
          5.571555466775997
        ]
      }
    },
    {
      "type": "Feature",
      "properties": {
        "_source": "Ruta10-Muiscas-AvenidaNorte-Triunfo",
        "_segmentIndex": 0,
        "_position": 11
      },
      "geometry": {
        "type": "Point",
        "coordinates": [
          -73.33440350546267,
          5.571225475104817
        ]
      }
    },
    {
      "type": "Feature",
      "properties": {
        "_source": "Ruta10-Muiscas-AvenidaNorte-Triunfo",
        "_segmentIndex": 0,
        "_position": 12
      },
      "geometry": {
        "type": "Point",
        "coordinates": [
          -73.33474768099194,
          5.570936848350952
        ]
      }
    },
    {
      "type": "Feature",
      "properties": {
        "_source": "Ruta10-Muiscas-AvenidaNorte-Triunfo",
        "_segmentIndex": 0,
        "_position": 13
      },
      "geometry": {
        "type": "Point",
        "coordinates": [
          -73.33517049918314,
          5.570779494952805
        ]
      }
    },
    {
      "type": "Feature",
      "properties": {
        "_source": "Ruta10-Muiscas-AvenidaNorte-Triunfo",
        "_segmentIndex": 0,
        "_position": 14
      },
      "geometry": {
        "type": "Point",
        "coordinates": [
          -73.33559170448974,
          5.5706184979283995
        ]
      }
    },
    {
      "type": "Feature",
      "properties": {
        "_source": "Ruta10-Muiscas-AvenidaNorte-Triunfo",
        "_segmentIndex": 0,
        "_position": 15
      },
      "geometry": {
        "type": "Point",
        "coordinates": [
          -73.33598267054991,
          5.570394073363724
        ]
      }
    },
    {
      "type": "Feature",
      "properties": {
        "_source": "Ruta10-Muiscas-AvenidaNorte-Triunfo",
        "_segmentIndex": 0,
        "_position": 16
      },
      "geometry": {
        "type": "Point",
        "coordinates": [
          -73.33636694004234,
          5.570157601110443
        ]
      }
    },
    {
      "type": "Feature",
      "properties": {
        "_source": "Ruta10-Muiscas-AvenidaNorte-Triunfo",
        "_segmentIndex": 0,
        "_position": 17
      },
      "geometry": {
        "type": "Point",
        "coordinates": [
          -73.33675802101068,
          5.569932477901241
        ]
      }
    },
    {
      "type": "Feature",
      "properties": {
        "_source": "Ruta10-Muiscas-AvenidaNorte-Triunfo",
        "_segmentIndex": 0,
        "_position": 18
      },
      "geometry": {
        "type": "Point",
        "coordinates": [
          -73.33716370794858,
          5.56975232420781
        ]
      }
    },
    {
      "type": "Feature",
      "properties": {
        "_source": "Ruta10-Muiscas-AvenidaNorte-Triunfo",
        "_segmentIndex": 0,
        "_position": 19
      },
      "geometry": {
        "type": "Point",
        "coordinates": [
          -73.33760728159575,
          5.569681234284569
        ]
      }
    },
    {
      "type": "Feature",
      "properties": {
        "_source": "Ruta10-Muiscas-AvenidaNorte-Triunfo",
        "_segmentIndex": 0,
        "_position": 20
      },
      "geometry": {
        "type": "Point",
        "coordinates": [
          -73.33795616158912,
          5.569417333734708
        ]
      }
    },
    {
      "type": "Feature",
      "properties": {
        "_source": "Ruta10-Muiscas-AvenidaNorte-Triunfo",
        "_segmentIndex": 0,
        "_position": 21
      },
      "geometry": {
        "type": "Point",
        "coordinates": [
          -73.3381077106676,
          5.568994791403244
        ]
      }
    },
    {
      "type": "Feature",
      "properties": {
        "_source": "Ruta10-Muiscas-AvenidaNorte-Triunfo",
        "_segmentIndex": 0,
        "_position": 22
      },
      "geometry": {
        "type": "Point",
        "coordinates": [
          -73.33833350312949,
          5.568643037554145
        ]
      }
    },
    {
      "type": "Feature",
      "properties": {
        "_source": "Ruta10-Muiscas-AvenidaNorte-Triunfo",
        "_segmentIndex": 0,
        "_position": 23
      },
      "geometry": {
        "type": "Point",
        "coordinates": [
          -73.3384007831226,
          5.569085596606684
        ]
      }
    },
    {
      "type": "Feature",
      "properties": {
        "_source": "Ruta10-Muiscas-AvenidaNorte-Triunfo",
        "_segmentIndex": 0,
        "_position": 24
      },
      "geometry": {
        "type": "Point",
        "coordinates": [
          -73.33861917884504,
          5.569471705481625
        ]
      }
    },
    {
      "type": "Feature",
      "properties": {
        "_source": "Ruta10-Muiscas-AvenidaNorte-Triunfo",
        "_segmentIndex": 0,
        "_position": 25
      },
      "geometry": {
        "type": "Point",
        "coordinates": [
          -73.3389713842203,
          5.569750972240654
        ]
      }
    },
    {
      "type": "Feature",
      "properties": {
        "_source": "Ruta10-Muiscas-AvenidaNorte-Triunfo",
        "_segmentIndex": 0,
        "_position": 26
      },
      "geometry": {
        "type": "Point",
        "coordinates": [
          -73.33933070537091,
          5.570023538378181
        ]
      }
    },
    {
      "type": "Feature",
      "properties": {
        "_source": "Ruta10-Muiscas-AvenidaNorte-Triunfo",
        "_segmentIndex": 0,
        "_position": 27
      },
      "geometry": {
        "type": "Point",
        "coordinates": [
          -73.33968930977505,
          5.5702970502466895
        ]
      }
    },
    {
      "type": "Feature",
      "properties": {
        "_source": "Ruta10-Muiscas-AvenidaNorte-Triunfo",
        "_segmentIndex": 0,
        "_position": 28
      },
      "geometry": {
        "type": "Point",
        "coordinates": [
          -73.34004786170229,
          5.570570629997641
        ]
      }
    },
    {
      "type": "Feature",
      "properties": {
        "_source": "Ruta10-Muiscas-AvenidaNorte-Triunfo",
        "_segmentIndex": 0,
        "_position": 29
      },
      "geometry": {
        "type": "Point",
        "coordinates": [
          -73.34040455662341,
          5.570846604563468
        ]
      }
    },
    {
      "type": "Feature",
      "properties": {
        "_source": "Ruta10-Muiscas-AvenidaNorte-Triunfo",
        "_segmentIndex": 0,
        "_position": 30
      },
      "geometry": {
        "type": "Point",
        "coordinates": [
          -73.34076125187968,
          5.571122578914747
        ]
      }
    },
    {
      "type": "Feature",
      "properties": {
        "_source": "Ruta10-Muiscas-AvenidaNorte-Triunfo",
        "_segmentIndex": 0,
        "_position": 31
      },
      "geometry": {
        "type": "Point",
        "coordinates": [
          -73.34111794747113,
          5.571398553051464
        ]
      }
    },
    {
      "type": "Feature",
      "properties": {
        "_source": "Ruta10-Muiscas-AvenidaNorte-Triunfo",
        "_segmentIndex": 0,
        "_position": 32
      },
      "geometry": {
        "type": "Point",
        "coordinates": [
          -73.34147928909033,
          5.571668436776717
        ]
      }
    },
    {
      "type": "Feature",
      "properties": {
        "_source": "Ruta10-Muiscas-AvenidaNorte-Triunfo",
        "_segmentIndex": 0,
        "_position": 33
      },
      "geometry": {
        "type": "Point",
        "coordinates": [
          -73.3418459484935,
          5.571925287103359
        ]
      }
    },
    {
      "type": "Feature",
      "properties": {
        "_source": "Ruta10-Muiscas-AvenidaNorte-Triunfo",
        "_segmentIndex": 0,
        "_position": 0
      },
      "geometry": {
        "type": "Point",
        "coordinates": [
          -73.342161,
          5.571915
        ]
      }
    },
    {
      "type": "Feature",
      "properties": {
        "_source": "Ruta10-Muiscas-AvenidaNorte-Triunfo",
        "_segmentIndex": 0,
        "_position": 1
      },
      "geometry": {
        "type": "Point",
        "coordinates": [
          -73.34243889290613,
          5.571562682024544
        ]
      }
    },
    {
      "type": "Feature",
      "properties": {
        "_source": "Ruta10-Muiscas-AvenidaNorte-Triunfo",
        "_segmentIndex": 0,
        "_position": 2
      },
      "geometry": {
        "type": "Point",
        "coordinates": [
          -73.34269104527199,
          5.571189569772153
        ]
      }
    },
    {
      "type": "Feature",
      "properties": {
        "_source": "Ruta10-Muiscas-AvenidaNorte-Triunfo",
        "_segmentIndex": 0,
        "_position": 3
      },
      "geometry": {
        "type": "Point",
        "coordinates": [
          -73.3429431973175,
          5.57081645741254
        ]
      }
    },
    {
      "type": "Feature",
      "properties": {
        "_source": "Ruta10-Muiscas-AvenidaNorte-Triunfo",
        "_segmentIndex": 0,
        "_position": 4
      },
      "geometry": {
        "type": "Point",
        "coordinates": [
          -73.34319804107965,
          5.570445163551012
        ]
      }
    },
    {
      "type": "Feature",
      "properties": {
        "_source": "Ruta10-Muiscas-AvenidaNorte-Triunfo",
        "_segmentIndex": 0,
        "_position": 5
      },
      "geometry": {
        "type": "Point",
        "coordinates": [
          -73.34345334458246,
          5.570074180375267
        ]
      }
    },
    {
      "type": "Feature",
      "properties": {
        "_source": "Ruta10-Muiscas-AvenidaNorte-Triunfo",
        "_segmentIndex": 0,
        "_position": 6
      },
      "geometry": {
        "type": "Point",
        "coordinates": [
          -73.34370864776285,
          5.569703197089624
        ]
      }
    },
    {
      "type": "Feature",
      "properties": {
        "_source": "Ruta10-Muiscas-AvenidaNorte-Triunfo",
        "_segmentIndex": 0,
        "_position": 7
      },
      "geometry": {
        "type": "Point",
        "coordinates": [
          -73.34396245877866,
          5.569331207894869
        ]
      }
    },
    {
      "type": "Feature",
      "properties": {
        "_source": "Ruta10-Muiscas-AvenidaNorte-Triunfo",
        "_segmentIndex": 0,
        "_position": 8
      },
      "geometry": {
        "type": "Point",
        "coordinates": [
          -73.3442139122101,
          5.5689576293264995
        ]
      }
    },
    {
      "type": "Feature",
      "properties": {
        "_source": "Ruta10-Muiscas-AvenidaNorte-Triunfo",
        "_segmentIndex": 0,
        "_position": 9
      },
      "geometry": {
        "type": "Point",
        "coordinates": [
          -73.34446536532182,
          5.568584050651544
        ]
      }
    },
    {
      "type": "Feature",
      "properties": {
        "_source": "Ruta10-Muiscas-AvenidaNorte-Triunfo",
        "_segmentIndex": 0,
        "_position": 10
      },
      "geometry": {
        "type": "Point",
        "coordinates": [
          -73.34471681811384,
          5.568210471870006
        ]
      }
    },
    {
      "type": "Feature",
      "properties": {
        "_source": "Ruta10-Muiscas-AvenidaNorte-Triunfo",
        "_segmentIndex": 0,
        "_position": 11
      },
      "geometry": {
        "type": "Point",
        "coordinates": [
          -73.3449682705862,
          5.567836892981897
        ]
      }
    },
    {
      "type": "Feature",
      "properties": {
        "_source": "Ruta10-Muiscas-AvenidaNorte-Triunfo",
        "_segmentIndex": 0,
        "_position": 12
      },
      "geometry": {
        "type": "Point",
        "coordinates": [
          -73.34521972273888,
          5.567463313987222
        ]
      }
    },
    {
      "type": "Feature",
      "properties": {
        "_source": "Ruta10-Muiscas-AvenidaNorte-Triunfo",
        "_segmentIndex": 0,
        "_position": 13
      },
      "geometry": {
        "type": "Point",
        "coordinates": [
          -73.34547117457195,
          5.567089734885991
        ]
      }
    },
    {
      "type": "Feature",
      "properties": {
        "_source": "Ruta10-Muiscas-AvenidaNorte-Triunfo",
        "_segmentIndex": 0,
        "_position": 14
      },
      "geometry": {
        "type": "Point",
        "coordinates": [
          -73.34572168493683,
          5.566715589037304
        ]
      }
    },
    {
      "type": "Feature",
      "properties": {
        "_source": "Ruta10-Muiscas-AvenidaNorte-Triunfo",
        "_segmentIndex": 0,
        "_position": 15
      },
      "geometry": {
        "type": "Point",
        "coordinates": [
          -73.34593055156505,
          5.566317078938811
        ]
      }
    },
    {
      "type": "Feature",
      "properties": {
        "_source": "Ruta10-Muiscas-AvenidaNorte-Triunfo",
        "_segmentIndex": 0,
        "_position": 16
      },
      "geometry": {
        "type": "Point",
        "coordinates": [
          -73.34611954744177,
          5.565908654059305
        ]
      }
    },
    {
      "type": "Feature",
      "properties": {
        "_source": "Ruta10-Muiscas-AvenidaNorte-Triunfo",
        "_segmentIndex": 0,
        "_position": 17
      },
      "geometry": {
        "type": "Point",
        "coordinates": [
          -73.34630854305595,
          5.5655002291196185
        ]
      }
    },
    {
      "type": "Feature",
      "properties": {
        "_source": "Ruta10-Muiscas-AvenidaNorte-Triunfo",
        "_segmentIndex": 0,
        "_position": 18
      },
      "geometry": {
        "type": "Point",
        "coordinates": [
          -73.34649753840758,
          5.5650918041197555
        ]
      }
    },
    {
      "type": "Feature",
      "properties": {
        "_source": "Ruta10-Muiscas-AvenidaNorte-Triunfo",
        "_segmentIndex": 0,
        "_position": 19
      },
      "geometry": {
        "type": "Point",
        "coordinates": [
          -73.34668653349665,
          5.564683379059721
        ]
      }
    },
    {
      "type": "Feature",
      "properties": {
        "_source": "Ruta10-Muiscas-AvenidaNorte-Triunfo",
        "_segmentIndex": 0,
        "_position": 20
      },
      "geometry": {
        "type": "Point",
        "coordinates": [
          -73.34687552832321,
          5.564274953939518
        ]
      }
    },
    {
      "type": "Feature",
      "properties": {
        "_source": "Ruta10-Muiscas-AvenidaNorte-Triunfo",
        "_segmentIndex": 0,
        "_position": 21
      },
      "geometry": {
        "type": "Point",
        "coordinates": [
          -73.34706452288728,
          5.563866528759153
        ]
      }
    },
    {
      "type": "Feature",
      "properties": {
        "_source": "Ruta10-Muiscas-AvenidaNorte-Triunfo",
        "_segmentIndex": 0,
        "_position": 22
      },
      "geometry": {
        "type": "Point",
        "coordinates": [
          -73.34725351718886,
          5.56345810351863
        ]
      }
    },
    {
      "type": "Feature",
      "properties": {
        "_source": "Ruta10-Muiscas-AvenidaNorte-Triunfo",
        "_segmentIndex": 0,
        "_position": 23
      },
      "geometry": {
        "type": "Point",
        "coordinates": [
          -73.34744251122801,
          5.563049678217952
        ]
      }
    },
    {
      "type": "Feature",
      "properties": {
        "_source": "Ruta10-Muiscas-AvenidaNorte-Triunfo",
        "_segmentIndex": 0,
        "_position": 24
      },
      "geometry": {
        "type": "Point",
        "coordinates": [
          -73.34763449692541,
          5.5626426516903535
        ]
      }
    },
    {
      "type": "Feature",
      "properties": {
        "_source": "Ruta10-Muiscas-AvenidaNorte-Triunfo",
        "_segmentIndex": 0,
        "_position": 25
      },
      "geometry": {
        "type": "Point",
        "coordinates": [
          -73.34782966992401,
          5.56223711540544
        ]
      }
    },
    {
      "type": "Feature",
      "properties": {
        "_source": "Ruta10-Muiscas-AvenidaNorte-Triunfo",
        "_segmentIndex": 0,
        "_position": 26
      },
      "geometry": {
        "type": "Point",
        "coordinates": [
          -73.3480207930938,
          5.561829726257295
        ]
      }
    },
    {
      "type": "Feature",
      "properties": {
        "_source": "Ruta10-Muiscas-AvenidaNorte-Triunfo",
        "_segmentIndex": 0,
        "_position": 27
      },
      "geometry": {
        "type": "Point",
        "coordinates": [
          -73.34820297528111,
          5.561418246392687
        ]
      }
    },
    {
      "type": "Feature",
      "properties": {
        "_source": "Ruta10-Muiscas-AvenidaNorte-Triunfo",
        "_segmentIndex": 0,
        "_position": 28
      },
      "geometry": {
        "type": "Point",
        "coordinates": [
          -73.34838515721367,
          5.561006766472202
        ]
      }
    },
    {
      "type": "Feature",
      "properties": {
        "_source": "Ruta10-Muiscas-AvenidaNorte-Triunfo",
        "_segmentIndex": 0,
        "_position": 29
      },
      "geometry": {
        "type": "Point",
        "coordinates": [
          -73.34856733889143,
          5.560595286495847
        ]
      }
    },
    {
      "type": "Feature",
      "properties": {
        "_source": "Ruta10-Muiscas-AvenidaNorte-Triunfo",
        "_segmentIndex": 0,
        "_position": 30
      },
      "geometry": {
        "type": "Point",
        "coordinates": [
          -73.3487707806556,
          5.56019395758634
        ]
      }
    },
    {
      "type": "Feature",
      "properties": {
        "_source": "Ruta10-Muiscas-AvenidaNorte-Triunfo",
        "_segmentIndex": 0,
        "_position": 31
      },
      "geometry": {
        "type": "Point",
        "coordinates": [
          -73.34896919677433,
          5.559790154702135
        ]
      }
    },
    {
      "type": "Feature",
      "properties": {
        "_source": "Ruta10-Muiscas-AvenidaNorte-Triunfo",
        "_segmentIndex": 0,
        "_position": 32
      },
      "geometry": {
        "type": "Point",
        "coordinates": [
          -73.34915636748282,
          5.559380899011597
        ]
      }
    },
    {
      "type": "Feature",
      "properties": {
        "_source": "Ruta10-Muiscas-AvenidaNorte-Triunfo",
        "_segmentIndex": 0,
        "_position": 33
      },
      "geometry": {
        "type": "Point",
        "coordinates": [
          -73.34934353793103,
          5.558971643262103
        ]
      }
    },
    {
      "type": "Feature",
      "properties": {
        "_source": "Ruta10-Muiscas-AvenidaNorte-Triunfo",
        "_segmentIndex": 0,
        "_position": 34
      },
      "geometry": {
        "type": "Point",
        "coordinates": [
          -73.34953024660201,
          5.558562178811449
        ]
      }
    },
    {
      "type": "Feature",
      "properties": {
        "_source": "Ruta10-Muiscas-AvenidaNorte-Triunfo",
        "_segmentIndex": 0,
        "_position": 35
      },
      "geometry": {
        "type": "Point",
        "coordinates": [
          -73.34971675055661,
          5.5581526218715585
        ]
      }
    },
    {
      "type": "Feature",
      "properties": {
        "_source": "Ruta10-Muiscas-AvenidaNorte-Triunfo",
        "_segmentIndex": 0,
        "_position": 36
      },
      "geometry": {
        "type": "Point",
        "coordinates": [
          -73.34990325425174,
          5.557743064873143
        ]
      }
    },
    {
      "type": "Feature",
      "properties": {
        "_source": "Ruta10-Muiscas-AvenidaNorte-Triunfo",
        "_segmentIndex": 0,
        "_position": 37
      },
      "geometry": {
        "type": "Point",
        "coordinates": [
          -73.35008975768743,
          5.557333507816209
        ]
      }
    },
    {
      "type": "Feature",
      "properties": {
        "_source": "Ruta10-Muiscas-AvenidaNorte-Triunfo",
        "_segmentIndex": 0,
        "_position": 38
      },
      "geometry": {
        "type": "Point",
        "coordinates": [
          -73.35027626086368,
          5.55692395070076
        ]
      }
    },
    {
      "type": "Feature",
      "properties": {
        "_source": "Ruta10-Muiscas-AvenidaNorte-Triunfo",
        "_segmentIndex": 0,
        "_position": 39
      },
      "geometry": {
        "type": "Point",
        "coordinates": [
          -73.35046276378053,
          5.5565143935268
        ]
      }
    },
    {
      "type": "Feature",
      "properties": {
        "_source": "Ruta10-Muiscas-AvenidaNorte-Triunfo",
        "_segmentIndex": 0,
        "_position": 40
      },
      "geometry": {
        "type": "Point",
        "coordinates": [
          -73.35065246209122,
          5.556106304420069
        ]
      }
    },
    {
      "type": "Feature",
      "properties": {
        "_source": "Ruta10-Muiscas-AvenidaNorte-Triunfo",
        "_segmentIndex": 0,
        "_position": 41
      },
      "geometry": {
        "type": "Point",
        "coordinates": [
          -73.35084462628564,
          5.555699348233276
        ]
      }
    },
    {
      "type": "Feature",
      "properties": {
        "_source": "Ruta10-Muiscas-AvenidaNorte-Triunfo",
        "_segmentIndex": 0,
        "_position": 42
      },
      "geometry": {
        "type": "Point",
        "coordinates": [
          -73.35103679021454,
          5.555292391984381
        ]
      }
    },
    {
      "type": "Feature",
      "properties": {
        "_source": "Ruta10-Muiscas-AvenidaNorte-Triunfo",
        "_segmentIndex": 0,
        "_position": 43
      },
      "geometry": {
        "type": "Point",
        "coordinates": [
          -73.35122376960499,
          5.55488306784997
        ]
      }
    },
    {
      "type": "Feature",
      "properties": {
        "_source": "Ruta10-Muiscas-AvenidaNorte-Triunfo",
        "_segmentIndex": 0,
        "_position": 44
      },
      "geometry": {
        "type": "Point",
        "coordinates": [
          -73.35140843997026,
          5.554472689169851
        ]
      }
    },
    {
      "type": "Feature",
      "properties": {
        "_source": "Ruta10-Muiscas-AvenidaNorte-Triunfo",
        "_segmentIndex": 0,
        "_position": 45
      },
      "geometry": {
        "type": "Point",
        "coordinates": [
          -73.35156003551144,
          5.554050086085106
        ]
      }
    },
    {
      "type": "Feature",
      "properties": {
        "_source": "Ruta10-Muiscas-AvenidaNorte-Triunfo",
        "_segmentIndex": 0,
        "_position": 46
      },
      "geometry": {
        "type": "Point",
        "coordinates": [
          -73.35168923472587,
          5.5536192053674895
        ]
      }
    },
    {
      "type": "Feature",
      "properties": {
        "_source": "Ruta10-Muiscas-AvenidaNorte-Triunfo",
        "_segmentIndex": 0,
        "_position": 47
      },
      "geometry": {
        "type": "Point",
        "coordinates": [
          -73.35181843375135,
          5.553188324621811
        ]
      }
    },
    {
      "type": "Feature",
      "properties": {
        "_source": "Ruta10-Muiscas-AvenidaNorte-Triunfo",
        "_segmentIndex": 0,
        "_position": 48
      },
      "geometry": {
        "type": "Point",
        "coordinates": [
          -73.35195230951435,
          5.552758885727712
        ]
      }
    },
    {
      "type": "Feature",
      "properties": {
        "_source": "Ruta10-Muiscas-AvenidaNorte-Triunfo",
        "_segmentIndex": 0,
        "_position": 49
      },
      "geometry": {
        "type": "Point",
        "coordinates": [
          -73.35209044250352,
          5.552330759351052
        ]
      }
    },
    {
      "type": "Feature",
      "properties": {
        "_source": "Ruta10-Muiscas-AvenidaNorte-Triunfo",
        "_segmentIndex": 0,
        "_position": 50
      },
      "geometry": {
        "type": "Point",
        "coordinates": [
          -73.35223042662003,
          5.551903247576611
        ]
      }
    },
    {
      "type": "Feature",
      "properties": {
        "_source": "Ruta10-Muiscas-AvenidaNorte-Triunfo",
        "_segmentIndex": 0,
        "_position": 51
      },
      "geometry": {
        "type": "Point",
        "coordinates": [
          -73.35239797390084,
          5.5514872059582725
        ]
      }
    },
    {
      "type": "Feature",
      "properties": {
        "_source": "Ruta10-Muiscas-AvenidaNorte-Triunfo",
        "_segmentIndex": 0,
        "_position": 52
      },
      "geometry": {
        "type": "Point",
        "coordinates": [
          -73.35264423454957,
          5.551110661326743
        ]
      }
    },
    {
      "type": "Feature",
      "properties": {
        "_source": "Ruta10-Muiscas-AvenidaNorte-Triunfo",
        "_segmentIndex": 0,
        "_position": 53
      },
      "geometry": {
        "type": "Point",
        "coordinates": [
          -73.35291338700864,
          5.550750033967544
        ]
      }
    },
    {
      "type": "Feature",
      "properties": {
        "_source": "Ruta10-Muiscas-AvenidaNorte-Triunfo",
        "_segmentIndex": 0,
        "_position": 54
      },
      "geometry": {
        "type": "Point",
        "coordinates": [
          -73.35320143701749,
          5.550403627078928
        ]
      }
    },
    {
      "type": "Feature",
      "properties": {
        "_source": "Ruta10-Muiscas-AvenidaNorte-Triunfo",
        "_segmentIndex": 0,
        "_position": 55
      },
      "geometry": {
        "type": "Point",
        "coordinates": [
          -73.35348937728935,
          5.550057130043089
        ]
      }
    },
    {
      "type": "Feature",
      "properties": {
        "_source": "Ruta10-Muiscas-AvenidaNorte-Triunfo",
        "_segmentIndex": 0,
        "_position": 56
      },
      "geometry": {
        "type": "Point",
        "coordinates": [
          -73.35377700916777,
          5.549710379415219
        ]
      }
    },
    {
      "type": "Feature",
      "properties": {
        "_source": "Ruta10-Muiscas-AvenidaNorte-Triunfo",
        "_segmentIndex": 0,
        "_position": 57
      },
      "geometry": {
        "type": "Point",
        "coordinates": [
          -73.3540646407079,
          5.549363628648361
        ]
      }
    },
    {
      "type": "Feature",
      "properties": {
        "_source": "Ruta10-Muiscas-AvenidaNorte-Triunfo",
        "_segmentIndex": 0,
        "_position": 58
      },
      "geometry": {
        "type": "Point",
        "coordinates": [
          -73.3543522719098,
          5.549016877742522
        ]
      }
    },
    {
      "type": "Feature",
      "properties": {
        "_source": "Ruta10-Muiscas-AvenidaNorte-Triunfo",
        "_segmentIndex": 0,
        "_position": 59
      },
      "geometry": {
        "type": "Point",
        "coordinates": [
          -73.35462359546607,
          5.548657343293377
        ]
      }
    },
    {
      "type": "Feature",
      "properties": {
        "_source": "Ruta10-Muiscas-AvenidaNorte-Triunfo",
        "_segmentIndex": 0,
        "_position": 60
      },
      "geometry": {
        "type": "Point",
        "coordinates": [
          -73.35489487730754,
          5.548297776279412
        ]
      }
    },
    {
      "type": "Feature",
      "properties": {
        "_source": "Ruta10-Muiscas-AvenidaNorte-Triunfo",
        "_segmentIndex": 0,
        "_position": 61
      },
      "geometry": {
        "type": "Point",
        "coordinates": [
          -73.35516615881828,
          5.547938209141843
        ]
      }
    },
    {
      "type": "Feature",
      "properties": {
        "_source": "Ruta10-Muiscas-AvenidaNorte-Triunfo",
        "_segmentIndex": 0,
        "_position": 62
      },
      "geometry": {
        "type": "Point",
        "coordinates": [
          -73.35543496062562,
          5.5475768200504705
        ]
      }
    },
    {
      "type": "Feature",
      "properties": {
        "_source": "Ruta10-Muiscas-AvenidaNorte-Triunfo",
        "_segmentIndex": 0,
        "_position": 63
      },
      "geometry": {
        "type": "Point",
        "coordinates": [
          -73.35570031229081,
          5.547212895933968
        ]
      }
    },
    {
      "type": "Feature",
      "properties": {
        "_source": "Ruta10-Muiscas-AvenidaNorte-Triunfo",
        "_segmentIndex": 0,
        "_position": 64
      },
      "geometry": {
        "type": "Point",
        "coordinates": [
          -73.35596597283043,
          5.5468491957609425
        ]
      }
    },
    {
      "type": "Feature",
      "properties": {
        "_source": "Ruta10-Muiscas-AvenidaNorte-Triunfo",
        "_segmentIndex": 0,
        "_position": 65
      },
      "geometry": {
        "type": "Point",
        "coordinates": [
          -73.35623243764768,
          5.546486078522745
        ]
      }
    },
    {
      "type": "Feature",
      "properties": {
        "_source": "Ruta10-Muiscas-AvenidaNorte-Triunfo",
        "_segmentIndex": 0,
        "_position": 66
      },
      "geometry": {
        "type": "Point",
        "coordinates": [
          -73.35649890213693,
          5.54612296116533
        ]
      }
    },
    {
      "type": "Feature",
      "properties": {
        "_source": "Ruta10-Muiscas-AvenidaNorte-Triunfo",
        "_segmentIndex": 0,
        "_position": 67
      },
      "geometry": {
        "type": "Point",
        "coordinates": [
          -73.35676536629822,
          5.545759843688706
        ]
      }
    },
    {
      "type": "Feature",
      "properties": {
        "_source": "Ruta10-Muiscas-AvenidaNorte-Triunfo",
        "_segmentIndex": 0,
        "_position": 68
      },
      "geometry": {
        "type": "Point",
        "coordinates": [
          -73.35703183013159,
          5.545396726092883
        ]
      }
    },
    {
      "type": "Feature",
      "properties": {
        "_source": "Ruta10-Muiscas-AvenidaNorte-Triunfo",
        "_segmentIndex": 0,
        "_position": 69
      },
      "geometry": {
        "type": "Point",
        "coordinates": [
          -73.35729829363703,
          5.545033608377867
        ]
      }
    },
    {
      "type": "Feature",
      "properties": {
        "_source": "Ruta10-Muiscas-AvenidaNorte-Triunfo",
        "_segmentIndex": 0,
        "_position": 0
      },
      "geometry": {
        "type": "Point",
        "coordinates": [
          -73.357389,
          5.54491
        ]
      }
    },
    {
      "type": "Feature",
      "properties": {
        "_source": "Ruta10-Muiscas-AvenidaNorte-Triunfo",
        "_segmentIndex": 0,
        "_position": 1
      },
      "geometry": {
        "type": "Point",
        "coordinates": [
          -73.35778957432015,
          5.544761424239244
        ]
      }
    },
    {
      "type": "Feature",
      "properties": {
        "_source": "Ruta10-Muiscas-AvenidaNorte-Triunfo",
        "_segmentIndex": 0,
        "_position": 0
      },
      "geometry": {
        "type": "Point",
        "coordinates": [
          -73.357878,
          5.544352
        ]
      }
    },
    {
      "type": "Feature",
      "properties": {
        "_source": "Ruta10-Muiscas-AvenidaNorte-Triunfo",
        "_segmentIndex": 0,
        "_position": 1
      },
      "geometry": {
        "type": "Point",
        "coordinates": [
          -73.3581328635898,
          5.543980784660779
        ]
      }
    },
    {
      "type": "Feature",
      "properties": {
        "_source": "Ruta10-Muiscas-AvenidaNorte-Triunfo",
        "_segmentIndex": 0,
        "_position": 2
      },
      "geometry": {
        "type": "Point",
        "coordinates": [
          -73.35839272840961,
          5.543612960248282
        ]
      }
    },
    {
      "type": "Feature",
      "properties": {
        "_source": "Ruta10-Muiscas-AvenidaNorte-Triunfo",
        "_segmentIndex": 0,
        "_position": 3
      },
      "geometry": {
        "type": "Point",
        "coordinates": [
          -73.3586525929056,
          5.5432451357224615
        ]
      }
    },
    {
      "type": "Feature",
      "properties": {
        "_source": "Ruta10-Muiscas-AvenidaNorte-Triunfo",
        "_segmentIndex": 0,
        "_position": 4
      },
      "geometry": {
        "type": "Point",
        "coordinates": [
          -73.358936204301,
          5.542900644847605
        ]
      }
    },
    {
      "type": "Feature",
      "properties": {
        "_source": "Ruta10-Muiscas-AvenidaNorte-Triunfo",
        "_segmentIndex": 0,
        "_position": 5
      },
      "geometry": {
        "type": "Point",
        "coordinates": [
          -73.35894572374286,
          5.5424916205034265
        ]
      }
    },
    {
      "type": "Feature",
      "properties": {
        "_source": "Ruta10-Muiscas-AvenidaNorte-Triunfo",
        "_segmentIndex": 0,
        "_position": 6
      },
      "geometry": {
        "type": "Point",
        "coordinates": [
          -73.35902449509398,
          5.542052985360627
        ]
      }
    },
    {
      "type": "Feature",
      "properties": {
        "_source": "Ruta10-Muiscas-AvenidaNorte-Triunfo",
        "_segmentIndex": 0,
        "_position": 7
      },
      "geometry": {
        "type": "Point",
        "coordinates": [
          -73.35920979036973,
          5.541642887625772
        ]
      }
    },
    {
      "type": "Feature",
      "properties": {
        "_source": "Ruta10-Muiscas-AvenidaNorte-Triunfo",
        "_segmentIndex": 0,
        "_position": 8
      },
      "geometry": {
        "type": "Point",
        "coordinates": [
          -73.35939692754683,
          5.541233633965929
        ]
      }
    },
    {
      "type": "Feature",
      "properties": {
        "_source": "Ruta10-Muiscas-AvenidaNorte-Triunfo",
        "_segmentIndex": 0,
        "_position": 9
      },
      "geometry": {
        "type": "Point",
        "coordinates": [
          -73.35958947174193,
          5.540826858024367
        ]
      }
    },
    {
      "type": "Feature",
      "properties": {
        "_source": "Ruta10-Muiscas-AvenidaNorte-Triunfo",
        "_segmentIndex": 0,
        "_position": 10
      },
      "geometry": {
        "type": "Point",
        "coordinates": [
          -73.35976763253097,
          5.540414149104747
        ]
      }
    },
    {
      "type": "Feature",
      "properties": {
        "_source": "Ruta10-Muiscas-AvenidaNorte-Triunfo",
        "_segmentIndex": 0,
        "_position": 11
      },
      "geometry": {
        "type": "Point",
        "coordinates": [
          -73.35992062243605,
          5.539991057472412
        ]
      }
    },
    {
      "type": "Feature",
      "properties": {
        "_source": "Ruta10-Muiscas-AvenidaNorte-Triunfo",
        "_segmentIndex": 0,
        "_position": 12
      },
      "geometry": {
        "type": "Point",
        "coordinates": [
          -73.36003387871386,
          5.539556007942887
        ]
      }
    },
    {
      "type": "Feature",
      "properties": {
        "_source": "Ruta10-Muiscas-AvenidaNorte-Triunfo",
        "_segmentIndex": 0,
        "_position": 13
      },
      "geometry": {
        "type": "Point",
        "coordinates": [
          -73.36014073866372,
          5.5391191257982415
        ]
      }
    },
    {
      "type": "Feature",
      "properties": {
        "_source": "Ruta10-Muiscas-AvenidaNorte-Triunfo",
        "_segmentIndex": 0,
        "_position": 0
      },
      "geometry": {
        "type": "Point",
        "coordinates": [
          -73.360233,
          5.538694
        ]
      }
    },
    {
      "type": "Feature",
      "properties": {
        "_source": "Ruta10-Muiscas-AvenidaNorte-Triunfo",
        "_segmentIndex": 0,
        "_position": 1
      },
      "geometry": {
        "type": "Point",
        "coordinates": [
          -73.36035118311564,
          5.538260143933026
        ]
      }
    },
    {
      "type": "Feature",
      "properties": {
        "_source": "Ruta10-Muiscas-AvenidaNorte-Triunfo",
        "_segmentIndex": 0,
        "_position": 2
      },
      "geometry": {
        "type": "Point",
        "coordinates": [
          -73.36050791496015,
          5.537839575438799
        ]
      }
    },
    {
      "type": "Feature",
      "properties": {
        "_source": "Ruta10-Muiscas-AvenidaNorte-Triunfo",
        "_segmentIndex": 0,
        "_position": 0
      },
      "geometry": {
        "type": "Point",
        "coordinates": [
          -73.36057,
          5.537748
        ]
      }
    },
    {
      "type": "Feature",
      "properties": {
        "_source": "Ruta10-Muiscas-AvenidaNorte-Triunfo",
        "_segmentIndex": 0,
        "_position": 1
      },
      "geometry": {
        "type": "Point",
        "coordinates": [
          -73.36070114122275,
          5.537318798882853
        ]
      }
    },
    {
      "type": "Feature",
      "properties": {
        "_source": "Ruta10-Muiscas-AvenidaNorte-Triunfo",
        "_segmentIndex": 0,
        "_position": 2
      },
      "geometry": {
        "type": "Point",
        "coordinates": [
          -73.36081273566818,
          5.536883073161805
        ]
      }
    },
    {
      "type": "Feature",
      "properties": {
        "_source": "Ruta10-Muiscas-AvenidaNorte-Triunfo",
        "_segmentIndex": 0,
        "_position": 3
      },
      "geometry": {
        "type": "Point",
        "coordinates": [
          -73.36092273590214,
          5.536447279138053
        ]
      }
    },
    {
      "type": "Feature",
      "properties": {
        "_source": "Ruta10-Muiscas-AvenidaNorte-Triunfo",
        "_segmentIndex": 0,
        "_position": 4
      },
      "geometry": {
        "type": "Point",
        "coordinates": [
          -73.36105407208748,
          5.53601704009775
        ]
      }
    },
    {
      "type": "Feature",
      "properties": {
        "_source": "Ruta10-Muiscas-AvenidaNorte-Triunfo",
        "_segmentIndex": 0,
        "_position": 5
      },
      "geometry": {
        "type": "Point",
        "coordinates": [
          -73.36118440222619,
          5.535586508361202
        ]
      }
    },
    {
      "type": "Feature",
      "properties": {
        "_source": "Ruta10-Muiscas-AvenidaNorte-Triunfo",
        "_segmentIndex": 0,
        "_position": 6
      },
      "geometry": {
        "type": "Point",
        "coordinates": [
          -73.36130656922765,
          5.535153601475622
        ]
      }
    },
    {
      "type": "Feature",
      "properties": {
        "_source": "Ruta10-Muiscas-AvenidaNorte-Triunfo",
        "_segmentIndex": 0,
        "_position": 7
      },
      "geometry": {
        "type": "Point",
        "coordinates": [
          -73.36143062631251,
          5.534721255533937
        ]
      }
    },
    {
      "type": "Feature",
      "properties": {
        "_source": "Ruta10-Muiscas-AvenidaNorte-Triunfo",
        "_segmentIndex": 0,
        "_position": 8
      },
      "geometry": {
        "type": "Point",
        "coordinates": [
          -73.36156659113534,
          5.534292443452717
        ]
      }
    },
    {
      "type": "Feature",
      "properties": {
        "_source": "Ruta10-Muiscas-AvenidaNorte-Triunfo",
        "_segmentIndex": 0,
        "_position": 0
      },
      "geometry": {
        "type": "Point",
        "coordinates": [
          -73.361607,
          5.534165
        ]
      }
    },
    {
      "type": "Feature",
      "properties": {
        "_source": "Ruta10-Muiscas-AvenidaNorte-Triunfo",
        "_segmentIndex": 0,
        "_position": 1
      },
      "geometry": {
        "type": "Point",
        "coordinates": [
          -73.36204055002197,
          5.534291399676681
        ]
      }
    },
    {
      "type": "Feature",
      "properties": {
        "_source": "Ruta10-Muiscas-AvenidaNorte-Triunfo",
        "_segmentIndex": 0,
        "_position": 2
      },
      "geometry": {
        "type": "Point",
        "coordinates": [
          -73.3624741002293,
          5.534417799038449
        ]
      }
    },
    {
      "type": "Feature",
      "properties": {
        "_source": "Ruta10-Muiscas-AvenidaNorte-Triunfo",
        "_segmentIndex": 0,
        "_position": 0
      },
      "geometry": {
        "type": "Point",
        "coordinates": [
          -73.362636,
          5.534465
        ]
      }
    },
    {
      "type": "Feature",
      "properties": {
        "_source": "Ruta10-Muiscas-AvenidaNorte-Triunfo",
        "_segmentIndex": 0,
        "_position": 1
      },
      "geometry": {
        "type": "Point",
        "coordinates": [
          -73.36274690919724,
          5.534029101116095
        ]
      }
    },
    {
      "type": "Feature",
      "properties": {
        "_source": "Ruta10-Muiscas-AvenidaNorte-Triunfo",
        "_segmentIndex": 0,
        "_position": 2
      },
      "geometry": {
        "type": "Point",
        "coordinates": [
          -73.36286505796849,
          5.533595103267301
        ]
      }
    },
    {
      "type": "Feature",
      "properties": {
        "_source": "Ruta10-Muiscas-AvenidaNorte-Triunfo",
        "_segmentIndex": 0,
        "_position": 3
      },
      "geometry": {
        "type": "Point",
        "coordinates": [
          -73.36299546149715,
          5.533164641708174
        ]
      }
    },
    {
      "type": "Feature",
      "properties": {
        "_source": "Ruta10-Muiscas-AvenidaNorte-Triunfo",
        "_segmentIndex": 0,
        "_position": 4
      },
      "geometry": {
        "type": "Point",
        "coordinates": [
          -73.36313016374443,
          5.532735435155045
        ]
      }
    },
    {
      "type": "Feature",
      "properties": {
        "_source": "Ruta10-Muiscas-AvenidaNorte-Triunfo",
        "_segmentIndex": 0,
        "_position": 5
      },
      "geometry": {
        "type": "Point",
        "coordinates": [
          -73.36326332170007,
          5.532305757720128
        ]
      }
    },
    {
      "type": "Feature",
      "properties": {
        "_source": "Ruta10-Muiscas-AvenidaNorte-Triunfo",
        "_segmentIndex": 0,
        "_position": 6
      },
      "geometry": {
        "type": "Point",
        "coordinates": [
          -73.36339328198883,
          5.531875105228964
        ]
      }
    },
    {
      "type": "Feature",
      "properties": {
        "_source": "Ruta10-Muiscas-AvenidaNorte-Triunfo",
        "_segmentIndex": 0,
        "_position": 7
      },
      "geometry": {
        "type": "Point",
        "coordinates": [
          -73.36352324208839,
          5.531444452709517
        ]
      }
    },
    {
      "type": "Feature",
      "properties": {
        "_source": "Ruta10-Muiscas-AvenidaNorte-Triunfo",
        "_segmentIndex": 0,
        "_position": 8
      },
      "geometry": {
        "type": "Point",
        "coordinates": [
          -73.36365315398083,
          5.5310137858088115
        ]
      }
    },
    {
      "type": "Feature",
      "properties": {
        "_source": "Ruta10-Muiscas-AvenidaNorte-Triunfo",
        "_segmentIndex": 0,
        "_position": 9
      },
      "geometry": {
        "type": "Point",
        "coordinates": [
          -73.36378306425432,
          5.530583118452462
        ]
      }
    },
    {
      "type": "Feature",
      "properties": {
        "_source": "Ruta10-Muiscas-AvenidaNorte-Triunfo",
        "_segmentIndex": 0,
        "_position": 10
      },
      "geometry": {
        "type": "Point",
        "coordinates": [
          -73.36391130154688,
          5.530151957227104
        ]
      }
    },
    {
      "type": "Feature",
      "properties": {
        "_source": "Ruta10-Muiscas-AvenidaNorte-Triunfo",
        "_segmentIndex": 0,
        "_position": 11
      },
      "geometry": {
        "type": "Point",
        "coordinates": [
          -73.36403831295402,
          5.529720434124133
        ]
      }
    },
    {
      "type": "Feature",
      "properties": {
        "_source": "Ruta10-Muiscas-AvenidaNorte-Triunfo",
        "_segmentIndex": 0,
        "_position": 12
      },
      "geometry": {
        "type": "Point",
        "coordinates": [
          -73.36416546904344,
          5.529288953862957
        ]
      }
    },
    {
      "type": "Feature",
      "properties": {
        "_source": "Ruta10-Muiscas-AvenidaNorte-Triunfo",
        "_segmentIndex": 0,
        "_position": 13
      },
      "geometry": {
        "type": "Point",
        "coordinates": [
          -73.3642959359716,
          5.5288584533638465
        ]
      }
    },
    {
      "type": "Feature",
      "properties": {
        "_source": "Ruta10-Muiscas-AvenidaNorte-Triunfo",
        "_segmentIndex": 0,
        "_position": 14
      },
      "geometry": {
        "type": "Point",
        "coordinates": [
          -73.36442640270998,
          5.528427952836245
        ]
      }
    },
    {
      "type": "Feature",
      "properties": {
        "_source": "Ruta10-Muiscas-AvenidaNorte-Triunfo",
        "_segmentIndex": 0,
        "_position": 15
      },
      "geometry": {
        "type": "Point",
        "coordinates": [
          -73.36454673293943,
          5.527994646729262
        ]
      }
    },
    {
      "type": "Feature",
      "properties": {
        "_source": "Ruta10-Muiscas-AvenidaNorte-Triunfo",
        "_segmentIndex": 0,
        "_position": 16
      },
      "geometry": {
        "type": "Point",
        "coordinates": [
          -73.36465827182165,
          5.5275589073599205
        ]
      }
    },
    {
      "type": "Feature",
      "properties": {
        "_source": "Ruta10-Muiscas-AvenidaNorte-Triunfo",
        "_segmentIndex": 0,
        "_position": 17
      },
      "geometry": {
        "type": "Point",
        "coordinates": [
          -73.36479330441716,
          5.527132246370683
        ]
      }
    },
    {
      "type": "Feature",
      "properties": {
        "_source": "Ruta10-Muiscas-AvenidaNorte-Triunfo",
        "_segmentIndex": 0,
        "_position": 18
      },
      "geometry": {
        "type": "Point",
        "coordinates": [
          -73.36504686712908,
          5.526766452939397
        ]
      }
    },
    {
      "type": "Feature",
      "properties": {
        "_source": "Ruta10-Muiscas-AvenidaNorte-Triunfo",
        "_segmentIndex": 0,
        "_position": 19
      },
      "geometry": {
        "type": "Point",
        "coordinates": [
          -73.36533800246578,
          5.526425761193549
        ]
      }
    },
    {
      "type": "Feature",
      "properties": {
        "_source": "Ruta10-Muiscas-AvenidaNorte-Triunfo",
        "_segmentIndex": 0,
        "_position": 20
      },
      "geometry": {
        "type": "Point",
        "coordinates": [
          -73.36556195374487,
          5.52603596945774
        ]
      }
    },
    {
      "type": "Feature",
      "properties": {
        "_source": "Ruta10-Muiscas-AvenidaNorte-Triunfo",
        "_segmentIndex": 0,
        "_position": 21
      },
      "geometry": {
        "type": "Point",
        "coordinates": [
          -73.36573188951718,
          5.525619821077733
        ]
      }
    },
    {
      "type": "Feature",
      "properties": {
        "_source": "Ruta10-Muiscas-AvenidaNorte-Triunfo",
        "_segmentIndex": 0,
        "_position": 22
      },
      "geometry": {
        "type": "Point",
        "coordinates": [
          -73.36589361911474,
          5.525199963579514
        ]
      }
    },
    {
      "type": "Feature",
      "properties": {
        "_source": "Ruta10-Muiscas-AvenidaNorte-Triunfo",
        "_segmentIndex": 0,
        "_position": 23
      },
      "geometry": {
        "type": "Point",
        "coordinates": [
          -73.36605257522919,
          5.524779063750217
        ]
      }
    },
    {
      "type": "Feature",
      "properties": {
        "_source": "Ruta10-Muiscas-AvenidaNorte-Triunfo",
        "_segmentIndex": 0,
        "_position": 24
      },
      "geometry": {
        "type": "Point",
        "coordinates": [
          -73.36621000611669,
          5.524357590729118
        ]
      }
    },
    {
      "type": "Feature",
      "properties": {
        "_source": "Ruta10-Muiscas-AvenidaNorte-Triunfo",
        "_segmentIndex": 0,
        "_position": 25
      },
      "geometry": {
        "type": "Point",
        "coordinates": [
          -73.3663501097947,
          5.523930255685177
        ]
      }
    },
    {
      "type": "Feature",
      "properties": {
        "_source": "Ruta10-Muiscas-AvenidaNorte-Triunfo",
        "_segmentIndex": 0,
        "_position": 26
      },
      "geometry": {
        "type": "Point",
        "coordinates": [
          -73.3664367670148,
          5.52348894583411
        ]
      }
    },
    {
      "type": "Feature",
      "properties": {
        "_source": "Ruta10-Muiscas-AvenidaNorte-Triunfo",
        "_segmentIndex": 0,
        "_position": 27
      },
      "geometry": {
        "type": "Point",
        "coordinates": [
          -73.36653303958175,
          5.523049645875914
        ]
      }
    },
    {
      "type": "Feature",
      "properties": {
        "_source": "Ruta10-Muiscas-AvenidaNorte-Triunfo",
        "_segmentIndex": 0,
        "_position": 28
      },
      "geometry": {
        "type": "Point",
        "coordinates": [
          -73.36662537778663,
          5.522609524345292
        ]
      }
    },
    {
      "type": "Feature",
      "properties": {
        "_source": "Ruta10-Muiscas-AvenidaNorte-Triunfo",
        "_segmentIndex": 0,
        "_position": 29
      },
      "geometry": {
        "type": "Point",
        "coordinates": [
          -73.36674429161101,
          5.522177093513435
        ]
      }
    },
    {
      "type": "Feature",
      "properties": {
        "_source": "Ruta10-Muiscas-AvenidaNorte-Triunfo",
        "_segmentIndex": 0,
        "_position": 30
      },
      "geometry": {
        "type": "Point",
        "coordinates": [
          -73.36689475258534,
          5.521753225376318
        ]
      }
    },
    {
      "type": "Feature",
      "properties": {
        "_source": "Ruta10-Muiscas-AvenidaNorte-Triunfo",
        "_segmentIndex": 0,
        "_position": 31
      },
      "geometry": {
        "type": "Point",
        "coordinates": [
          -73.36701305718671,
          5.521319257775031
        ]
      }
    },
    {
      "type": "Feature",
      "properties": {
        "_source": "Ruta10-Muiscas-AvenidaNorte-Triunfo",
        "_segmentIndex": 0,
        "_position": 32
      },
      "geometry": {
        "type": "Point",
        "coordinates": [
          -73.36713125907683,
          5.520885262503188
        ]
      }
    },
    {
      "type": "Feature",
      "properties": {
        "_source": "Ruta10-Muiscas-AvenidaNorte-Triunfo",
        "_segmentIndex": 0,
        "_position": 33
      },
      "geometry": {
        "type": "Point",
        "coordinates": [
          -73.3672491884838,
          5.520451193785472
        ]
      }
    },
    {
      "type": "Feature",
      "properties": {
        "_source": "Ruta10-Muiscas-AvenidaNorte-Triunfo",
        "_segmentIndex": 0,
        "_position": 34
      },
      "geometry": {
        "type": "Point",
        "coordinates": [
          -73.36735511151909,
          5.520014265476696
        ]
      }
    },
    {
      "type": "Feature",
      "properties": {
        "_source": "Ruta10-Muiscas-AvenidaNorte-Triunfo",
        "_segmentIndex": 0,
        "_position": 35
      },
      "geometry": {
        "type": "Point",
        "coordinates": [
          -73.36744735229198,
          5.519574078423156
        ]
      }
    },
    {
      "type": "Feature",
      "properties": {
        "_source": "Ruta10-Muiscas-AvenidaNorte-Triunfo",
        "_segmentIndex": 0,
        "_position": 36
      },
      "geometry": {
        "type": "Point",
        "coordinates": [
          -73.36750935612811,
          5.519129013430562
        ]
      }
    },
    {
      "type": "Feature",
      "properties": {
        "_source": "Ruta10-Muiscas-AvenidaNorte-Triunfo",
        "_segmentIndex": 0,
        "_position": 37
      },
      "geometry": {
        "type": "Point",
        "coordinates": [
          -73.36756151988862,
          5.518682361004619
        ]
      }
    },
    {
      "type": "Feature",
      "properties": {
        "_source": "Ruta10-Muiscas-AvenidaNorte-Triunfo",
        "_segmentIndex": 0,
        "_position": 0
      },
      "geometry": {
        "type": "Point",
        "coordinates": [
          -73.367607,
          5.518308
        ]
      }
    },
    {
      "type": "Feature",
      "properties": {
        "_source": "Ruta10-Muiscas-AvenidaNorte-Triunfo",
        "_segmentIndex": 0,
        "_position": 1
      },
      "geometry": {
        "type": "Point",
        "coordinates": [
          -73.36805089830351,
          5.518247382367738
        ]
      }
    },
    {
      "type": "Feature",
      "properties": {
        "_source": "Ruta10-Muiscas-AvenidaNorte-Triunfo",
        "_segmentIndex": 0,
        "_position": 2
      },
      "geometry": {
        "type": "Point",
        "coordinates": [
          -73.36848976138211,
          5.5181407311799076
        ]
      }
    },
    {
      "type": "Feature",
      "properties": {
        "_source": "Ruta10-Muiscas-AvenidaNorte-Triunfo",
        "_segmentIndex": 0,
        "_position": 3
      },
      "geometry": {
        "type": "Point",
        "coordinates": [
          -73.36892830755133,
          5.518032796713512
        ]
      }
    },
    {
      "type": "Feature",
      "properties": {
        "_source": "Ruta10-Muiscas-AvenidaNorte-Triunfo",
        "_segmentIndex": 0,
        "_position": 4
      },
      "geometry": {
        "type": "Point",
        "coordinates": [
          -73.36937253075553,
          5.517960348630249
        ]
      }
    },
    {
      "type": "Feature",
      "properties": {
        "_source": "Ruta10-Muiscas-AvenidaNorte-Triunfo",
        "_segmentIndex": 0,
        "_position": 5
      },
      "geometry": {
        "type": "Point",
        "coordinates": [
          -73.36982306437488,
          5.517927325180384
        ]
      }
    },
    {
      "type": "Feature",
      "properties": {
        "_source": "Ruta10-Muiscas-AvenidaNorte-Triunfo",
        "_segmentIndex": 0,
        "_position": 0
      },
      "geometry": {
        "type": "Point",
        "coordinates": [
          -73.370124,
          5.517866
        ]
      }
    },
    {
      "type": "Feature",
      "properties": {
        "_source": "Ruta10-Muiscas-AvenidaNorte-Triunfo",
        "_segmentIndex": 0,
        "_position": 1
      },
      "geometry": {
        "type": "Point",
        "coordinates": [
          -73.37030886154723,
          5.517457931828378
        ]
      }
    },
    {
      "type": "Feature",
      "properties": {
        "_source": "Ruta10-Muiscas-AvenidaNorte-Triunfo",
        "_segmentIndex": 0,
        "_position": 2
      },
      "geometry": {
        "type": "Point",
        "coordinates": [
          -73.37041439206273,
          5.517020743420506
        ]
      }
    },
    {
      "type": "Feature",
      "properties": {
        "_source": "Ruta10-Muiscas-AvenidaNorte-Triunfo",
        "_segmentIndex": 0,
        "_position": 3
      },
      "geometry": {
        "type": "Point",
        "coordinates": [
          -73.37050613319802,
          5.516580474090675
        ]
      }
    },
    {
      "type": "Feature",
      "properties": {
        "_source": "Ruta10-Muiscas-AvenidaNorte-Triunfo",
        "_segmentIndex": 0,
        "_position": 0
      },
      "geometry": {
        "type": "Point",
        "coordinates": [
          -73.370548,
          5.516368
        ]
      }
    },
    {
      "type": "Feature",
      "properties": {
        "_source": "Ruta10-Muiscas-AvenidaNorte-Triunfo",
        "_segmentIndex": 0,
        "_position": 1
      },
      "geometry": {
        "type": "Point",
        "coordinates": [
          -73.37099919862617,
          5.5163482640354005
        ]
      }
    },
    {
      "type": "Feature",
      "properties": {
        "_source": "Ruta10-Muiscas-AvenidaNorte-Triunfo",
        "_segmentIndex": 0,
        "_position": 2
      },
      "geometry": {
        "type": "Point",
        "coordinates": [
          -73.37145016449642,
          5.516321754871634
        ]
      }
    },
    {
      "type": "Feature",
      "properties": {
        "_source": "Ruta10-Muiscas-AvenidaNorte-Triunfo",
        "_segmentIndex": 0,
        "_position": 0
      },
      "geometry": {
        "type": "Point",
        "coordinates": [
          -73.371691,
          5.516247
        ]
      }
    },
    {
      "type": "Feature",
      "properties": {
        "_source": "Ruta10-Muiscas-AvenidaNorte-Triunfo",
        "_segmentIndex": 0,
        "_position": 1
      },
      "geometry": {
        "type": "Point",
        "coordinates": [
          -73.37179110550915,
          5.515809441487408
        ]
      }
    },
    {
      "type": "Feature",
      "properties": {
        "_source": "Ruta10-Muiscas-AvenidaNorte-Triunfo",
        "_segmentIndex": 0,
        "_position": 2
      },
      "geometry": {
        "type": "Point",
        "coordinates": [
          -73.37186192911341,
          5.515365440974246
        ]
      }
    },
    {
      "type": "Feature",
      "properties": {
        "_source": "Ruta10-Muiscas-AvenidaNorte-Triunfo",
        "_segmentIndex": 0,
        "_position": 3
      },
      "geometry": {
        "type": "Point",
        "coordinates": [
          -73.37195143076734,
          5.514924888906386
        ]
      }
    },
    {
      "type": "Feature",
      "properties": {
        "_source": "Ruta10-Muiscas-AvenidaNorte-Triunfo",
        "_segmentIndex": 0,
        "_position": 4
      },
      "geometry": {
        "type": "Point",
        "coordinates": [
          -73.37206910790056,
          5.5144912758527855
        ]
      }
    },
    {
      "type": "Feature",
      "properties": {
        "_source": "Ruta10-Muiscas-AvenidaNorte-Triunfo",
        "_segmentIndex": 0,
        "_position": 5
      },
      "geometry": {
        "type": "Point",
        "coordinates": [
          -73.37215720940233,
          5.514050324783978
        ]
      }
    },
    {
      "type": "Feature",
      "properties": {
        "_source": "Ruta10-Muiscas-AvenidaNorte-Triunfo",
        "_segmentIndex": 0,
        "_position": 6
      },
      "geometry": {
        "type": "Point",
        "coordinates": [
          -73.37222222346108,
          5.5136053613063725
        ]
      }
    },
    {
      "type": "Feature",
      "properties": {
        "_source": "Ruta10-Muiscas-AvenidaNorte-Triunfo",
        "_segmentIndex": 0,
        "_position": 0
      },
      "geometry": {
        "type": "Point",
        "coordinates": [
          -73.372248,
          5.513433
        ]
      }
    },
    {
      "type": "Feature",
      "properties": {
        "_source": "Ruta10-Muiscas-AvenidaNorte-Triunfo",
        "_segmentIndex": 0,
        "_position": 1
      },
      "geometry": {
        "type": "Point",
        "coordinates": [
          -73.37269894096875,
          5.513446489331567
        ]
      }
    },
    {
      "type": "Feature",
      "properties": {
        "_source": "Ruta10-Muiscas-AvenidaNorte-Triunfo",
        "_segmentIndex": 0,
        "_position": 0
      },
      "geometry": {
        "type": "Point",
        "coordinates": [
          -73.373108,
          5.513468
        ]
      }
    },
    {
      "type": "Feature",
      "properties": {
        "_source": "Ruta10-Muiscas-AvenidaNorte-Triunfo",
        "_segmentIndex": 0,
        "_position": 1
      },
      "geometry": {
        "type": "Point",
        "coordinates": [
          -73.37328945738916,
          5.513059359486743
        ]
      }
    },
    {
      "type": "Feature",
      "properties": {
        "_source": "Ruta10-Muiscas-AvenidaNorte-Triunfo",
        "_segmentIndex": 0,
        "_position": 2
      },
      "geometry": {
        "type": "Point",
        "coordinates": [
          -73.37349501325265,
          5.512658973523197
        ]
      }
    },
    {
      "type": "Feature",
      "properties": {
        "_source": "Ruta10-Muiscas-AvenidaNorte-Triunfo",
        "_segmentIndex": 0,
        "_position": 0
      },
      "geometry": {
        "type": "Point",
        "coordinates": [
          -73.373533,
          5.512583
        ]
      }
    },
    {
      "type": "Feature",
      "properties": {
        "_source": "Ruta10-Muiscas-AvenidaNorte-Triunfo",
        "_segmentIndex": 0,
        "_position": 1
      },
      "geometry": {
        "type": "Point",
        "coordinates": [
          -73.37397087284408,
          5.512607113551693
        ]
      }
    },
    {
      "type": "Feature",
      "properties": {
        "_source": "Ruta10-Muiscas-AvenidaNorte-Triunfo",
        "_segmentIndex": 0,
        "_position": 0
      },
      "geometry": {
        "type": "Point",
        "coordinates": [
          -73.374298,
          5.512663
        ]
      }
    },
    {
      "type": "Feature",
      "properties": {
        "_source": "Ruta10-Muiscas-AvenidaNorte-Triunfo",
        "_segmentIndex": 0,
        "_position": 1
      },
      "geometry": {
        "type": "Point",
        "coordinates": [
          -73.3744148978109,
          5.512239780869442
        ]
      }
    }
  ]
}