{
  "type": "FeatureCollection",
  "features": [
    {
      "type": "Feature",
      "properties": {
        "_source": "Ruta16-Florida-AvenidaNorte-Asis",
        "_segmentIndex": 0,
        "_position": 0
      },
      "geometry": {
        "type": "Point",
        "coordinates": [
          -73.366155,
          5.515194
        ]
      }
    },
    {
      "type": "Feature",
      "properties": {
        "_source": "Ruta16-Florida-AvenidaNorte-Asis",
        "_segmentIndex": 0,
        "_position": 1
      },
      "geometry": {
        "type": "Point",
        "coordinates": [
          -73.36656566309543,
          5.515381371111009
        ]
      }
    },
    {
      "type": "Feature",
      "properties": {
        "_source": "Ruta16-Florida-AvenidaNorte-Asis",
        "_segmentIndex": 0,
        "_position": 2
      },
      "geometry": {
        "type": "Point",
        "coordinates": [
          -73.36698210906313,
          5.515555181838479
        ]
      }
    },
    {
      "type": "Feature",
      "properties": {
        "_source": "Ruta16-Florida-AvenidaNorte-Asis",
        "_segmentIndex": 0,
        "_position": 3
      },
      "geometry": {
        "type": "Point",
        "coordinates": [
          -73.36740877706343,
          5.515702905868675
        ]
      }
    },
    {
      "type": "Feature",
      "properties": {
        "_source": "Ruta16-Florida-AvenidaNorte-Asis",
        "_segmentIndex": 0,
        "_position": 4
      },
      "geometry": {
        "type": "Point",
        "coordinates": [
          -73.36777607179705,
          5.5156822288381795
        ]
      }
    },
    {
      "type": "Feature",
      "properties": {
        "_source": "Ruta16-Florida-AvenidaNorte-Asis",
        "_segmentIndex": 0,
        "_position": 5
      },
      "geometry": {
        "type": "Point",
        "coordinates": [
          -73.36822077660803,
          5.515761258064756
        ]
      }
    },
    {
      "type": "Feature",
      "properties": {
        "_source": "Ruta16-Florida-AvenidaNorte-Asis",
        "_segmentIndex": 0,
        "_position": 0
      },
      "geometry": {
        "type": "Point",
        "coordinates": [
          -73.368507,
          5.515822
        ]
      }
    },
    {
      "type": "Feature",
      "properties": {
        "_source": "Ruta16-Florida-AvenidaNorte-Asis",
        "_segmentIndex": 0,
        "_position": 1
      },
      "geometry": {
        "type": "Point",
        "coordinates": [
          -73.36848044214602,
          5.516266126981095
        ]
      }
    },
    {
      "type": "Feature",
      "properties": {
        "_source": "Ruta16-Florida-AvenidaNorte-Asis",
        "_segmentIndex": 0,
        "_position": 0
      },
      "geometry": {
        "type": "Point",
        "coordinates": [
          -73.368439,
          5.516439
        ]
      }
    },
    {
      "type": "Feature",
      "properties": {
        "_source": "Ruta16-Florida-AvenidaNorte-Asis",
        "_segmentIndex": 0,
        "_position": 1
      },
      "geometry": {
        "type": "Point",
        "coordinates": [
          -73.36832751761519,
          5.516874730313583
        ]
      }
    },
    {
      "type": "Feature",
      "properties": {
        "_source": "Ruta16-Florida-AvenidaNorte-Asis",
        "_segmentIndex": 0,
        "_position": 2
      },
      "geometry": {
        "type": "Point",
        "coordinates": [
          -73.36814282258621,
          5.517282025319861
        ]
      }
    },
    {
      "type": "Feature",
      "properties": {
        "_source": "Ruta16-Florida-AvenidaNorte-Asis",
        "_segmentIndex": 0,
        "_position": 3
      },
      "geometry": {
        "type": "Point",
        "coordinates": [
          -73.36790398288252,
          5.517663701344227
        ]
      }
    },
    {
      "type": "Feature",
      "properties": {
        "_source": "Ruta16-Florida-AvenidaNorte-Asis",
        "_segmentIndex": 0,
        "_position": 4
      },
      "geometry": {
        "type": "Point",
        "coordinates": [
          -73.36766858433865,
          5.518047490539768
        ]
      }
    },
    {
      "type": "Feature",
      "properties": {
        "_source": "Ruta16-Florida-AvenidaNorte-Asis",
        "_segmentIndex": 0,
        "_position": 5
      },
      "geometry": {
        "type": "Point",
        "coordinates": [
          -73.36748615214697,
          5.518451881502049
        ]
      }
    },
    {
      "type": "Feature",
      "properties": {
        "_source": "Ruta16-Florida-AvenidaNorte-Asis",
        "_segmentIndex": 0,
        "_position": 6
      },
      "geometry": {
        "type": "Point",
        "coordinates": [
          -73.36741454507474,
          5.518895269312418
        ]
      }
    },
    {
      "type": "Feature",
      "properties": {
        "_source": "Ruta16-Florida-AvenidaNorte-Asis",
        "_segmentIndex": 0,
        "_position": 7
      },
      "geometry": {
        "type": "Point",
        "coordinates": [
          -73.36737364568486,
          5.519343082881225
        ]
      }
    },
    {
      "type": "Feature",
      "properties": {
        "_source": "Ruta16-Florida-AvenidaNorte-Asis",
        "_segmentIndex": 0,
        "_position": 8
      },
      "geometry": {
        "type": "Point",
        "coordinates": [
          -73.36730830852541,
          5.519787949240574
        ]
      }
    },
    {
      "type": "Feature",
      "properties": {
        "_source": "Ruta16-Florida-AvenidaNorte-Asis",
        "_segmentIndex": 0,
        "_position": 9
      },
      "geometry": {
        "type": "Point",
        "coordinates": [
          -73.36719962522577,
          5.520223770480988
        ]
      }
    },
    {
      "type": "Feature",
      "properties": {
        "_source": "Ruta16-Florida-AvenidaNorte-Asis",
        "_segmentIndex": 0,
        "_position": 10
      },
      "geometry": {
        "type": "Point",
        "coordinates": [
          -73.36707795253679,
          5.520656814408696
        ]
      }
    },
    {
      "type": "Feature",
      "properties": {
        "_source": "Ruta16-Florida-AvenidaNorte-Asis",
        "_segmentIndex": 0,
        "_position": 11
      },
      "geometry": {
        "type": "Point",
        "coordinates": [
          -73.36696217609045,
          5.521091454789392
        ]
      }
    },
    {
      "type": "Feature",
      "properties": {
        "_source": "Ruta16-Florida-AvenidaNorte-Asis",
        "_segmentIndex": 0,
        "_position": 12
      },
      "geometry": {
        "type": "Point",
        "coordinates": [
          -73.36683873413035,
          5.521523979435161
        ]
      }
    },
    {
      "type": "Feature",
      "properties": {
        "_source": "Ruta16-Florida-AvenidaNorte-Asis",
        "_segmentIndex": 0,
        "_position": 13
      },
      "geometry": {
        "type": "Point",
        "coordinates": [
          -73.36670718777883,
          5.5219539992798135
        ]
      }
    },
    {
      "type": "Feature",
      "properties": {
        "_source": "Ruta16-Florida-AvenidaNorte-Asis",
        "_segmentIndex": 0,
        "_position": 14
      },
      "geometry": {
        "type": "Point",
        "coordinates": [
          -73.36656977055526,
          5.522381400457875
        ]
      }
    },
    {
      "type": "Feature",
      "properties": {
        "_source": "Ruta16-Florida-AvenidaNorte-Asis",
        "_segmentIndex": 0,
        "_position": 15
      },
      "geometry": {
        "type": "Point",
        "coordinates": [
          -73.3664826081824,
          5.522822611705043
        ]
      }
    },
    {
      "type": "Feature",
      "properties": {
        "_source": "Ruta16-Florida-AvenidaNorte-Asis",
        "_segmentIndex": 0,
        "_position": 16
      },
      "geometry": {
        "type": "Point",
        "coordinates": [
          -73.36640103508556,
          5.523264878076857
        ]
      }
    },
    {
      "type": "Feature",
      "properties": {
        "_source": "Ruta16-Florida-AvenidaNorte-Asis",
        "_segmentIndex": 0,
        "_position": 17
      },
      "geometry": {
        "type": "Point",
        "coordinates": [
          -73.36631576653282,
          5.523706344871264
        ]
      }
    },
    {
      "type": "Feature",
      "properties": {
        "_source": "Ruta16-Florida-AvenidaNorte-Asis",
        "_segmentIndex": 0,
        "_position": 18
      },
      "geometry": {
        "type": "Point",
        "coordinates": [
          -73.3661989635933,
          5.524140597767672
        ]
      }
    },
    {
      "type": "Feature",
      "properties": {
        "_source": "Ruta16-Florida-AvenidaNorte-Asis",
        "_segmentIndex": 0,
        "_position": 0
      },
      "geometry": {
        "type": "Point",
        "coordinates": [
          -73.36615,
          5.52429
        ]
      }
    },
    {
      "type": "Feature",
      "properties": {
        "_source": "Ruta16-Florida-AvenidaNorte-Asis",
        "_segmentIndex": 0,
        "_position": 1
      },
      "geometry": {
        "type": "Point",
        "coordinates": [
          -73.36641546529438,
          5.524653264195313
        ]
      }
    },
    {
      "type": "Feature",
      "properties": {
        "_source": "Ruta16-Florida-AvenidaNorte-Asis",
        "_segmentIndex": 0,
        "_position": 2
      },
      "geometry": {
        "type": "Point",
        "coordinates": [
          -73.366594512604,
          5.525062193268829
        ]
      }
    },
    {
      "type": "Feature",
      "properties": {
        "_source": "Ruta16-Florida-AvenidaNorte-Asis",
        "_segmentIndex": 0,
        "_position": 3
      },
      "geometry": {
        "type": "Point",
        "coordinates": [
          -73.36648211425127,
          5.5254960134113045
        ]
      }
    },
    {
      "type": "Feature",
      "properties": {
        "_source": "Ruta16-Florida-AvenidaNorte-Asis",
        "_segmentIndex": 0,
        "_position": 4
      },
      "geometry": {
        "type": "Point",
        "coordinates": [
          -73.36636469586432,
          5.525930214434725
        ]
      }
    },
    {
      "type": "Feature",
      "properties": {
        "_source": "Ruta16-Florida-AvenidaNorte-Asis",
        "_segmentIndex": 0,
        "_position": 5
      },
      "geometry": {
        "type": "Point",
        "coordinates": [
          -73.36634576220533,
          5.526379031590256
        ]
      }
    },
    {
      "type": "Feature",
      "properties": {
        "_source": "Ruta16-Florida-AvenidaNorte-Asis",
        "_segmentIndex": 0,
        "_position": 6
      },
      "geometry": {
        "type": "Point",
        "coordinates": [
          -73.36635645383944,
          5.526828516245506
        ]
      }
    },
    {
      "type": "Feature",
      "properties": {
        "_source": "Ruta16-Florida-AvenidaNorte-Asis",
        "_segmentIndex": 0,
        "_position": 7
      },
      "geometry": {
        "type": "Point",
        "coordinates": [
          -73.36635968572882,
          5.527277993435058
        ]
      }
    },
    {
      "type": "Feature",
      "properties": {
        "_source": "Ruta16-Florida-AvenidaNorte-Asis",
        "_segmentIndex": 0,
        "_position": 8
      },
      "geometry": {
        "type": "Point",
        "coordinates": [
          -73.36632046884351,
          5.527725840670596
        ]
      }
    },
    {
      "type": "Feature",
      "properties": {
        "_source": "Ruta16-Florida-AvenidaNorte-Asis",
        "_segmentIndex": 0,
        "_position": 9
      },
      "geometry": {
        "type": "Point",
        "coordinates": [
          -73.36641500672955,
          5.5281499865427906
        ]
      }
    },
    {
      "type": "Feature",
      "properties": {
        "_source": "Ruta16-Florida-AvenidaNorte-Asis",
        "_segmentIndex": 0,
        "_position": 0
      },
      "geometry": {
        "type": "Point",
        "coordinates": [
          -73.366394,
          5.528192
        ]
      }
    },
    {
      "type": "Feature",
      "properties": {
        "_source": "Ruta16-Florida-AvenidaNorte-Asis",
        "_segmentIndex": 0,
        "_position": 1
      },
      "geometry": {
        "type": "Point",
        "coordinates": [
          -73.36597669691932,
          5.5283434956832025
        ]
      }
    },
    {
      "type": "Feature",
      "properties": {
        "_source": "Ruta16-Florida-AvenidaNorte-Asis",
        "_segmentIndex": 0,
        "_position": 2
      },
      "geometry": {
        "type": "Point",
        "coordinates": [
          -73.36566719210226,
          5.528671047451075
        ]
      }
    },
    {
      "type": "Feature",
      "properties": {
        "_source": "Ruta16-Florida-AvenidaNorte-Asis",
        "_segmentIndex": 0,
        "_position": 3
      },
      "geometry": {
        "type": "Point",
        "coordinates": [
          -73.3653689747871,
          5.529007825626511
        ]
      }
    },
    {
      "type": "Feature",
      "properties": {
        "_source": "Ruta16-Florida-AvenidaNorte-Asis",
        "_segmentIndex": 0,
        "_position": 4
      },
      "geometry": {
        "type": "Point",
        "coordinates": [
          -73.36522512686932,
          5.529434059226008
        ]
      }
    },
    {
      "type": "Feature",
      "properties": {
        "_source": "Ruta16-Florida-AvenidaNorte-Asis",
        "_segmentIndex": 0,
        "_position": 5
      },
      "geometry": {
        "type": "Point",
        "coordinates": [
          -73.36508985474148,
          5.529863087943079
        ]
      }
    },
    {
      "type": "Feature",
      "properties": {
        "_source": "Ruta16-Florida-AvenidaNorte-Asis",
        "_segmentIndex": 0,
        "_position": 6
      },
      "geometry": {
        "type": "Point",
        "coordinates": [
          -73.36497360501724,
          5.530297578270399
        ]
      }
    },
    {
      "type": "Feature",
      "properties": {
        "_source": "Ruta16-Florida-AvenidaNorte-Asis",
        "_segmentIndex": 0,
        "_position": 7
      },
      "geometry": {
        "type": "Point",
        "coordinates": [
          -73.36484867663073,
          5.530729647770955
        ]
      }
    },
    {
      "type": "Feature",
      "properties": {
        "_source": "Ruta16-Florida-AvenidaNorte-Asis",
        "_segmentIndex": 0,
        "_position": 8
      },
      "geometry": {
        "type": "Point",
        "coordinates": [
          -73.36471420411397,
          5.531158925544147
        ]
      }
    },
    {
      "type": "Feature",
      "properties": {
        "_source": "Ruta16-Florida-AvenidaNorte-Asis",
        "_segmentIndex": 0,
        "_position": 9
      },
      "geometry": {
        "type": "Point",
        "coordinates": [
          -73.3645885087507,
          5.5315907089793654
        ]
      }
    },
    {
      "type": "Feature",
      "properties": {
        "_source": "Ruta16-Florida-AvenidaNorte-Asis",
        "_segmentIndex": 0,
        "_position": 10
      },
      "geometry": {
        "type": "Point",
        "coordinates": [
          -73.36446998616903,
          5.532024615634614
        ]
      }
    },
    {
      "type": "Feature",
      "properties": {
        "_source": "Ruta16-Florida-AvenidaNorte-Asis",
        "_segmentIndex": 0,
        "_position": 11
      },
      "geometry": {
        "type": "Point",
        "coordinates": [
          -73.3643380360437,
          5.532454649234913
        ]
      }
    },
    {
      "type": "Feature",
      "properties": {
        "_source": "Ruta16-Florida-AvenidaNorte-Asis",
        "_segmentIndex": 0,
        "_position": 12
      },
      "geometry": {
        "type": "Point",
        "coordinates": [
          -73.36418412587508,
          5.532877151771196
        ]
      }
    },
    {
      "type": "Feature",
      "properties": {
        "_source": "Ruta16-Florida-AvenidaNorte-Asis",
        "_segmentIndex": 0,
        "_position": 13
      },
      "geometry": {
        "type": "Point",
        "coordinates": [
          -73.36404247538093,
          5.533304136499716
        ]
      }
    },
    {
      "type": "Feature",
      "properties": {
        "_source": "Ruta16-Florida-AvenidaNorte-Asis",
        "_segmentIndex": 0,
        "_position": 14
      },
      "geometry": {
        "type": "Point",
        "coordinates": [
          -73.36392599202705,
          5.533738377935038
        ]
      }
    },
    {
      "type": "Feature",
      "properties": {
        "_source": "Ruta16-Florida-AvenidaNorte-Asis",
        "_segmentIndex": 0,
        "_position": 15
      },
      "geometry": {
        "type": "Point",
        "coordinates": [
          -73.36381307009826,
          5.534173761897132
        ]
      }
    },
    {
      "type": "Feature",
      "properties": {
        "_source": "Ruta16-Florida-AvenidaNorte-Asis",
        "_segmentIndex": 0,
        "_position": 16
      },
      "geometry": {
        "type": "Point",
        "coordinates": [
          -73.36369949244114,
          5.534608979521509
        ]
      }
    },
    {
      "type": "Feature",
      "properties": {
        "_source": "Ruta16-Florida-AvenidaNorte-Asis",
        "_segmentIndex": 0,
        "_position": 17
      },
      "geometry": {
        "type": "Point",
        "coordinates": [
          -73.3635787430655,
          5.535042205828876
        ]
      }
    },
    {
      "type": "Feature",
      "properties": {
        "_source": "Ruta16-Florida-AvenidaNorte-Asis",
        "_segmentIndex": 0,
        "_position": 18
      },
      "geometry": {
        "type": "Point",
        "coordinates": [
          -73.36345694473827,
          5.5354751677250755
        ]
      }
    },
    {
      "type": "Feature",
      "properties": {
        "_source": "Ruta16-Florida-AvenidaNorte-Asis",
        "_segmentIndex": 0,
        "_position": 0
      },
      "geometry": {
        "type": "Point",
        "coordinates": [
          -73.363346,
          5.535722
        ]
      }
    },
    {
      "type": "Feature",
      "properties": {
        "_source": "Ruta16-Florida-AvenidaNorte-Asis",
        "_segmentIndex": 0,
        "_position": 1
      },
      "geometry": {
        "type": "Point",
        "coordinates": [
          -73.36335893294559,
          5.536162204073299
        ]
      }
    },
    {
      "type": "Feature",
      "properties": {
        "_source": "Ruta16-Florida-AvenidaNorte-Asis",
        "_segmentIndex": 0,
        "_position": 0
      },
      "geometry": {
        "type": "Point",
        "coordinates": [
          -73.363204,
          5.536436
        ]
      }
    },
    {
      "type": "Feature",
      "properties": {
        "_source": "Ruta16-Florida-AvenidaNorte-Asis",
        "_segmentIndex": 0,
        "_position": 1
      },
      "geometry": {
        "type": "Point",
        "coordinates": [
          -73.36308889154165,
          5.536870604574028
        ]
      }
    },
    {
      "type": "Feature",
      "properties": {
        "_source": "Ruta16-Florida-AvenidaNorte-Asis",
        "_segmentIndex": 0,
        "_position": 2
      },
      "geometry": {
        "type": "Point",
        "coordinates": [
          -73.36299810995514,
          5.537311092612445
        ]
      }
    },
    {
      "type": "Feature",
      "properties": {
        "_source": "Ruta16-Florida-AvenidaNorte-Asis",
        "_segmentIndex": 0,
        "_position": 3
      },
      "geometry": {
        "type": "Point",
        "coordinates": [
          -73.36288781242911,
          5.537747081809362
        ]
      }
    },
    {
      "type": "Feature",
      "properties": {
        "_source": "Ruta16-Florida-AvenidaNorte-Asis",
        "_segmentIndex": 0,
        "_position": 4
      },
      "geometry": {
        "type": "Point",
        "coordinates": [
          -73.36277241379253,
          5.538181820581288
        ]
      }
    },
    {
      "type": "Feature",
      "properties": {
        "_source": "Ruta16-Florida-AvenidaNorte-Asis",
        "_segmentIndex": 0,
        "_position": 0
      },
      "geometry": {
        "type": "Point",
        "coordinates": [
          -73.3627,
          5.538451
        ]
      }
    },
    {
      "type": "Feature",
      "properties": {
        "_source": "Ruta16-Florida-AvenidaNorte-Asis",
        "_segmentIndex": 0,
        "_position": 1
      },
      "geometry": {
        "type": "Point",
        "coordinates": [
          -73.36226990058272,
          5.538322976054306
        ]
      }
    },
    {
      "type": "Feature",
      "properties": {
        "_source": "Ruta16-Florida-AvenidaNorte-Asis",
        "_segmentIndex": 0,
        "_position": 2
      },
      "geometry": {
        "type": "Point",
        "coordinates": [
          -73.36184343460218,
          5.5381746013444175
        ]
      }
    },
    {
      "type": "Feature",
      "properties": {
        "_source": "Ruta16-Florida-AvenidaNorte-Asis",
        "_segmentIndex": 0,
        "_position": 0
      },
      "geometry": {
        "type": "Point",
        "coordinates": [
          -73.361675,
          5.538116
        ]
      }
    },
    {
      "type": "Feature",
      "properties": {
        "_source": "Ruta16-Florida-AvenidaNorte-Asis",
        "_segmentIndex": 0,
        "_position": 1
      },
      "geometry": {
        "type": "Point",
        "coordinates": [
          -73.36150606885762,
          5.538532000635954
        ]
      }
    },
    {
      "type": "Feature",
      "properties": {
        "_source": "Ruta16-Florida-AvenidaNorte-Asis",
        "_segmentIndex": 0,
        "_position": 2
      },
      "geometry": {
        "type": "Point",
        "coordinates": [
          -73.36135020560918,
          5.538954051866157
        ]
      }
    },
    {
      "type": "Feature",
      "properties": {
        "_source": "Ruta16-Florida-AvenidaNorte-Asis",
        "_segmentIndex": 0,
        "_position": 3
      },
      "geometry": {
        "type": "Point",
        "coordinates": [
          -73.36119509015823,
          5.539376375626999
        ]
      }
    },
    {
      "type": "Feature",
      "properties": {
        "_source": "Ruta16-Florida-AvenidaNorte-Asis",
        "_segmentIndex": 0,
        "_position": 4
      },
      "geometry": {
        "type": "Point",
        "coordinates": [
          -73.36103695161088,
          5.539797571181945
        ]
      }
    },
    {
      "type": "Feature",
      "properties": {
        "_source": "Ruta16-Florida-AvenidaNorte-Asis",
        "_segmentIndex": 0,
        "_position": 5
      },
      "geometry": {
        "type": "Point",
        "coordinates": [
          -73.36087755124078,
          5.5402182586462665
        ]
      }
    },
    {
      "type": "Feature",
      "properties": {
        "_source": "Ruta16-Florida-AvenidaNorte-Asis",
        "_segmentIndex": 0,
        "_position": 6
      },
      "geometry": {
        "type": "Point",
        "coordinates": [
          -73.36073507492966,
          5.540644971667631
        ]
      }
    },
    {
      "type": "Feature",
      "properties": {
        "_source": "Ruta16-Florida-AvenidaNorte-Asis",
        "_segmentIndex": 0,
        "_position": 0
      },
      "geometry": {
        "type": "Point",
        "coordinates": [
          -73.360616,
          5.540879
        ]
      }
    },
    {
      "type": "Feature",
      "properties": {
        "_source": "Ruta16-Florida-AvenidaNorte-Asis",
        "_segmentIndex": 0,
        "_position": 1
      },
      "geometry": {
        "type": "Point",
        "coordinates": [
          -73.36067229982928,
          5.541324743910414
        ]
      }
    },
    {
      "type": "Feature",
      "properties": {
        "_source": "Ruta16-Florida-AvenidaNorte-Asis",
        "_segmentIndex": 0,
        "_position": 2
      },
      "geometry": {
        "type": "Point",
        "coordinates": [
          -73.36077105208209,
          5.541763335629593
        ]
      }
    },
    {
      "type": "Feature",
      "properties": {
        "_source": "Ruta16-Florida-AvenidaNorte-Asis",
        "_segmentIndex": 0,
        "_position": 3
      },
      "geometry": {
        "type": "Point",
        "coordinates": [
          -73.36080598571186,
          5.542207697296236
        ]
      }
    },
    {
      "type": "Feature",
      "properties": {
        "_source": "Ruta16-Florida-AvenidaNorte-Asis",
        "_segmentIndex": 0,
        "_position": 4
      },
      "geometry": {
        "type": "Point",
        "coordinates": [
          -73.36061836457597,
          5.542612866757422
        ]
      }
    },
    {
      "type": "Feature",
      "properties": {
        "_source": "Ruta16-Florida-AvenidaNorte-Asis",
        "_segmentIndex": 0,
        "_position": 5
      },
      "geometry": {
        "type": "Point",
        "coordinates": [
          -73.36033553396187,
          5.542952888232075
        ]
      }
    },
    {
      "type": "Feature",
      "properties": {
        "_source": "Ruta16-Florida-AvenidaNorte-Asis",
        "_segmentIndex": 0,
        "_position": 6
      },
      "geometry": {
        "type": "Point",
        "coordinates": [
          -73.35989543114259,
          5.542937169789621
        ]
      }
    },
    {
      "type": "Feature",
      "properties": {
        "_source": "Ruta16-Florida-AvenidaNorte-Asis",
        "_segmentIndex": 0,
        "_position": 7
      },
      "geometry": {
        "type": "Point",
        "coordinates": [
          -73.35945556169663,
          5.542834856333471
        ]
      }
    },
    {
      "type": "Feature",
      "properties": {
        "_source": "Ruta16-Florida-AvenidaNorte-Asis",
        "_segmentIndex": 0,
        "_position": 8
      },
      "geometry": {
        "type": "Point",
        "coordinates": [
          -73.35900997523515,
          5.542762465016663
        ]
      }
    },
    {
      "type": "Feature",
      "properties": {
        "_source": "Ruta16-Florida-AvenidaNorte-Asis",
        "_segmentIndex": 0,
        "_position": 9
      },
      "geometry": {
        "type": "Point",
        "coordinates": [
          -73.35876279114008,
          5.5429580578657225
        ]
      }
    },
    {
      "type": "Feature",
      "properties": {
        "_source": "Ruta16-Florida-AvenidaNorte-Asis",
        "_segmentIndex": 0,
        "_position": 0
      },
      "geometry": {
        "type": "Point",
        "coordinates": [
          -73.358757,
          5.542966
        ]
      }
    },
    {
      "type": "Feature",
      "properties": {
        "_source": "Ruta16-Florida-AvenidaNorte-Asis",
        "_segmentIndex": 0,
        "_position": 1
      },
      "geometry": {
        "type": "Point",
        "coordinates": [
          -73.35849263283569,
          5.543330626750274
        ]
      }
    },
    {
      "type": "Feature",
      "properties": {
        "_source": "Ruta16-Florida-AvenidaNorte-Asis",
        "_segmentIndex": 0,
        "_position": 2
      },
      "geometry": {
        "type": "Point",
        "coordinates": [
          -73.35821888494247,
          5.543688335683702
        ]
      }
    },
    {
      "type": "Feature",
      "properties": {
        "_source": "Ruta16-Florida-AvenidaNorte-Asis",
        "_segmentIndex": 0,
        "_position": 3
      },
      "geometry": {
        "type": "Point",
        "coordinates": [
          -73.35793005751357,
          5.544033958274021
        ]
      }
    },
    {
      "type": "Feature",
      "properties": {
        "_source": "Ruta16-Florida-AvenidaNorte-Asis",
        "_segmentIndex": 0,
        "_position": 4
      },
      "geometry": {
        "type": "Point",
        "coordinates": [
          -73.35756573776327,
          5.544275034092708
        ]
      }
    },
    {
      "type": "Feature",
      "properties": {
        "_source": "Ruta16-Florida-AvenidaNorte-Asis",
        "_segmentIndex": 0,
        "_position": 5
      },
      "geometry": {
        "type": "Point",
        "coordinates": [
          -73.35728348248665,
          5.544559964279344
        ]
      }
    },
    {
      "type": "Feature",
      "properties": {
        "_source": "Ruta16-Florida-AvenidaNorte-Asis",
        "_segmentIndex": 0,
        "_position": 6
      },
      "geometry": {
        "type": "Point",
        "coordinates": [
          -73.35718911063022,
          5.544984341168214
        ]
      }
    },
    {
      "type": "Feature",
      "properties": {
        "_source": "Ruta16-Florida-AvenidaNorte-Asis",
        "_segmentIndex": 0,
        "_position": 0
      },
      "geometry": {
        "type": "Point",
        "coordinates": [
          -73.357111,
          5.545104
        ]
      }
    },
    {
      "type": "Feature",
      "properties": {
        "_source": "Ruta16-Florida-AvenidaNorte-Asis",
        "_segmentIndex": 0,
        "_position": 1
      },
      "geometry": {
        "type": "Point",
        "coordinates": [
          -73.35685622650642,
          5.545475336587785
        ]
      }
    },
    {
      "type": "Feature",
      "properties": {
        "_source": "Ruta16-Florida-AvenidaNorte-Asis",
        "_segmentIndex": 0,
        "_position": 2
      },
      "geometry": {
        "type": "Point",
        "coordinates": [
          -73.35658908771565,
          5.545837883203059
        ]
      }
    },
    {
      "type": "Feature",
      "properties": {
        "_source": "Ruta16-Florida-AvenidaNorte-Asis",
        "_segmentIndex": 0,
        "_position": 3
      },
      "geometry": {
        "type": "Point",
        "coordinates": [
          -73.35632065211868,
          5.546199543193906
        ]
      }
    },
    {
      "type": "Feature",
      "properties": {
        "_source": "Ruta16-Florida-AvenidaNorte-Asis",
        "_segmentIndex": 0,
        "_position": 4
      },
      "geometry": {
        "type": "Point",
        "coordinates": [
          -73.35605644557837,
          5.546564291420132
        ]
      }
    },
    {
      "type": "Feature",
      "properties": {
        "_source": "Ruta16-Florida-AvenidaNorte-Asis",
        "_segmentIndex": 0,
        "_position": 5
      },
      "geometry": {
        "type": "Point",
        "coordinates": [
          -73.35579223871137,
          5.54692903952915
        ]
      }
    },
    {
      "type": "Feature",
      "properties": {
        "_source": "Ruta16-Florida-AvenidaNorte-Asis",
        "_segmentIndex": 0,
        "_position": 6
      },
      "geometry": {
        "type": "Point",
        "coordinates": [
          -73.35552803151772,
          5.547293787520956
        ]
      }
    },
    {
      "type": "Feature",
      "properties": {
        "_source": "Ruta16-Florida-AvenidaNorte-Asis",
        "_segmentIndex": 0,
        "_position": 7
      },
      "geometry": {
        "type": "Point",
        "coordinates": [
          -73.35526155679588,
          5.5476568795804715
        ]
      }
    },
    {
      "type": "Feature",
      "properties": {
        "_source": "Ruta16-Florida-AvenidaNorte-Asis",
        "_segmentIndex": 0,
        "_position": 8
      },
      "geometry": {
        "type": "Point",
        "coordinates": [
          -73.35499124753784,
          5.548017171265875
        ]
      }
    },
    {
      "type": "Feature",
      "properties": {
        "_source": "Ruta16-Florida-AvenidaNorte-Asis",
        "_segmentIndex": 0,
        "_position": 9
      },
      "geometry": {
        "type": "Point",
        "coordinates": [
          -73.35472093794957,
          5.548377462828564
        ]
      }
    },
    {
      "type": "Feature",
      "properties": {
        "_source": "Ruta16-Florida-AvenidaNorte-Asis",
        "_segmentIndex": 0,
        "_position": 10
      },
      "geometry": {
        "type": "Point",
        "coordinates": [
          -73.35444615914643,
          5.548734362265393
        ]
      }
    },
    {
      "type": "Feature",
      "properties": {
        "_source": "Ruta16-Florida-AvenidaNorte-Asis",
        "_segmentIndex": 0,
        "_position": 11
      },
      "geometry": {
        "type": "Point",
        "coordinates": [
          -73.35416822498568,
          5.549088854778446
        ]
      }
    },
    {
      "type": "Feature",
      "properties": {
        "_source": "Ruta16-Florida-AvenidaNorte-Asis",
        "_segmentIndex": 0,
        "_position": 12
      },
      "geometry": {
        "type": "Point",
        "coordinates": [
          -73.35388313758561,
          5.549437680623275
        ]
      }
    },
    {
      "type": "Feature",
      "properties": {
        "_source": "Ruta16-Florida-AvenidaNorte-Asis",
        "_segmentIndex": 0,
        "_position": 13
      },
      "geometry": {
        "type": "Point",
        "coordinates": [
          -73.35359804984826,
          5.5497865063315714
        ]
      }
    },
    {
      "type": "Feature",
      "properties": {
        "_source": "Ruta16-Florida-AvenidaNorte-Asis",
        "_segmentIndex": 0,
        "_position": 14
      },
      "geometry": {
        "type": "Point",
        "coordinates": [
          -73.35331296177361,
          5.550135331903324
        ]
      }
    },
    {
      "type": "Feature",
      "properties": {
        "_source": "Ruta16-Florida-AvenidaNorte-Asis",
        "_segmentIndex": 0,
        "_position": 15
      },
      "geometry": {
        "type": "Point",
        "coordinates": [
          -73.35302787336165,
          5.550484157338526
        ]
      }
    },
    {
      "type": "Feature",
      "properties": {
        "_source": "Ruta16-Florida-AvenidaNorte-Asis",
        "_segmentIndex": 0,
        "_position": 16
      },
      "geometry": {
        "type": "Point",
        "coordinates": [
          -73.35274360944531,
          5.550833638940047
        ]
      }
    },
    {
      "type": "Feature",
      "properties": {
        "_source": "Ruta16-Florida-AvenidaNorte-Asis",
        "_segmentIndex": 0,
        "_position": 17
      },
      "geometry": {
        "type": "Point",
        "coordinates": [
          -73.352464516749,
          5.551187235310603
        ]
      }
    },
    {
      "type": "Feature",
      "properties": {
        "_source": "Ruta16-Florida-AvenidaNorte-Asis",
        "_segmentIndex": 0,
        "_position": 18
      },
      "geometry": {
        "type": "Point",
        "coordinates": [
          -73.35222363298386,
          5.551564370772429
        ]
      }
    },
    {
      "type": "Feature",
      "properties": {
        "_source": "Ruta16-Florida-AvenidaNorte-Asis",
        "_segmentIndex": 0,
        "_position": 19
      },
      "geometry": {
        "type": "Point",
        "coordinates": [
          -73.35207477294331,
          5.551987894441485
        ]
      }
    },
    {
      "type": "Feature",
      "properties": {
        "_source": "Ruta16-Florida-AvenidaNorte-Asis",
        "_segmentIndex": 0,
        "_position": 20
      },
      "geometry": {
        "type": "Point",
        "coordinates": [
          -73.35194302802338,
          5.552418010742918
        ]
      }
    },
    {
      "type": "Feature",
      "properties": {
        "_source": "Ruta16-Florida-AvenidaNorte-Asis",
        "_segmentIndex": 0,
        "_position": 21
      },
      "geometry": {
        "type": "Point",
        "coordinates": [
          -73.35181128291114,
          5.55284812701518
        ]
      }
    },
    {
      "type": "Feature",
      "properties": {
        "_source": "Ruta16-Florida-AvenidaNorte-Asis",
        "_segmentIndex": 0,
        "_position": 22
      },
      "geometry": {
        "type": "Point",
        "coordinates": [
          -73.35167953760661,
          5.553278243258266
        ]
      }
    },
    {
      "type": "Feature",
      "properties": {
        "_source": "Ruta16-Florida-AvenidaNorte-Asis",
        "_segmentIndex": 0,
        "_position": 23
      },
      "geometry": {
        "type": "Point",
        "coordinates": [
          -73.35153399155392,
          5.553703842524872
        ]
      }
    },
    {
      "type": "Feature",
      "properties": {
        "_source": "Ruta16-Florida-AvenidaNorte-Asis",
        "_segmentIndex": 0,
        "_position": 24
      },
      "geometry": {
        "type": "Point",
        "coordinates": [
          -73.35138354199746,
          5.554127836898617
        ]
      }
    },
    {
      "type": "Feature",
      "properties": {
        "_source": "Ruta16-Florida-AvenidaNorte-Asis",
        "_segmentIndex": 0,
        "_position": 25
      },
      "geometry": {
        "type": "Point",
        "coordinates": [
          -73.35123309222449,
          5.554551831234307
        ]
      }
    },
    {
      "type": "Feature",
      "properties": {
        "_source": "Ruta16-Florida-AvenidaNorte-Asis",
        "_segmentIndex": 0,
        "_position": 26
      },
      "geometry": {
        "type": "Point",
        "coordinates": [
          -73.35105951749405,
          5.55496672075622
        ]
      }
    },
    {
      "type": "Feature",
      "properties": {
        "_source": "Ruta16-Florida-AvenidaNorte-Asis",
        "_segmentIndex": 0,
        "_position": 27
      },
      "geometry": {
        "type": "Point",
        "coordinates": [
          -73.35087782455155,
          5.555378413984444
        ]
      }
    },
    {
      "type": "Feature",
      "properties": {
        "_source": "Ruta16-Florida-AvenidaNorte-Asis",
        "_segmentIndex": 0,
        "_position": 28
      },
      "geometry": {
        "type": "Point",
        "coordinates": [
          -73.35069613135508,
          5.55579010715715
        ]
      }
    },
    {
      "type": "Feature",
      "properties": {
        "_source": "Ruta16-Florida-AvenidaNorte-Asis",
        "_segmentIndex": 0,
        "_position": 29
      },
      "geometry": {
        "type": "Point",
        "coordinates": [
          -73.35050858726564,
          5.556199191225652
        ]
      }
    },
    {
      "type": "Feature",
      "properties": {
        "_source": "Ruta16-Florida-AvenidaNorte-Asis",
        "_segmentIndex": 0,
        "_position": 30
      },
      "geometry": {
        "type": "Point",
        "coordinates": [
          -73.3503208385869,
          5.556608184116091
        ]
      }
    },
    {
      "type": "Feature",
      "properties": {
        "_source": "Ruta16-Florida-AvenidaNorte-Asis",
        "_segmentIndex": 0,
        "_position": 31
      },
      "geometry": {
        "type": "Point",
        "coordinates": [
          -73.35013308964737,
          5.557017176947238
        ]
      }
    },
    {
      "type": "Feature",
      "properties": {
        "_source": "Ruta16-Florida-AvenidaNorte-Asis",
        "_segmentIndex": 0,
        "_position": 32
      },
      "geometry": {
        "type": "Point",
        "coordinates": [
          -73.34994534044708,
          5.55742616971909
        ]
      }
    },
    {
      "type": "Feature",
      "properties": {
        "_source": "Ruta16-Florida-AvenidaNorte-Asis",
        "_segmentIndex": 0,
        "_position": 33
      },
      "geometry": {
        "type": "Point",
        "coordinates": [
          -73.34975759098596,
          5.557835162431641
        ]
      }
    },
    {
      "type": "Feature",
      "properties": {
        "_source": "Ruta16-Florida-AvenidaNorte-Asis",
        "_segmentIndex": 0,
        "_position": 34
      },
      "geometry": {
        "type": "Point",
        "coordinates": [
          -73.34956984126403,
          5.558244155084887
        ]
      }
    },
    {
      "type": "Feature",
      "properties": {
        "_source": "Ruta16-Florida-AvenidaNorte-Asis",
        "_segmentIndex": 0,
        "_position": 35
      },
      "geometry": {
        "type": "Point",
        "coordinates": [
          -73.349382999036,
          5.558653556580199
        ]
      }
    },
    {
      "type": "Feature",
      "properties": {
        "_source": "Ruta16-Florida-AvenidaNorte-Asis",
        "_segmentIndex": 0,
        "_position": 36
      },
      "geometry": {
        "type": "Point",
        "coordinates": [
          -73.3491981918922,
          5.559063874844943
        ]
      }
    },
    {
      "type": "Feature",
      "properties": {
        "_source": "Ruta16-Florida-AvenidaNorte-Asis",
        "_segmentIndex": 0,
        "_position": 37
      },
      "geometry": {
        "type": "Point",
        "coordinates": [
          -73.34901338449079,
          5.559474193052215
        ]
      }
    },
    {
      "type": "Feature",
      "properties": {
        "_source": "Ruta16-Florida-AvenidaNorte-Asis",
        "_segmentIndex": 0,
        "_position": 38
      },
      "geometry": {
        "type": "Point",
        "coordinates": [
          -73.34882621384521,
          5.55988342569612
        ]
      }
    },
    {
      "type": "Feature",
      "properties": {
        "_source": "Ruta16-Florida-AvenidaNorte-Asis",
        "_segmentIndex": 0,
        "_position": 39
      },
      "geometry": {
        "type": "Point",
        "coordinates": [
          -73.34863238754852,
          5.5602896009351594
        ]
      }
    },
    {
      "type": "Feature",
      "properties": {
        "_source": "Ruta16-Florida-AvenidaNorte-Asis",
        "_segmentIndex": 0,
        "_position": 0
      },
      "geometry": {
        "type": "Point",
        "coordinates": [
          -73.348626,
          5.560462
        ]
      }
    },
    {
      "type": "Feature",
      "properties": {
        "_source": "Ruta16-Florida-AvenidaNorte-Asis",
        "_segmentIndex": 0,
        "_position": 1
      },
      "geometry": {
        "type": "Point",
        "coordinates": [
          -73.34902813093224,
          5.560666947098611
        ]
      }
    },
    {
      "type": "Feature",
      "properties": {
        "_source": "Ruta16-Florida-AvenidaNorte-Asis",
        "_segmentIndex": 0,
        "_position": 0
      },
      "geometry": {
        "type": "Point",
        "coordinates": [
          -73.349144,
          5.560726
        ]
      }
    },
    {
      "type": "Feature",
      "properties": {
        "_source": "Ruta16-Florida-AvenidaNorte-Asis",
        "_segmentIndex": 0,
        "_position": 1
      },
      "geometry": {
        "type": "Point",
        "coordinates": [
          -73.34896665027776,
          5.561139453666264
        ]
      }
    },
    {
      "type": "Feature",
      "properties": {
        "_source": "Ruta16-Florida-AvenidaNorte-Asis",
        "_segmentIndex": 0,
        "_position": 0
      },
      "geometry": {
        "type": "Point",
        "coordinates": [
          -73.34883,
          5.561471
        ]
      }
    },
    {
      "type": "Feature",
      "properties": {
        "_source": "Ruta16-Florida-AvenidaNorte-Asis",
        "_segmentIndex": 0,
        "_position": 1
      },
      "geometry": {
        "type": "Point",
        "coordinates": [
          -73.34920747903948,
          5.561718056859634
        ]
      }
    },
    {
      "type": "Feature",
      "properties": {
        "_source": "Ruta16-Florida-AvenidaNorte-Asis",
        "_segmentIndex": 0,
        "_position": 2
      },
      "geometry": {
        "type": "Point",
        "coordinates": [
          -73.3495885104343,
          5.56195958372425
        ]
      }
    },
    {
      "type": "Feature",
      "properties": {
        "_source": "Ruta16-Florida-AvenidaNorte-Asis",
        "_segmentIndex": 0,
        "_position": 3
      },
      "geometry": {
        "type": "Point",
        "coordinates": [
          -73.34997371688304,
          5.562194539536546
        ]
      }
    },
    {
      "type": "Feature",
      "properties": {
        "_source": "Ruta16-Florida-AvenidaNorte-Asis",
        "_segmentIndex": 0,
        "_position": 4
      },
      "geometry": {
        "type": "Point",
        "coordinates": [
          -73.35035802015481,
          5.562430947002497
        ]
      }
    },
    {
      "type": "Feature",
      "properties": {
        "_source": "Ruta16-Florida-AvenidaNorte-Asis",
        "_segmentIndex": 0,
        "_position": 5
      },
      "geometry": {
        "type": "Point",
        "coordinates": [
          -73.35072852714886,
          5.562687962460761
        ]
      }
    },
    {
      "type": "Feature",
      "properties": {
        "_source": "Ruta16-Florida-AvenidaNorte-Asis",
        "_segmentIndex": 0,
        "_position": 6
      },
      "geometry": {
        "type": "Point",
        "coordinates": [
          -73.35108517576994,
          5.562963243771239
        ]
      }
    },
    {
      "type": "Feature",
      "properties": {
        "_source": "Ruta16-Florida-AvenidaNorte-Asis",
        "_segmentIndex": 0,
        "_position": 7
      },
      "geometry": {
        "type": "Point",
        "coordinates": [
          -73.3514157744681,
          5.563269620105591
        ]
      }
    },
    {
      "type": "Feature",
      "properties": {
        "_source": "Ruta16-Florida-AvenidaNorte-Asis",
        "_segmentIndex": 0,
        "_position": 0
      },
      "geometry": {
        "type": "Point",
        "coordinates": [
          -73.351474,
          5.563325
        ]
      }
    },
    {
      "type": "Feature",
      "properties": {
        "_source": "Ruta16-Florida-AvenidaNorte-Asis",
        "_segmentIndex": 0,
        "_position": 1
      },
      "geometry": {
        "type": "Point",
        "coordinates": [
          -73.35113665589984,
          5.5636240300871505
        ]
      }
    },
    {
      "type": "Feature",
      "properties": {
        "_source": "Ruta16-Florida-AvenidaNorte-Asis",
        "_segmentIndex": 0,
        "_position": 2
      },
      "geometry": {
        "type": "Point",
        "coordinates": [
          -73.35081573832598,
          5.563930499720532
        ]
      }
    },
    {
      "type": "Feature",
      "properties": {
        "_source": "Ruta16-Florida-AvenidaNorte-Asis",
        "_segmentIndex": 0,
        "_position": 0
      },
      "geometry": {
        "type": "Point",
        "coordinates": [
          -73.35066,
          5.56428
        ]
      }
    },
    {
      "type": "Feature",
      "properties": {
        "_source": "Ruta16-Florida-AvenidaNorte-Asis",
        "_segmentIndex": 0,
        "_position": 0
      },
      "geometry": {
        "type": "Point",
        "coordinates": [
          -73.350342,
          5.564181
        ]
      }
    },
    {
      "type": "Feature",
      "properties": {
        "_source": "Ruta16-Florida-AvenidaNorte-Asis",
        "_segmentIndex": 0,
        "_position": 1
      },
      "geometry": {
        "type": "Point",
        "coordinates": [
          -73.3501694029114,
          5.564595304475021
        ]
      }
    },
    {
      "type": "Feature",
      "properties": {
        "_source": "Ruta16-Florida-AvenidaNorte-Asis",
        "_segmentIndex": 0,
        "_position": 2
      },
      "geometry": {
        "type": "Point",
        "coordinates": [
          -73.35001721517433,
          5.565018670553441
        ]
      }
    },
    {
      "type": "Feature",
      "properties": {
        "_source": "Ruta16-Florida-AvenidaNorte-Asis",
        "_segmentIndex": 0,
        "_position": 3
      },
      "geometry": {
        "type": "Point",
        "coordinates": [
          -73.34978111999015,
          5.565398738432667
        ]
      }
    },
    {
      "type": "Feature",
      "properties": {
        "_source": "Ruta16-Florida-AvenidaNorte-Asis",
        "_segmentIndex": 0,
        "_position": 4
      },
      "geometry": {
        "type": "Point",
        "coordinates": [
          -73.34951313286822,
          5.565760659360552
        ]
      }
    },
    {
      "type": "Feature",
      "properties": {
        "_source": "Ruta16-Florida-AvenidaNorte-Asis",
        "_segmentIndex": 0,
        "_position": 0
      },
      "geometry": {
        "type": "Point",
        "coordinates": [
          -73.349476,
          5.565774
        ]
      }
    },
    {
      "type": "Feature",
      "properties": {
        "_source": "Ruta16-Florida-AvenidaNorte-Asis",
        "_segmentIndex": 0,
        "_position": 1
      },
      "geometry": {
        "type": "Point",
        "coordinates": [
          -73.34911847414135,
          5.565499159810816
        ]
      }
    },
    {
      "type": "Feature",
      "properties": {
        "_source": "Ruta16-Florida-AvenidaNorte-Asis",
        "_segmentIndex": 0,
        "_position": 2
      },
      "geometry": {
        "type": "Point",
        "coordinates": [
          -73.34876254643879,
          5.565222353076408
        ]
      }
    },
    {
      "type": "Feature",
      "properties": {
        "_source": "Ruta16-Florida-AvenidaNorte-Asis",
        "_segmentIndex": 0,
        "_position": 3
      },
      "geometry": {
        "type": "Point",
        "coordinates": [
          -73.3484176346375,
          5.564932000024625
        ]
      }
    },
    {
      "type": "Feature",
      "properties": {
        "_source": "Ruta16-Florida-AvenidaNorte-Asis",
        "_segmentIndex": 0,
        "_position": 0
      },
      "geometry": {
        "type": "Point",
        "coordinates": [
          -73.348241,
          5.564818
        ]
      }
    },
    {
      "type": "Feature",
      "properties": {
        "_source": "Ruta16-Florida-AvenidaNorte-Asis",
        "_segmentIndex": 0,
        "_position": 1
      },
      "geometry": {
        "type": "Point",
        "coordinates": [
          -73.34796195213131,
          5.565171376543624
        ]
      }
    },
    {
      "type": "Feature",
      "properties": {
        "_source": "Ruta16-Florida-AvenidaNorte-Asis",
        "_segmentIndex": 0,
        "_position": 2
      },
      "geometry": {
        "type": "Point",
        "coordinates": [
          -73.34769743946211,
          5.565535662365071
        ]
      }
    },
    {
      "type": "Feature",
      "properties": {
        "_source": "Ruta16-Florida-AvenidaNorte-Asis",
        "_segmentIndex": 0,
        "_position": 3
      },
      "geometry": {
        "type": "Point",
        "coordinates": [
          -73.34743588734614,
          5.565902244107102
        ]
      }
    },
    {
      "type": "Feature",
      "properties": {
        "_source": "Ruta16-Florida-AvenidaNorte-Asis",
        "_segmentIndex": 0,
        "_position": 4
      },
      "geometry": {
        "type": "Point",
        "coordinates": [
          -73.3471576971872,
          5.56625654623292
        ]
      }
    },
    {
      "type": "Feature",
      "properties": {
        "_source": "Ruta16-Florida-AvenidaNorte-Asis",
        "_segmentIndex": 0,
        "_position": 5
      },
      "geometry": {
        "type": "Point",
        "coordinates": [
          -73.34693790326766,
          5.566644457859
        ]
      }
    },
    {
      "type": "Feature",
      "properties": {
        "_source": "Ruta16-Florida-AvenidaNorte-Asis",
        "_segmentIndex": 0,
        "_position": 0
      },
      "geometry": {
        "type": "Point",
        "coordinates": [
          -73.346785,
          5.567049
        ]
      }
    },
    {
      "type": "Feature",
      "properties": {
        "_source": "Ruta16-Florida-AvenidaNorte-Asis",
        "_segmentIndex": 0,
        "_position": 1
      },
      "geometry": {
        "type": "Point",
        "coordinates": [
          -73.34718657566533,
          5.5672542238292175
        ]
      }
    },
    {
      "type": "Feature",
      "properties": {
        "_source": "Ruta16-Florida-AvenidaNorte-Asis",
        "_segmentIndex": 0,
        "_position": 2
      },
      "geometry": {
        "type": "Point",
        "coordinates": [
          -73.34760036852386,
          5.567434129306706
        ]
      }
    },
    {
      "type": "Feature",
      "properties": {
        "_source": "Ruta16-Florida-AvenidaNorte-Asis",
        "_segmentIndex": 0,
        "_position": 0
      },
      "geometry": {
        "type": "Point",
        "coordinates": [
          -73.347872,
          5.567564
        ]
      }
    },
    {
      "type": "Feature",
      "properties": {
        "_source": "Ruta16-Florida-AvenidaNorte-Asis",
        "_segmentIndex": 0,
        "_position": 1
      },
      "geometry": {
        "type": "Point",
        "coordinates": [
          -73.3477036206987,
          5.567981253579791
        ]
      }
    },
    {
      "type": "Feature",
      "properties": {
        "_source": "Ruta16-Florida-AvenidaNorte-Asis",
        "_segmentIndex": 0,
        "_position": 2
      },
      "geometry": {
        "type": "Point",
        "coordinates": [
          -73.34751596910586,
          5.5683880767927265
        ]
      }
    },
    {
      "type": "Feature",
      "properties": {
        "_source": "Ruta16-Florida-AvenidaNorte-Asis",
        "_segmentIndex": 0,
        "_position": 3
      },
      "geometry": {
        "type": "Point",
        "coordinates": [
          -73.34717237585939,
          5.56867564562643
        ]
      }
    },
    {
      "type": "Feature",
      "properties": {
        "_source": "Ruta16-Florida-AvenidaNorte-Asis",
        "_segmentIndex": 0,
        "_position": 4
      },
      "geometry": {
        "type": "Point",
        "coordinates": [
          -73.34691754132876,
          5.569046922573656
        ]
      }
    },
    {
      "type": "Feature",
      "properties": {
        "_source": "Ruta16-Florida-AvenidaNorte-Asis",
        "_segmentIndex": 0,
        "_position": 5
      },
      "geometry": {
        "type": "Point",
        "coordinates": [
          -73.34666547353542,
          5.569419954416973
        ]
      }
    },
    {
      "type": "Feature",
      "properties": {
        "_source": "Ruta16-Florida-AvenidaNorte-Asis",
        "_segmentIndex": 0,
        "_position": 6
      },
      "geometry": {
        "type": "Point",
        "coordinates": [
          -73.34639087838266,
          5.5697767916154595
        ]
      }
    },
    {
      "type": "Feature",
      "properties": {
        "_source": "Ruta16-Florida-AvenidaNorte-Asis",
        "_segmentIndex": 0,
        "_position": 0
      },
      "geometry": {
        "type": "Point",
        "coordinates": [
          -73.346218,
          5.570059
        ]
      }
    },
    {
      "type": "Feature",
      "properties": {
        "_source": "Ruta16-Florida-AvenidaNorte-Asis",
        "_segmentIndex": 0,
        "_position": 1
      },
      "geometry": {
        "type": "Point",
        "coordinates": [
          -73.34658464769174,
          5.5703217301620445
        ]
      }
    },
    {
      "type": "Feature",
      "properties": {
        "_source": "Ruta16-Florida-AvenidaNorte-Asis",
        "_segmentIndex": 0,
        "_position": 2
      },
      "geometry": {
        "type": "Point",
        "coordinates": [
          -73.34695617087719,
          5.570577476068253
        ]
      }
    },
    {
      "type": "Feature",
      "properties": {
        "_source": "Ruta16-Florida-AvenidaNorte-Asis",
        "_segmentIndex": 0,
        "_position": 3
      },
      "geometry": {
        "type": "Point",
        "coordinates": [
          -73.34733253224526,
          5.570826235386386
        ]
      }
    },
    {
      "type": "Feature",
      "properties": {
        "_source": "Ruta16-Florida-AvenidaNorte-Asis",
        "_segmentIndex": 0,
        "_position": 4
      },
      "geometry": {
        "type": "Point",
        "coordinates": [
          -73.34770247879742,
          5.571084304932094
        ]
      }
    }
  ]
}