{
  "type": "FeatureCollection",
  "features": [
    {
      "type": "Feature",
      "properties": {
        "_source": "Ruta12-Muiscas-Uniboyaca-RetenSur-Runta",
        "_segmentIndex": 0,
        "_position": 0
      },
      "geometry": {
        "type": "Point",
        "coordinates": [
          -73.338569,
          5.568347
        ]
      }
    },
    {
      "type": "Feature",
      "properties": {
        "_source": "Ruta12-Muiscas-Uniboyaca-RetenSur-Runta",
        "_segmentIndex": 0,
        "_position": 0
      },
      "geometry": {
        "type": "Point",
        "coordinates": [
          -73.338311,
          5.568592
        ]
      }
    },
    {
      "type": "Feature",
      "properties": {
        "_source": "Ruta12-Muiscas-Uniboyaca-RetenSur-Runta",
        "_segmentIndex": 0,
        "_position": 1
      },
      "geometry": {
        "type": "Point",
        "coordinates": [
          -73.33807462297446,
          5.568952216148879
        ]
      }
    },
    {
      "type": "Feature",
      "properties": {
        "_source": "Ruta12-Muiscas-Uniboyaca-RetenSur-Runta",
        "_segmentIndex": 0,
        "_position": 2
      },
      "geometry": {
        "type": "Point",
        "coordinates": [
          -73.33792578464033,
          5.569375031060576
        ]
      }
    },
    {
      "type": "Feature",
      "properties": {
        "_source": "Ruta12-Muiscas-Uniboyaca-RetenSur-Runta",
        "_segmentIndex": 0,
        "_position": 3
      },
      "geometry": {
        "type": "Point",
        "coordinates": [
          -73.33759399307205,
          5.569648459921346
        ]
      }
    },
    {
      "type": "Feature",
      "properties": {
        "_source": "Ruta12-Muiscas-Uniboyaca-RetenSur-Runta",
        "_segmentIndex": 0,
        "_position": 4
      },
      "geometry": {
        "type": "Point",
        "coordinates": [
          -73.3371479398446,
          5.569711760281228
        ]
      }
    },
    {
      "type": "Feature",
      "properties": {
        "_source": "Ruta12-Muiscas-Uniboyaca-RetenSur-Runta",
        "_segmentIndex": 0,
        "_position": 0
      },
      "geometry": {
        "type": "Point",
        "coordinates": [
          -73.337069,
          5.569708
        ]
      }
    },
    {
      "type": "Feature",
      "properties": {
        "_source": "Ruta12-Muiscas-Uniboyaca-RetenSur-Runta",
        "_segmentIndex": 0,
        "_position": 0
      },
      "geometry": {
        "type": "Point",
        "coordinates": [
          -73.337286,
          5.569487
        ]
      }
    },
    {
      "type": "Feature",
      "properties": {
        "_source": "Ruta12-Muiscas-Uniboyaca-RetenSur-Runta",
        "_segmentIndex": 0,
        "_position": 1
      },
      "geometry": {
        "type": "Point",
        "coordinates": [
          -73.3374690716468,
          5.569076580638018
        ]
      }
    },
    {
      "type": "Feature",
      "properties": {
        "_source": "Ruta12-Muiscas-Uniboyaca-RetenSur-Runta",
        "_segmentIndex": 0,
        "_position": 2
      },
      "geometry": {
        "type": "Point",
        "coordinates": [
          -73.33763518240342,
          5.568658493581052
        ]
      }
    },
    {
      "type": "Feature",
      "properties": {
        "_source": "Ruta12-Muiscas-Uniboyaca-RetenSur-Runta",
        "_segmentIndex": 0,
        "_position": 3
      },
      "geometry": {
        "type": "Point",
        "coordinates": [
          -73.33782025171067,
          5.568248468615842
        ]
      }
    },
    {
      "type": "Feature",
      "properties": {
        "_source": "Ruta12-Muiscas-Uniboyaca-RetenSur-Runta",
        "_segmentIndex": 0,
        "_position": 4
      },
      "geometry": {
        "type": "Point",
        "coordinates": [
          -73.33807823795966,
          5.5678839969961995
        ]
      }
    },
    {
      "type": "Feature",
      "properties": {
        "_source": "Ruta12-Muiscas-Uniboyaca-RetenSur-Runta",
        "_segmentIndex": 0,
        "_position": 5
      },
      "geometry": {
        "type": "Point",
        "coordinates": [
          -73.33841368389645,
          5.567583331225135
        ]
      }
    },
    {
      "type": "Feature",
      "properties": {
        "_source": "Ruta12-Muiscas-Uniboyaca-RetenSur-Runta",
        "_segmentIndex": 0,
        "_position": 6
      },
      "geometry": {
        "type": "Point",
        "coordinates": [
          -73.33875851837257,
          5.5672932388325105
        ]
      }
    },
    {
      "type": "Feature",
      "properties": {
        "_source": "Ruta12-Muiscas-Uniboyaca-RetenSur-Runta",
        "_segmentIndex": 0,
        "_position": 7
      },
      "geometry": {
        "type": "Point",
        "coordinates": [
          -73.33912324967186,
          5.567027876157567
        ]
      }
    },
    {
      "type": "Feature",
      "properties": {
        "_source": "Ruta12-Muiscas-Uniboyaca-RetenSur-Runta",
        "_segmentIndex": 0,
        "_position": 8
      },
      "geometry": {
        "type": "Point",
        "coordinates": [
          -73.33948798064182,
          5.566762513258447
        ]
      }
    },
    {
      "type": "Feature",
      "properties": {
        "_source": "Ruta12-Muiscas-Uniboyaca-RetenSur-Runta",
        "_segmentIndex": 0,
        "_position": 9
      },
      "geometry": {
        "type": "Point",
        "coordinates": [
          -73.33987179775376,
          5.566527322718348
        ]
      }
    },
    {
      "type": "Feature",
      "properties": {
        "_source": "Ruta12-Muiscas-Uniboyaca-RetenSur-Runta",
        "_segmentIndex": 0,
        "_position": 10
      },
      "geometry": {
        "type": "Point",
        "coordinates": [
          -73.3402564016308,
          5.566292585235001
        ]
      }
    },
    {
      "type": "Feature",
      "properties": {
        "_source": "Ruta12-Muiscas-Uniboyaca-RetenSur-Runta",
        "_segmentIndex": 0,
        "_position": 11
      },
      "geometry": {
        "type": "Point",
        "coordinates": [
          -73.34062353659343,
          5.566030779254721
        ]
      }
    },
    {
      "type": "Feature",
      "properties": {
        "_source": "Ruta12-Muiscas-Uniboyaca-RetenSur-Runta",
        "_segmentIndex": 0,
        "_position": 12
      },
      "geometry": {
        "type": "Point",
        "coordinates": [
          -73.34096936529299,
          5.565742602489109
        ]
      }
    },
    {
      "type": "Feature",
      "properties": {
        "_source": "Ruta12-Muiscas-Uniboyaca-RetenSur-Runta",
        "_segmentIndex": 0,
        "_position": 13
      },
      "geometry": {
        "type": "Point",
        "coordinates": [
          -73.34129428019213,
          5.565430164354542
        ]
      }
    },
    {
      "type": "Feature",
      "properties": {
        "_source": "Ruta12-Muiscas-Uniboyaca-RetenSur-Runta",
        "_segmentIndex": 0,
        "_position": 14
      },
      "geometry": {
        "type": "Point",
        "coordinates": [
          -73.34161933796892,
          5.565117873725444
        ]
      }
    },
    {
      "type": "Feature",
      "properties": {
        "_source": "Ruta12-Muiscas-Uniboyaca-RetenSur-Runta",
        "_segmentIndex": 0,
        "_position": 15
      },
      "geometry": {
        "type": "Point",
        "coordinates": [
          -73.34194455397252,
          5.5648057464287275
        ]
      }
    },
    {
      "type": "Feature",
      "properties": {
        "_source": "Ruta12-Muiscas-Uniboyaca-RetenSur-Runta",
        "_segmentIndex": 0,
        "_position": 16
      },
      "geometry": {
        "type": "Point",
        "coordinates": [
          -73.3422697696309,
          5.56449361895385
        ]
      }
    },
    {
      "type": "Feature",
      "properties": {
        "_source": "Ruta12-Muiscas-Uniboyaca-RetenSur-Runta",
        "_segmentIndex": 0,
        "_position": 17
      },
      "geometry": {
        "type": "Point",
        "coordinates": [
          -73.34259498494407,
          5.56418149130082
        ]
      }
    },
    {
      "type": "Feature",
      "properties": {
        "_source": "Ruta12-Muiscas-Uniboyaca-RetenSur-Runta",
        "_segmentIndex": 0,
        "_position": 18
      },
      "geometry": {
        "type": "Point",
        "coordinates": [
          -73.34292410163548,
          5.563873781658911
        ]
      }
    },
    {
      "type": "Feature",
      "properties": {
        "_source": "Ruta12-Muiscas-Uniboyaca-RetenSur-Runta",
        "_segmentIndex": 0,
        "_position": 19
      },
      "geometry": {
        "type": "Point",
        "coordinates": [
          -73.34328588705087,
          5.563605130026212
        ]
      }
    },
    {
      "type": "Feature",
      "properties": {
        "_source": "Ruta12-Muiscas-Uniboyaca-RetenSur-Runta",
        "_segmentIndex": 0,
        "_position": 20
      },
      "geometry": {
        "type": "Point",
        "coordinates": [
          -73.34370001041718,
          5.563429373150845
        ]
      }
    },
    {
      "type": "Feature",
      "properties": {
        "_source": "Ruta12-Muiscas-Uniboyaca-RetenSur-Runta",
        "_segmentIndex": 0,
        "_position": 21
      },
      "geometry": {
        "type": "Point",
        "coordinates": [
          -73.34412299795808,
          5.563271394041651
        ]
      }
    },
    {
      "type": "Feature",
      "properties": {
        "_source": "Ruta12-Muiscas-Uniboyaca-RetenSur-Runta",
        "_segmentIndex": 0,
        "_position": 22
      },
      "geometry": {
        "type": "Point",
        "coordinates": [
          -73.34454598527176,
          5.563113414631153
        ]
      }
    },
    {
      "type": "Feature",
      "properties": {
        "_source": "Ruta12-Muiscas-Uniboyaca-RetenSur-Runta",
        "_segmentIndex": 0,
        "_position": 23
      },
      "geometry": {
        "type": "Point",
        "coordinates": [
          -73.34496574695525,
          5.562947170085687
        ]
      }
    },
    {
      "type": "Feature",
      "properties": {
        "_source": "Ruta12-Muiscas-Uniboyaca-RetenSur-Runta",
        "_segmentIndex": 0,
        "_position": 24
      },
      "geometry": {
        "type": "Point",
        "coordinates": [
          -73.34538497510486,
          5.5627795587166515
        ]
      }
    },
    {
      "type": "Feature",
      "properties": {
        "_source": "Ruta12-Muiscas-Uniboyaca-RetenSur-Runta",
        "_segmentIndex": 0,
        "_position": 25
      },
      "geometry": {
        "type": "Point",
        "coordinates": [
          -73.34580420301558,
          5.562611947051668
        ]
      }
    },
    {
      "type": "Feature",
      "properties": {
        "_source": "Ruta12-Muiscas-Uniboyaca-RetenSur-Runta",
        "_segmentIndex": 0,
        "_position": 26
      },
      "geometry": {
        "type": "Point",
        "coordinates": [
          -73.34622343068742,
          5.562444335090745
        ]
      }
    },
    {
      "type": "Feature",
      "properties": {
        "_source": "Ruta12-Muiscas-Uniboyaca-RetenSur-Runta",
        "_segmentIndex": 0,
        "_position": 27
      },
      "geometry": {
        "type": "Point",
        "coordinates": [
          -73.34664265812037,
          5.562276722833895
        ]
      }
    },
    {
      "type": "Feature",
      "properties": {
        "_source": "Ruta12-Muiscas-Uniboyaca-RetenSur-Runta",
        "_segmentIndex": 0,
        "_position": 28
      },
      "geometry": {
        "type": "Point",
        "coordinates": [
          -73.34705505782502,
          5.562093271169174
        ]
      }
    },
    {
      "type": "Feature",
      "properties": {
        "_source": "Ruta12-Muiscas-Uniboyaca-RetenSur-Runta",
        "_segmentIndex": 0,
        "_position": 29
      },
      "geometry": {
        "type": "Point",
        "coordinates": [
          -73.34741992165124,
          5.561840554277705
        ]
      }
    },
    {
      "type": "Feature",
      "properties": {
        "_source": "Ruta12-Muiscas-Uniboyaca-RetenSur-Runta",
        "_segmentIndex": 0,
        "_position": 30
      },
      "geometry": {
        "type": "Point",
        "coordinates": [
          -73.34764862268102,
          5.561454107110373
        ]
      }
    },
    {
      "type": "Feature",
      "properties": {
        "_source": "Ruta12-Muiscas-Uniboyaca-RetenSur-Runta",
        "_segmentIndex": 0,
        "_position": 31
      },
      "geometry": {
        "type": "Point",
        "coordinates": [
          -73.34791973593295,
          5.561094542836733
        ]
      }
    },
    {
      "type": "Feature",
      "properties": {
        "_source": "Ruta12-Muiscas-Uniboyaca-RetenSur-Runta",
        "_segmentIndex": 0,
        "_position": 32
      },
      "geometry": {
        "type": "Point",
        "coordinates": [
          -73.348193363938,
          5.560736753559929
        ]
      }
    },
    {
      "type": "Feature",
      "properties": {
        "_source": "Ruta12-Muiscas-Uniboyaca-RetenSur-Runta",
        "_segmentIndex": 0,
        "_position": 33
      },
      "geometry": {
        "type": "Point",
        "coordinates": [
          -73.3484926976752,
          5.5604231964153445
        ]
      }
    },
    {
      "type": "Feature",
      "properties": {
        "_source": "Ruta12-Muiscas-Uniboyaca-RetenSur-Runta",
        "_segmentIndex": 0,
        "_position": 0
      },
      "geometry": {
        "type": "Point",
        "coordinates": [
          -73.348634,
          5.560421
        ]
      }
    },
    {
      "type": "Feature",
      "properties": {
        "_source": "Ruta12-Muiscas-Uniboyaca-RetenSur-Runta",
        "_segmentIndex": 0,
        "_position": 1
      },
      "geometry": {
        "type": "Point",
        "coordinates": [
          -73.34885418276178,
          5.560030538679357
        ]
      }
    },
    {
      "type": "Feature",
      "properties": {
        "_source": "Ruta12-Muiscas-Uniboyaca-RetenSur-Runta",
        "_segmentIndex": 0,
        "_position": 2
      },
      "geometry": {
        "type": "Point",
        "coordinates": [
          -73.34904230124147,
          5.559621713784622
        ]
      }
    },
    {
      "type": "Feature",
      "properties": {
        "_source": "Ruta12-Muiscas-Uniboyaca-RetenSur-Runta",
        "_segmentIndex": 0,
        "_position": 3
      },
      "geometry": {
        "type": "Point",
        "coordinates": [
          -73.3492293924073,
          5.559212422090643
        ]
      }
    },
    {
      "type": "Feature",
      "properties": {
        "_source": "Ruta12-Muiscas-Uniboyaca-RetenSur-Runta",
        "_segmentIndex": 0,
        "_position": 4
      },
      "geometry": {
        "type": "Point",
        "coordinates": [
          -73.34941648331295,
          5.5588031303377585
        ]
      }
    },
    {
      "type": "Feature",
      "properties": {
        "_source": "Ruta12-Muiscas-Uniboyaca-RetenSur-Runta",
        "_segmentIndex": 0,
        "_position": 5
      },
      "geometry": {
        "type": "Point",
        "coordinates": [
          -73.34960696308909,
          5.55839539007741
        ]
      }
    },
    {
      "type": "Feature",
      "properties": {
        "_source": "Ruta12-Muiscas-Uniboyaca-RetenSur-Runta",
        "_segmentIndex": 0,
        "_position": 6
      },
      "geometry": {
        "type": "Point",
        "coordinates": [
          -73.34979745198707,
          5.557987654052784
        ]
      }
    },
    {
      "type": "Feature",
      "properties": {
        "_source": "Ruta12-Muiscas-Uniboyaca-RetenSur-Runta",
        "_segmentIndex": 0,
        "_position": 7
      },
      "geometry": {
        "type": "Point",
        "coordinates": [
          -73.34998794062122,
          5.557579917967108
        ]
      }
    },
    {
      "type": "Feature",
      "properties": {
        "_source": "Ruta12-Muiscas-Uniboyaca-RetenSur-Runta",
        "_segmentIndex": 0,
        "_position": 8
      },
      "geometry": {
        "type": "Point",
        "coordinates": [
          -73.35017842899154,
          5.557172181820385
        ]
      }
    },
    {
      "type": "Feature",
      "properties": {
        "_source": "Ruta12-Muiscas-Uniboyaca-RetenSur-Runta",
        "_segmentIndex": 0,
        "_position": 9
      },
      "geometry": {
        "type": "Point",
        "coordinates": [
          -73.35036891709811,
          5.5567644456126235
        ]
      }
    },
    {
      "type": "Feature",
      "properties": {
        "_source": "Ruta12-Muiscas-Uniboyaca-RetenSur-Runta",
        "_segmentIndex": 0,
        "_position": 10
      },
      "geometry": {
        "type": "Point",
        "coordinates": [
          -73.3505594049409,
          5.556356709343827
        ]
      }
    },
    {
      "type": "Feature",
      "properties": {
        "_source": "Ruta12-Muiscas-Uniboyaca-RetenSur-Runta",
        "_segmentIndex": 0,
        "_position": 11
      },
      "geometry": {
        "type": "Point",
        "coordinates": [
          -73.35074989251993,
          5.555948973013998
        ]
      }
    },
    {
      "type": "Feature",
      "properties": {
        "_source": "Ruta12-Muiscas-Uniboyaca-RetenSur-Runta",
        "_segmentIndex": 0,
        "_position": 12
      },
      "geometry": {
        "type": "Point",
        "coordinates": [
          -73.35094059475581,
          5.555541336698505
        ]
      }
    },
    {
      "type": "Feature",
      "properties": {
        "_source": "Ruta12-Muiscas-Uniboyaca-RetenSur-Runta",
        "_segmentIndex": 0,
        "_position": 13
      },
      "geometry": {
        "type": "Point",
        "coordinates": [
          -73.3511329966767,
          5.555134491884077
        ]
      }
    },
    {
      "type": "Feature",
      "properties": {
        "_source": "Ruta12-Muiscas-Uniboyaca-RetenSur-Runta",
        "_segmentIndex": 0,
        "_position": 14
      },
      "geometry": {
        "type": "Point",
        "coordinates": [
          -73.35132539833181,
          5.554727647007398
        ]
      }
    },
    {
      "type": "Feature",
      "properties": {
        "_source": "Ruta12-Muiscas-Uniboyaca-RetenSur-Runta",
        "_segmentIndex": 0,
        "_position": 15
      },
      "geometry": {
        "type": "Point",
        "coordinates": [
          -73.35147116373508,
          5.554302240568092
        ]
      }
    },
    {
      "type": "Feature",
      "properties": {
        "_source": "Ruta12-Muiscas-Uniboyaca-RetenSur-Runta",
        "_segmentIndex": 0,
        "_position": 16
      },
      "geometry": {
        "type": "Point",
        "coordinates": [
          -73.35161543415839,
          5.5538761261604055
        ]
      }
    },
    {
      "type": "Feature",
      "properties": {
        "_source": "Ruta12-Muiscas-Uniboyaca-RetenSur-Runta",
        "_segmentIndex": 0,
        "_position": 17
      },
      "geometry": {
        "type": "Point",
        "coordinates": [
          -73.35176062927188,
          5.553450320913571
        ]
      }
    },
    {
      "type": "Feature",
      "properties": {
        "_source": "Ruta12-Muiscas-Uniboyaca-RetenSur-Runta",
        "_segmentIndex": 0,
        "_position": 18
      },
      "geometry": {
        "type": "Point",
        "coordinates": [
          -73.35190582417555,
          5.5530245156312965
        ]
      }
    },
    {
      "type": "Feature",
      "properties": {
        "_source": "Ruta12-Muiscas-Uniboyaca-RetenSur-Runta",
        "_segmentIndex": 0,
        "_position": 19
      },
      "geometry": {
        "type": "Point",
        "coordinates": [
          -73.35202968619755,
          5.552592085838406
        ]
      }
    },
    {
      "type": "Feature",
      "properties": {
        "_source": "Ruta12-Muiscas-Uniboyaca-RetenSur-Runta",
        "_segmentIndex": 0,
        "_position": 20
      },
      "geometry": {
        "type": "Point",
        "coordinates": [
          -73.3521535221736,
          5.552159647988065
        ]
      }
    },
    {
      "type": "Feature",
      "properties": {
        "_source": "Ruta12-Muiscas-Uniboyaca-RetenSur-Runta",
        "_segmentIndex": 0,
        "_position": 21
      },
      "geometry": {
        "type": "Point",
        "coordinates": [
          -73.35227735796792,
          5.55172721011195
        ]
      }
    },
    {
      "type": "Feature",
      "properties": {
        "_source": "Ruta12-Muiscas-Uniboyaca-RetenSur-Runta",
        "_segmentIndex": 0,
        "_position": 22
      },
      "geometry": {
        "type": "Point",
        "coordinates": [
          -73.35247561680653,
          5.551328602356064
        ]
      }
    },
    {
      "type": "Feature",
      "properties": {
        "_source": "Ruta12-Muiscas-Uniboyaca-RetenSur-Runta",
        "_segmentIndex": 0,
        "_position": 23
      },
      "geometry": {
        "type": "Point",
        "coordinates": [
          -73.35275562395748,
          5.550975729210406
        ]
      }
    },
    {
      "type": "Feature",
      "properties": {
        "_source": "Ruta12-Muiscas-Uniboyaca-RetenSur-Runta",
        "_segmentIndex": 0,
        "_position": 24
      },
      "geometry": {
        "type": "Point",
        "coordinates": [
          -73.35304017277082,
          5.550626467391715
        ]
      }
    },
    {
      "type": "Feature",
      "properties": {
        "_source": "Ruta12-Muiscas-Uniboyaca-RetenSur-Runta",
        "_segmentIndex": 0,
        "_position": 25
      },
      "geometry": {
        "type": "Point",
        "coordinates": [
          -73.353324721247,
          5.550277205436977
        ]
      }
    },
    {
      "type": "Feature",
      "properties": {
        "_source": "Ruta12-Muiscas-Uniboyaca-RetenSur-Runta",
        "_segmentIndex": 0,
        "_position": 26
      },
      "geometry": {
        "type": "Point",
        "coordinates": [
          -73.35360926938611,
          5.5499279433462005
        ]
      }
    },
    {
      "type": "Feature",
      "properties": {
        "_source": "Ruta12-Muiscas-Uniboyaca-RetenSur-Runta",
        "_segmentIndex": 0,
        "_position": 27
      },
      "geometry": {
        "type": "Point",
        "coordinates": [
          -73.35389381718812,
          5.549578681119394
        ]
      }
    },
    {
      "type": "Feature",
      "properties": {
        "_source": "Ruta12-Muiscas-Uniboyaca-RetenSur-Runta",
        "_segmentIndex": 0,
        "_position": 28
      },
      "geometry": {
        "type": "Point",
        "coordinates": [
          -73.35417836465307,
          5.549229418756567
        ]
      }
    },
    {
      "type": "Feature",
      "properties": {
        "_source": "Ruta12-Muiscas-Uniboyaca-RetenSur-Runta",
        "_segmentIndex": 0,
        "_position": 29
      },
      "geometry": {
        "type": "Point",
        "coordinates": [
          -73.35445040955958,
          5.548870444675155
        ]
      }
    },
    {
      "type": "Feature",
      "properties": {
        "_source": "Ruta12-Muiscas-Uniboyaca-RetenSur-Runta",
        "_segmentIndex": 0,
        "_position": 30
      },
      "geometry": {
        "type": "Point",
        "coordinates": [
          -73.35472167783976,
          5.5485108674524355
        ]
      }
    },
    {
      "type": "Feature",
      "properties": {
        "_source": "Ruta12-Muiscas-Uniboyaca-RetenSur-Runta",
        "_segmentIndex": 0,
        "_position": 31
      },
      "geometry": {
        "type": "Point",
        "coordinates": [
          -73.35499294578922,
          5.548151290106118
        ]
      }
    },
    {
      "type": "Feature",
      "properties": {
        "_source": "Ruta12-Muiscas-Uniboyaca-RetenSur-Runta",
        "_segmentIndex": 0,
        "_position": 32
      },
      "geometry": {
        "type": "Point",
        "coordinates": [
          -73.35526421340792,
          5.5477917126362115
        ]
      }
    },
    {
      "type": "Feature",
      "properties": {
        "_source": "Ruta12-Muiscas-Uniboyaca-RetenSur-Runta",
        "_segmentIndex": 0,
        "_position": 33
      },
      "geometry": {
        "type": "Point",
        "coordinates": [
          -73.35553436785833,
          5.547431308415031
        ]
      }
    },
    {
      "type": "Feature",
      "properties": {
        "_source": "Ruta12-Muiscas-Uniboyaca-RetenSur-Runta",
        "_segmentIndex": 0,
        "_position": 34
      },
      "geometry": {
        "type": "Point",
        "coordinates": [
          -73.35580351609899,
          5.547070156893333
        ]
      }
    },
    {
      "type": "Feature",
      "properties": {
        "_source": "Ruta12-Muiscas-Uniboyaca-RetenSur-Runta",
        "_segmentIndex": 0,
        "_position": 35
      },
      "geometry": {
        "type": "Point",
        "coordinates": [
          -73.35607266401013,
          5.546709005249993
        ]
      }
    },
    {
      "type": "Feature",
      "properties": {
        "_source": "Ruta12-Muiscas-Uniboyaca-RetenSur-Runta",
        "_segmentIndex": 0,
        "_position": 36
      },
      "geometry": {
        "type": "Point",
        "coordinates": [
          -73.35634181159178,
          5.54634785348502
        ]
      }
    },
    {
      "type": "Feature",
      "properties": {
        "_source": "Ruta12-Muiscas-Uniboyaca-RetenSur-Runta",
        "_segmentIndex": 0,
        "_position": 37
      },
      "geometry": {
        "type": "Point",
        "coordinates": [
          -73.35661095884392,
          5.54598670159842
        ]
      }
    },
    {
      "type": "Feature",
      "properties": {
        "_source": "Ruta12-Muiscas-Uniboyaca-RetenSur-Runta",
        "_segmentIndex": 0,
        "_position": 38
      },
      "geometry": {
        "type": "Point",
        "coordinates": [
          -73.3568801057666,
          5.545625549590206
        ]
      }
    },
    {
      "type": "Feature",
      "properties": {
        "_source": "Ruta12-Muiscas-Uniboyaca-RetenSur-Runta",
        "_segmentIndex": 0,
        "_position": 39
      },
      "geometry": {
        "type": "Point",
        "coordinates": [
          -73.35714925235987,
          5.545264397460378
        ]
      }
    },
    {
      "type": "Feature",
      "properties": {
        "_source": "Ruta12-Muiscas-Uniboyaca-RetenSur-Runta",
        "_segmentIndex": 0,
        "_position": 0
      },
      "geometry": {
        "type": "Point",
        "coordinates": [
          -73.357353,
          5.544991
        ]
      }
    },
    {
      "type": "Feature",
      "properties": {
        "_source": "Ruta12-Muiscas-Uniboyaca-RetenSur-Runta",
        "_segmentIndex": 0,
        "_position": 1
      },
      "geometry": {
        "type": "Point",
        "coordinates": [
          -73.3577469910929,
          5.5448051380256205
        ]
      }
    },
    {
      "type": "Feature",
      "properties": {
        "_source": "Ruta12-Muiscas-Uniboyaca-RetenSur-Runta",
        "_segmentIndex": 0,
        "_position": 2
      },
      "geometry": {
        "type": "Point",
        "coordinates": [
          -73.3578657018485,
          5.544396697584115
        ]
      }
    },
    {
      "type": "Feature",
      "properties": {
        "_source": "Ruta12-Muiscas-Uniboyaca-RetenSur-Runta",
        "_segmentIndex": 0,
        "_position": 0
      },
      "geometry": {
        "type": "Point",
        "coordinates": [
          -73.357926,
          5.544282
        ]
      }
    },
    {
      "type": "Feature",
      "properties": {
        "_source": "Ruta12-Muiscas-Uniboyaca-RetenSur-Runta",
        "_segmentIndex": 0,
        "_position": 1
      },
      "geometry": {
        "type": "Point",
        "coordinates": [
          -73.35818354225991,
          5.543912560750732
        ]
      }
    },
    {
      "type": "Feature",
      "properties": {
        "_source": "Ruta12-Muiscas-Uniboyaca-RetenSur-Runta",
        "_segmentIndex": 0,
        "_position": 2
      },
      "geometry": {
        "type": "Point",
        "coordinates": [
          -73.35844108419744,
          5.5435431213901545
        ]
      }
    },
    {
      "type": "Feature",
      "properties": {
        "_source": "Ruta12-Muiscas-Uniboyaca-RetenSur-Runta",
        "_segmentIndex": 0,
        "_position": 3
      },
      "geometry": {
        "type": "Point",
        "coordinates": [
          -73.35869862581264,
          5.543173681918271
        ]
      }
    },
    {
      "type": "Feature",
      "properties": {
        "_source": "Ruta12-Muiscas-Uniboyaca-RetenSur-Runta",
        "_segmentIndex": 0,
        "_position": 4
      },
      "geometry": {
        "type": "Point",
        "coordinates": [
          -73.35900038760157,
          5.54286638854464
        ]
      }
    },
    {
      "type": "Feature",
      "properties": {
        "_source": "Ruta12-Muiscas-Uniboyaca-RetenSur-Runta",
        "_segmentIndex": 0,
        "_position": 5
      },
      "geometry": {
        "type": "Point",
        "coordinates": [
          -73.35892609608669,
          5.542461219980812
        ]
      }
    },
    {
      "type": "Feature",
      "properties": {
        "_source": "Ruta12-Muiscas-Uniboyaca-RetenSur-Runta",
        "_segmentIndex": 0,
        "_position": 6
      },
      "geometry": {
        "type": "Point",
        "coordinates": [
          -73.3590218684936,
          5.542026610049462
        ]
      }
    },
    {
      "type": "Feature",
      "properties": {
        "_source": "Ruta12-Muiscas-Uniboyaca-RetenSur-Runta",
        "_segmentIndex": 0,
        "_position": 7
      },
      "geometry": {
        "type": "Point",
        "coordinates": [
          -73.35920102768362,
          5.5416146474044865
        ]
      }
    },
    {
      "type": "Feature",
      "properties": {
        "_source": "Ruta12-Muiscas-Uniboyaca-RetenSur-Runta",
        "_segmentIndex": 0,
        "_position": 8
      },
      "geometry": {
        "type": "Point",
        "coordinates": [
          -73.35940072340675,
          5.541211301700774
        ]
      }
    },
    {
      "type": "Feature",
      "properties": {
        "_source": "Ruta12-Muiscas-Uniboyaca-RetenSur-Runta",
        "_segmentIndex": 0,
        "_position": 9
      },
      "geometry": {
        "type": "Point",
        "coordinates": [
          -73.35959857481411,
          5.540807147048542
        ]
      }
    },
    {
      "type": "Feature",
      "properties": {
        "_source": "Ruta12-Muiscas-Uniboyaca-RetenSur-Runta",
        "_segmentIndex": 0,
        "_position": 10
      },
      "geometry": {
        "type": "Point",
        "coordinates": [
          -73.35976292575619,
          5.540388297614446
        ]
      }
    },
    {
      "type": "Feature",
      "properties": {
        "_source": "Ruta12-Muiscas-Uniboyaca-RetenSur-Runta",
        "_segmentIndex": 0,
        "_position": 11
      },
      "geometry": {
        "type": "Point",
        "coordinates": [
          -73.35993296704481,
          5.539971766299981
        ]
      }
    },
    {
      "type": "Feature",
      "properties": {
        "_source": "Ruta12-Muiscas-Uniboyaca-RetenSur-Runta",
        "_segmentIndex": 0,
        "_position": 12
      },
      "geometry": {
        "type": "Point",
        "coordinates": [
          -73.36005409822027,
          5.5395411907249805
        ]
      }
    },
    {
      "type": "Feature",
      "properties": {
        "_source": "Ruta12-Muiscas-Uniboyaca-RetenSur-Runta",
        "_segmentIndex": 0,
        "_position": 13
      },
      "geometry": {
        "type": "Point",
        "coordinates": [
          -73.3601408288759,
          5.53909991284732
        ]
      }
    },
    {
      "type": "Feature",
      "properties": {
        "_source": "Ruta12-Muiscas-Uniboyaca-RetenSur-Runta",
        "_segmentIndex": 0,
        "_position": 14
      },
      "geometry": {
        "type": "Point",
        "coordinates": [
          -73.36023391788147,
          5.538659902111629
        ]
      }
    },
    {
      "type": "Feature",
      "properties": {
        "_source": "Ruta12-Muiscas-Uniboyaca-RetenSur-Runta",
        "_segmentIndex": 0,
        "_position": 15
      },
      "geometry": {
        "type": "Point",
        "coordinates": [
          -73.36035614042466,
          5.538229393144044
        ]
      }
    },
    {
      "type": "Feature",
      "properties": {
        "_source": "Ruta12-Muiscas-Uniboyaca-RetenSur-Runta",
        "_segmentIndex": 0,
        "_position": 0
      },
      "geometry": {
        "type": "Point",
        "coordinates": [
          -73.360452,
          5.538019
        ]
      }
    },
    {
      "type": "Feature",
      "properties": {
        "_source": "Ruta12-Muiscas-Uniboyaca-RetenSur-Runta",
        "_segmentIndex": 0,
        "_position": 1
      },
      "geometry": {
        "type": "Point",
        "coordinates": [
          -73.36026396671625,
          5.537638156972784
        ]
      }
    },
    {
      "type": "Feature",
      "properties": {
        "_source": "Ruta12-Muiscas-Uniboyaca-RetenSur-Runta",
        "_segmentIndex": 0,
        "_position": 2
      },
      "geometry": {
        "type": "Point",
        "coordinates": [
          -73.3598436399249,
          5.537474348705128
        ]
      }
    },
    {
      "type": "Feature",
      "properties": {
        "_source": "Ruta12-Muiscas-Uniboyaca-RetenSur-Runta",
        "_segmentIndex": 0,
        "_position": 3
      },
      "geometry": {
        "type": "Point",
        "coordinates": [
          -73.35962155223777,
          5.537205068600777
        ]
      }
    },
    {
      "type": "Feature",
      "properties": {
        "_source": "Ruta12-Muiscas-Uniboyaca-RetenSur-Runta",
        "_segmentIndex": 0,
        "_position": 4
      },
      "geometry": {
        "type": "Point",
        "coordinates": [
          -73.35974521154085,
          5.536772581582573
        ]
      }
    },
    {
      "type": "Feature",
      "properties": {
        "_source": "Ruta12-Muiscas-Uniboyaca-RetenSur-Runta",
        "_segmentIndex": 0,
        "_position": 5
      },
      "geometry": {
        "type": "Point",
        "coordinates": [
          -73.35985968243416,
          5.536337798442505
        ]
      }
    },
    {
      "type": "Feature",
      "properties": {
        "_source": "Ruta12-Muiscas-Uniboyaca-RetenSur-Runta",
        "_segmentIndex": 0,
        "_position": 6
      },
      "geometry": {
        "type": "Point",
        "coordinates": [
          -73.35998666593999,
          5.535906268085814
        ]
      }
    },
    {
      "type": "Feature",
      "properties": {
        "_source": "Ruta12-Muiscas-Uniboyaca-RetenSur-Runta",
        "_segmentIndex": 0,
        "_position": 7
      },
      "geometry": {
        "type": "Point",
        "coordinates": [
          -73.36011467518856,
          5.53547505016781
        ]
      }
    },
    {
      "type": "Feature",
      "properties": {
        "_source": "Ruta12-Muiscas-Uniboyaca-RetenSur-Runta",
        "_segmentIndex": 0,
        "_position": 8
      },
      "geometry": {
        "type": "Point",
        "coordinates": [
          -73.36023747948656,
          5.535042394551211
        ]
      }
    },
    {
      "type": "Feature",
      "properties": {
        "_source": "Ruta12-Muiscas-Uniboyaca-RetenSur-Runta",
        "_segmentIndex": 0,
        "_position": 9
      },
      "geometry": {
        "type": "Point",
        "coordinates": [
          -73.36036408656278,
          5.5346109580714185
        ]
      }
    },
    {
      "type": "Feature",
      "properties": {
        "_source": "Ruta12-Muiscas-Uniboyaca-RetenSur-Runta",
        "_segmentIndex": 0,
        "_position": 10
      },
      "geometry": {
        "type": "Point",
        "coordinates": [
          -73.36050513129263,
          5.5341837746212486
        ]
      }
    },
    {
      "type": "Feature",
      "properties": {
        "_source": "Ruta12-Muiscas-Uniboyaca-RetenSur-Runta",
        "_segmentIndex": 0,
        "_position": 11
      },
      "geometry": {
        "type": "Point",
        "coordinates": [
          -73.36062235349831,
          5.533749555715562
        ]
      }
    },
    {
      "type": "Feature",
      "properties": {
        "_source": "Ruta12-Muiscas-Uniboyaca-RetenSur-Runta",
        "_segmentIndex": 0,
        "_position": 12
      },
      "geometry": {
        "type": "Point",
        "coordinates": [
          -73.3607481868229,
          5.533318438316621
        ]
      }
    },
    {
      "type": "Feature",
      "properties": {
        "_source": "Ruta12-Muiscas-Uniboyaca-RetenSur-Runta",
        "_segmentIndex": 0,
        "_position": 13
      },
      "geometry": {
        "type": "Point",
        "coordinates": [
          -73.3608956783672,
          5.53289386917196
        ]
      }
    },
    {
      "type": "Feature",
      "properties": {
        "_source": "Ruta12-Muiscas-Uniboyaca-RetenSur-Runta",
        "_segmentIndex": 0,
        "_position": 14
      },
      "geometry": {
        "type": "Point",
        "coordinates": [
          -73.36107509267778,
          5.532481997413863
        ]
      }
    },
    {
      "type": "Feature",
      "properties": {
        "_source": "Ruta12-Muiscas-Uniboyaca-RetenSur-Runta",
        "_segmentIndex": 0,
        "_position": 15
      },
      "geometry": {
        "type": "Point",
        "coordinates": [
          -73.3612327372585,
          5.532060647939212
        ]
      }
    },
    {
      "type": "Feature",
      "properties": {
        "_source": "Ruta12-Muiscas-Uniboyaca-RetenSur-Runta",
        "_segmentIndex": 0,
        "_position": 16
      },
      "geometry": {
        "type": "Point",
        "coordinates": [
          -73.3612531613993,
          5.531633177412396
        ]
      }
    },
    {
      "type": "Feature",
      "properties": {
        "_source": "Ruta12-Muiscas-Uniboyaca-RetenSur-Runta",
        "_segmentIndex": 0,
        "_position": 17
      },
      "geometry": {
        "type": "Point",
        "coordinates": [
          -73.36138266256154,
          5.531202387963947
        ]
      }
    },
    {
      "type": "Feature",
      "properties": {
        "_source": "Ruta12-Muiscas-Uniboyaca-RetenSur-Runta",
        "_segmentIndex": 0,
        "_position": 0
      },
      "geometry": {
        "type": "Point",
        "coordinates": [
          -73.361504,
          5.53077
        ]
      }
    },
    {
      "type": "Feature",
      "properties": {
        "_source": "Ruta12-Muiscas-Uniboyaca-RetenSur-Runta",
        "_segmentIndex": 0,
        "_position": 1
      },
      "geometry": {
        "type": "Point",
        "coordinates": [
          -73.36107739615417,
          5.530622034006015
        ]
      }
    },
    {
      "type": "Feature",
      "properties": {
        "_source": "Ruta12-Muiscas-Uniboyaca-RetenSur-Runta",
        "_segmentIndex": 0,
        "_position": 2
      },
      "geometry": {
        "type": "Point",
        "coordinates": [
          -73.36065079252168,
          5.530474067707326
        ]
      }
    },
    {
      "type": "Feature",
      "properties": {
        "_source": "Ruta12-Muiscas-Uniboyaca-RetenSur-Runta",
        "_segmentIndex": 0,
        "_position": 3
      },
      "geometry": {
        "type": "Point",
        "coordinates": [
          -73.36022104706181,
          5.530335432119115
        ]
      }
    },
    {
      "type": "Feature",
      "properties": {
        "_source": "Ruta12-Muiscas-Uniboyaca-RetenSur-Runta",
        "_segmentIndex": 0,
        "_position": 4
      },
      "geometry": {
        "type": "Point",
        "coordinates": [
          -73.35979095031246,
          5.530197849160415
        ]
      }
    },
    {
      "type": "Feature",
      "properties": {
        "_source": "Ruta12-Muiscas-Uniboyaca-RetenSur-Runta",
        "_segmentIndex": 0,
        "_position": 0
      },
      "geometry": {
        "type": "Point",
        "coordinates": [
          -73.359513,
          5.530109
        ]
      }
    },
    {
      "type": "Feature",
      "properties": {
        "_source": "Ruta12-Muiscas-Uniboyaca-RetenSur-Runta",
        "_segmentIndex": 0,
        "_position": 1
      },
      "geometry": {
        "type": "Point",
        "coordinates": [
          -73.35962601325534,
          5.529673637063074
        ]
      }
    },
    {
      "type": "Feature",
      "properties": {
        "_source": "Ruta12-Muiscas-Uniboyaca-RetenSur-Runta",
        "_segmentIndex": 0,
        "_position": 2
      },
      "geometry": {
        "type": "Point",
        "coordinates": [
          -73.35973902634437,
          5.529238274104766
        ]
      }
    },
    {
      "type": "Feature",
      "properties": {
        "_source": "Ruta12-Muiscas-Uniboyaca-RetenSur-Runta",
        "_segmentIndex": 0,
        "_position": 3
      },
      "geometry": {
        "type": "Point",
        "coordinates": [
          -73.35986367484045,
          5.528806086923963
        ]
      }
    },
    {
      "type": "Feature",
      "properties": {
        "_source": "Ruta12-Muiscas-Uniboyaca-RetenSur-Runta",
        "_segmentIndex": 0,
        "_position": 4
      },
      "geometry": {
        "type": "Point",
        "coordinates": [
          -73.35998957448255,
          5.528374241253018
        ]
      }
    },
    {
      "type": "Feature",
      "properties": {
        "_source": "Ruta12-Muiscas-Uniboyaca-RetenSur-Runta",
        "_segmentIndex": 0,
        "_position": 5
      },
      "geometry": {
        "type": "Point",
        "coordinates": [
          -73.36011547394095,
          5.527942395555544
        ]
      }
    },
    {
      "type": "Feature",
      "properties": {
        "_source": "Ruta12-Muiscas-Uniboyaca-RetenSur-Runta",
        "_segmentIndex": 0,
        "_position": 6
      },
      "geometry": {
        "type": "Point",
        "coordinates": [
          -73.36024620746616,
          5.527511978802588
        ]
      }
    },
    {
      "type": "Feature",
      "properties": {
        "_source": "Ruta12-Muiscas-Uniboyaca-RetenSur-Runta",
        "_segmentIndex": 0,
        "_position": 7
      },
      "geometry": {
        "type": "Point",
        "coordinates": [
          -73.36043746736267,
          5.527110991122852
        ]
      }
    },
    {
      "type": "Feature",
      "properties": {
        "_source": "Ruta12-Muiscas-Uniboyaca-RetenSur-Runta",
        "_segmentIndex": 0,
        "_position": 0
      },
      "geometry": {
        "type": "Point",
        "coordinates": [
          -73.360432,
          5.527076
        ]
      }
    },
    {
      "type": "Feature",
      "properties": {
        "_source": "Ruta12-Muiscas-Uniboyaca-RetenSur-Runta",
        "_segmentIndex": 0,
        "_position": 1
      },
      "geometry": {
        "type": "Point",
        "coordinates": [
          -73.36067966006178,
          5.526700035110329
        ]
      }
    },
    {
      "type": "Feature",
      "properties": {
        "_source": "Ruta12-Muiscas-Uniboyaca-RetenSur-Runta",
        "_segmentIndex": 0,
        "_position": 2
      },
      "geometry": {
        "type": "Point",
        "coordinates": [
          -73.36093809534036,
          5.526331219510345
        ]
      }
    },
    {
      "type": "Feature",
      "properties": {
        "_source": "Ruta12-Muiscas-Uniboyaca-RetenSur-Runta",
        "_segmentIndex": 0,
        "_position": 3
      },
      "geometry": {
        "type": "Point",
        "coordinates": [
          -73.36119422926316,
          5.525960819411922
        ]
      }
    },
    {
      "type": "Feature",
      "properties": {
        "_source": "Ruta12-Muiscas-Uniboyaca-RetenSur-Runta",
        "_segmentIndex": 0,
        "_position": 4
      },
      "geometry": {
        "type": "Point",
        "coordinates": [
          -73.36144981219165,
          5.525590040034965
        ]
      }
    },
    {
      "type": "Feature",
      "properties": {
        "_source": "Ruta12-Muiscas-Uniboyaca-RetenSur-Runta",
        "_segmentIndex": 0,
        "_position": 5
      },
      "geometry": {
        "type": "Point",
        "coordinates": [
          -73.36170539480011,
          5.525219260548737
        ]
      }
    },
    {
      "type": "Feature",
      "properties": {
        "_source": "Ruta12-Muiscas-Uniboyaca-RetenSur-Runta",
        "_segmentIndex": 0,
        "_position": 6
      },
      "geometry": {
        "type": "Point",
        "coordinates": [
          -73.36195851772933,
          5.524846822778121
        ]
      }
    },
    {
      "type": "Feature",
      "properties": {
        "_source": "Ruta12-Muiscas-Uniboyaca-RetenSur-Runta",
        "_segmentIndex": 0,
        "_position": 7
      },
      "geometry": {
        "type": "Point",
        "coordinates": [
          -73.36220964104312,
          5.524473036913545
        ]
      }
    },
    {
      "type": "Feature",
      "properties": {
        "_source": "Ruta12-Muiscas-Uniboyaca-RetenSur-Runta",
        "_segmentIndex": 0,
        "_position": 8
      },
      "geometry": {
        "type": "Point",
        "coordinates": [
          -73.36246076404002,
          5.524099250943497
        ]
      }
    },
    {
      "type": "Feature",
      "properties": {
        "_source": "Ruta12-Muiscas-Uniboyaca-RetenSur-Runta",
        "_segmentIndex": 0,
        "_position": 9
      },
      "geometry": {
        "type": "Point",
        "coordinates": [
          -73.36271188672002,
          5.523725464867988
        ]
      }
    },
    {
      "type": "Feature",
      "properties": {
        "_source": "Ruta12-Muiscas-Uniboyaca-RetenSur-Runta",
        "_segmentIndex": 0,
        "_position": 10
      },
      "geometry": {
        "type": "Point",
        "coordinates": [
          -73.36296265590003,
          5.523351444603436
        ]
      }
    },
    {
      "type": "Feature",
      "properties": {
        "_source": "Ruta12-Muiscas-Uniboyaca-RetenSur-Runta",
        "_segmentIndex": 0,
        "_position": 11
      },
      "geometry": {
        "type": "Point",
        "coordinates": [
          -73.36321229996835,
          5.522976678739498
        ]
      }
    },
    {
      "type": "Feature",
      "properties": {
        "_source": "Ruta12-Muiscas-Uniboyaca-RetenSur-Runta",
        "_segmentIndex": 0,
        "_position": 12
      },
      "geometry": {
        "type": "Point",
        "coordinates": [
          -73.36346194372089,
          5.52260191277136
        ]
      }
    },
    {
      "type": "Feature",
      "properties": {
        "_source": "Ruta12-Muiscas-Uniboyaca-RetenSur-Runta",
        "_segmentIndex": 0,
        "_position": 13
      },
      "geometry": {
        "type": "Point",
        "coordinates": [
          -73.36371158715768,
          5.5222271466990245
        ]
      }
    },
    {
      "type": "Feature",
      "properties": {
        "_source": "Ruta12-Muiscas-Uniboyaca-RetenSur-Runta",
        "_segmentIndex": 0,
        "_position": 14
      },
      "geometry": {
        "type": "Point",
        "coordinates": [
          -73.36396123027872,
          5.521852380522504
        ]
      }
    },
    {
      "type": "Feature",
      "properties": {
        "_source": "Ruta12-Muiscas-Uniboyaca-RetenSur-Runta",
        "_segmentIndex": 0,
        "_position": 15
      },
      "geometry": {
        "type": "Point",
        "coordinates": [
          -73.36421249767002,
          5.52147870657915
        ]
      }
    },
    {
      "type": "Feature",
      "properties": {
        "_source": "Ruta12-Muiscas-Uniboyaca-RetenSur-Runta",
        "_segmentIndex": 0,
        "_position": 16
      },
      "geometry": {
        "type": "Point",
        "coordinates": [
          -73.36446859070747,
          5.521108277405024
        ]
      }
    },
    {
      "type": "Feature",
      "properties": {
        "_source": "Ruta12-Muiscas-Uniboyaca-RetenSur-Runta",
        "_segmentIndex": 0,
        "_position": 17
      },
      "geometry": {
        "type": "Point",
        "coordinates": [
          -73.36472468342485,
          5.5207378481212785
        ]
      }
    },
    {
      "type": "Feature",
      "properties": {
        "_source": "Ruta12-Muiscas-Uniboyaca-RetenSur-Runta",
        "_segmentIndex": 0,
        "_position": 18
      },
      "geometry": {
        "type": "Point",
        "coordinates": [
          -73.36498077582216,
          5.520367418727922
        ]
      }
    },
    {
      "type": "Feature",
      "properties": {
        "_source": "Ruta12-Muiscas-Uniboyaca-RetenSur-Runta",
        "_segmentIndex": 0,
        "_position": 19
      },
      "geometry": {
        "type": "Point",
        "coordinates": [
          -73.36523686789943,
          5.519996989224962
        ]
      }
    },
    {
      "type": "Feature",
      "properties": {
        "_source": "Ruta12-Muiscas-Uniboyaca-RetenSur-Runta",
        "_segmentIndex": 0,
        "_position": 20
      },
      "geometry": {
        "type": "Point",
        "coordinates": [
          -73.36549295965669,
          5.519626559612407
        ]
      }
    },
    {
      "type": "Feature",
      "properties": {
        "_source": "Ruta12-Muiscas-Uniboyaca-RetenSur-Runta",
        "_segmentIndex": 0,
        "_position": 21
      },
      "geometry": {
        "type": "Point",
        "coordinates": [
          -73.36574540462549,
          5.519253661480754
        ]
      }
    },
    {
      "type": "Feature",
      "properties": {
        "_source": "Ruta12-Muiscas-Uniboyaca-RetenSur-Runta",
        "_segmentIndex": 0,
        "_position": 22
      },
      "geometry": {
        "type": "Point",
        "coordinates": [
          -73.36599740092052,
          5.51888045973623
        ]
      }
    },
    {
      "type": "Feature",
      "properties": {
        "_source": "Ruta12-Muiscas-Uniboyaca-RetenSur-Runta",
        "_segmentIndex": 0,
        "_position": 23
      },
      "geometry": {
        "type": "Point",
        "coordinates": [
          -73.36624939689838,
          5.518507257885611
        ]
      }
    },
    {
      "type": "Feature",
      "properties": {
        "_source": "Ruta12-Muiscas-Uniboyaca-RetenSur-Runta",
        "_segmentIndex": 0,
        "_position": 24
      },
      "geometry": {
        "type": "Point",
        "coordinates": [
          -73.36650841655675,
          5.5181389025833205
        ]
      }
    },
    {
      "type": "Feature",
      "properties": {
        "_source": "Ruta12-Muiscas-Uniboyaca-RetenSur-Runta",
        "_segmentIndex": 0,
        "_position": 25
      },
      "geometry": {
        "type": "Point",
        "coordinates": [
          -73.3667711138062,
          5.517773084978242
        ]
      }
    },
    {
      "type": "Feature",
      "properties": {
        "_source": "Ruta12-Muiscas-Uniboyaca-RetenSur-Runta",
        "_segmentIndex": 0,
        "_position": 26
      },
      "geometry": {
        "type": "Point",
        "coordinates": [
          -73.36707362853839,
          5.517440383096753
        ]
      }
    },
    {
      "type": "Feature",
      "properties": {
        "_source": "Ruta12-Muiscas-Uniboyaca-RetenSur-Runta",
        "_segmentIndex": 0,
        "_position": 27
      },
      "geometry": {
        "type": "Point",
        "coordinates": [
          -73.36741305857835,
          5.517143656684837
        ]
      }
    },
    {
      "type": "Feature",
      "properties": {
        "_source": "Ruta12-Muiscas-Uniboyaca-RetenSur-Runta",
        "_segmentIndex": 0,
        "_position": 28
      },
      "geometry": {
        "type": "Point",
        "coordinates": [
          -73.36775248827873,
          5.516846930080486
        ]
      }
    },
    {
      "type": "Feature",
      "properties": {
        "_source": "Ruta12-Muiscas-Uniboyaca-RetenSur-Runta",
        "_segmentIndex": 0,
        "_position": 29
      },
      "geometry": {
        "type": "Point",
        "coordinates": [
          -73.36809191763952,
          5.516550203283713
        ]
      }
    },
    {
      "type": "Feature",
      "properties": {
        "_source": "Ruta12-Muiscas-Uniboyaca-RetenSur-Runta",
        "_segmentIndex": 0,
        "_position": 30
      },
      "geometry": {
        "type": "Point",
        "coordinates": [
          -73.36843134666076,
          5.516253476294527
        ]
      }
    },
    {
      "type": "Feature",
      "properties": {
        "_source": "Ruta12-Muiscas-Uniboyaca-RetenSur-Runta",
        "_segmentIndex": 0,
        "_position": 31
      },
      "geometry": {
        "type": "Point",
        "coordinates": [
          -73.36877077534248,
          5.515956749112941
        ]
      }
    },
    {
      "type": "Feature",
      "properties": {
        "_source": "Ruta12-Muiscas-Uniboyaca-RetenSur-Runta",
        "_segmentIndex": 0,
        "_position": 32
      },
      "geometry": {
        "type": "Point",
        "coordinates": [
          -73.3691102036847,
          5.515660021738961
        ]
      }
    },
    {
      "type": "Feature",
      "properties": {
        "_source": "Ruta12-Muiscas-Uniboyaca-RetenSur-Runta",
        "_segmentIndex": 0,
        "_position": 33
      },
      "geometry": {
        "type": "Point",
        "coordinates": [
          -73.3694496316874,
          5.515363294172601
        ]
      }
    },
    {
      "type": "Feature",
      "properties": {
        "_source": "Ruta12-Muiscas-Uniboyaca-RetenSur-Runta",
        "_segmentIndex": 0,
        "_position": 34
      },
      "geometry": {
        "type": "Point",
        "coordinates": [
          -73.36978602510847,
          5.515063206445654
        ]
      }
    },
    {
      "type": "Feature",
      "properties": {
        "_source": "Ruta12-Muiscas-Uniboyaca-RetenSur-Runta",
        "_segmentIndex": 0,
        "_position": 35
      },
      "geometry": {
        "type": "Point",
        "coordinates": [
          -73.37011849640001,
          5.514758775738842
        ]
      }
    },
    {
      "type": "Feature",
      "properties": {
        "_source": "Ruta12-Muiscas-Uniboyaca-RetenSur-Runta",
        "_segmentIndex": 0,
        "_position": 36
      },
      "geometry": {
        "type": "Point",
        "coordinates": [
          -73.37045096735044,
          5.514454344847483
        ]
      }
    },
    {
      "type": "Feature",
      "properties": {
        "_source": "Ruta12-Muiscas-Uniboyaca-RetenSur-Runta",
        "_segmentIndex": 0,
        "_position": 37
      },
      "geometry": {
        "type": "Point",
        "coordinates": [
          -73.37078343795977,
          5.514149913771588
        ]
      }
    },
    {
      "type": "Feature",
      "properties": {
        "_source": "Ruta12-Muiscas-Uniboyaca-RetenSur-Runta",
        "_segmentIndex": 0,
        "_position": 38
      },
      "geometry": {
        "type": "Point",
        "coordinates": [
          -73.37111590822803,
          5.51384548251117
        ]
      }
    },
    {
      "type": "Feature",
      "properties": {
        "_source": "Ruta12-Muiscas-Uniboyaca-RetenSur-Runta",
        "_segmentIndex": 0,
        "_position": 39
      },
      "geometry": {
        "type": "Point",
        "coordinates": [
          -73.3714337794653,
          5.513528402909191
        ]
      }
    },
    {
      "type": "Feature",
      "properties": {
        "_source": "Ruta12-Muiscas-Uniboyaca-RetenSur-Runta",
        "_segmentIndex": 0,
        "_position": 40
      },
      "geometry": {
        "type": "Point",
        "coordinates": [
          -73.37169085666791,
          5.513158652116023
        ]
      }
    },
    {
      "type": "Feature",
      "properties": {
        "_source": "Ruta12-Muiscas-Uniboyaca-RetenSur-Runta",
        "_segmentIndex": 0,
        "_position": 41
      },
      "geometry": {
        "type": "Point",
        "coordinates": [
          -73.37190354302776,
          5.512763709885055
        ]
      }
    },
    {
      "type": "Feature",
      "properties": {
        "_source": "Ruta12-Muiscas-Uniboyaca-RetenSur-Runta",
        "_segmentIndex": 0,
        "_position": 42
      },
      "geometry": {
        "type": "Point",
        "coordinates": [
          -73.37209186781314,
          5.512354986921945
        ]
      }
    },
    {
      "type": "Feature",
      "properties": {
        "_source": "Ruta12-Muiscas-Uniboyaca-RetenSur-Runta",
        "_segmentIndex": 0,
        "_position": 43
      },
      "geometry": {
        "type": "Point",
        "coordinates": [
          -73.37227829766836,
          5.511945403133506
        ]
      }
    },
    {
      "type": "Feature",
      "properties": {
        "_source": "Ruta12-Muiscas-Uniboyaca-RetenSur-Runta",
        "_segmentIndex": 0,
        "_position": 44
      },
      "geometry": {
        "type": "Point",
        "coordinates": [
          -73.37246472726636,
          5.51153581928707
        ]
      }
    },
    {
      "type": "Feature",
      "properties": {
        "_source": "Ruta12-Muiscas-Uniboyaca-RetenSur-Runta",
        "_segmentIndex": 0,
        "_position": 45
      },
      "geometry": {
        "type": "Point",
        "coordinates": [
          -73.37265115660718,
          5.511126235382639
        ]
      }
    },
    {
      "type": "Feature",
      "properties": {
        "_source": "Ruta12-Muiscas-Uniboyaca-RetenSur-Runta",
        "_segmentIndex": 0,
        "_position": 46
      },
      "geometry": {
        "type": "Point",
        "coordinates": [
          -73.37283758569082,
          5.510716651420223
        ]
      }
    },
    {
      "type": "Feature",
      "properties": {
        "_source": "Ruta12-Muiscas-Uniboyaca-RetenSur-Runta",
        "_segmentIndex": 0,
        "_position": 47
      },
      "geometry": {
        "type": "Point",
        "coordinates": [
          -73.3730240145173,
          5.51030706739982
        ]
      }
    },
    {
      "type": "Feature",
      "properties": {
        "_source": "Ruta12-Muiscas-Uniboyaca-RetenSur-Runta",
        "_segmentIndex": 0,
        "_position": 48
      },
      "geometry": {
        "type": "Point",
        "coordinates": [
          -73.37321044308665,
          5.509897483321439
        ]
      }
    },
    {
      "type": "Feature",
      "properties": {
        "_source": "Ruta12-Muiscas-Uniboyaca-RetenSur-Runta",
        "_segmentIndex": 0,
        "_position": 49
      },
      "geometry": {
        "type": "Point",
        "coordinates": [
          -73.3733968713989,
          5.509487899185083
        ]
      }
    },
    {
      "type": "Feature",
      "properties": {
        "_source": "Ruta12-Muiscas-Uniboyaca-RetenSur-Runta",
        "_segmentIndex": 0,
        "_position": 50
      },
      "geometry": {
        "type": "Point",
        "coordinates": [
          -73.37358329945404,
          5.509078314990756
        ]
      }
    },
    {
      "type": "Feature",
      "properties": {
        "_source": "Ruta12-Muiscas-Uniboyaca-RetenSur-Runta",
        "_segmentIndex": 0,
        "_position": 51
      },
      "geometry": {
        "type": "Point",
        "coordinates": [
          -73.37375745641636,
          5.508663558585268
        ]
      }
    },
    {
      "type": "Feature",
      "properties": {
        "_source": "Ruta12-Muiscas-Uniboyaca-RetenSur-Runta",
        "_segmentIndex": 0,
        "_position": 0
      },
      "geometry": {
        "type": "Point",
        "coordinates": [
          -73.373766,
          5.508642
        ]
      }
    },
    {
      "type": "Feature",
      "properties": {
        "_source": "Ruta12-Muiscas-Uniboyaca-RetenSur-Runta",
        "_segmentIndex": 0,
        "_position": 1
      },
      "geometry": {
        "type": "Point",
        "coordinates": [
          -73.3739895547843,
          5.5082514160176315
        ]
      }
    },
    {
      "type": "Feature",
      "properties": {
        "_source": "Ruta12-Muiscas-Uniboyaca-RetenSur-Runta",
        "_segmentIndex": 0,
        "_position": 2
      },
      "geometry": {
        "type": "Point",
        "coordinates": [
          -73.3742491107854,
          5.507883697830301
        ]
      }
    },
    {
      "type": "Feature",
      "properties": {
        "_source": "Ruta12-Muiscas-Uniboyaca-RetenSur-Runta",
        "_segmentIndex": 0,
        "_position": 3
      },
      "geometry": {
        "type": "Point",
        "coordinates": [
          -73.37451870511333,
          5.507522894060437
        ]
      }
    },
    {
      "type": "Feature",
      "properties": {
        "_source": "Ruta12-Muiscas-Uniboyaca-RetenSur-Runta",
        "_segmentIndex": 0,
        "_position": 4
      },
      "geometry": {
        "type": "Point",
        "coordinates": [
          -73.37478193972811,
          5.5071576964462405
        ]
      }
    },
    {
      "type": "Feature",
      "properties": {
        "_source": "Ruta12-Muiscas-Uniboyaca-RetenSur-Runta",
        "_segmentIndex": 0,
        "_position": 5
      },
      "geometry": {
        "type": "Point",
        "coordinates": [
          -73.37494426799351,
          5.506743189313945
        ]
      }
    },
    {
      "type": "Feature",
      "properties": {
        "_source": "Ruta12-Muiscas-Uniboyaca-RetenSur-Runta",
        "_segmentIndex": 0,
        "_position": 6
      },
      "geometry": {
        "type": "Point",
        "coordinates": [
          -73.3750152407858,
          5.5062991957697465
        ]
      }
    },
    {
      "type": "Feature",
      "properties": {
        "_source": "Ruta12-Muiscas-Uniboyaca-RetenSur-Runta",
        "_segmentIndex": 0,
        "_position": 7
      },
      "geometry": {
        "type": "Point",
        "coordinates": [
          -73.37511059223596,
          5.5058603883518344
        ]
      }
    },
    {
      "type": "Feature",
      "properties": {
        "_source": "Ruta12-Muiscas-Uniboyaca-RetenSur-Runta",
        "_segmentIndex": 0,
        "_position": 8
      },
      "geometry": {
        "type": "Point",
        "coordinates": [
          -73.37533693702625,
          5.505473489846422
        ]
      }
    },
    {
      "type": "Feature",
      "properties": {
        "_source": "Ruta12-Muiscas-Uniboyaca-RetenSur-Runta",
        "_segmentIndex": 0,
        "_position": 9
      },
      "geometry": {
        "type": "Point",
        "coordinates": [
          -73.37564968735428,
          5.505151376758023
        ]
      }
    },
    {
      "type": "Feature",
      "properties": {
        "_source": "Ruta12-Muiscas-Uniboyaca-RetenSur-Runta",
        "_segmentIndex": 0,
        "_position": 10
      },
      "geometry": {
        "type": "Point",
        "coordinates": [
          -73.37603572734558,
          5.504918998349447
        ]
      }
    },
    {
      "type": "Feature",
      "properties": {
        "_source": "Ruta12-Muiscas-Uniboyaca-RetenSur-Runta",
        "_segmentIndex": 0,
        "_position": 11
      },
      "geometry": {
        "type": "Point",
        "coordinates": [
          -73.37643943919691,
          5.5047184986353175
        ]
      }
    },
    {
      "type": "Feature",
      "properties": {
        "_source": "Ruta12-Muiscas-Uniboyaca-RetenSur-Runta",
        "_segmentIndex": 0,
        "_position": 12
      },
      "geometry": {
        "type": "Point",
        "coordinates": [
          -73.37682725388518,
          5.5044879827669595
        ]
      }
    },
    {
      "type": "Feature",
      "properties": {
        "_source": "Ruta12-Muiscas-Uniboyaca-RetenSur-Runta",
        "_segmentIndex": 0,
        "_position": 13
      },
      "geometry": {
        "type": "Point",
        "coordinates": [
          -73.3771803943072,
          5.504208459217572
        ]
      }
    },
    {
      "type": "Feature",
      "properties": {
        "_source": "Ruta12-Muiscas-Uniboyaca-RetenSur-Runta",
        "_segmentIndex": 0,
        "_position": 14
      },
      "geometry": {
        "type": "Point",
        "coordinates": [
          -73.37744865956898,
          5.503850640823751
        ]
      }
    },
    {
      "type": "Feature",
      "properties": {
        "_source": "Ruta12-Muiscas-Uniboyaca-RetenSur-Runta",
        "_segmentIndex": 0,
        "_position": 15
      },
      "geometry": {
        "type": "Point",
        "coordinates": [
          -73.37765799737271,
          5.50345217493333
        ]
      }
    },
    {
      "type": "Feature",
      "properties": {
        "_source": "Ruta12-Muiscas-Uniboyaca-RetenSur-Runta",
        "_segmentIndex": 0,
        "_position": 16
      },
      "geometry": {
        "type": "Point",
        "coordinates": [
          -73.37786733489588,
          5.503053708969894
        ]
      }
    },
    {
      "type": "Feature",
      "properties": {
        "_source": "Ruta12-Muiscas-Uniboyaca-RetenSur-Runta",
        "_segmentIndex": 0,
        "_position": 17
      },
      "geometry": {
        "type": "Point",
        "coordinates": [
          -73.37807667213855,
          5.502655242933449
        ]
      }
    },
    {
      "type": "Feature",
      "properties": {
        "_source": "Ruta12-Muiscas-Uniboyaca-RetenSur-Runta",
        "_segmentIndex": 0,
        "_position": 18
      },
      "geometry": {
        "type": "Point",
        "coordinates": [
          -73.3782860091007,
          5.502256776824
        ]
      }
    },
    {
      "type": "Feature",
      "properties": {
        "_source": "Ruta12-Muiscas-Uniboyaca-RetenSur-Runta",
        "_segmentIndex": 0,
        "_position": 19
      },
      "geometry": {
        "type": "Point",
        "coordinates": [
          -73.37849534578238,
          5.501858310641553
        ]
      }
    },
    {
      "type": "Feature",
      "properties": {
        "_source": "Ruta12-Muiscas-Uniboyaca-RetenSur-Runta",
        "_segmentIndex": 0,
        "_position": 20
      },
      "geometry": {
        "type": "Point",
        "coordinates": [
          -73.37870623543634,
          5.50146066366365
        ]
      }
    },
    {
      "type": "Feature",
      "properties": {
        "_source": "Ruta12-Muiscas-Uniboyaca-RetenSur-Runta",
        "_segmentIndex": 0,
        "_position": 21
      },
      "geometry": {
        "type": "Point",
        "coordinates": [
          -73.37891992536642,
          5.501064493791668
        ]
      }
    },
    {
      "type": "Feature",
      "properties": {
        "_source": "Ruta12-Muiscas-Uniboyaca-RetenSur-Runta",
        "_segmentIndex": 0,
        "_position": 22
      },
      "geometry": {
        "type": "Point",
        "coordinates": [
          -73.3791336150119,
          5.500668323843636
        ]
      }
    },
    {
      "type": "Feature",
      "properties": {
        "_source": "Ruta12-Muiscas-Uniboyaca-RetenSur-Runta",
        "_segmentIndex": 0,
        "_position": 23
      },
      "geometry": {
        "type": "Point",
        "coordinates": [
          -73.37936053706493,
          5.500280657468102
        ]
      }
    },
    {
      "type": "Feature",
      "properties": {
        "_source": "Ruta12-Muiscas-Uniboyaca-RetenSur-Runta",
        "_segmentIndex": 0,
        "_position": 24
      },
      "geometry": {
        "type": "Point",
        "coordinates": [
          -73.37967098562333,
          5.499955101509711
        ]
      }
    },
    {
      "type": "Feature",
      "properties": {
        "_source": "Ruta12-Muiscas-Uniboyaca-RetenSur-Runta",
        "_segmentIndex": 0,
        "_position": 25
      },
      "geometry": {
        "type": "Point",
        "coordinates": [
          -73.38000848461185,
          5.499656211862471
        ]
      }
    },
    {
      "type": "Feature",
      "properties": {
        "_source": "Ruta12-Muiscas-Uniboyaca-RetenSur-Runta",
        "_segmentIndex": 0,
        "_position": 26
      },
      "geometry": {
        "type": "Point",
        "coordinates": [
          -73.38034598326134,
          5.499357322025575
        ]
      }
    },
    {
      "type": "Feature",
      "properties": {
        "_source": "Ruta12-Muiscas-Uniboyaca-RetenSur-Runta",
        "_segmentIndex": 0,
        "_position": 27
      },
      "geometry": {
        "type": "Point",
        "coordinates": [
          -73.38068348157181,
          5.499058431999035
        ]
      }
    },
    {
      "type": "Feature",
      "properties": {
        "_source": "Ruta12-Muiscas-Uniboyaca-RetenSur-Runta",
        "_segmentIndex": 0,
        "_position": 28
      },
      "geometry": {
        "type": "Point",
        "coordinates": [
          -73.3810209795433,
          5.498759541782863
        ]
      }
    },
    {
      "type": "Feature",
      "properties": {
        "_source": "Ruta12-Muiscas-Uniboyaca-RetenSur-Runta",
        "_segmentIndex": 0,
        "_position": 29
      },
      "geometry": {
        "type": "Point",
        "coordinates": [
          -73.38133170665796,
          5.4984354863108456
        ]
      }
    },
    {
      "type": "Feature",
      "properties": {
        "_source": "Ruta12-Muiscas-Uniboyaca-RetenSur-Runta",
        "_segmentIndex": 0,
        "_position": 30
      },
      "geometry": {
        "type": "Point",
        "coordinates": [
          -73.3815823798671,
          5.4980621661622315
        ]
      }
    },
    {
      "type": "Feature",
      "properties": {
        "_source": "Ruta12-Muiscas-Uniboyaca-RetenSur-Runta",
        "_segmentIndex": 0,
        "_position": 31
      },
      "geometry": {
        "type": "Point",
        "coordinates": [
          -73.38172730734118,
          5.497636719162043
        ]
      }
    },
    {
      "type": "Feature",
      "properties": {
        "_source": "Ruta12-Muiscas-Uniboyaca-RetenSur-Runta",
        "_segmentIndex": 0,
        "_position": 32
      },
      "geometry": {
        "type": "Point",
        "coordinates": [
          -73.38179894590203,
          5.497193201665256
        ]
      }
    },
    {
      "type": "Feature",
      "properties": {
        "_source": "Ruta12-Muiscas-Uniboyaca-RetenSur-Runta",
        "_segmentIndex": 0,
        "_position": 33
      },
      "geometry": {
        "type": "Point",
        "coordinates": [
          -73.38181328743768,
          5.4967441517036715
        ]
      }
    },
    {
      "type": "Feature",
      "properties": {
        "_source": "Ruta12-Muiscas-Uniboyaca-RetenSur-Runta",
        "_segmentIndex": 0,
        "_position": 34
      },
      "geometry": {
        "type": "Point",
        "coordinates": [
          -73.38182252563024,
          5.496294862590095
        ]
      }
    },
    {
      "type": "Feature",
      "properties": {
        "_source": "Ruta12-Muiscas-Uniboyaca-RetenSur-Runta",
        "_segmentIndex": 0,
        "_position": 35
      },
      "geometry": {
        "type": "Point",
        "coordinates": [
          -73.38189414387793,
          5.495853587225168
        ]
      }
    },
    {
      "type": "Feature",
      "properties": {
        "_source": "Ruta12-Muiscas-Uniboyaca-RetenSur-Runta",
        "_segmentIndex": 0,
        "_position": 36
      },
      "geometry": {
        "type": "Point",
        "coordinates": [
          -73.38207575615284,
          5.495442194172657
        ]
      }
    },
    {
      "type": "Feature",
      "properties": {
        "_source": "Ruta12-Muiscas-Uniboyaca-RetenSur-Runta",
        "_segmentIndex": 0,
        "_position": 37
      },
      "geometry": {
        "type": "Point",
        "coordinates": [
          -73.38230617148356,
          5.4950564584171655
        ]
      }
    },
    {
      "type": "Feature",
      "properties": {
        "_source": "Ruta12-Muiscas-Uniboyaca-RetenSur-Runta",
        "_segmentIndex": 0,
        "_position": 38
      },
      "geometry": {
        "type": "Point",
        "coordinates": [
          -73.38265043824312,
          5.494770576006809
        ]
      }
    },
    {
      "type": "Feature",
      "properties": {
        "_source": "Ruta12-Muiscas-Uniboyaca-RetenSur-Runta",
        "_segmentIndex": 0,
        "_position": 39
      },
      "geometry": {
        "type": "Point",
        "coordinates": [
          -73.38303921146709,
          5.494544066598515
        ]
      }
    },
    {
      "type": "Feature",
      "properties": {
        "_source": "Ruta12-Muiscas-Uniboyaca-RetenSur-Runta",
        "_segmentIndex": 0,
        "_position": 40
      },
      "geometry": {
        "type": "Point",
        "coordinates": [
          -73.38343630403891,
          5.4943296994974
        ]
      }
    },
    {
      "type": "Feature",
      "properties": {
        "_source": "Ruta12-Muiscas-Uniboyaca-RetenSur-Runta",
        "_segmentIndex": 0,
        "_position": 41
      },
      "geometry": {
        "type": "Point",
        "coordinates": [
          -73.38383408225722,
          5.4941165909042855
        ]
      }
    },
    {
      "type": "Feature",
      "properties": {
        "_source": "Ruta12-Muiscas-Uniboyaca-RetenSur-Runta",
        "_segmentIndex": 0,
        "_position": 42
      },
      "geometry": {
        "type": "Point",
        "coordinates": [
          -73.38422960623437,
          5.493899496834603
        ]
      }
    },
    {
      "type": "Feature",
      "properties": {
        "_source": "Ruta12-Muiscas-Uniboyaca-RetenSur-Runta",
        "_segmentIndex": 0,
        "_position": 43
      },
      "geometry": {
        "type": "Point",
        "coordinates": [
          -73.38460744376279,
          5.493653404218306
        ]
      }
    },
    {
      "type": "Feature",
      "properties": {
        "_source": "Ruta12-Muiscas-Uniboyaca-RetenSur-Runta",
        "_segmentIndex": 0,
        "_position": 44
      },
      "geometry": {
        "type": "Point",
        "coordinates": [
          -73.38493376702644,
          5.4933437019442115
        ]
      }
    },
    {
      "type": "Feature",
      "properties": {
        "_source": "Ruta12-Muiscas-Uniboyaca-RetenSur-Runta",
        "_segmentIndex": 0,
        "_position": 45
      },
      "geometry": {
        "type": "Point",
        "coordinates": [
          -73.38517933427877,
          5.492968765981277
        ]
      }
    },
    {
      "type": "Feature",
      "properties": {
        "_source": "Ruta12-Muiscas-Uniboyaca-RetenSur-Runta",
        "_segmentIndex": 0,
        "_position": 46
      },
      "geometry": {
        "type": "Point",
        "coordinates": [
          -73.38533899597725,
          5.492550252263968
        ]
      }
    },
    {
      "type": "Feature",
      "properties": {
        "_source": "Ruta12-Muiscas-Uniboyaca-RetenSur-Runta",
        "_segmentIndex": 0,
        "_position": 47
      },
      "geometry": {
        "type": "Point",
        "coordinates": [
          -73.385438,
          5.492112358608224
        ]
      }
    },
    {
      "type": "Feature",
      "properties": {
        "_source": "Ruta12-Muiscas-Uniboyaca-RetenSur-Runta",
        "_segmentIndex": 0,
        "_position": 48
      },
      "geometry": {
        "type": "Point",
        "coordinates": [
          -73.38539403256947,
          5.491665775083063
        ]
      }
    },
    {
      "type": "Feature",
      "properties": {
        "_source": "Ruta12-Muiscas-Uniboyaca-RetenSur-Runta",
        "_segmentIndex": 0,
        "_position": 0
      },
      "geometry": {
        "type": "Point",
        "coordinates": [
          -73.385357,
          5.491472
        ]
      }
    },
    {
      "type": "Feature",
      "properties": {
        "_source": "Ruta12-Muiscas-Uniboyaca-RetenSur-Runta",
        "_segmentIndex": 0,
        "_position": 1
      },
      "geometry": {
        "type": "Point",
        "coordinates": [
          -73.38491557057553,
          5.491454078221561
        ]
      }
    },
    {
      "type": "Feature",
      "properties": {
        "_source": "Ruta12-Muiscas-Uniboyaca-RetenSur-Runta",
        "_segmentIndex": 0,
        "_position": 2
      },
      "geometry": {
        "type": "Point",
        "coordinates": [
          -73.38448451615659,
          5.491576253502823
        ]
      }
    },
    {
      "type": "Feature",
      "properties": {
        "_source": "Ruta12-Muiscas-Uniboyaca-RetenSur-Runta",
        "_segmentIndex": 0,
        "_position": 3
      },
      "geometry": {
        "type": "Point",
        "coordinates": [
          -73.38403582259899,
          5.491601817480988
        ]
      }
    },
    {
      "type": "Feature",
      "properties": {
        "_source": "Ruta12-Muiscas-Uniboyaca-RetenSur-Runta",
        "_segmentIndex": 0,
        "_position": 4
      },
      "geometry": {
        "type": "Point",
        "coordinates": [
          -73.38358602477182,
          5.491564520602761
        ]
      }
    }
  ]
}