{
  "type": "FeatureCollection",
  "features": [
    {
      "type": "Feature",
      "properties": {
        "_source": "Ruta7-Florida-JuandeCastellanos-AvenidaNorte-EstanciaelRoble",
        "_segmentIndex": 0,
        "_position": 0
      },
      "geometry": {
        "type": "Point",
        "coordinates": [
          -73.366152,
          5.515201
        ]
      }
    },
    {
      "type": "Feature",
      "properties": {
        "_source": "Ruta7-Florida-JuandeCastellanos-AvenidaNorte-EstanciaelRoble",
        "_segmentIndex": 0,
        "_position": 1
      },
      "geometry": {
        "type": "Point",
        "coordinates": [
          -73.36656285183882,
          5.515387960728121
        ]
      }
    },
    {
      "type": "Feature",
      "properties": {
        "_source": "Ruta7-Florida-JuandeCastellanos-AvenidaNorte-EstanciaelRoble",
        "_segmentIndex": 0,
        "_position": 2
      },
      "geometry": {
        "type": "Point",
        "coordinates": [
          -73.36697659810193,
          5.515568141335283
        ]
      }
    },
    {
      "type": "Feature",
      "properties": {
        "_source": "Ruta7-Florida-JuandeCastellanos-AvenidaNorte-EstanciaelRoble",
        "_segmentIndex": 0,
        "_position": 3
      },
      "geometry": {
        "type": "Point",
        "coordinates": [
          -73.36740529334453,
          5.515709959769101
        ]
      }
    },
    {
      "type": "Feature",
      "properties": {
        "_source": "Ruta7-Florida-JuandeCastellanos-AvenidaNorte-EstanciaelRoble",
        "_segmentIndex": 0,
        "_position": 4
      },
      "geometry": {
        "type": "Point",
        "coordinates": [
          -73.36778556612202,
          5.51568643495005
        ]
      }
    },
    {
      "type": "Feature",
      "properties": {
        "_source": "Ruta7-Florida-JuandeCastellanos-AvenidaNorte-EstanciaelRoble",
        "_segmentIndex": 0,
        "_position": 5
      },
      "geometry": {
        "type": "Point",
        "coordinates": [
          -73.36823061004452,
          5.515763636444375
        ]
      }
    },
    {
      "type": "Feature",
      "properties": {
        "_source": "Ruta7-Florida-JuandeCastellanos-AvenidaNorte-EstanciaelRoble",
        "_segmentIndex": 0,
        "_position": 0
      },
      "geometry": {
        "type": "Point",
        "coordinates": [
          -73.368526,
          5.515856
        ]
      }
    },
    {
      "type": "Feature",
      "properties": {
        "_source": "Ruta7-Florida-JuandeCastellanos-AvenidaNorte-EstanciaelRoble",
        "_segmentIndex": 0,
        "_position": 0
      },
      "geometry": {
        "type": "Point",
        "coordinates": [
          -73.368504,
          5.516276
        ]
      }
    },
    {
      "type": "Feature",
      "properties": {
        "_source": "Ruta7-Florida-JuandeCastellanos-AvenidaNorte-EstanciaelRoble",
        "_segmentIndex": 0,
        "_position": 1
      },
      "geometry": {
        "type": "Point",
        "coordinates": [
          -73.36837497408806,
          5.516706929740552
        ]
      }
    },
    {
      "type": "Feature",
      "properties": {
        "_source": "Ruta7-Florida-JuandeCastellanos-AvenidaNorte-EstanciaelRoble",
        "_segmentIndex": 0,
        "_position": 2
      },
      "geometry": {
        "type": "Point",
        "coordinates": [
          -73.36824658128316,
          5.517136438334037
        ]
      }
    },
    {
      "type": "Feature",
      "properties": {
        "_source": "Ruta7-Florida-JuandeCastellanos-AvenidaNorte-EstanciaelRoble",
        "_segmentIndex": 0,
        "_position": 3
      },
      "geometry": {
        "type": "Point",
        "coordinates": [
          -73.36801169184731,
          5.51752027051729
        ]
      }
    },
    {
      "type": "Feature",
      "properties": {
        "_source": "Ruta7-Florida-JuandeCastellanos-AvenidaNorte-EstanciaelRoble",
        "_segmentIndex": 0,
        "_position": 4
      },
      "geometry": {
        "type": "Point",
        "coordinates": [
          -73.36777187926741,
          5.51790134257622
        ]
      }
    },
    {
      "type": "Feature",
      "properties": {
        "_source": "Ruta7-Florida-JuandeCastellanos-AvenidaNorte-EstanciaelRoble",
        "_segmentIndex": 0,
        "_position": 5
      },
      "geometry": {
        "type": "Point",
        "coordinates": [
          -73.36754454480244,
          5.518289825314182
        ]
      }
    },
    {
      "type": "Feature",
      "properties": {
        "_source": "Ruta7-Florida-JuandeCastellanos-AvenidaNorte-EstanciaelRoble",
        "_segmentIndex": 0,
        "_position": 6
      },
      "geometry": {
        "type": "Point",
        "coordinates": [
          -73.36745309314001,
          5.518725204028933
        ]
      }
    },
    {
      "type": "Feature",
      "properties": {
        "_source": "Ruta7-Florida-JuandeCastellanos-AvenidaNorte-EstanciaelRoble",
        "_segmentIndex": 0,
        "_position": 7
      },
      "geometry": {
        "type": "Point",
        "coordinates": [
          -73.36739464432253,
          5.519171084746194
        ]
      }
    },
    {
      "type": "Feature",
      "properties": {
        "_source": "Ruta7-Florida-JuandeCastellanos-AvenidaNorte-EstanciaelRoble",
        "_segmentIndex": 0,
        "_position": 8
      },
      "geometry": {
        "type": "Point",
        "coordinates": [
          -73.36733217483751,
          5.519616424799047
        ]
      }
    },
    {
      "type": "Feature",
      "properties": {
        "_source": "Ruta7-Florida-JuandeCastellanos-AvenidaNorte-EstanciaelRoble",
        "_segmentIndex": 0,
        "_position": 9
      },
      "geometry": {
        "type": "Point",
        "coordinates": [
          -73.36724029478992,
          5.520055376762736
        ]
      }
    },
    {
      "type": "Feature",
      "properties": {
        "_source": "Ruta7-Florida-JuandeCastellanos-AvenidaNorte-EstanciaelRoble",
        "_segmentIndex": 0,
        "_position": 10
      },
      "geometry": {
        "type": "Point",
        "coordinates": [
          -73.36711188606522,
          5.5204864643902996
        ]
      }
    },
    {
      "type": "Feature",
      "properties": {
        "_source": "Ruta7-Florida-JuandeCastellanos-AvenidaNorte-EstanciaelRoble",
        "_segmentIndex": 0,
        "_position": 11
      },
      "geometry": {
        "type": "Point",
        "coordinates": [
          -73.36699957002192,
          5.520922005596789
        ]
      }
    },
    {
      "type": "Feature",
      "properties": {
        "_source": "Ruta7-Florida-JuandeCastellanos-AvenidaNorte-EstanciaelRoble",
        "_segmentIndex": 0,
        "_position": 12
      },
      "geometry": {
        "type": "Point",
        "coordinates": [
          -73.36688725381359,
          5.521357546782194
        ]
      }
    },
    {
      "type": "Feature",
      "properties": {
        "_source": "Ruta7-Florida-JuandeCastellanos-AvenidaNorte-EstanciaelRoble",
        "_segmentIndex": 0,
        "_position": 13
      },
      "geometry": {
        "type": "Point",
        "coordinates": [
          -73.36677090891926,
          5.521791993299336
        ]
      }
    },
    {
      "type": "Feature",
      "properties": {
        "_source": "Ruta7-Florida-JuandeCastellanos-AvenidaNorte-EstanciaelRoble",
        "_segmentIndex": 0,
        "_position": 14
      },
      "geometry": {
        "type": "Point",
        "coordinates": [
          -73.36664530889617,
          5.522223924996242
        ]
      }
    },
    {
      "type": "Feature",
      "properties": {
        "_source": "Ruta7-Florida-JuandeCastellanos-AvenidaNorte-EstanciaelRoble",
        "_segmentIndex": 0,
        "_position": 15
      },
      "geometry": {
        "type": "Point",
        "coordinates": [
          -73.36651970868998,
          5.522655856666773
        ]
      }
    },
    {
      "type": "Feature",
      "properties": {
        "_source": "Ruta7-Florida-JuandeCastellanos-AvenidaNorte-EstanciaelRoble",
        "_segmentIndex": 0,
        "_position": 16
      },
      "geometry": {
        "type": "Point",
        "coordinates": [
          -73.36642721644004,
          5.523095831353295
        ]
      }
    },
    {
      "type": "Feature",
      "properties": {
        "_source": "Ruta7-Florida-JuandeCastellanos-AvenidaNorte-EstanciaelRoble",
        "_segmentIndex": 0,
        "_position": 17
      },
      "geometry": {
        "type": "Point",
        "coordinates": [
          -73.36633717520624,
          5.523536460483685
        ]
      }
    },
    {
      "type": "Feature",
      "properties": {
        "_source": "Ruta7-Florida-JuandeCastellanos-AvenidaNorte-EstanciaelRoble",
        "_segmentIndex": 0,
        "_position": 18
      },
      "geometry": {
        "type": "Point",
        "coordinates": [
          -73.36623920932217,
          5.523975302278917
        ]
      }
    },
    {
      "type": "Feature",
      "properties": {
        "_source": "Ruta7-Florida-JuandeCastellanos-AvenidaNorte-EstanciaelRoble",
        "_segmentIndex": 0,
        "_position": 19
      },
      "geometry": {
        "type": "Point",
        "coordinates": [
          -73.3661036488601,
          5.524404145813532
        ]
      }
    },
    {
      "type": "Feature",
      "properties": {
        "_source": "Ruta7-Florida-JuandeCastellanos-AvenidaNorte-EstanciaelRoble",
        "_segmentIndex": 0,
        "_position": 20
      },
      "geometry": {
        "type": "Point",
        "coordinates": [
          -73.36595093146924,
          5.5248273060821935
        ]
      }
    },
    {
      "type": "Feature",
      "properties": {
        "_source": "Ruta7-Florida-JuandeCastellanos-AvenidaNorte-EstanciaelRoble",
        "_segmentIndex": 0,
        "_position": 21
      },
      "geometry": {
        "type": "Point",
        "coordinates": [
          -73.3657862910278,
          5.525245943950202
        ]
      }
    },
    {
      "type": "Feature",
      "properties": {
        "_source": "Ruta7-Florida-JuandeCastellanos-AvenidaNorte-EstanciaelRoble",
        "_segmentIndex": 0,
        "_position": 22
      },
      "geometry": {
        "type": "Point",
        "coordinates": [
          -73.36560917064307,
          5.5256596019307835
        ]
      }
    },
    {
      "type": "Feature",
      "properties": {
        "_source": "Ruta7-Florida-JuandeCastellanos-AvenidaNorte-EstanciaelRoble",
        "_segmentIndex": 0,
        "_position": 0
      },
      "geometry": {
        "type": "Point",
        "coordinates": [
          -73.365422,
          5.525984
        ]
      }
    },
    {
      "type": "Feature",
      "properties": {
        "_source": "Ruta7-Florida-JuandeCastellanos-AvenidaNorte-EstanciaelRoble",
        "_segmentIndex": 0,
        "_position": 1
      },
      "geometry": {
        "type": "Point",
        "coordinates": [
          -73.36501297554132,
          5.525793500567755
        ]
      }
    },
    {
      "type": "Feature",
      "properties": {
        "_source": "Ruta7-Florida-JuandeCastellanos-AvenidaNorte-EstanciaelRoble",
        "_segmentIndex": 0,
        "_position": 2
      },
      "geometry": {
        "type": "Point",
        "coordinates": [
          -73.36459274169663,
          5.525628469546054
        ]
      }
    },
    {
      "type": "Feature",
      "properties": {
        "_source": "Ruta7-Florida-JuandeCastellanos-AvenidaNorte-EstanciaelRoble",
        "_segmentIndex": 0,
        "_position": 3
      },
      "geometry": {
        "type": "Point",
        "coordinates": [
          -73.3641728702245,
          5.5254625317832025
        ]
      }
    },
    {
      "type": "Feature",
      "properties": {
        "_source": "Ruta7-Florida-JuandeCastellanos-AvenidaNorte-EstanciaelRoble",
        "_segmentIndex": 0,
        "_position": 4
      },
      "geometry": {
        "type": "Point",
        "coordinates": [
          -73.36375353472584,
          5.525295252755198
        ]
      }
    },
    {
      "type": "Feature",
      "properties": {
        "_source": "Ruta7-Florida-JuandeCastellanos-AvenidaNorte-EstanciaelRoble",
        "_segmentIndex": 0,
        "_position": 5
      },
      "geometry": {
        "type": "Point",
        "coordinates": [
          -73.36334454238022,
          5.525153123472906
        ]
      }
    },
    {
      "type": "Feature",
      "properties": {
        "_source": "Ruta7-Florida-JuandeCastellanos-AvenidaNorte-EstanciaelRoble",
        "_segmentIndex": 0,
        "_position": 0
      },
      "geometry": {
        "type": "Point",
        "coordinates": [
          -73.36209,
          5.528644
        ]
      }
    },
    {
      "type": "Feature",
      "properties": {
        "_source": "Ruta7-Florida-JuandeCastellanos-AvenidaNorte-EstanciaelRoble",
        "_segmentIndex": 0,
        "_position": 1
      },
      "geometry": {
        "type": "Point",
        "coordinates": [
          -73.36165469884006,
          5.528523740621931
        ]
      }
    },
    {
      "type": "Feature",
      "properties": {
        "_source": "Ruta7-Florida-JuandeCastellanos-AvenidaNorte-EstanciaelRoble",
        "_segmentIndex": 0,
        "_position": 2
      },
      "geometry": {
        "type": "Point",
        "coordinates": [
          -73.36121734410541,
          5.528411088662272
        ]
      }
    },
    {
      "type": "Feature",
      "properties": {
        "_source": "Ruta7-Florida-JuandeCastellanos-AvenidaNorte-EstanciaelRoble",
        "_segmentIndex": 0,
        "_position": 0
      },
      "geometry": {
        "type": "Point",
        "coordinates": [
          -73.363318,
          5.52521
        ]
      }
    },
    {
      "type": "Feature",
      "properties": {
        "_source": "Ruta7-Florida-JuandeCastellanos-AvenidaNorte-EstanciaelRoble",
        "_segmentIndex": 0,
        "_position": 1
      },
      "geometry": {
        "type": "Point",
        "coordinates": [
          -73.36317561734391,
          5.525636742795064
        ]
      }
    },
    {
      "type": "Feature",
      "properties": {
        "_source": "Ruta7-Florida-JuandeCastellanos-AvenidaNorte-EstanciaelRoble",
        "_segmentIndex": 0,
        "_position": 2
      },
      "geometry": {
        "type": "Point",
        "coordinates": [
          -73.36303323448263,
          5.52606348555622
        ]
      }
    },
    {
      "type": "Feature",
      "properties": {
        "_source": "Ruta7-Florida-JuandeCastellanos-AvenidaNorte-EstanciaelRoble",
        "_segmentIndex": 0,
        "_position": 3
      },
      "geometry": {
        "type": "Point",
        "coordinates": [
          -73.36288548021601,
          5.526488382718498
        ]
      }
    },
    {
      "type": "Feature",
      "properties": {
        "_source": "Ruta7-Florida-JuandeCastellanos-AvenidaNorte-EstanciaelRoble",
        "_segmentIndex": 0,
        "_position": 4
      },
      "geometry": {
        "type": "Point",
        "coordinates": [
          -73.36269024960477,
          5.526889917116739
        ]
      }
    },
    {
      "type": "Feature",
      "properties": {
        "_source": "Ruta7-Florida-JuandeCastellanos-AvenidaNorte-EstanciaelRoble",
        "_segmentIndex": 0,
        "_position": 5
      },
      "geometry": {
        "type": "Point",
        "coordinates": [
          -73.36255258636292,
          5.5273181913654
        ]
      }
    },
    {
      "type": "Feature",
      "properties": {
        "_source": "Ruta7-Florida-JuandeCastellanos-AvenidaNorte-EstanciaelRoble",
        "_segmentIndex": 0,
        "_position": 6
      },
      "geometry": {
        "type": "Point",
        "coordinates": [
          -73.36241529901913,
          5.527746585273536
        ]
      }
    },
    {
      "type": "Feature",
      "properties": {
        "_source": "Ruta7-Florida-JuandeCastellanos-AvenidaNorte-EstanciaelRoble",
        "_segmentIndex": 0,
        "_position": 7
      },
      "geometry": {
        "type": "Point",
        "coordinates": [
          -73.3622737846608,
          5.528173613577495
        ]
      }
    },
    {
      "type": "Feature",
      "properties": {
        "_source": "Ruta7-Florida-JuandeCastellanos-AvenidaNorte-EstanciaelRoble",
        "_segmentIndex": 0,
        "_position": 8
      },
      "geometry": {
        "type": "Point",
        "coordinates": [
          -73.36213213346105,
          5.52860059770404
        ]
      }
    },
    {
      "type": "Feature",
      "properties": {
        "_source": "Ruta7-Florida-JuandeCastellanos-AvenidaNorte-EstanciaelRoble",
        "_segmentIndex": 0,
        "_position": 0
      },
      "geometry": {
        "type": "Point",
        "coordinates": [
          -73.361054,
          5.528439
        ]
      }
    },
    {
      "type": "Feature",
      "properties": {
        "_source": "Ruta7-Florida-JuandeCastellanos-AvenidaNorte-EstanciaelRoble",
        "_segmentIndex": 0,
        "_position": 1
      },
      "geometry": {
        "type": "Point",
        "coordinates": [
          -73.36093588124628,
          5.528873018136948
        ]
      }
    },
    {
      "type": "Feature",
      "properties": {
        "_source": "Ruta7-Florida-JuandeCastellanos-AvenidaNorte-EstanciaelRoble",
        "_segmentIndex": 0,
        "_position": 2
      },
      "geometry": {
        "type": "Point",
        "coordinates": [
          -73.36081776231931,
          5.529307036250537
        ]
      }
    },
    {
      "type": "Feature",
      "properties": {
        "_source": "Ruta7-Florida-JuandeCastellanos-AvenidaNorte-EstanciaelRoble",
        "_segmentIndex": 0,
        "_position": 3
      },
      "geometry": {
        "type": "Point",
        "coordinates": [
          -73.36069971669725,
          5.529741074144242
        ]
      }
    },
    {
      "type": "Feature",
      "properties": {
        "_source": "Ruta7-Florida-JuandeCastellanos-AvenidaNorte-EstanciaelRoble",
        "_segmentIndex": 0,
        "_position": 4
      },
      "geometry": {
        "type": "Point",
        "coordinates": [
          -73.36057601915438,
          5.530173537733029
        ]
      }
    },
    {
      "type": "Feature",
      "properties": {
        "_source": "Ruta7-Florida-JuandeCastellanos-AvenidaNorte-EstanciaelRoble",
        "_segmentIndex": 0,
        "_position": 5
      },
      "geometry": {
        "type": "Point",
        "coordinates": [
          -73.36045358892106,
          5.530606355103693
        ]
      }
    },
    {
      "type": "Feature",
      "properties": {
        "_source": "Ruta7-Florida-JuandeCastellanos-AvenidaNorte-EstanciaelRoble",
        "_segmentIndex": 0,
        "_position": 6
      },
      "geometry": {
        "type": "Point",
        "coordinates": [
          -73.36033534743325,
          5.531040340246822
        ]
      }
    },
    {
      "type": "Feature",
      "properties": {
        "_source": "Ruta7-Florida-JuandeCastellanos-AvenidaNorte-EstanciaelRoble",
        "_segmentIndex": 0,
        "_position": 7
      },
      "geometry": {
        "type": "Point",
        "coordinates": [
          -73.36020623186504,
          5.531471224023532
        ]
      }
    },
    {
      "type": "Feature",
      "properties": {
        "_source": "Ruta7-Florida-JuandeCastellanos-AvenidaNorte-EstanciaelRoble",
        "_segmentIndex": 0,
        "_position": 8
      },
      "geometry": {
        "type": "Point",
        "coordinates": [
          -73.36007561445776,
          5.531901679486937
        ]
      }
    },
    {
      "type": "Feature",
      "properties": {
        "_source": "Ruta7-Florida-JuandeCastellanos-AvenidaNorte-EstanciaelRoble",
        "_segmentIndex": 0,
        "_position": 9
      },
      "geometry": {
        "type": "Point",
        "coordinates": [
          -73.35995110521532,
          5.532333923978785
        ]
      }
    },
    {
      "type": "Feature",
      "properties": {
        "_source": "Ruta7-Florida-JuandeCastellanos-AvenidaNorte-EstanciaelRoble",
        "_segmentIndex": 0,
        "_position": 10
      },
      "geometry": {
        "type": "Point",
        "coordinates": [
          -73.3598266722363,
          5.5327661908345185
        ]
      }
    },
    {
      "type": "Feature",
      "properties": {
        "_source": "Ruta7-Florida-JuandeCastellanos-AvenidaNorte-EstanciaelRoble",
        "_segmentIndex": 0,
        "_position": 11
      },
      "geometry": {
        "type": "Point",
        "coordinates": [
          -73.35970812594519,
          5.533200093126235
        ]
      }
    },
    {
      "type": "Feature",
      "properties": {
        "_source": "Ruta7-Florida-JuandeCastellanos-AvenidaNorte-EstanciaelRoble",
        "_segmentIndex": 0,
        "_position": 12
      },
      "geometry": {
        "type": "Point",
        "coordinates": [
          -73.35957824098104,
          5.533630610743737
        ]
      }
    },
    {
      "type": "Feature",
      "properties": {
        "_source": "Ruta7-Florida-JuandeCastellanos-AvenidaNorte-EstanciaelRoble",
        "_segmentIndex": 0,
        "_position": 13
      },
      "geometry": {
        "type": "Point",
        "coordinates": [
          -73.3594446299658,
          5.534060116833365
        ]
      }
    },
    {
      "type": "Feature",
      "properties": {
        "_source": "Ruta7-Florida-JuandeCastellanos-AvenidaNorte-EstanciaelRoble",
        "_segmentIndex": 0,
        "_position": 14
      },
      "geometry": {
        "type": "Point",
        "coordinates": [
          -73.35931698962357,
          5.5344914420398705
        ]
      }
    },
    {
      "type": "Feature",
      "properties": {
        "_source": "Ruta7-Florida-JuandeCastellanos-AvenidaNorte-EstanciaelRoble",
        "_segmentIndex": 0,
        "_position": 15
      },
      "geometry": {
        "type": "Point",
        "coordinates": [
          -73.35919567913213,
          5.534924587442086
        ]
      }
    },
    {
      "type": "Feature",
      "properties": {
        "_source": "Ruta7-Florida-JuandeCastellanos-AvenidaNorte-EstanciaelRoble",
        "_segmentIndex": 0,
        "_position": 16
      },
      "geometry": {
        "type": "Point",
        "coordinates": [
          -73.35907003401942,
          5.535356503742905
        ]
      }
    },
    {
      "type": "Feature",
      "properties": {
        "_source": "Ruta7-Florida-JuandeCastellanos-AvenidaNorte-EstanciaelRoble",
        "_segmentIndex": 0,
        "_position": 0
      },
      "geometry": {
        "type": "Point",
        "coordinates": [
          -73.359031,
          5.53549
        ]
      }
    },
    {
      "type": "Feature",
      "properties": {
        "_source": "Ruta7-Florida-JuandeCastellanos-AvenidaNorte-EstanciaelRoble",
        "_segmentIndex": 0,
        "_position": 1
      },
      "geometry": {
        "type": "Point",
        "coordinates": [
          -73.35945065543358,
          5.5356516672943155
        ]
      }
    },
    {
      "type": "Feature",
      "properties": {
        "_source": "Ruta7-Florida-JuandeCastellanos-AvenidaNorte-EstanciaelRoble",
        "_segmentIndex": 0,
        "_position": 0
      },
      "geometry": {
        "type": "Point",
        "coordinates": [
          -73.359876,
          5.535796
        ]
      }
    },
    {
      "type": "Feature",
      "properties": {
        "_source": "Ruta7-Florida-JuandeCastellanos-AvenidaNorte-EstanciaelRoble",
        "_segmentIndex": 0,
        "_position": 1
      },
      "geometry": {
        "type": "Point",
        "coordinates": [
          -73.35974240042145,
          5.536225548071814
        ]
      }
    },
    {
      "type": "Feature",
      "properties": {
        "_source": "Ruta7-Florida-JuandeCastellanos-AvenidaNorte-EstanciaelRoble",
        "_segmentIndex": 0,
        "_position": 0
      },
      "geometry": {
        "type": "Point",
        "coordinates": [
          -73.359718,
          5.536304
        ]
      }
    },
    {
      "type": "Feature",
      "properties": {
        "_source": "Ruta7-Florida-JuandeCastellanos-AvenidaNorte-EstanciaelRoble",
        "_segmentIndex": 0,
        "_position": 1
      },
      "geometry": {
        "type": "Point",
        "coordinates": [
          -73.35928117495057,
          5.536197487402935
        ]
      }
    },
    {
      "type": "Feature",
      "properties": {
        "_source": "Ruta7-Florida-JuandeCastellanos-AvenidaNorte-EstanciaelRoble",
        "_segmentIndex": 0,
        "_position": 2
      },
      "geometry": {
        "type": "Point",
        "coordinates": [
          -73.35885118052649,
          5.536089606144408
        ]
      }
    },
    {
      "type": "Feature",
      "properties": {
        "_source": "Ruta7-Florida-JuandeCastellanos-AvenidaNorte-EstanciaelRoble",
        "_segmentIndex": 0,
        "_position": 0
      },
      "geometry": {
        "type": "Point",
        "coordinates": [
          -73.360328,
          5.538006
        ]
      }
    },
    {
      "type": "Feature",
      "properties": {
        "_source": "Ruta7-Florida-JuandeCastellanos-AvenidaNorte-EstanciaelRoble",
        "_segmentIndex": 0,
        "_position": 1
      },
      "geometry": {
        "type": "Point",
        "coordinates": [
          -73.36018109322029,
          5.538429666874888
        ]
      }
    },
    {
      "type": "Feature",
      "properties": {
        "_source": "Ruta7-Florida-JuandeCastellanos-AvenidaNorte-EstanciaelRoble",
        "_segmentIndex": 0,
        "_position": 2
      },
      "geometry": {
        "type": "Point",
        "coordinates": [
          -73.36008670208567,
          5.538869402695167
        ]
      }
    },
    {
      "type": "Feature",
      "properties": {
        "_source": "Ruta7-Florida-JuandeCastellanos-AvenidaNorte-EstanciaelRoble",
        "_segmentIndex": 0,
        "_position": 3
      },
      "geometry": {
        "type": "Point",
        "coordinates": [
          -73.35999123000174,
          5.539308895186773
        ]
      }
    },
    {
      "type": "Feature",
      "properties": {
        "_source": "Ruta7-Florida-JuandeCastellanos-AvenidaNorte-EstanciaelRoble",
        "_segmentIndex": 0,
        "_position": 4
      },
      "geometry": {
        "type": "Point",
        "coordinates": [
          -73.35988517719997,
          5.539745985503925
        ]
      }
    },
    {
      "type": "Feature",
      "properties": {
        "_source": "Ruta7-Florida-JuandeCastellanos-AvenidaNorte-EstanciaelRoble",
        "_segmentIndex": 0,
        "_position": 5
      },
      "geometry": {
        "type": "Point",
        "coordinates": [
          -73.3597631486444,
          5.540178660002171
        ]
      }
    },
    {
      "type": "Feature",
      "properties": {
        "_source": "Ruta7-Florida-JuandeCastellanos-AvenidaNorte-EstanciaelRoble",
        "_segmentIndex": 0,
        "_position": 6
      },
      "geometry": {
        "type": "Point",
        "coordinates": [
          -73.35959501352983,
          5.540595747685217
        ]
      }
    },
    {
      "type": "Feature",
      "properties": {
        "_source": "Ruta7-Florida-JuandeCastellanos-AvenidaNorte-EstanciaelRoble",
        "_segmentIndex": 0,
        "_position": 7
      },
      "geometry": {
        "type": "Point",
        "coordinates": [
          -73.35940650164895,
          5.541004322787919
        ]
      }
    },
    {
      "type": "Feature",
      "properties": {
        "_source": "Ruta7-Florida-JuandeCastellanos-AvenidaNorte-EstanciaelRoble",
        "_segmentIndex": 0,
        "_position": 8
      },
      "geometry": {
        "type": "Point",
        "coordinates": [
          -73.35921744165401,
          5.541412705520248
        ]
      }
    },
    {
      "type": "Feature",
      "properties": {
        "_source": "Ruta7-Florida-JuandeCastellanos-AvenidaNorte-EstanciaelRoble",
        "_segmentIndex": 0,
        "_position": 9
      },
      "geometry": {
        "type": "Point",
        "coordinates": [
          -73.35903100812182,
          5.541822279298913
        ]
      }
    },
    {
      "type": "Feature",
      "properties": {
        "_source": "Ruta7-Florida-JuandeCastellanos-AvenidaNorte-EstanciaelRoble",
        "_segmentIndex": 0,
        "_position": 10
      },
      "geometry": {
        "type": "Point",
        "coordinates": [
          -73.35886362546252,
          5.542239917135989
        ]
      }
    },
    {
      "type": "Feature",
      "properties": {
        "_source": "Ruta7-Florida-JuandeCastellanos-AvenidaNorte-EstanciaelRoble",
        "_segmentIndex": 0,
        "_position": 11
      },
      "geometry": {
        "type": "Point",
        "coordinates": [
          -73.35882857619166,
          5.5426775056282835
        ]
      }
    },
    {
      "type": "Feature",
      "properties": {
        "_source": "Ruta7-Florida-JuandeCastellanos-AvenidaNorte-EstanciaelRoble",
        "_segmentIndex": 0,
        "_position": 12
      },
      "geometry": {
        "type": "Point",
        "coordinates": [
          -73.3586639773279,
          5.5430706276580874
        ]
      }
    },
    {
      "type": "Feature",
      "properties": {
        "_source": "Ruta7-Florida-JuandeCastellanos-AvenidaNorte-EstanciaelRoble",
        "_segmentIndex": 0,
        "_position": 13
      },
      "geometry": {
        "type": "Point",
        "coordinates": [
          -73.35840334382684,
          5.543437912712869
        ]
      }
    },
    {
      "type": "Feature",
      "properties": {
        "_source": "Ruta7-Florida-JuandeCastellanos-AvenidaNorte-EstanciaelRoble",
        "_segmentIndex": 0,
        "_position": 14
      },
      "geometry": {
        "type": "Point",
        "coordinates": [
          -73.35813312880428,
          5.543798131690056
        ]
      }
    },
    {
      "type": "Feature",
      "properties": {
        "_source": "Ruta7-Florida-JuandeCastellanos-AvenidaNorte-EstanciaelRoble",
        "_segmentIndex": 0,
        "_position": 15
      },
      "geometry": {
        "type": "Point",
        "coordinates": [
          -73.35784206239111,
          5.544141299774232
        ]
      }
    },
    {
      "type": "Feature",
      "properties": {
        "_source": "Ruta7-Florida-JuandeCastellanos-AvenidaNorte-EstanciaelRoble",
        "_segmentIndex": 0,
        "_position": 0
      },
      "geometry": {
        "type": "Point",
        "coordinates": [
          -73.357734,
          5.544254
        ]
      }
    },
    {
      "type": "Feature",
      "properties": {
        "_source": "Ruta7-Florida-JuandeCastellanos-AvenidaNorte-EstanciaelRoble",
        "_segmentIndex": 0,
        "_position": 1
      },
      "geometry": {
        "type": "Point",
        "coordinates": [
          -73.35733071760377,
          5.544389712576634
        ]
      }
    },
    {
      "type": "Feature",
      "properties": {
        "_source": "Ruta7-Florida-JuandeCastellanos-AvenidaNorte-EstanciaelRoble",
        "_segmentIndex": 0,
        "_position": 2
      },
      "geometry": {
        "type": "Point",
        "coordinates": [
          -73.35728341753354,
          5.544818903363655
        ]
      }
    },
    {
      "type": "Feature",
      "properties": {
        "_source": "Ruta7-Florida-JuandeCastellanos-AvenidaNorte-EstanciaelRoble",
        "_segmentIndex": 0,
        "_position": 0
      },
      "geometry": {
        "type": "Point",
        "coordinates": [
          -73.357269,
          5.54485
        ]
      }
    },
    {
      "type": "Feature",
      "properties": {
        "_source": "Ruta7-Florida-JuandeCastellanos-AvenidaNorte-EstanciaelRoble",
        "_segmentIndex": 0,
        "_position": 1
      },
      "geometry": {
        "type": "Point",
        "coordinates": [
          -73.35703433820541,
          5.545232526599816
        ]
      }
    },
    {
      "type": "Feature",
      "properties": {
        "_source": "Ruta7-Florida-JuandeCastellanos-AvenidaNorte-EstanciaelRoble",
        "_segmentIndex": 0,
        "_position": 2
      },
      "geometry": {
        "type": "Point",
        "coordinates": [
          -73.35676920570695,
          5.545596581187416
        ]
      }
    },
    {
      "type": "Feature",
      "properties": {
        "_source": "Ruta7-Florida-JuandeCastellanos-AvenidaNorte-EstanciaelRoble",
        "_segmentIndex": 0,
        "_position": 3
      },
      "geometry": {
        "type": "Point",
        "coordinates": [
          -73.3565001904889,
          5.5459578303846255
        ]
      }
    },
    {
      "type": "Feature",
      "properties": {
        "_source": "Ruta7-Florida-JuandeCastellanos-AvenidaNorte-EstanciaelRoble",
        "_segmentIndex": 0,
        "_position": 4
      },
      "geometry": {
        "type": "Point",
        "coordinates": [
          -73.35623117494146,
          5.546319079460334
        ]
      }
    },
    {
      "type": "Feature",
      "properties": {
        "_source": "Ruta7-Florida-JuandeCastellanos-AvenidaNorte-EstanciaelRoble",
        "_segmentIndex": 0,
        "_position": 5
      },
      "geometry": {
        "type": "Point",
        "coordinates": [
          -73.35596586948681,
          5.546683032046689
        ]
      }
    },
    {
      "type": "Feature",
      "properties": {
        "_source": "Ruta7-Florida-JuandeCastellanos-AvenidaNorte-EstanciaelRoble",
        "_segmentIndex": 0,
        "_position": 6
      },
      "geometry": {
        "type": "Point",
        "coordinates": [
          -73.35570115865954,
          5.547047418034018
        ]
      }
    },
    {
      "type": "Feature",
      "properties": {
        "_source": "Ruta7-Florida-JuandeCastellanos-AvenidaNorte-EstanciaelRoble",
        "_segmentIndex": 0,
        "_position": 7
      },
      "geometry": {
        "type": "Point",
        "coordinates": [
          -73.35543644750528,
          5.547411803903685
        ]
      }
    },
    {
      "type": "Feature",
      "properties": {
        "_source": "Ruta7-Florida-JuandeCastellanos-AvenidaNorte-EstanciaelRoble",
        "_segmentIndex": 0,
        "_position": 8
      },
      "geometry": {
        "type": "Point",
        "coordinates": [
          -73.355171526267,
          5.5477760385861155
        ]
      }
    },
    {
      "type": "Feature",
      "properties": {
        "_source": "Ruta7-Florida-JuandeCastellanos-AvenidaNorte-EstanciaelRoble",
        "_segmentIndex": 0,
        "_position": 9
      },
      "geometry": {
        "type": "Point",
        "coordinates": [
          -73.3549061474809,
          5.548139931147728
        ]
      }
    },
    {
      "type": "Feature",
      "properties": {
        "_source": "Ruta7-Florida-JuandeCastellanos-AvenidaNorte-EstanciaelRoble",
        "_segmentIndex": 0,
        "_position": 10
      },
      "geometry": {
        "type": "Point",
        "coordinates": [
          -73.35462674962967,
          5.548493287703147
        ]
      }
    },
    {
      "type": "Feature",
      "properties": {
        "_source": "Ruta7-Florida-JuandeCastellanos-AvenidaNorte-EstanciaelRoble",
        "_segmentIndex": 0,
        "_position": 11
      },
      "geometry": {
        "type": "Point",
        "coordinates": [
          -73.35434735144365,
          5.54884664412745
        ]
      }
    },
    {
      "type": "Feature",
      "properties": {
        "_source": "Ruta7-Florida-JuandeCastellanos-AvenidaNorte-EstanciaelRoble",
        "_segmentIndex": 0,
        "_position": 12
      },
      "geometry": {
        "type": "Point",
        "coordinates": [
          -73.35406667660095,
          5.549198990046665
        ]
      }
    },
    {
      "type": "Feature",
      "properties": {
        "_source": "Ruta7-Florida-JuandeCastellanos-AvenidaNorte-EstanciaelRoble",
        "_segmentIndex": 0,
        "_position": 13
      },
      "geometry": {
        "type": "Point",
        "coordinates": [
          -73.35378364068951,
          5.549549467006825
        ]
      }
    },
    {
      "type": "Feature",
      "properties": {
        "_source": "Ruta7-Florida-JuandeCastellanos-AvenidaNorte-EstanciaelRoble",
        "_segmentIndex": 0,
        "_position": 14
      },
      "geometry": {
        "type": "Point",
        "coordinates": [
          -73.35350060444163,
          5.5498999438324095
        ]
      }
    },
    {
      "type": "Feature",
      "properties": {
        "_source": "Ruta7-Florida-JuandeCastellanos-AvenidaNorte-EstanciaelRoble",
        "_segmentIndex": 0,
        "_position": 15
      },
      "geometry": {
        "type": "Point",
        "coordinates": [
          -73.35321068580102,
          5.550244713401672
        ]
      }
    },
    {
      "type": "Feature",
      "properties": {
        "_source": "Ruta7-Florida-JuandeCastellanos-AvenidaNorte-EstanciaelRoble",
        "_segmentIndex": 0,
        "_position": 16
      },
      "geometry": {
        "type": "Point",
        "coordinates": [
          -73.3529154313015,
          5.5505850582110305
        ]
      }
    },
    {
      "type": "Feature",
      "properties": {
        "_source": "Ruta7-Florida-JuandeCastellanos-AvenidaNorte-EstanciaelRoble",
        "_segmentIndex": 0,
        "_position": 17
      },
      "geometry": {
        "type": "Point",
        "coordinates": [
          -73.35262901438062,
          5.55093228461662
        ]
      }
    },
    {
      "type": "Feature",
      "properties": {
        "_source": "Ruta7-Florida-JuandeCastellanos-AvenidaNorte-EstanciaelRoble",
        "_segmentIndex": 0,
        "_position": 18
      },
      "geometry": {
        "type": "Point",
        "coordinates": [
          -73.35237270537218,
          5.551302330514868
        ]
      }
    },
    {
      "type": "Feature",
      "properties": {
        "_source": "Ruta7-Florida-JuandeCastellanos-AvenidaNorte-EstanciaelRoble",
        "_segmentIndex": 0,
        "_position": 19
      },
      "geometry": {
        "type": "Point",
        "coordinates": [
          -73.35216621515255,
          5.551701196127366
        ]
      }
    },
    {
      "type": "Feature",
      "properties": {
        "_source": "Ruta7-Florida-JuandeCastellanos-AvenidaNorte-EstanciaelRoble",
        "_segmentIndex": 0,
        "_position": 20
      },
      "geometry": {
        "type": "Point",
        "coordinates": [
          -73.35202699330823,
          5.55212824704303
        ]
      }
    },
    {
      "type": "Feature",
      "properties": {
        "_source": "Ruta7-Florida-JuandeCastellanos-AvenidaNorte-EstanciaelRoble",
        "_segmentIndex": 0,
        "_position": 21
      },
      "geometry": {
        "type": "Point",
        "coordinates": [
          -73.3519037511981,
          5.55256085018173
        ]
      }
    },
    {
      "type": "Feature",
      "properties": {
        "_source": "Ruta7-Florida-JuandeCastellanos-AvenidaNorte-EstanciaelRoble",
        "_segmentIndex": 0,
        "_position": 22
      },
      "geometry": {
        "type": "Point",
        "coordinates": [
          -73.35176495747838,
          5.552988764832567
        ]
      }
    },
    {
      "type": "Feature",
      "properties": {
        "_source": "Ruta7-Florida-JuandeCastellanos-AvenidaNorte-EstanciaelRoble",
        "_segmentIndex": 0,
        "_position": 23
      },
      "geometry": {
        "type": "Point",
        "coordinates": [
          -73.35162616355711,
          5.553416679451019
        ]
      }
    },
    {
      "type": "Feature",
      "properties": {
        "_source": "Ruta7-Florida-JuandeCastellanos-AvenidaNorte-EstanciaelRoble",
        "_segmentIndex": 0,
        "_position": 24
      },
      "geometry": {
        "type": "Point",
        "coordinates": [
          -73.35148146321424,
          5.55384260529219
        ]
      }
    },
    {
      "type": "Feature",
      "properties": {
        "_source": "Ruta7-Florida-JuandeCastellanos-AvenidaNorte-EstanciaelRoble",
        "_segmentIndex": 0,
        "_position": 25
      },
      "geometry": {
        "type": "Point",
        "coordinates": [
          -73.35133072450752,
          5.554266497927936
        ]
      }
    },
    {
      "type": "Feature",
      "properties": {
        "_source": "Ruta7-Florida-JuandeCastellanos-AvenidaNorte-EstanciaelRoble",
        "_segmentIndex": 0,
        "_position": 26
      },
      "geometry": {
        "type": "Point",
        "coordinates": [
          -73.35116585928364,
          5.554684756390851
        ]
      }
    },
    {
      "type": "Feature",
      "properties": {
        "_source": "Ruta7-Florida-JuandeCastellanos-AvenidaNorte-EstanciaelRoble",
        "_segmentIndex": 0,
        "_position": 27
      },
      "geometry": {
        "type": "Point",
        "coordinates": [
          -73.35098534069762,
          5.555096929804405
        ]
      }
    },
    {
      "type": "Feature",
      "properties": {
        "_source": "Ruta7-Florida-JuandeCastellanos-AvenidaNorte-EstanciaelRoble",
        "_segmentIndex": 0,
        "_position": 28
      },
      "geometry": {
        "type": "Point",
        "coordinates": [
          -73.35080961389592,
          5.555511180647913
        ]
      }
    },
    {
      "type": "Feature",
      "properties": {
        "_source": "Ruta7-Florida-JuandeCastellanos-AvenidaNorte-EstanciaelRoble",
        "_segmentIndex": 0,
        "_position": 29
      },
      "geometry": {
        "type": "Point",
        "coordinates": [
          -73.35063505684673,
          5.555925919858087
        ]
      }
    },
    {
      "type": "Feature",
      "properties": {
        "_source": "Ruta7-Florida-JuandeCastellanos-AvenidaNorte-EstanciaelRoble",
        "_segmentIndex": 0,
        "_position": 30
      },
      "geometry": {
        "type": "Point",
        "coordinates": [
          -73.35044409516338,
          5.556332904277316
        ]
      }
    },
    {
      "type": "Feature",
      "properties": {
        "_source": "Ruta7-Florida-JuandeCastellanos-AvenidaNorte-EstanciaelRoble",
        "_segmentIndex": 0,
        "_position": 0
      },
      "geometry": {
        "type": "Point",
        "coordinates": [
          -73.350395,
          5.556425
        ]
      }
    },
    {
      "type": "Feature",
      "properties": {
        "_source": "Ruta7-Florida-JuandeCastellanos-AvenidaNorte-EstanciaelRoble",
        "_segmentIndex": 0,
        "_position": 1
      },
      "geometry": {
        "type": "Point",
        "coordinates": [
          -73.35078006058899,
          5.556655072379519
        ]
      }
    },
    {
      "type": "Feature",
      "properties": {
        "_source": "Ruta7-Florida-JuandeCastellanos-AvenidaNorte-EstanciaelRoble",
        "_segmentIndex": 0,
        "_position": 2
      },
      "geometry": {
        "type": "Point",
        "coordinates": [
          -73.3511898302178,
          5.556844433215338
        ]
      }
    },
    {
      "type": "Feature",
      "properties": {
        "_source": "Ruta7-Florida-JuandeCastellanos-AvenidaNorte-EstanciaelRoble",
        "_segmentIndex": 0,
        "_position": 3
      },
      "geometry": {
        "type": "Point",
        "coordinates": [
          -73.3515996001101,
          5.557033793768712
        ]
      }
    },
    {
      "type": "Feature",
      "properties": {
        "_source": "Ruta7-Florida-JuandeCastellanos-AvenidaNorte-EstanciaelRoble",
        "_segmentIndex": 0,
        "_position": 0
      },
      "geometry": {
        "type": "Point",
        "coordinates": [
          -73.351771,
          5.557113
        ]
      }
    },
    {
      "type": "Feature",
      "properties": {
        "_source": "Ruta7-Florida-JuandeCastellanos-AvenidaNorte-EstanciaelRoble",
        "_segmentIndex": 0,
        "_position": 1
      },
      "geometry": {
        "type": "Point",
        "coordinates": [
          -73.351962935543,
          5.556705936780782
        ]
      }
    },
    {
      "type": "Feature",
      "properties": {
        "_source": "Ruta7-Florida-JuandeCastellanos-AvenidaNorte-EstanciaelRoble",
        "_segmentIndex": 0,
        "_position": 2
      },
      "geometry": {
        "type": "Point",
        "coordinates": [
          -73.35215756481722,
          5.556300146278165
        ]
      }
    },
    {
      "type": "Feature",
      "properties": {
        "_source": "Ruta7-Florida-JuandeCastellanos-AvenidaNorte-EstanciaelRoble",
        "_segmentIndex": 0,
        "_position": 3
      },
      "geometry": {
        "type": "Point",
        "coordinates": [
          -73.35232083566703,
          5.555884355318885
        ]
      }
    },
    {
      "type": "Feature",
      "properties": {
        "_source": "Ruta7-Florida-JuandeCastellanos-AvenidaNorte-EstanciaelRoble",
        "_segmentIndex": 0,
        "_position": 4
      },
      "geometry": {
        "type": "Point",
        "coordinates": [
          -73.35254776663318,
          5.5555062640502255
        ]
      }
    },
    {
      "type": "Feature",
      "properties": {
        "_source": "Ruta7-Florida-JuandeCastellanos-AvenidaNorte-EstanciaelRoble",
        "_segmentIndex": 0,
        "_position": 5
      },
      "geometry": {
        "type": "Point",
        "coordinates": [
          -73.35290832122918,
          5.5552422566444015
        ]
      }
    },
    {
      "type": "Feature",
      "properties": {
        "_source": "Ruta7-Florida-JuandeCastellanos-AvenidaNorte-EstanciaelRoble",
        "_segmentIndex": 0,
        "_position": 0
      },
      "geometry": {
        "type": "Point",
        "coordinates": [
          -73.353223,
          5.555182
        ]
      }
    },
    {
      "type": "Feature",
      "properties": {
        "_source": "Ruta7-Florida-JuandeCastellanos-AvenidaNorte-EstanciaelRoble",
        "_segmentIndex": 0,
        "_position": 1
      },
      "geometry": {
        "type": "Point",
        "coordinates": [
          -73.3536499723203,
          5.555316908741465
        ]
      }
    },
    {
      "type": "Feature",
      "properties": {
        "_source": "Ruta7-Florida-JuandeCastellanos-AvenidaNorte-EstanciaelRoble",
        "_segmentIndex": 0,
        "_position": 2
      },
      "geometry": {
        "type": "Point",
        "coordinates": [
          -73.35408873413874,
          5.555305895584504
        ]
      }
    },
    {
      "type": "Feature",
      "properties": {
        "_source": "Ruta7-Florida-JuandeCastellanos-AvenidaNorte-EstanciaelRoble",
        "_segmentIndex": 0,
        "_position": 3
      },
      "geometry": {
        "type": "Point",
        "coordinates": [
          -73.354434995827,
          5.555506976981118
        ]
      }
    },
    {
      "type": "Feature",
      "properties": {
        "_source": "Ruta7-Florida-JuandeCastellanos-AvenidaNorte-EstanciaelRoble",
        "_segmentIndex": 0,
        "_position": 4
      },
      "geometry": {
        "type": "Point",
        "coordinates": [
          -73.35469806958872,
          5.555872538392756
        ]
      }
    },
    {
      "type": "Feature",
      "properties": {
        "_source": "Ruta7-Florida-JuandeCastellanos-AvenidaNorte-EstanciaelRoble",
        "_segmentIndex": 0,
        "_position": 5
      },
      "geometry": {
        "type": "Point",
        "coordinates": [
          -73.3549595407534,
          5.5562392370792875
        ]
      }
    },
    {
      "type": "Feature",
      "properties": {
        "_source": "Ruta7-Florida-JuandeCastellanos-AvenidaNorte-EstanciaelRoble",
        "_segmentIndex": 0,
        "_position": 6
      },
      "geometry": {
        "type": "Point",
        "coordinates": [
          -73.35529201689863,
          5.5565369997365455
        ]
      }
    },
    {
      "type": "Feature",
      "properties": {
        "_source": "Ruta7-Florida-JuandeCastellanos-AvenidaNorte-EstanciaelRoble",
        "_segmentIndex": 0,
        "_position": 7
      },
      "geometry": {
        "type": "Point",
        "coordinates": [
          -73.35572505544185,
          5.556635012799471
        ]
      }
    },
    {
      "type": "Feature",
      "properties": {
        "_source": "Ruta7-Florida-JuandeCastellanos-AvenidaNorte-EstanciaelRoble",
        "_segmentIndex": 0,
        "_position": 0
      },
      "geometry": {
        "type": "Point",
        "coordinates": [
          -73.355868,
          5.556668
        ]
      }
    },
    {
      "type": "Feature",
      "properties": {
        "_source": "Ruta7-Florida-JuandeCastellanos-AvenidaNorte-EstanciaelRoble",
        "_segmentIndex": 0,
        "_position": 1
      },
      "geometry": {
        "type": "Point",
        "coordinates": [
          -73.35556340118306,
          5.5569940279919505
        ]
      }
    },
    {
      "type": "Feature",
      "properties": {
        "_source": "Ruta7-Florida-JuandeCastellanos-AvenidaNorte-EstanciaelRoble",
        "_segmentIndex": 0,
        "_position": 2
      },
      "geometry": {
        "type": "Point",
        "coordinates": [
          -73.35549459318166,
          5.5574324767182155
        ]
      }
    },
    {
      "type": "Feature",
      "properties": {
        "_source": "Ruta7-Florida-JuandeCastellanos-AvenidaNorte-EstanciaelRoble",
        "_segmentIndex": 0,
        "_position": 3
      },
      "geometry": {
        "type": "Point",
        "coordinates": [
          -73.35550520638364,
          5.5578819541970494
        ]
      }
    },
    {
      "type": "Feature",
      "properties": {
        "_source": "Ruta7-Florida-JuandeCastellanos-AvenidaNorte-EstanciaelRoble",
        "_segmentIndex": 0,
        "_position": 4
      },
      "geometry": {
        "type": "Point",
        "coordinates": [
          -73.35552991908149,
          5.5583308176186
        ]
      }
    },
    {
      "type": "Feature",
      "properties": {
        "_source": "Ruta7-Florida-JuandeCastellanos-AvenidaNorte-EstanciaelRoble",
        "_segmentIndex": 0,
        "_position": 5
      },
      "geometry": {
        "type": "Point",
        "coordinates": [
          -73.35542965496879,
          5.558764548962011
        ]
      }
    },
    {
      "type": "Feature",
      "properties": {
        "_source": "Ruta7-Florida-JuandeCastellanos-AvenidaNorte-EstanciaelRoble",
        "_segmentIndex": 0,
        "_position": 6
      },
      "geometry": {
        "type": "Point",
        "coordinates": [
          -73.35526644908089,
          5.559183373525492
        ]
      }
    },
    {
      "type": "Feature",
      "properties": {
        "_source": "Ruta7-Florida-JuandeCastellanos-AvenidaNorte-EstanciaelRoble",
        "_segmentIndex": 0,
        "_position": 0
      },
      "geometry": {
        "type": "Point",
        "coordinates": [
          -73.355564,
          5.558178
        ]
      }
    },
    {
      "type": "Feature",
      "properties": {
        "_source": "Ruta7-Florida-JuandeCastellanos-AvenidaNorte-EstanciaelRoble",
        "_segmentIndex": 0,
        "_position": 1
      },
      "geometry": {
        "type": "Point",
        "coordinates": [
          -73.35596918205299,
          5.557986071586287
        ]
      }
    },
    {
      "type": "Feature",
      "properties": {
        "_source": "Ruta7-Florida-JuandeCastellanos-AvenidaNorte-EstanciaelRoble",
        "_segmentIndex": 0,
        "_position": 0
      },
      "geometry": {
        "type": "Point",
        "coordinates": [
          -73.356129,
          5.557896
        ]
      }
    },
    {
      "type": "Feature",
      "properties": {
        "_source": "Ruta7-Florida-JuandeCastellanos-AvenidaNorte-EstanciaelRoble",
        "_segmentIndex": 0,
        "_position": 1
      },
      "geometry": {
        "type": "Point",
        "coordinates": [
          -73.3564057384266,
          5.55825128258853
        ]
      }
    },
    {
      "type": "Feature",
      "properties": {
        "_source": "Ruta7-Florida-JuandeCastellanos-AvenidaNorte-EstanciaelRoble",
        "_segmentIndex": 0,
        "_position": 2
      },
      "geometry": {
        "type": "Point",
        "coordinates": [
          -73.35668678136744,
          5.558602515265925
        ]
      }
    },
    {
      "type": "Feature",
      "properties": {
        "_source": "Ruta7-Florida-JuandeCastellanos-AvenidaNorte-EstanciaelRoble",
        "_segmentIndex": 0,
        "_position": 3
      },
      "geometry": {
        "type": "Point",
        "coordinates": [
          -73.35710356914026,
          5.558747740839395
        ]
      }
    },
    {
      "type": "Feature",
      "properties": {
        "_source": "Ruta7-Florida-JuandeCastellanos-AvenidaNorte-EstanciaelRoble",
        "_segmentIndex": 0,
        "_position": 4
      },
      "geometry": {
        "type": "Point",
        "coordinates": [
          -73.35744717108292,
          5.558985934447494
        ]
      }
    },
    {
      "type": "Feature",
      "properties": {
        "_source": "Ruta7-Florida-JuandeCastellanos-AvenidaNorte-EstanciaelRoble",
        "_segmentIndex": 0,
        "_position": 5
      },
      "geometry": {
        "type": "Point",
        "coordinates": [
          -73.35743355655255,
          5.559374937162112
        ]
      }
    },
    {
      "type": "Feature",
      "properties": {
        "_source": "Ruta7-Florida-JuandeCastellanos-AvenidaNorte-EstanciaelRoble",
        "_segmentIndex": 0,
        "_position": 6
      },
      "geometry": {
        "type": "Point",
        "coordinates": [
          -73.35773853617525,
          5.559706170721393
        ]
      }
    },
    {
      "type": "Feature",
      "properties": {
        "_source": "Ruta7-Florida-JuandeCastellanos-AvenidaNorte-EstanciaelRoble",
        "_segmentIndex": 0,
        "_position": 7
      },
      "geometry": {
        "type": "Point",
        "coordinates": [
          -73.35766158782653,
          5.560118789443381
        ]
      }
    },
    {
      "type": "Feature",
      "properties": {
        "_source": "Ruta7-Florida-JuandeCastellanos-AvenidaNorte-EstanciaelRoble",
        "_segmentIndex": 0,
        "_position": 8
      },
      "geometry": {
        "type": "Point",
        "coordinates": [
          -73.35738436833076,
          5.559934730650633
        ]
      }
    },
    {
      "type": "Feature",
      "properties": {
        "_source": "Ruta7-Florida-JuandeCastellanos-AvenidaNorte-EstanciaelRoble",
        "_segmentIndex": 0,
        "_position": 9
      },
      "geometry": {
        "type": "Point",
        "coordinates": [
          -73.35705056441553,
          5.559652088690477
        ]
      }
    },
    {
      "type": "Feature",
      "properties": {
        "_source": "Ruta7-Florida-JuandeCastellanos-AvenidaNorte-EstanciaelRoble",
        "_segmentIndex": 0,
        "_position": 10
      },
      "geometry": {
        "type": "Point",
        "coordinates": [
          -73.35660667917209,
          5.5595707492785245
        ]
      }
    },
    {
      "type": "Feature",
      "properties": {
        "_source": "Ruta7-Florida-JuandeCastellanos-AvenidaNorte-EstanciaelRoble",
        "_segmentIndex": 0,
        "_position": 11
      },
      "geometry": {
        "type": "Point",
        "coordinates": [
          -73.35616294416216,
          5.559486789311009
        ]
      }
    },
    {
      "type": "Feature",
      "properties": {
        "_source": "Ruta7-Florida-JuandeCastellanos-AvenidaNorte-EstanciaelRoble",
        "_segmentIndex": 0,
        "_position": 12
      },
      "geometry": {
        "type": "Point",
        "coordinates": [
          -73.35607907086607,
          5.559833559065588
        ]
      }
    },
    {
      "type": "Feature",
      "properties": {
        "_source": "Ruta7-Florida-JuandeCastellanos-AvenidaNorte-EstanciaelRoble",
        "_segmentIndex": 0,
        "_position": 0
      },
      "geometry": {
        "type": "Point",
        "coordinates": [
          -73.356047,
          5.560091
        ]
      }
    },
    {
      "type": "Feature",
      "properties": {
        "_source": "Ruta7-Florida-JuandeCastellanos-AvenidaNorte-EstanciaelRoble",
        "_segmentIndex": 0,
        "_position": 1
      },
      "geometry": {
        "type": "Point",
        "coordinates": [
          -73.35588748425391,
          5.560511202003003
        ]
      }
    },
    {
      "type": "Feature",
      "properties": {
        "_source": "Ruta7-Florida-JuandeCastellanos-AvenidaNorte-EstanciaelRoble",
        "_segmentIndex": 0,
        "_position": 2
      },
      "geometry": {
        "type": "Point",
        "coordinates": [
          -73.35576311415463,
          5.560943257675577
        ]
      }
    },
    {
      "type": "Feature",
      "properties": {
        "_source": "Ruta7-Florida-JuandeCastellanos-AvenidaNorte-EstanciaelRoble",
        "_segmentIndex": 0,
        "_position": 0
      },
      "geometry": {
        "type": "Point",
        "coordinates": [
          -73.355598,
          5.561328
        ]
      }
    },
    {
      "type": "Feature",
      "properties": {
        "_source": "Ruta7-Florida-JuandeCastellanos-AvenidaNorte-EstanciaelRoble",
        "_segmentIndex": 0,
        "_position": 1
      },
      "geometry": {
        "type": "Point",
        "coordinates": [
          -73.35555210609405,
          5.561769130802373
        ]
      }
    },
    {
      "type": "Feature",
      "properties": {
        "_source": "Ruta7-Florida-JuandeCastellanos-AvenidaNorte-EstanciaelRoble",
        "_segmentIndex": 0,
        "_position": 2
      },
      "geometry": {
        "type": "Point",
        "coordinates": [
          -73.35552962050326,
          5.562218228787839
        ]
      }
    },
    {
      "type": "Feature",
      "properties": {
        "_source": "Ruta7-Florida-JuandeCastellanos-AvenidaNorte-EstanciaelRoble",
        "_segmentIndex": 0,
        "_position": 3
      },
      "geometry": {
        "type": "Point",
        "coordinates": [
          -73.35550639856413,
          5.562667294101894
        ]
      }
    },
    {
      "type": "Feature",
      "properties": {
        "_source": "Ruta7-Florida-JuandeCastellanos-AvenidaNorte-EstanciaelRoble",
        "_segmentIndex": 0,
        "_position": 4
      },
      "geometry": {
        "type": "Point",
        "coordinates": [
          -73.3554757194936,
          5.563115910631113
        ]
      }
    },
    {
      "type": "Feature",
      "properties": {
        "_source": "Ruta7-Florida-JuandeCastellanos-AvenidaNorte-EstanciaelRoble",
        "_segmentIndex": 0,
        "_position": 5
      },
      "geometry": {
        "type": "Point",
        "coordinates": [
          -73.3554069595657,
          5.563559313957058
        ]
      }
    },
    {
      "type": "Feature",
      "properties": {
        "_source": "Ruta7-Florida-JuandeCastellanos-AvenidaNorte-EstanciaelRoble",
        "_segmentIndex": 0,
        "_position": 6
      },
      "geometry": {
        "type": "Point",
        "coordinates": [
          -73.35527983218164,
          5.563990432521257
        ]
      }
    },
    {
      "type": "Feature",
      "properties": {
        "_source": "Ruta7-Florida-JuandeCastellanos-AvenidaNorte-EstanciaelRoble",
        "_segmentIndex": 0,
        "_position": 7
      },
      "geometry": {
        "type": "Point",
        "coordinates": [
          -73.35515270666023,
          5.5644219200493
        ]
      }
    },
    {
      "type": "Feature",
      "properties": {
        "_source": "Ruta7-Florida-JuandeCastellanos-AvenidaNorte-EstanciaelRoble",
        "_segmentIndex": 0,
        "_position": 0
      },
      "geometry": {
        "type": "Point",
        "coordinates": [
          -73.355118,
          5.564537
        ]
      }
    },
    {
      "type": "Feature",
      "properties": {
        "_source": "Ruta7-Florida-JuandeCastellanos-AvenidaNorte-EstanciaelRoble",
        "_segmentIndex": 0,
        "_position": 1
      },
      "geometry": {
        "type": "Point",
        "coordinates": [
          -73.35499724944174,
          5.564147959563598
        ]
      }
    },
    {
      "type": "Feature",
      "properties": {
        "_source": "Ruta7-Florida-JuandeCastellanos-AvenidaNorte-EstanciaelRoble",
        "_segmentIndex": 0,
        "_position": 2
      },
      "geometry": {
        "type": "Point",
        "coordinates": [
          -73.35464693013634,
          5.564257835055158
        ]
      }
    },
    {
      "type": "Feature",
      "properties": {
        "_source": "Ruta7-Florida-JuandeCastellanos-AvenidaNorte-EstanciaelRoble",
        "_segmentIndex": 0,
        "_position": 3
      },
      "geometry": {
        "type": "Point",
        "coordinates": [
          -73.35429322524435,
          5.564536881764429
        ]
      }
    },
    {
      "type": "Feature",
      "properties": {
        "_source": "Ruta7-Florida-JuandeCastellanos-AvenidaNorte-EstanciaelRoble",
        "_segmentIndex": 0,
        "_position": 4
      },
      "geometry": {
        "type": "Point",
        "coordinates": [
          -73.35393031332825,
          5.564804682059845
        ]
      }
    },
    {
      "type": "Feature",
      "properties": {
        "_source": "Ruta7-Florida-JuandeCastellanos-AvenidaNorte-EstanciaelRoble",
        "_segmentIndex": 0,
        "_position": 5
      },
      "geometry": {
        "type": "Point",
        "coordinates": [
          -73.35357258054124,
          5.565079316687043
        ]
      }
    },
    {
      "type": "Feature",
      "properties": {
        "_source": "Ruta7-Florida-JuandeCastellanos-AvenidaNorte-EstanciaelRoble",
        "_segmentIndex": 0,
        "_position": 6
      },
      "geometry": {
        "type": "Point",
        "coordinates": [
          -73.35321122978827,
          5.565348986090736
        ]
      }
    },
    {
      "type": "Feature",
      "properties": {
        "_source": "Ruta7-Florida-JuandeCastellanos-AvenidaNorte-EstanciaelRoble",
        "_segmentIndex": 0,
        "_position": 0
      },
      "geometry": {
        "type": "Point",
        "coordinates": [
          -73.353092,
          5.565419
        ]
      }
    },
    {
      "type": "Feature",
      "properties": {
        "_source": "Ruta7-Florida-JuandeCastellanos-AvenidaNorte-EstanciaelRoble",
        "_segmentIndex": 0,
        "_position": 1
      },
      "geometry": {
        "type": "Point",
        "coordinates": [
          -73.35268413933666,
          5.565225727781336
        ]
      }
    },
    {
      "type": "Feature",
      "properties": {
        "_source": "Ruta7-Florida-JuandeCastellanos-AvenidaNorte-EstanciaelRoble",
        "_segmentIndex": 0,
        "_position": 2
      },
      "geometry": {
        "type": "Point",
        "coordinates": [
          -73.3524541764331,
          5.565474790235407
        ]
      }
    },
    {
      "type": "Feature",
      "properties": {
        "_source": "Ruta7-Florida-JuandeCastellanos-AvenidaNorte-EstanciaelRoble",
        "_segmentIndex": 0,
        "_position": 3
      },
      "geometry": {
        "type": "Point",
        "coordinates": [
          -73.35233547113869,
          5.565908483236152
        ]
      }
    },
    {
      "type": "Feature",
      "properties": {
        "_source": "Ruta7-Florida-JuandeCastellanos-AvenidaNorte-EstanciaelRoble",
        "_segmentIndex": 0,
        "_position": 4
      },
      "geometry": {
        "type": "Point",
        "coordinates": [
          -73.3526011306817,
          5.565844977820621
        ]
      }
    },
    {
      "type": "Feature",
      "properties": {
        "_source": "Ruta7-Florida-JuandeCastellanos-AvenidaNorte-EstanciaelRoble",
        "_segmentIndex": 0,
        "_position": 5
      },
      "geometry": {
        "type": "Point",
        "coordinates": [
          -73.35295060262789,
          5.565560034279497
        ]
      }
    },
    {
      "type": "Feature",
      "properties": {
        "_source": "Ruta7-Florida-JuandeCastellanos-AvenidaNorte-EstanciaelRoble",
        "_segmentIndex": 0,
        "_position": 6
      },
      "geometry": {
        "type": "Point",
        "coordinates": [
          -73.35331243191534,
          5.565292919999577
        ]
      }
    },
    {
      "type": "Feature",
      "properties": {
        "_source": "Ruta7-Florida-JuandeCastellanos-AvenidaNorte-EstanciaelRoble",
        "_segmentIndex": 0,
        "_position": 7
      },
      "geometry": {
        "type": "Point",
        "coordinates": [
          -73.35367250310745,
          5.565021332637145
        ]
      }
    },
    {
      "type": "Feature",
      "properties": {
        "_source": "Ruta7-Florida-JuandeCastellanos-AvenidaNorte-EstanciaelRoble",
        "_segmentIndex": 0,
        "_position": 8
      },
      "geometry": {
        "type": "Point",
        "coordinates": [
          -73.35403274573193,
          5.5647499731686985
        ]
      }
    },
    {
      "type": "Feature",
      "properties": {
        "_source": "Ruta7-Florida-JuandeCastellanos-AvenidaNorte-EstanciaelRoble",
        "_segmentIndex": 0,
        "_position": 9
      },
      "geometry": {
        "type": "Point",
        "coordinates": [
          -73.35439504775789,
          5.564481336305672
        ]
      }
    },
    {
      "type": "Feature",
      "properties": {
        "_source": "Ruta7-Florida-JuandeCastellanos-AvenidaNorte-EstanciaelRoble",
        "_segmentIndex": 0,
        "_position": 10
      },
      "geometry": {
        "type": "Point",
        "coordinates": [
          -73.3547408947411,
          5.564192505429228
        ]
      }
    },
    {
      "type": "Feature",
      "properties": {
        "_source": "Ruta7-Florida-JuandeCastellanos-AvenidaNorte-EstanciaelRoble",
        "_segmentIndex": 0,
        "_position": 11
      },
      "geometry": {
        "type": "Point",
        "coordinates": [
          -73.35499148258234,
          5.564287462826865
        ]
      }
    },
    {
      "type": "Feature",
      "properties": {
        "_source": "Ruta7-Florida-JuandeCastellanos-AvenidaNorte-EstanciaelRoble",
        "_segmentIndex": 0,
        "_position": 0
      },
      "geometry": {
        "type": "Point",
        "coordinates": [
          -73.35513,
          5.564557
        ]
      }
    },
    {
      "type": "Feature",
      "properties": {
        "_source": "Ruta7-Florida-JuandeCastellanos-AvenidaNorte-EstanciaelRoble",
        "_segmentIndex": 0,
        "_position": 1
      },
      "geometry": {
        "type": "Point",
        "coordinates": [
          -73.35525557879527,
          5.56412513212065
        ]
      }
    },
    {
      "type": "Feature",
      "properties": {
        "_source": "Ruta7-Florida-JuandeCastellanos-AvenidaNorte-EstanciaelRoble",
        "_segmentIndex": 0,
        "_position": 0
      },
      "geometry": {
        "type": "Point",
        "coordinates": [
          -73.355226,
          5.559532
        ]
      }
    },
    {
      "type": "Feature",
      "properties": {
        "_source": "Ruta7-Florida-JuandeCastellanos-AvenidaNorte-EstanciaelRoble",
        "_segmentIndex": 0,
        "_position": 1
      },
      "geometry": {
        "type": "Point",
        "coordinates": [
          -73.35531822951025,
          5.559094472731306
        ]
      }
    },
    {
      "type": "Feature",
      "properties": {
        "_source": "Ruta7-Florida-JuandeCastellanos-AvenidaNorte-EstanciaelRoble",
        "_segmentIndex": 0,
        "_position": 2
      },
      "geometry": {
        "type": "Point",
        "coordinates": [
          -73.35548469517585,
          5.558676914476809
        ]
      }
    },
    {
      "type": "Feature",
      "properties": {
        "_source": "Ruta7-Florida-JuandeCastellanos-AvenidaNorte-EstanciaelRoble",
        "_segmentIndex": 0,
        "_position": 3
      },
      "geometry": {
        "type": "Point",
        "coordinates": [
          -73.3555612271432,
          5.558238171008478
        ]
      }
    },
    {
      "type": "Feature",
      "properties": {
        "_source": "Ruta7-Florida-JuandeCastellanos-AvenidaNorte-EstanciaelRoble",
        "_segmentIndex": 0,
        "_position": 0
      },
      "geometry": {
        "type": "Point",
        "coordinates": [
          -73.355204,
          5.559517
        ]
      }
    },
    {
      "type": "Feature",
      "properties": {
        "_source": "Ruta7-Florida-JuandeCastellanos-AvenidaNorte-EstanciaelRoble",
        "_segmentIndex": 0,
        "_position": 1
      },
      "geometry": {
        "type": "Point",
        "coordinates": [
          -73.35494249572933,
          5.55986518474822
        ]
      }
    },
    {
      "type": "Feature",
      "properties": {
        "_source": "Ruta7-Florida-JuandeCastellanos-AvenidaNorte-EstanciaelRoble",
        "_segmentIndex": 0,
        "_position": 2
      },
      "geometry": {
        "type": "Point",
        "coordinates": [
          -73.35477667325085,
          5.56028250356401
        ]
      }
    },
    {
      "type": "Feature",
      "properties": {
        "_source": "Ruta7-Florida-JuandeCastellanos-AvenidaNorte-EstanciaelRoble",
        "_segmentIndex": 0,
        "_position": 3
      },
      "geometry": {
        "type": "Point",
        "coordinates": [
          -73.3546368257296,
          5.5607096191642675
        ]
      }
    },
    {
      "type": "Feature",
      "properties": {
        "_source": "Ruta7-Florida-JuandeCastellanos-AvenidaNorte-EstanciaelRoble",
        "_segmentIndex": 0,
        "_position": 4
      },
      "geometry": {
        "type": "Point",
        "coordinates": [
          -73.35449132233954,
          5.5611353203727845
        ]
      }
    },
    {
      "type": "Feature",
      "properties": {
        "_source": "Ruta7-Florida-JuandeCastellanos-AvenidaNorte-EstanciaelRoble",
        "_segmentIndex": 0,
        "_position": 5
      },
      "geometry": {
        "type": "Point",
        "coordinates": [
          -73.35446909570749,
          5.561241539787523
        ]
      }
    },
    {
      "type": "Feature",
      "properties": {
        "_source": "Ruta7-Florida-JuandeCastellanos-AvenidaNorte-EstanciaelRoble",
        "_segmentIndex": 0,
        "_position": 6
      },
      "geometry": {
        "type": "Point",
        "coordinates": [
          -73.35461355199763,
          5.560815491697407
        ]
      }
    },
    {
      "type": "Feature",
      "properties": {
        "_source": "Ruta7-Florida-JuandeCastellanos-AvenidaNorte-EstanciaelRoble",
        "_segmentIndex": 0,
        "_position": 7
      },
      "geometry": {
        "type": "Point",
        "coordinates": [
          -73.35475240100749,
          5.560387604626221
        ]
      }
    },
    {
      "type": "Feature",
      "properties": {
        "_source": "Ruta7-Florida-JuandeCastellanos-AvenidaNorte-EstanciaelRoble",
        "_segmentIndex": 0,
        "_position": 8
      },
      "geometry": {
        "type": "Point",
        "coordinates": [
          -73.35492271875712,
          5.559975726412702
        ]
      }
    },
    {
      "type": "Feature",
      "properties": {
        "_source": "Ruta7-Florida-JuandeCastellanos-AvenidaNorte-EstanciaelRoble",
        "_segmentIndex": 0,
        "_position": 9
      },
      "geometry": {
        "type": "Point",
        "coordinates": [
          -73.35513094599182,
          5.559584888004882
        ]
      }
    }
  ]
}