{
  "type": "FeatureCollection",
  "features": [
    {
      "type": "Feature",
      "properties": {
        "_source": "Ruta2-PinosdeOriente-SanFrancisco-Viaducto-TerminaldeTransporte-Arboleda",
        "_segmentIndex": 0,
        "_position": 0
      },
      "geometry": {
        "type": "Point",
        "coordinates": [
          -73.364237,
          5.502795
        ]
      }
    },
    {
      "type": "Feature",
      "properties": {
        "_source": "Ruta2-PinosdeOriente-SanFrancisco-Viaducto-TerminaldeTransporte-Arboleda",
        "_segmentIndex": 0,
        "_position": 1
      },
      "geometry": {
        "type": "Point",
        "coordinates": [
          -73.3641442636425,
          5.502459378800293
        ]
      }
    },
    {
      "type": "Feature",
      "properties": {
        "_source": "Ruta2-PinosdeOriente-SanFrancisco-Viaducto-TerminaldeTransporte-Arboleda",
        "_segmentIndex": 0,
        "_position": 2
      },
      "geometry": {
        "type": "Point",
        "coordinates": [
          -73.36386806980397,
          5.502103554289457
        ]
      }
    },
    {
      "type": "Feature",
      "properties": {
        "_source": "Ruta2-PinosdeOriente-SanFrancisco-Viaducto-TerminaldeTransporte-Arboleda",
        "_segmentIndex": 0,
        "_position": 3
      },
      "geometry": {
        "type": "Point",
        "coordinates": [
          -73.36359457875398,
          5.501745673504342
        ]
      }
    },
    {
      "type": "Feature",
      "properties": {
        "_source": "Ruta2-PinosdeOriente-SanFrancisco-Viaducto-TerminaldeTransporte-Arboleda",
        "_segmentIndex": 0,
        "_position": 0
      },
      "geometry": {
        "type": "Point",
        "coordinates": [
          -73.363338,
          5.501396
        ]
      }
    },
    {
      "type": "Feature",
      "properties": {
        "_source": "Ruta2-PinosdeOriente-SanFrancisco-Viaducto-TerminaldeTransporte-Arboleda",
        "_segmentIndex": 0,
        "_position": 1
      },
      "geometry": {
        "type": "Point",
        "coordinates": [
          -73.36370641205592,
          5.501145001713635
        ]
      }
    },
    {
      "type": "Feature",
      "properties": {
        "_source": "Ruta2-PinosdeOriente-SanFrancisco-Viaducto-TerminaldeTransporte-Arboleda",
        "_segmentIndex": 0,
        "_position": 2
      },
      "geometry": {
        "type": "Point",
        "coordinates": [
          -73.36415182583927,
          5.501081029028954
        ]
      }
    },
    {
      "type": "Feature",
      "properties": {
        "_source": "Ruta2-PinosdeOriente-SanFrancisco-Viaducto-TerminaldeTransporte-Arboleda",
        "_segmentIndex": 0,
        "_position": 3
      },
      "geometry": {
        "type": "Point",
        "coordinates": [
          -73.36458158758062,
          5.500959706209982
        ]
      }
    },
    {
      "type": "Feature",
      "properties": {
        "_source": "Ruta2-PinosdeOriente-SanFrancisco-Viaducto-TerminaldeTransporte-Arboleda",
        "_segmentIndex": 0,
        "_position": 4
      },
      "geometry": {
        "type": "Point",
        "coordinates": [
          -73.36479451363847,
          5.500578130952877
        ]
      }
    },
    {
      "type": "Feature",
      "properties": {
        "_source": "Ruta2-PinosdeOriente-SanFrancisco-Viaducto-TerminaldeTransporte-Arboleda",
        "_segmentIndex": 0,
        "_position": 5
      },
      "geometry": {
        "type": "Point",
        "coordinates": [
          -73.36502339759393,
          5.500215990881998
        ]
      }
    },
    {
      "type": "Feature",
      "properties": {
        "_source": "Ruta2-PinosdeOriente-SanFrancisco-Viaducto-TerminaldeTransporte-Arboleda",
        "_segmentIndex": 0,
        "_position": 6
      },
      "geometry": {
        "type": "Point",
        "coordinates": [
          -73.3654159526665,
          5.49999602366675
        ]
      }
    },
    {
      "type": "Feature",
      "properties": {
        "_source": "Ruta2-PinosdeOriente-SanFrancisco-Viaducto-TerminaldeTransporte-Arboleda",
        "_segmentIndex": 0,
        "_position": 7
      },
      "geometry": {
        "type": "Point",
        "coordinates": [
          -73.36581947569701,
          5.4997982540507415
        ]
      }
    },
    {
      "type": "Feature",
      "properties": {
        "_source": "Ruta2-PinosdeOriente-SanFrancisco-Viaducto-TerminaldeTransporte-Arboleda",
        "_segmentIndex": 0,
        "_position": 8
      },
      "geometry": {
        "type": "Point",
        "coordinates": [
          -73.36626712451891,
          5.499815764499981
        ]
      }
    },
    {
      "type": "Feature",
      "properties": {
        "_source": "Ruta2-PinosdeOriente-SanFrancisco-Viaducto-TerminaldeTransporte-Arboleda",
        "_segmentIndex": 0,
        "_position": 9
      },
      "geometry": {
        "type": "Point",
        "coordinates": [
          -73.36668751590659,
          5.499693126259711
        ]
      }
    },
    {
      "type": "Feature",
      "properties": {
        "_source": "Ruta2-PinosdeOriente-SanFrancisco-Viaducto-TerminaldeTransporte-Arboleda",
        "_segmentIndex": 0,
        "_position": 10
      },
      "geometry": {
        "type": "Point",
        "coordinates": [
          -73.36711171586519,
          5.499733113568178
        ]
      }
    },
    {
      "type": "Feature",
      "properties": {
        "_source": "Ruta2-PinosdeOriente-SanFrancisco-Viaducto-TerminaldeTransporte-Arboleda",
        "_segmentIndex": 0,
        "_position": 11
      },
      "geometry": {
        "type": "Point",
        "coordinates": [
          -73.36705809522294,
          5.500150321204955
        ]
      }
    },
    {
      "type": "Feature",
      "properties": {
        "_source": "Ruta2-PinosdeOriente-SanFrancisco-Viaducto-TerminaldeTransporte-Arboleda",
        "_segmentIndex": 0,
        "_position": 12
      },
      "geometry": {
        "type": "Point",
        "coordinates": [
          -73.36689188265174,
          5.5005667636136595
        ]
      }
    },
    {
      "type": "Feature",
      "properties": {
        "_source": "Ruta2-PinosdeOriente-SanFrancisco-Viaducto-TerminaldeTransporte-Arboleda",
        "_segmentIndex": 0,
        "_position": 13
      },
      "geometry": {
        "type": "Point",
        "coordinates": [
          -73.36685520727391,
          5.501012815796005
        ]
      }
    },
    {
      "type": "Feature",
      "properties": {
        "_source": "Ruta2-PinosdeOriente-SanFrancisco-Viaducto-TerminaldeTransporte-Arboleda",
        "_segmentIndex": 0,
        "_position": 14
      },
      "geometry": {
        "type": "Point",
        "coordinates": [
          -73.36681891525035,
          5.501455929571539
        ]
      }
    },
    {
      "type": "Feature",
      "properties": {
        "_source": "Ruta2-PinosdeOriente-SanFrancisco-Viaducto-TerminaldeTransporte-Arboleda",
        "_segmentIndex": 0,
        "_position": 15
      },
      "geometry": {
        "type": "Point",
        "coordinates": [
          -73.36682639270835,
          5.501871269974932
        ]
      }
    },
    {
      "type": "Feature",
      "properties": {
        "_source": "Ruta2-PinosdeOriente-SanFrancisco-Viaducto-TerminaldeTransporte-Arboleda",
        "_segmentIndex": 0,
        "_position": 16
      },
      "geometry": {
        "type": "Point",
        "coordinates": [
          -73.36726630959095,
          5.5019204733050815
        ]
      }
    },
    {
      "type": "Feature",
      "properties": {
        "_source": "Ruta2-PinosdeOriente-SanFrancisco-Viaducto-TerminaldeTransporte-Arboleda",
        "_segmentIndex": 0,
        "_position": 17
      },
      "geometry": {
        "type": "Point",
        "coordinates": [
          -73.36761686677423,
          5.502168657665461
        ]
      }
    },
    {
      "type": "Feature",
      "properties": {
        "_source": "Ruta2-PinosdeOriente-SanFrancisco-Viaducto-TerminaldeTransporte-Arboleda",
        "_segmentIndex": 0,
        "_position": 18
      },
      "geometry": {
        "type": "Point",
        "coordinates": [
          -73.36793347396019,
          5.5024865383950505
        ]
      }
    },
    {
      "type": "Feature",
      "properties": {
        "_source": "Ruta2-PinosdeOriente-SanFrancisco-Viaducto-TerminaldeTransporte-Arboleda",
        "_segmentIndex": 0,
        "_position": 0
      },
      "geometry": {
        "type": "Point",
        "coordinates": [
          -73.367948,
          5.502857
        ]
      }
    },
    {
      "type": "Feature",
      "properties": {
        "_source": "Ruta2-PinosdeOriente-SanFrancisco-Viaducto-TerminaldeTransporte-Arboleda",
        "_segmentIndex": 0,
        "_position": 1
      },
      "geometry": {
        "type": "Point",
        "coordinates": [
          -73.36762780430395,
          5.503166661887553
        ]
      }
    },
    {
      "type": "Feature",
      "properties": {
        "_source": "Ruta2-PinosdeOriente-SanFrancisco-Viaducto-TerminaldeTransporte-Arboleda",
        "_segmentIndex": 0,
        "_position": 2
      },
      "geometry": {
        "type": "Point",
        "coordinates": [
          -73.36733005721278,
          5.503504775607702
        ]
      }
    },
    {
      "type": "Feature",
      "properties": {
        "_source": "Ruta2-PinosdeOriente-SanFrancisco-Viaducto-TerminaldeTransporte-Arboleda",
        "_segmentIndex": 0,
        "_position": 3
      },
      "geometry": {
        "type": "Point",
        "coordinates": [
          -73.36707227010146,
          5.5038720393987175
        ]
      }
    },
    {
      "type": "Feature",
      "properties": {
        "_source": "Ruta2-PinosdeOriente-SanFrancisco-Viaducto-TerminaldeTransporte-Arboleda",
        "_segmentIndex": 0,
        "_position": 4
      },
      "geometry": {
        "type": "Point",
        "coordinates": [
          -73.36679461717796,
          5.504226569863117
        ]
      }
    },
    {
      "type": "Feature",
      "properties": {
        "_source": "Ruta2-PinosdeOriente-SanFrancisco-Viaducto-TerminaldeTransporte-Arboleda",
        "_segmentIndex": 0,
        "_position": 5
      },
      "geometry": {
        "type": "Point",
        "coordinates": [
          -73.36652825839336,
          5.504588965891342
        ]
      }
    },
    {
      "type": "Feature",
      "properties": {
        "_source": "Ruta2-PinosdeOriente-SanFrancisco-Viaducto-TerminaldeTransporte-Arboleda",
        "_segmentIndex": 0,
        "_position": 6
      },
      "geometry": {
        "type": "Point",
        "coordinates": [
          -73.3662991861973,
          5.504976437287491
        ]
      }
    },
    {
      "type": "Feature",
      "properties": {
        "_source": "Ruta2-PinosdeOriente-SanFrancisco-Viaducto-TerminaldeTransporte-Arboleda",
        "_segmentIndex": 0,
        "_position": 7
      },
      "geometry": {
        "type": "Point",
        "coordinates": [
          -73.36608067136709,
          5.505369991571767
        ]
      }
    },
    {
      "type": "Feature",
      "properties": {
        "_source": "Ruta2-PinosdeOriente-SanFrancisco-Viaducto-TerminaldeTransporte-Arboleda",
        "_segmentIndex": 0,
        "_position": 8
      },
      "geometry": {
        "type": "Point",
        "coordinates": [
          -73.36587803714256,
          5.5057713526410605
        ]
      }
    },
    {
      "type": "Feature",
      "properties": {
        "_source": "Ruta2-PinosdeOriente-SanFrancisco-Viaducto-TerminaldeTransporte-Arboleda",
        "_segmentIndex": 0,
        "_position": 9
      },
      "geometry": {
        "type": "Point",
        "coordinates": [
          -73.36574699106285,
          5.506201089841301
        ]
      }
    },
    {
      "type": "Feature",
      "properties": {
        "_source": "Ruta2-PinosdeOriente-SanFrancisco-Viaducto-TerminaldeTransporte-Arboleda",
        "_segmentIndex": 0,
        "_position": 10
      },
      "geometry": {
        "type": "Point",
        "coordinates": [
          -73.36566137990614,
          5.506642508764517
        ]
      }
    },
    {
      "type": "Feature",
      "properties": {
        "_source": "Ruta2-PinosdeOriente-SanFrancisco-Viaducto-TerminaldeTransporte-Arboleda",
        "_segmentIndex": 0,
        "_position": 11
      },
      "geometry": {
        "type": "Point",
        "coordinates": [
          -73.3655790559865,
          5.507084559223708
        ]
      }
    },
    {
      "type": "Feature",
      "properties": {
        "_source": "Ruta2-PinosdeOriente-SanFrancisco-Viaducto-TerminaldeTransporte-Arboleda",
        "_segmentIndex": 0,
        "_position": 12
      },
      "geometry": {
        "type": "Point",
        "coordinates": [
          -73.3655035762422,
          5.507527878138123
        ]
      }
    },
    {
      "type": "Feature",
      "properties": {
        "_source": "Ruta2-PinosdeOriente-SanFrancisco-Viaducto-TerminaldeTransporte-Arboleda",
        "_segmentIndex": 0,
        "_position": 13
      },
      "geometry": {
        "type": "Point",
        "coordinates": [
          -73.36545819379444,
          5.507973177411369
        ]
      }
    },
    {
      "type": "Feature",
      "properties": {
        "_source": "Ruta2-PinosdeOriente-SanFrancisco-Viaducto-TerminaldeTransporte-Arboleda",
        "_segmentIndex": 0,
        "_position": 14
      },
      "geometry": {
        "type": "Point",
        "coordinates": [
          -73.36568570122823,
          5.508335135678558
        ]
      }
    },
    {
      "type": "Feature",
      "properties": {
        "_source": "Ruta2-PinosdeOriente-SanFrancisco-Viaducto-TerminaldeTransporte-Arboleda",
        "_segmentIndex": 0,
        "_position": 15
      },
      "geometry": {
        "type": "Point",
        "coordinates": [
          -73.36611892904803,
          5.508358672775322
        ]
      }
    },
    {
      "type": "Feature",
      "properties": {
        "_source": "Ruta2-PinosdeOriente-SanFrancisco-Viaducto-TerminaldeTransporte-Arboleda",
        "_segmentIndex": 0,
        "_position": 16
      },
      "geometry": {
        "type": "Point",
        "coordinates": [
          -73.36653434687116,
          5.5081849782985906
        ]
      }
    },
    {
      "type": "Feature",
      "properties": {
        "_source": "Ruta2-PinosdeOriente-SanFrancisco-Viaducto-TerminaldeTransporte-Arboleda",
        "_segmentIndex": 0,
        "_position": 17
      },
      "geometry": {
        "type": "Point",
        "coordinates": [
          -73.36694416254994,
          5.508183154422439
        ]
      }
    },
    {
      "type": "Feature",
      "properties": {
        "_source": "Ruta2-PinosdeOriente-SanFrancisco-Viaducto-TerminaldeTransporte-Arboleda",
        "_segmentIndex": 0,
        "_position": 18
      },
      "geometry": {
        "type": "Point",
        "coordinates": [
          -73.3671889811979,
          5.5085508617317025
        ]
      }
    },
    {
      "type": "Feature",
      "properties": {
        "_source": "Ruta2-PinosdeOriente-SanFrancisco-Viaducto-TerminaldeTransporte-Arboleda",
        "_segmentIndex": 0,
        "_position": 19
      },
      "geometry": {
        "type": "Point",
        "coordinates": [
          -73.36751475334594,
          5.5088547149808305
        ]
      }
    },
    {
      "type": "Feature",
      "properties": {
        "_source": "Ruta2-PinosdeOriente-SanFrancisco-Viaducto-TerminaldeTransporte-Arboleda",
        "_segmentIndex": 0,
        "_position": 20
      },
      "geometry": {
        "type": "Point",
        "coordinates": [
          -73.36791743690162,
          5.509058355809866
        ]
      }
    },
    {
      "type": "Feature",
      "properties": {
        "_source": "Ruta2-PinosdeOriente-SanFrancisco-Viaducto-TerminaldeTransporte-Arboleda",
        "_segmentIndex": 0,
        "_position": 21
      },
      "geometry": {
        "type": "Point",
        "coordinates": [
          -73.36819254505657,
          5.509347568000813
        ]
      }
    },
    {
      "type": "Feature",
      "properties": {
        "_source": "Ruta2-PinosdeOriente-SanFrancisco-Viaducto-TerminaldeTransporte-Arboleda",
        "_segmentIndex": 0,
        "_position": 22
      },
      "geometry": {
        "type": "Point",
        "coordinates": [
          -73.36819098942966,
          5.509796024535365
        ]
      }
    },
    {
      "type": "Feature",
      "properties": {
        "_source": "Ruta2-PinosdeOriente-SanFrancisco-Viaducto-TerminaldeTransporte-Arboleda",
        "_segmentIndex": 0,
        "_position": 23
      },
      "geometry": {
        "type": "Point",
        "coordinates": [
          -73.36829595752143,
          5.510231078267493
        ]
      }
    },
    {
      "type": "Feature",
      "properties": {
        "_source": "Ruta2-PinosdeOriente-SanFrancisco-Viaducto-TerminaldeTransporte-Arboleda",
        "_segmentIndex": 0,
        "_position": 24
      },
      "geometry": {
        "type": "Point",
        "coordinates": [
          -73.36854122367761,
          5.510604765325632
        ]
      }
    },
    {
      "type": "Feature",
      "properties": {
        "_source": "Ruta2-PinosdeOriente-SanFrancisco-Viaducto-TerminaldeTransporte-Arboleda",
        "_segmentIndex": 0,
        "_position": 25
      },
      "geometry": {
        "type": "Point",
        "coordinates": [
          -73.36836938342715,
          5.5109769734229355
        ]
      }
    },
    {
      "type": "Feature",
      "properties": {
        "_source": "Ruta2-PinosdeOriente-SanFrancisco-Viaducto-TerminaldeTransporte-Arboleda",
        "_segmentIndex": 0,
        "_position": 26
      },
      "geometry": {
        "type": "Point",
        "coordinates": [
          -73.36799972270009,
          5.511235394815173
        ]
      }
    },
    {
      "type": "Feature",
      "properties": {
        "_source": "Ruta2-PinosdeOriente-SanFrancisco-Viaducto-TerminaldeTransporte-Arboleda",
        "_segmentIndex": 0,
        "_position": 27
      },
      "geometry": {
        "type": "Point",
        "coordinates": [
          -73.36784178556076,
          5.511641037069718
        ]
      }
    },
    {
      "type": "Feature",
      "properties": {
        "_source": "Ruta2-PinosdeOriente-SanFrancisco-Viaducto-TerminaldeTransporte-Arboleda",
        "_segmentIndex": 0,
        "_position": 28
      },
      "geometry": {
        "type": "Point",
        "coordinates": [
          -73.36784258718937,
          5.512090313198786
        ]
      }
    },
    {
      "type": "Feature",
      "properties": {
        "_source": "Ruta2-PinosdeOriente-SanFrancisco-Viaducto-TerminaldeTransporte-Arboleda",
        "_segmentIndex": 0,
        "_position": 29
      },
      "geometry": {
        "type": "Point",
        "coordinates": [
          -73.36792408373809,
          5.51252822330552
        ]
      }
    },
    {
      "type": "Feature",
      "properties": {
        "_source": "Ruta2-PinosdeOriente-SanFrancisco-Viaducto-TerminaldeTransporte-Arboleda",
        "_segmentIndex": 0,
        "_position": 30
      },
      "geometry": {
        "type": "Point",
        "coordinates": [
          -73.3680972074534,
          5.512943377803383
        ]
      }
    },
    {
      "type": "Feature",
      "properties": {
        "_source": "Ruta2-PinosdeOriente-SanFrancisco-Viaducto-TerminaldeTransporte-Arboleda",
        "_segmentIndex": 0,
        "_position": 31
      },
      "geometry": {
        "type": "Point",
        "coordinates": [
          -73.36827357918312,
          5.513357351449045
        ]
      }
    },
    {
      "type": "Feature",
      "properties": {
        "_source": "Ruta2-PinosdeOriente-SanFrancisco-Viaducto-TerminaldeTransporte-Arboleda",
        "_segmentIndex": 0,
        "_position": 32
      },
      "geometry": {
        "type": "Point",
        "coordinates": [
          -73.36845148083633,
          5.513770671752392
        ]
      }
    },
    {
      "type": "Feature",
      "properties": {
        "_source": "Ruta2-PinosdeOriente-SanFrancisco-Viaducto-TerminaldeTransporte-Arboleda",
        "_segmentIndex": 0,
        "_position": 33
      },
      "geometry": {
        "type": "Point",
        "coordinates": [
          -73.36859231953187,
          5.514193974302176
        ]
      }
    },
    {
      "type": "Feature",
      "properties": {
        "_source": "Ruta2-PinosdeOriente-SanFrancisco-Viaducto-TerminaldeTransporte-Arboleda",
        "_segmentIndex": 0,
        "_position": 34
      },
      "geometry": {
        "type": "Point",
        "coordinates": [
          -73.36846714520193,
          5.514624245495542
        ]
      }
    },
    {
      "type": "Feature",
      "properties": {
        "_source": "Ruta2-PinosdeOriente-SanFrancisco-Viaducto-TerminaldeTransporte-Arboleda",
        "_segmentIndex": 0,
        "_position": 35
      },
      "geometry": {
        "type": "Point",
        "coordinates": [
          -73.36846322556755,
          5.515057884527872
        ]
      }
    },
    {
      "type": "Feature",
      "properties": {
        "_source": "Ruta2-PinosdeOriente-SanFrancisco-Viaducto-TerminaldeTransporte-Arboleda",
        "_segmentIndex": 0,
        "_position": 36
      },
      "geometry": {
        "type": "Point",
        "coordinates": [
          -73.36857176453806,
          5.515483773111068
        ]
      }
    },
    {
      "type": "Feature",
      "properties": {
        "_source": "Ruta2-PinosdeOriente-SanFrancisco-Viaducto-TerminaldeTransporte-Arboleda",
        "_segmentIndex": 0,
        "_position": 0
      },
      "geometry": {
        "type": "Point",
        "coordinates": [
          -73.368538,
          5.515859
        ]
      }
    },
    {
      "type": "Feature",
      "properties": {
        "_source": "Ruta2-PinosdeOriente-SanFrancisco-Viaducto-TerminaldeTransporte-Arboleda",
        "_segmentIndex": 0,
        "_position": 0
      },
      "geometry": {
        "type": "Point",
        "coordinates": [
          -73.368461,
          5.516011
        ]
      }
    },
    {
      "type": "Feature",
      "properties": {
        "_source": "Ruta2-PinosdeOriente-SanFrancisco-Viaducto-TerminaldeTransporte-Arboleda",
        "_segmentIndex": 0,
        "_position": 1
      },
      "geometry": {
        "type": "Point",
        "coordinates": [
          -73.36813107408503,
          5.516318162804856
        ]
      }
    },
    {
      "type": "Feature",
      "properties": {
        "_source": "Ruta2-PinosdeOriente-SanFrancisco-Viaducto-TerminaldeTransporte-Arboleda",
        "_segmentIndex": 0,
        "_position": 2
      },
      "geometry": {
        "type": "Point",
        "coordinates": [
          -73.3678011478284,
          5.516625325427931
        ]
      }
    },
    {
      "type": "Feature",
      "properties": {
        "_source": "Ruta2-PinosdeOriente-SanFrancisco-Viaducto-TerminaldeTransporte-Arboleda",
        "_segmentIndex": 0,
        "_position": 3
      },
      "geometry": {
        "type": "Point",
        "coordinates": [
          -73.36747122123013,
          5.516932487869211
        ]
      }
    },
    {
      "type": "Feature",
      "properties": {
        "_source": "Ruta2-PinosdeOriente-SanFrancisco-Viaducto-TerminaldeTransporte-Arboleda",
        "_segmentIndex": 0,
        "_position": 4
      },
      "geometry": {
        "type": "Point",
        "coordinates": [
          -73.36714565516807,
          5.517244186968608
        ]
      }
    },
    {
      "type": "Feature",
      "properties": {
        "_source": "Ruta2-PinosdeOriente-SanFrancisco-Viaducto-TerminaldeTransporte-Arboleda",
        "_segmentIndex": 0,
        "_position": 5
      },
      "geometry": {
        "type": "Point",
        "coordinates": [
          -73.36682279087587,
          5.517558697035085
        ]
      }
    },
    {
      "type": "Feature",
      "properties": {
        "_source": "Ruta2-PinosdeOriente-SanFrancisco-Viaducto-TerminaldeTransporte-Arboleda",
        "_segmentIndex": 0,
        "_position": 6
      },
      "geometry": {
        "type": "Point",
        "coordinates": [
          -73.36653324834124,
          5.5179018556637445
        ]
      }
    },
    {
      "type": "Feature",
      "properties": {
        "_source": "Ruta2-PinosdeOriente-SanFrancisco-Viaducto-TerminaldeTransporte-Arboleda",
        "_segmentIndex": 0,
        "_position": 7
      },
      "geometry": {
        "type": "Point",
        "coordinates": [
          -73.366274153052,
          5.518270142213531
        ]
      }
    },
    {
      "type": "Feature",
      "properties": {
        "_source": "Ruta2-PinosdeOriente-SanFrancisco-Viaducto-TerminaldeTransporte-Arboleda",
        "_segmentIndex": 0,
        "_position": 8
      },
      "geometry": {
        "type": "Point",
        "coordinates": [
          -73.36602016593773,
          5.518642004293672
        ]
      }
    },
    {
      "type": "Feature",
      "properties": {
        "_source": "Ruta2-PinosdeOriente-SanFrancisco-Viaducto-TerminaldeTransporte-Arboleda",
        "_segmentIndex": 0,
        "_position": 9
      },
      "geometry": {
        "type": "Point",
        "coordinates": [
          -73.36576685303619,
          5.519014319910965
        ]
      }
    },
    {
      "type": "Feature",
      "properties": {
        "_source": "Ruta2-PinosdeOriente-SanFrancisco-Viaducto-TerminaldeTransporte-Arboleda",
        "_segmentIndex": 0,
        "_position": 10
      },
      "geometry": {
        "type": "Point",
        "coordinates": [
          -73.3655150116067,
          5.519387625249598
        ]
      }
    },
    {
      "type": "Feature",
      "properties": {
        "_source": "Ruta2-PinosdeOriente-SanFrancisco-Viaducto-TerminaldeTransporte-Arboleda",
        "_segmentIndex": 0,
        "_position": 11
      },
      "geometry": {
        "type": "Point",
        "coordinates": [
          -73.36526316986009,
          5.519760930482252
        ]
      }
    },
    {
      "type": "Feature",
      "properties": {
        "_source": "Ruta2-PinosdeOriente-SanFrancisco-Viaducto-TerminaldeTransporte-Arboleda",
        "_segmentIndex": 0,
        "_position": 12
      },
      "geometry": {
        "type": "Point",
        "coordinates": [
          -73.36501132779635,
          5.520134235608921
        ]
      }
    },
    {
      "type": "Feature",
      "properties": {
        "_source": "Ruta2-PinosdeOriente-SanFrancisco-Viaducto-TerminaldeTransporte-Arboleda",
        "_segmentIndex": 0,
        "_position": 13
      },
      "geometry": {
        "type": "Point",
        "coordinates": [
          -73.36475634420896,
          5.520505414671086
        ]
      }
    },
    {
      "type": "Feature",
      "properties": {
        "_source": "Ruta2-PinosdeOriente-SanFrancisco-Viaducto-TerminaldeTransporte-Arboleda",
        "_segmentIndex": 0,
        "_position": 14
      },
      "geometry": {
        "type": "Point",
        "coordinates": [
          -73.3645001671202,
          5.520875786082515
        ]
      }
    },
    {
      "type": "Feature",
      "properties": {
        "_source": "Ruta2-PinosdeOriente-SanFrancisco-Viaducto-TerminaldeTransporte-Arboleda",
        "_segmentIndex": 0,
        "_position": 15
      },
      "geometry": {
        "type": "Point",
        "coordinates": [
          -73.3642439897113,
          5.521246157384256
        ]
      }
    },
    {
      "type": "Feature",
      "properties": {
        "_source": "Ruta2-PinosdeOriente-SanFrancisco-Viaducto-TerminaldeTransporte-Arboleda",
        "_segmentIndex": 0,
        "_position": 16
      },
      "geometry": {
        "type": "Point",
        "coordinates": [
          -73.36398781198226,
          5.521616528576304
        ]
      }
    },
    {
      "type": "Feature",
      "properties": {
        "_source": "Ruta2-PinosdeOriente-SanFrancisco-Viaducto-TerminaldeTransporte-Arboleda",
        "_segmentIndex": 0,
        "_position": 17
      },
      "geometry": {
        "type": "Point",
        "coordinates": [
          -73.36373439582772,
          5.521988758717982
        ]
      }
    },
    {
      "type": "Feature",
      "properties": {
        "_source": "Ruta2-PinosdeOriente-SanFrancisco-Viaducto-TerminaldeTransporte-Arboleda",
        "_segmentIndex": 0,
        "_position": 18
      },
      "geometry": {
        "type": "Point",
        "coordinates": [
          -73.3634844586326,
          5.522363330690134
        ]
      }
    },
    {
      "type": "Feature",
      "properties": {
        "_source": "Ruta2-PinosdeOriente-SanFrancisco-Viaducto-TerminaldeTransporte-Arboleda",
        "_segmentIndex": 0,
        "_position": 19
      },
      "geometry": {
        "type": "Point",
        "coordinates": [
          -73.36323452112153,
          5.522737902557851
        ]
      }
    },
    {
      "type": "Feature",
      "properties": {
        "_source": "Ruta2-PinosdeOriente-SanFrancisco-Viaducto-TerminaldeTransporte-Arboleda",
        "_segmentIndex": 0,
        "_position": 20
      },
      "geometry": {
        "type": "Point",
        "coordinates": [
          -73.36298383068844,
          5.523111974379484
        ]
      }
    },
    {
      "type": "Feature",
      "properties": {
        "_source": "Ruta2-PinosdeOriente-SanFrancisco-Viaducto-TerminaldeTransporte-Arboleda",
        "_segmentIndex": 0,
        "_position": 21
      },
      "geometry": {
        "type": "Point",
        "coordinates": [
          -73.36273221926315,
          5.523485434508797
        ]
      }
    },
    {
      "type": "Feature",
      "properties": {
        "_source": "Ruta2-PinosdeOriente-SanFrancisco-Viaducto-TerminaldeTransporte-Arboleda",
        "_segmentIndex": 0,
        "_position": 22
      },
      "geometry": {
        "type": "Point",
        "coordinates": [
          -73.36248060752068,
          5.52385889453225
        ]
      }
    },
    {
      "type": "Feature",
      "properties": {
        "_source": "Ruta2-PinosdeOriente-SanFrancisco-Viaducto-TerminaldeTransporte-Arboleda",
        "_segmentIndex": 0,
        "_position": 23
      },
      "geometry": {
        "type": "Point",
        "coordinates": [
          -73.36222899546098,
          5.5242323544498335
        ]
      }
    },
    {
      "type": "Feature",
      "properties": {
        "_source": "Ruta2-PinosdeOriente-SanFrancisco-Viaducto-TerminaldeTransporte-Arboleda",
        "_segmentIndex": 0,
        "_position": 24
      },
      "geometry": {
        "type": "Point",
        "coordinates": [
          -73.36197570172467,
          5.52460467239134
        ]
      }
    },
    {
      "type": "Feature",
      "properties": {
        "_source": "Ruta2-PinosdeOriente-SanFrancisco-Viaducto-TerminaldeTransporte-Arboleda",
        "_segmentIndex": 0,
        "_position": 25
      },
      "geometry": {
        "type": "Point",
        "coordinates": [
          -73.36171809823924,
          5.5249740635389015
        ]
      }
    },
    {
      "type": "Feature",
      "properties": {
        "_source": "Ruta2-PinosdeOriente-SanFrancisco-Viaducto-TerminaldeTransporte-Arboleda",
        "_segmentIndex": 0,
        "_position": 26
      },
      "geometry": {
        "type": "Point",
        "coordinates": [
          -73.36146049443249,
          5.525343454575469
        ]
      }
    },
    {
      "type": "Feature",
      "properties": {
        "_source": "Ruta2-PinosdeOriente-SanFrancisco-Viaducto-TerminaldeTransporte-Arboleda",
        "_segmentIndex": 0,
        "_position": 27
      },
      "geometry": {
        "type": "Point",
        "coordinates": [
          -73.36120289030445,
          5.5257128455010385
        ]
      }
    },
    {
      "type": "Feature",
      "properties": {
        "_source": "Ruta2-PinosdeOriente-SanFrancisco-Viaducto-TerminaldeTransporte-Arboleda",
        "_segmentIndex": 0,
        "_position": 28
      },
      "geometry": {
        "type": "Point",
        "coordinates": [
          -73.36094528585507,
          5.526082236315601
        ]
      }
    },
    {
      "type": "Feature",
      "properties": {
        "_source": "Ruta2-PinosdeOriente-SanFrancisco-Viaducto-TerminaldeTransporte-Arboleda",
        "_segmentIndex": 0,
        "_position": 29
      },
      "geometry": {
        "type": "Point",
        "coordinates": [
          -73.36068697774814,
          5.526451090045763
        ]
      }
    },
    {
      "type": "Feature",
      "properties": {
        "_source": "Ruta2-PinosdeOriente-SanFrancisco-Viaducto-TerminaldeTransporte-Arboleda",
        "_segmentIndex": 0,
        "_position": 30
      },
      "geometry": {
        "type": "Point",
        "coordinates": [
          -73.36039530877613,
          5.526794474007758
        ]
      }
    },
    {
      "type": "Feature",
      "properties": {
        "_source": "Ruta2-PinosdeOriente-SanFrancisco-Viaducto-TerminaldeTransporte-Arboleda",
        "_segmentIndex": 0,
        "_position": 31
      },
      "geometry": {
        "type": "Point",
        "coordinates": [
          -73.36010363946585,
          5.527137857827419
        ]
      }
    },
    {
      "type": "Feature",
      "properties": {
        "_source": "Ruta2-PinosdeOriente-SanFrancisco-Viaducto-TerminaldeTransporte-Arboleda",
        "_segmentIndex": 0,
        "_position": 32
      },
      "geometry": {
        "type": "Point",
        "coordinates": [
          -73.35981196981723,
          5.527481241504737
        ]
      }
    },
    {
      "type": "Feature",
      "properties": {
        "_source": "Ruta2-PinosdeOriente-SanFrancisco-Viaducto-TerminaldeTransporte-Arboleda",
        "_segmentIndex": 0,
        "_position": 0
      },
      "geometry": {
        "type": "Point",
        "coordinates": [
          -73.359706,
          5.527606
        ]
      }
    },
    {
      "type": "Feature",
      "properties": {
        "_source": "Ruta2-PinosdeOriente-SanFrancisco-Viaducto-TerminaldeTransporte-Arboleda",
        "_segmentIndex": 0,
        "_position": 1
      },
      "geometry": {
        "type": "Point",
        "coordinates": [
          -73.36005720472255,
          5.527876048874094
        ]
      }
    },
    {
      "type": "Feature",
      "properties": {
        "_source": "Ruta2-PinosdeOriente-SanFrancisco-Viaducto-TerminaldeTransporte-Arboleda",
        "_segmentIndex": 0,
        "_position": 2
      },
      "geometry": {
        "type": "Point",
        "coordinates": [
          -73.36000122732746,
          5.528279575420621
        ]
      }
    },
    {
      "type": "Feature",
      "properties": {
        "_source": "Ruta2-PinosdeOriente-SanFrancisco-Viaducto-TerminaldeTransporte-Arboleda",
        "_segmentIndex": 0,
        "_position": 3
      },
      "geometry": {
        "type": "Point",
        "coordinates": [
          -73.35987381496382,
          5.528710981294312
        ]
      }
    },
    {
      "type": "Feature",
      "properties": {
        "_source": "Ruta2-PinosdeOriente-SanFrancisco-Viaducto-TerminaldeTransporte-Arboleda",
        "_segmentIndex": 0,
        "_position": 4
      },
      "geometry": {
        "type": "Point",
        "coordinates": [
          -73.35974754781665,
          5.529142687589906
        ]
      }
    },
    {
      "type": "Feature",
      "properties": {
        "_source": "Ruta2-PinosdeOriente-SanFrancisco-Viaducto-TerminaldeTransporte-Arboleda",
        "_segmentIndex": 0,
        "_position": 5
      },
      "geometry": {
        "type": "Point",
        "coordinates": [
          -73.35963812920947,
          5.529578959299893
        ]
      }
    },
    {
      "type": "Feature",
      "properties": {
        "_source": "Ruta2-PinosdeOriente-SanFrancisco-Viaducto-TerminaldeTransporte-Arboleda",
        "_segmentIndex": 0,
        "_position": 6
      },
      "geometry": {
        "type": "Point",
        "coordinates": [
          -73.35953371006447,
          5.530016427828897
        ]
      }
    },
    {
      "type": "Feature",
      "properties": {
        "_source": "Ruta2-PinosdeOriente-SanFrancisco-Viaducto-TerminaldeTransporte-Arboleda",
        "_segmentIndex": 0,
        "_position": 7
      },
      "geometry": {
        "type": "Point",
        "coordinates": [
          -73.35941713711838,
          5.530450430508001
        ]
      }
    },
    {
      "type": "Feature",
      "properties": {
        "_source": "Ruta2-PinosdeOriente-SanFrancisco-Viaducto-TerminaldeTransporte-Arboleda",
        "_segmentIndex": 0,
        "_position": 8
      },
      "geometry": {
        "type": "Point",
        "coordinates": [
          -73.35929635313086,
          5.53088366470795
        ]
      }
    },
    {
      "type": "Feature",
      "properties": {
        "_source": "Ruta2-PinosdeOriente-SanFrancisco-Viaducto-TerminaldeTransporte-Arboleda",
        "_segmentIndex": 0,
        "_position": 0
      },
      "geometry": {
        "type": "Point",
        "coordinates": [
          -73.359234,
          5.531112
        ]
      }
    },
    {
      "type": "Feature",
      "properties": {
        "_source": "Ruta2-PinosdeOriente-SanFrancisco-Viaducto-TerminaldeTransporte-Arboleda",
        "_segmentIndex": 0,
        "_position": 1
      },
      "geometry": {
        "type": "Point",
        "coordinates": [
          -73.35965587002764,
          5.531265748882887
        ]
      }
    },
    {
      "type": "Feature",
      "properties": {
        "_source": "Ruta2-PinosdeOriente-SanFrancisco-Viaducto-TerminaldeTransporte-Arboleda",
        "_segmentIndex": 0,
        "_position": 2
      },
      "geometry": {
        "type": "Point",
        "coordinates": [
          -73.36008492076301,
          5.531406529517676
        ]
      }
    },
    {
      "type": "Feature",
      "properties": {
        "_source": "Ruta2-PinosdeOriente-SanFrancisco-Viaducto-TerminaldeTransporte-Arboleda",
        "_segmentIndex": 0,
        "_position": 0
      },
      "geometry": {
        "type": "Point",
        "coordinates": [
          -73.36022,
          5.531451
        ]
      }
    },
    {
      "type": "Feature",
      "properties": {
        "_source": "Ruta2-PinosdeOriente-SanFrancisco-Viaducto-TerminaldeTransporte-Arboleda",
        "_segmentIndex": 0,
        "_position": 1
      },
      "geometry": {
        "type": "Point",
        "coordinates": [
          -73.36008270769796,
          5.5318792350306785
        ]
      }
    },
    {
      "type": "Feature",
      "properties": {
        "_source": "Ruta2-PinosdeOriente-SanFrancisco-Viaducto-TerminaldeTransporte-Arboleda",
        "_segmentIndex": 0,
        "_position": 2
      },
      "geometry": {
        "type": "Point",
        "coordinates": [
          -73.3599514255983,
          5.532309487171089
        ]
      }
    },
    {
      "type": "Feature",
      "properties": {
        "_source": "Ruta2-PinosdeOriente-SanFrancisco-Viaducto-TerminaldeTransporte-Arboleda",
        "_segmentIndex": 0,
        "_position": 3
      },
      "geometry": {
        "type": "Point",
        "coordinates": [
          -73.3598240260406,
          5.532740859207239
        ]
      }
    },
    {
      "type": "Feature",
      "properties": {
        "_source": "Ruta2-PinosdeOriente-SanFrancisco-Viaducto-TerminaldeTransporte-Arboleda",
        "_segmentIndex": 0,
        "_position": 4
      },
      "geometry": {
        "type": "Point",
        "coordinates": [
          -73.35969792515534,
          5.533172628556608
        ]
      }
    },
    {
      "type": "Feature",
      "properties": {
        "_source": "Ruta2-PinosdeOriente-SanFrancisco-Viaducto-TerminaldeTransporte-Arboleda",
        "_segmentIndex": 0,
        "_position": 5
      },
      "geometry": {
        "type": "Point",
        "coordinates": [
          -73.35957556531487,
          5.533605475219502
        ]
      }
    },
    {
      "type": "Feature",
      "properties": {
        "_source": "Ruta2-PinosdeOriente-SanFrancisco-Viaducto-TerminaldeTransporte-Arboleda",
        "_segmentIndex": 0,
        "_position": 6
      },
      "geometry": {
        "type": "Point",
        "coordinates": [
          -73.35944638185106,
          5.534036359314515
        ]
      }
    },
    {
      "type": "Feature",
      "properties": {
        "_source": "Ruta2-PinosdeOriente-SanFrancisco-Viaducto-TerminaldeTransporte-Arboleda",
        "_segmentIndex": 0,
        "_position": 7
      },
      "geometry": {
        "type": "Point",
        "coordinates": [
          -73.35931777128373,
          5.5344674131297795
        ]
      }
    },
    {
      "type": "Feature",
      "properties": {
        "_source": "Ruta2-PinosdeOriente-SanFrancisco-Viaducto-TerminaldeTransporte-Arboleda",
        "_segmentIndex": 0,
        "_position": 8
      },
      "geometry": {
        "type": "Point",
        "coordinates": [
          -73.35919565763061,
          5.534900334579294
        ]
      }
    },
    {
      "type": "Feature",
      "properties": {
        "_source": "Ruta2-PinosdeOriente-SanFrancisco-Viaducto-TerminaldeTransporte-Arboleda",
        "_segmentIndex": 0,
        "_position": 9
      },
      "geometry": {
        "type": "Point",
        "coordinates": [
          -73.3590739538274,
          5.535333370511063
        ]
      }
    },
    {
      "type": "Feature",
      "properties": {
        "_source": "Ruta2-PinosdeOriente-SanFrancisco-Viaducto-TerminaldeTransporte-Arboleda",
        "_segmentIndex": 0,
        "_position": 0
      },
      "geometry": {
        "type": "Point",
        "coordinates": [
          -73.359027,
          5.535501
        ]
      }
    },
    {
      "type": "Feature",
      "properties": {
        "_source": "Ruta2-PinosdeOriente-SanFrancisco-Viaducto-TerminaldeTransporte-Arboleda",
        "_segmentIndex": 0,
        "_position": 1
      },
      "geometry": {
        "type": "Point",
        "coordinates": [
          -73.35945004207181,
          5.5356558334172385
        ]
      }
    },
    {
      "type": "Feature",
      "properties": {
        "_source": "Ruta2-PinosdeOriente-SanFrancisco-Viaducto-TerminaldeTransporte-Arboleda",
        "_segmentIndex": 0,
        "_position": 2
      },
      "geometry": {
        "type": "Point",
        "coordinates": [
          -73.35987837025186,
          5.53579878981908
        ]
      }
    },
    {
      "type": "Feature",
      "properties": {
        "_source": "Ruta2-PinosdeOriente-SanFrancisco-Viaducto-TerminaldeTransporte-Arboleda",
        "_segmentIndex": 0,
        "_position": 0
      },
      "geometry": {
        "type": "Point",
        "coordinates": [
          -73.359879,
          5.535799
        ]
      }
    },
    {
      "type": "Feature",
      "properties": {
        "_source": "Ruta2-PinosdeOriente-SanFrancisco-Viaducto-TerminaldeTransporte-Arboleda",
        "_segmentIndex": 0,
        "_position": 1
      },
      "geometry": {
        "type": "Point",
        "coordinates": [
          -73.35974435712879,
          5.536228225226804
        ]
      }
    },
    {
      "type": "Feature",
      "properties": {
        "_source": "Ruta2-PinosdeOriente-SanFrancisco-Viaducto-TerminaldeTransporte-Arboleda",
        "_segmentIndex": 0,
        "_position": 0
      },
      "geometry": {
        "type": "Point",
        "coordinates": [
          -73.359714,
          5.536325
        ]
      }
    },
    {
      "type": "Feature",
      "properties": {
        "_source": "Ruta2-PinosdeOriente-SanFrancisco-Viaducto-TerminaldeTransporte-Arboleda",
        "_segmentIndex": 0,
        "_position": 1
      },
      "geometry": {
        "type": "Point",
        "coordinates": [
          -73.35927859948436,
          5.536209272861167
        ]
      }
    },
    {
      "type": "Feature",
      "properties": {
        "_source": "Ruta2-PinosdeOriente-SanFrancisco-Viaducto-TerminaldeTransporte-Arboleda",
        "_segmentIndex": 0,
        "_position": 2
      },
      "geometry": {
        "type": "Point",
        "coordinates": [
          -73.35884603039489,
          5.536079581840628
        ]
      }
    },
    {
      "type": "Feature",
      "properties": {
        "_source": "Ruta2-PinosdeOriente-SanFrancisco-Viaducto-TerminaldeTransporte-Arboleda",
        "_segmentIndex": 0,
        "_position": 3
      },
      "geometry": {
        "type": "Point",
        "coordinates": [
          -73.35841366616258,
          5.535949216049444
        ]
      }
    },
    {
      "type": "Feature",
      "properties": {
        "_source": "Ruta2-PinosdeOriente-SanFrancisco-Viaducto-TerminaldeTransporte-Arboleda",
        "_segmentIndex": 0,
        "_position": 4
      },
      "geometry": {
        "type": "Point",
        "coordinates": [
          -73.35798232980416,
          5.5358155210105355
        ]
      }
    },
    {
      "type": "Feature",
      "properties": {
        "_source": "Ruta2-PinosdeOriente-SanFrancisco-Viaducto-TerminaldeTransporte-Arboleda",
        "_segmentIndex": 0,
        "_position": 5
      },
      "geometry": {
        "type": "Point",
        "coordinates": [
          -73.35754619041148,
          5.535699208710174
        ]
      }
    },
    {
      "type": "Feature",
      "properties": {
        "_source": "Ruta2-PinosdeOriente-SanFrancisco-Viaducto-TerminaldeTransporte-Arboleda",
        "_segmentIndex": 0,
        "_position": 6
      },
      "geometry": {
        "type": "Point",
        "coordinates": [
          -73.35711296645356,
          5.535572181223307
        ]
      }
    },
    {
      "type": "Feature",
      "properties": {
        "_source": "Ruta2-PinosdeOriente-SanFrancisco-Viaducto-TerminaldeTransporte-Arboleda",
        "_segmentIndex": 0,
        "_position": 7
      },
      "geometry": {
        "type": "Point",
        "coordinates": [
          -73.35668142473844,
          5.535439144061852
        ]
      }
    },
    {
      "type": "Feature",
      "properties": {
        "_source": "Ruta2-PinosdeOriente-SanFrancisco-Viaducto-TerminaldeTransporte-Arboleda",
        "_segmentIndex": 0,
        "_position": 8
      },
      "geometry": {
        "type": "Point",
        "coordinates": [
          -73.35625000515908,
          5.535305728122313
        ]
      }
    },
    {
      "type": "Feature",
      "properties": {
        "_source": "Ruta2-PinosdeOriente-SanFrancisco-Viaducto-TerminaldeTransporte-Arboleda",
        "_segmentIndex": 0,
        "_position": 0
      },
      "geometry": {
        "type": "Point",
        "coordinates": [
          -73.356057,
          5.535242
        ]
      }
    },
    {
      "type": "Feature",
      "properties": {
        "_source": "Ruta2-PinosdeOriente-SanFrancisco-Viaducto-TerminaldeTransporte-Arboleda",
        "_segmentIndex": 0,
        "_position": 1
      },
      "geometry": {
        "type": "Point",
        "coordinates": [
          -73.35563611149031,
          5.53507861304961
        ]
      }
    },
    {
      "type": "Feature",
      "properties": {
        "_source": "Ruta2-PinosdeOriente-SanFrancisco-Viaducto-TerminaldeTransporte-Arboleda",
        "_segmentIndex": 0,
        "_position": 2
      },
      "geometry": {
        "type": "Point",
        "coordinates": [
          -73.35521522321322,
          5.534915225802385
        ]
      }
    },
    {
      "type": "Feature",
      "properties": {
        "_source": "Ruta2-PinosdeOriente-SanFrancisco-Viaducto-TerminaldeTransporte-Arboleda",
        "_segmentIndex": 0,
        "_position": 3
      },
      "geometry": {
        "type": "Point",
        "coordinates": [
          -73.35479211964252,
          5.534758577916864
        ]
      }
    },
    {
      "type": "Feature",
      "properties": {
        "_source": "Ruta2-PinosdeOriente-SanFrancisco-Viaducto-TerminaldeTransporte-Arboleda",
        "_segmentIndex": 0,
        "_position": 4
      },
      "geometry": {
        "type": "Point",
        "coordinates": [
          -73.35434728412235,
          5.534703842155084
        ]
      }
    },
    {
      "type": "Feature",
      "properties": {
        "_source": "Ruta2-PinosdeOriente-SanFrancisco-Viaducto-TerminaldeTransporte-Arboleda",
        "_segmentIndex": 0,
        "_position": 5
      },
      "geometry": {
        "type": "Point",
        "coordinates": [
          -73.35391287986963,
          5.534802694881146
        ]
      }
    },
    {
      "type": "Feature",
      "properties": {
        "_source": "Ruta2-PinosdeOriente-SanFrancisco-Viaducto-TerminaldeTransporte-Arboleda",
        "_segmentIndex": 0,
        "_position": 6
      },
      "geometry": {
        "type": "Point",
        "coordinates": [
          -73.3535670990152,
          5.535087972955282
        ]
      }
    },
    {
      "type": "Feature",
      "properties": {
        "_source": "Ruta2-PinosdeOriente-SanFrancisco-Viaducto-TerminaldeTransporte-Arboleda",
        "_segmentIndex": 0,
        "_position": 7
      },
      "geometry": {
        "type": "Point",
        "coordinates": [
          -73.35331369901992,
          5.535458201247781
        ]
      }
    },
    {
      "type": "Feature",
      "properties": {
        "_source": "Ruta2-PinosdeOriente-SanFrancisco-Viaducto-TerminaldeTransporte-Arboleda",
        "_segmentIndex": 0,
        "_position": 8
      },
      "geometry": {
        "type": "Point",
        "coordinates": [
          -73.35308277060822,
          5.535844552245259
        ]
      }
    },
    {
      "type": "Feature",
      "properties": {
        "_source": "Ruta2-PinosdeOriente-SanFrancisco-Viaducto-TerminaldeTransporte-Arboleda",
        "_segmentIndex": 0,
        "_position": 9
      },
      "geometry": {
        "type": "Point",
        "coordinates": [
          -73.35287160102189,
          5.536242065390499
        ]
      }
    },
    {
      "type": "Feature",
      "properties": {
        "_source": "Ruta2-PinosdeOriente-SanFrancisco-Viaducto-TerminaldeTransporte-Arboleda",
        "_segmentIndex": 0,
        "_position": 10
      },
      "geometry": {
        "type": "Point",
        "coordinates": [
          -73.35266043115152,
          5.536639578461002
        ]
      }
    },
    {
      "type": "Feature",
      "properties": {
        "_source": "Ruta2-PinosdeOriente-SanFrancisco-Viaducto-TerminaldeTransporte-Arboleda",
        "_segmentIndex": 0,
        "_position": 11
      },
      "geometry": {
        "type": "Point",
        "coordinates": [
          -73.35244926099712,
          5.5370370914567655
        ]
      }
    },
    {
      "type": "Feature",
      "properties": {
        "_source": "Ruta2-PinosdeOriente-SanFrancisco-Viaducto-TerminaldeTransporte-Arboleda",
        "_segmentIndex": 0,
        "_position": 12
      },
      "geometry": {
        "type": "Point",
        "coordinates": [
          -73.35225653982225,
          5.537443511641462
        ]
      }
    },
    {
      "type": "Feature",
      "properties": {
        "_source": "Ruta2-PinosdeOriente-SanFrancisco-Viaducto-TerminaldeTransporte-Arboleda",
        "_segmentIndex": 0,
        "_position": 13
      },
      "geometry": {
        "type": "Point",
        "coordinates": [
          -73.35207361911158,
          5.537854663534657
        ]
      }
    },
    {
      "type": "Feature",
      "properties": {
        "_source": "Ruta2-PinosdeOriente-SanFrancisco-Viaducto-TerminaldeTransporte-Arboleda",
        "_segmentIndex": 0,
        "_position": 14
      },
      "geometry": {
        "type": "Point",
        "coordinates": [
          -73.35185817429667,
          5.538249640048022
        ]
      }
    },
    {
      "type": "Feature",
      "properties": {
        "_source": "Ruta2-PinosdeOriente-SanFrancisco-Viaducto-TerminaldeTransporte-Arboleda",
        "_segmentIndex": 0,
        "_position": 15
      },
      "geometry": {
        "type": "Point",
        "coordinates": [
          -73.35163767107731,
          5.538642100892738
        ]
      }
    },
    {
      "type": "Feature",
      "properties": {
        "_source": "Ruta2-PinosdeOriente-SanFrancisco-Viaducto-TerminaldeTransporte-Arboleda",
        "_segmentIndex": 0,
        "_position": 16
      },
      "geometry": {
        "type": "Point",
        "coordinates": [
          -73.35141716756503,
          5.539034561655931
        ]
      }
    },
    {
      "type": "Feature",
      "properties": {
        "_source": "Ruta2-PinosdeOriente-SanFrancisco-Viaducto-TerminaldeTransporte-Arboleda",
        "_segmentIndex": 0,
        "_position": 17
      },
      "geometry": {
        "type": "Point",
        "coordinates": [
          -73.3511968334905,
          5.539427116705193
        ]
      }
    },
    {
      "type": "Feature",
      "properties": {
        "_source": "Ruta2-PinosdeOriente-SanFrancisco-Viaducto-TerminaldeTransporte-Arboleda",
        "_segmentIndex": 0,
        "_position": 18
      },
      "geometry": {
        "type": "Point",
        "coordinates": [
          -73.35097670998756,
          5.5398197889103304
        ]
      }
    },
    {
      "type": "Feature",
      "properties": {
        "_source": "Ruta2-PinosdeOriente-SanFrancisco-Viaducto-TerminaldeTransporte-Arboleda",
        "_segmentIndex": 0,
        "_position": 19
      },
      "geometry": {
        "type": "Point",
        "coordinates": [
          -73.35075658619198,
          5.5402124610342085
        ]
      }
    },
    {
      "type": "Feature",
      "properties": {
        "_source": "Ruta2-PinosdeOriente-SanFrancisco-Viaducto-TerminaldeTransporte-Arboleda",
        "_segmentIndex": 0,
        "_position": 20
      },
      "geometry": {
        "type": "Point",
        "coordinates": [
          -73.3505673621953,
          5.540619936444132
        ]
      }
    },
    {
      "type": "Feature",
      "properties": {
        "_source": "Ruta2-PinosdeOriente-SanFrancisco-Viaducto-TerminaldeTransporte-Arboleda",
        "_segmentIndex": 0,
        "_position": 21
      },
      "geometry": {
        "type": "Point",
        "coordinates": [
          -73.35041419007031,
          5.541042432834201
        ]
      }
    },
    {
      "type": "Feature",
      "properties": {
        "_source": "Ruta2-PinosdeOriente-SanFrancisco-Viaducto-TerminaldeTransporte-Arboleda",
        "_segmentIndex": 0,
        "_position": 22
      },
      "geometry": {
        "type": "Point",
        "coordinates": [
          -73.35025489230291,
          5.541454958329879
        ]
      }
    },
    {
      "type": "Feature",
      "properties": {
        "_source": "Ruta2-PinosdeOriente-SanFrancisco-Viaducto-TerminaldeTransporte-Arboleda",
        "_segmentIndex": 0,
        "_position": 23
      },
      "geometry": {
        "type": "Point",
        "coordinates": [
          -73.3500485439398,
          5.5418242027515205
        ]
      }
    },
    {
      "type": "Feature",
      "properties": {
        "_source": "Ruta2-PinosdeOriente-SanFrancisco-Viaducto-TerminaldeTransporte-Arboleda",
        "_segmentIndex": 0,
        "_position": 24
      },
      "geometry": {
        "type": "Point",
        "coordinates": [
          -73.35000974712086,
          5.542271562615112
        ]
      }
    },
    {
      "type": "Feature",
      "properties": {
        "_source": "Ruta2-PinosdeOriente-SanFrancisco-Viaducto-TerminaldeTransporte-Arboleda",
        "_segmentIndex": 0,
        "_position": 25
      },
      "geometry": {
        "type": "Point",
        "coordinates": [
          -73.34991581925053,
          5.542710335863766
        ]
      }
    },
    {
      "type": "Feature",
      "properties": {
        "_source": "Ruta2-PinosdeOriente-SanFrancisco-Viaducto-TerminaldeTransporte-Arboleda",
        "_segmentIndex": 0,
        "_position": 26
      },
      "geometry": {
        "type": "Point",
        "coordinates": [
          -73.3497493424604,
          5.543126584845116
        ]
      }
    },
    {
      "type": "Feature",
      "properties": {
        "_source": "Ruta2-PinosdeOriente-SanFrancisco-Viaducto-TerminaldeTransporte-Arboleda",
        "_segmentIndex": 0,
        "_position": 27
      },
      "geometry": {
        "type": "Point",
        "coordinates": [
          -73.3495276789009,
          5.543518398619412
        ]
      }
    },
    {
      "type": "Feature",
      "properties": {
        "_source": "Ruta2-PinosdeOriente-SanFrancisco-Viaducto-TerminaldeTransporte-Arboleda",
        "_segmentIndex": 0,
        "_position": 28
      },
      "geometry": {
        "type": "Point",
        "coordinates": [
          -73.34930901738537,
          5.543911877006266
        ]
      }
    },
    {
      "type": "Feature",
      "properties": {
        "_source": "Ruta2-PinosdeOriente-SanFrancisco-Viaducto-TerminaldeTransporte-Arboleda",
        "_segmentIndex": 0,
        "_position": 29
      },
      "geometry": {
        "type": "Point",
        "coordinates": [
          -73.34908992560639,
          5.544305064846528
        ]
      }
    },
    {
      "type": "Feature",
      "properties": {
        "_source": "Ruta2-PinosdeOriente-SanFrancisco-Viaducto-TerminaldeTransporte-Arboleda",
        "_segmentIndex": 0,
        "_position": 30
      },
      "geometry": {
        "type": "Point",
        "coordinates": [
          -73.34883946915281,
          5.544679299297928
        ]
      }
    },
    {
      "type": "Feature",
      "properties": {
        "_source": "Ruta2-PinosdeOriente-SanFrancisco-Viaducto-TerminaldeTransporte-Arboleda",
        "_segmentIndex": 0,
        "_position": 31
      },
      "geometry": {
        "type": "Point",
        "coordinates": [
          -73.34858901238161,
          5.54505353364404
        ]
      }
    },
    {
      "type": "Feature",
      "properties": {
        "_source": "Ruta2-PinosdeOriente-SanFrancisco-Viaducto-TerminaldeTransporte-Arboleda",
        "_segmentIndex": 0,
        "_position": 32
      },
      "geometry": {
        "type": "Point",
        "coordinates": [
          -73.34832669478364,
          5.5454196191619864
        ]
      }
    },
    {
      "type": "Feature",
      "properties": {
        "_source": "Ruta2-PinosdeOriente-SanFrancisco-Viaducto-TerminaldeTransporte-Arboleda",
        "_segmentIndex": 0,
        "_position": 33
      },
      "geometry": {
        "type": "Point",
        "coordinates": [
          -73.3480639341438,
          5.545785400397486
        ]
      }
    },
    {
      "type": "Feature",
      "properties": {
        "_source": "Ruta2-PinosdeOriente-SanFrancisco-Viaducto-TerminaldeTransporte-Arboleda",
        "_segmentIndex": 0,
        "_position": 34
      },
      "geometry": {
        "type": "Point",
        "coordinates": [
          -73.34779761770224,
          5.546148580455311
        ]
      }
    },
    {
      "type": "Feature",
      "properties": {
        "_source": "Ruta2-PinosdeOriente-SanFrancisco-Viaducto-TerminaldeTransporte-Arboleda",
        "_segmentIndex": 0,
        "_position": 35
      },
      "geometry": {
        "type": "Point",
        "coordinates": [
          -73.34752530646328,
          5.546507375048406
        ]
      }
    },
    {
      "type": "Feature",
      "properties": {
        "_source": "Ruta2-PinosdeOriente-SanFrancisco-Viaducto-TerminaldeTransporte-Arboleda",
        "_segmentIndex": 0,
        "_position": 36
      },
      "geometry": {
        "type": "Point",
        "coordinates": [
          -73.347253710854,
          5.546866698489193
        ]
      }
    },
    {
      "type": "Feature",
      "properties": {
        "_source": "Ruta2-PinosdeOriente-SanFrancisco-Viaducto-TerminaldeTransporte-Arboleda",
        "_segmentIndex": 0,
        "_position": 37
      },
      "geometry": {
        "type": "Point",
        "coordinates": [
          -73.34698749062396,
          5.547229993534598
        ]
      }
    },
    {
      "type": "Feature",
      "properties": {
        "_source": "Ruta2-PinosdeOriente-SanFrancisco-Viaducto-TerminaldeTransporte-Arboleda",
        "_segmentIndex": 0,
        "_position": 38
      },
      "geometry": {
        "type": "Point",
        "coordinates": [
          -73.34676891606522,
          5.547622267014953
        ]
      }
    },
    {
      "type": "Feature",
      "properties": {
        "_source": "Ruta2-PinosdeOriente-SanFrancisco-Viaducto-TerminaldeTransporte-Arboleda",
        "_segmentIndex": 0,
        "_position": 39
      },
      "geometry": {
        "type": "Point",
        "coordinates": [
          -73.34661258318731,
          5.54804250275982
        ]
      }
    },
    {
      "type": "Feature",
      "properties": {
        "_source": "Ruta2-PinosdeOriente-SanFrancisco-Viaducto-TerminaldeTransporte-Arboleda",
        "_segmentIndex": 0,
        "_position": 40
      },
      "geometry": {
        "type": "Point",
        "coordinates": [
          -73.34650650990145,
          5.548479591778435
        ]
      }
    },
    {
      "type": "Feature",
      "properties": {
        "_source": "Ruta2-PinosdeOriente-SanFrancisco-Viaducto-TerminaldeTransporte-Arboleda",
        "_segmentIndex": 0,
        "_position": 41
      },
      "geometry": {
        "type": "Point",
        "coordinates": [
          -73.34639824706278,
          5.548916149928638
        ]
      }
    },
    {
      "type": "Feature",
      "properties": {
        "_source": "Ruta2-PinosdeOriente-SanFrancisco-Viaducto-TerminaldeTransporte-Arboleda",
        "_segmentIndex": 0,
        "_position": 42
      },
      "geometry": {
        "type": "Point",
        "coordinates": [
          -73.34628998406384,
          5.54935270805915
        ]
      }
    },
    {
      "type": "Feature",
      "properties": {
        "_source": "Ruta2-PinosdeOriente-SanFrancisco-Viaducto-TerminaldeTransporte-Arboleda",
        "_segmentIndex": 0,
        "_position": 43
      },
      "geometry": {
        "type": "Point",
        "coordinates": [
          -73.34618362919342,
          5.5497897301128845
        ]
      }
    },
    {
      "type": "Feature",
      "properties": {
        "_source": "Ruta2-PinosdeOriente-SanFrancisco-Viaducto-TerminaldeTransporte-Arboleda",
        "_segmentIndex": 0,
        "_position": 44
      },
      "geometry": {
        "type": "Point",
        "coordinates": [
          -73.34607748963609,
          5.550226804532828
        ]
      }
    },
    {
      "type": "Feature",
      "properties": {
        "_source": "Ruta2-PinosdeOriente-SanFrancisco-Viaducto-TerminaldeTransporte-Arboleda",
        "_segmentIndex": 0,
        "_position": 45
      },
      "geometry": {
        "type": "Point",
        "coordinates": [
          -73.345992185973,
          5.5506683204558485
        ]
      }
    },
    {
      "type": "Feature",
      "properties": {
        "_source": "Ruta2-PinosdeOriente-SanFrancisco-Viaducto-TerminaldeTransporte-Arboleda",
        "_segmentIndex": 0,
        "_position": 46
      },
      "geometry": {
        "type": "Point",
        "coordinates": [
          -73.34591594829494,
          5.551111245603504
        ]
      }
    },
    {
      "type": "Feature",
      "properties": {
        "_source": "Ruta2-PinosdeOriente-SanFrancisco-Viaducto-TerminaldeTransporte-Arboleda",
        "_segmentIndex": 0,
        "_position": 47
      },
      "geometry": {
        "type": "Point",
        "coordinates": [
          -73.34587679813613,
          5.55155921422717
        ]
      }
    },
    {
      "type": "Feature",
      "properties": {
        "_source": "Ruta2-PinosdeOriente-SanFrancisco-Viaducto-TerminaldeTransporte-Arboleda",
        "_segmentIndex": 0,
        "_position": 48
      },
      "geometry": {
        "type": "Point",
        "coordinates": [
          -73.34583764791782,
          5.55200718284826
        ]
      }
    },
    {
      "type": "Feature",
      "properties": {
        "_source": "Ruta2-PinosdeOriente-SanFrancisco-Viaducto-TerminaldeTransporte-Arboleda",
        "_segmentIndex": 0,
        "_position": 49
      },
      "geometry": {
        "type": "Point",
        "coordinates": [
          -73.34579778920732,
          5.5524550890100555
        ]
      }
    },
    {
      "type": "Feature",
      "properties": {
        "_source": "Ruta2-PinosdeOriente-SanFrancisco-Viaducto-TerminaldeTransporte-Arboleda",
        "_segmentIndex": 0,
        "_position": 50
      },
      "geometry": {
        "type": "Point",
        "coordinates": [
          -73.34575721671504,
          5.552902932246211
        ]
      }
    },
    {
      "type": "Feature",
      "properties": {
        "_source": "Ruta2-PinosdeOriente-SanFrancisco-Viaducto-TerminaldeTransporte-Arboleda",
        "_segmentIndex": 0,
        "_position": 51
      },
      "geometry": {
        "type": "Point",
        "coordinates": [
          -73.34571664416109,
          5.553350775479599
        ]
      }
    },
    {
      "type": "Feature",
      "properties": {
        "_source": "Ruta2-PinosdeOriente-SanFrancisco-Viaducto-TerminaldeTransporte-Arboleda",
        "_segmentIndex": 0,
        "_position": 52
      },
      "geometry": {
        "type": "Point",
        "coordinates": [
          -73.3456757880442,
          5.553798593168342
        ]
      }
    },
    {
      "type": "Feature",
      "properties": {
        "_source": "Ruta2-PinosdeOriente-SanFrancisco-Viaducto-TerminaldeTransporte-Arboleda",
        "_segmentIndex": 0,
        "_position": 53
      },
      "geometry": {
        "type": "Point",
        "coordinates": [
          -73.3456349038888,
          5.554246408333759
        ]
      }
    },
    {
      "type": "Feature",
      "properties": {
        "_source": "Ruta2-PinosdeOriente-SanFrancisco-Viaducto-TerminaldeTransporte-Arboleda",
        "_segmentIndex": 0,
        "_position": 54
      },
      "geometry": {
        "type": "Point",
        "coordinates": [
          -73.3455834703318,
          5.554692842055073
        ]
      }
    },
    {
      "type": "Feature",
      "properties": {
        "_source": "Ruta2-PinosdeOriente-SanFrancisco-Viaducto-TerminaldeTransporte-Arboleda",
        "_segmentIndex": 0,
        "_position": 0
      },
      "geometry": {
        "type": "Point",
        "coordinates": [
          -73.345568,
          5.554782
        ]
      }
    },
    {
      "type": "Feature",
      "properties": {
        "_source": "Ruta2-PinosdeOriente-SanFrancisco-Viaducto-TerminaldeTransporte-Arboleda",
        "_segmentIndex": 0,
        "_position": 1
      },
      "geometry": {
        "type": "Point",
        "coordinates": [
          -73.34543017335766,
          5.555210224355739
        ]
      }
    },
    {
      "type": "Feature",
      "properties": {
        "_source": "Ruta2-PinosdeOriente-SanFrancisco-Viaducto-TerminaldeTransporte-Arboleda",
        "_segmentIndex": 0,
        "_position": 2
      },
      "geometry": {
        "type": "Point",
        "coordinates": [
          -73.3452963367241,
          5.555639675079785
        ]
      }
    },
    {
      "type": "Feature",
      "properties": {
        "_source": "Ruta2-PinosdeOriente-SanFrancisco-Viaducto-TerminaldeTransporte-Arboleda",
        "_segmentIndex": 0,
        "_position": 3
      },
      "geometry": {
        "type": "Point",
        "coordinates": [
          -73.34516757690407,
          5.556070686204423
        ]
      }
    },
    {
      "type": "Feature",
      "properties": {
        "_source": "Ruta2-PinosdeOriente-SanFrancisco-Viaducto-TerminaldeTransporte-Arboleda",
        "_segmentIndex": 0,
        "_position": 4
      },
      "geometry": {
        "type": "Point",
        "coordinates": [
          -73.34503813396834,
          5.556501482924993
        ]
      }
    },
    {
      "type": "Feature",
      "properties": {
        "_source": "Ruta2-PinosdeOriente-SanFrancisco-Viaducto-TerminaldeTransporte-Arboleda",
        "_segmentIndex": 0,
        "_position": 5
      },
      "geometry": {
        "type": "Point",
        "coordinates": [
          -73.34489515213872,
          5.556928029712157
        ]
      }
    },
    {
      "type": "Feature",
      "properties": {
        "_source": "Ruta2-PinosdeOriente-SanFrancisco-Viaducto-TerminaldeTransporte-Arboleda",
        "_segmentIndex": 0,
        "_position": 6
      },
      "geometry": {
        "type": "Point",
        "coordinates": [
          -73.34475217010196,
          5.557354576464933
        ]
      }
    },
    {
      "type": "Feature",
      "properties": {
        "_source": "Ruta2-PinosdeOriente-SanFrancisco-Viaducto-TerminaldeTransporte-Arboleda",
        "_segmentIndex": 0,
        "_position": 7
      },
      "geometry": {
        "type": "Point",
        "coordinates": [
          -73.34460586536602,
          5.557780005080395
        ]
      }
    },
    {
      "type": "Feature",
      "properties": {
        "_source": "Ruta2-PinosdeOriente-SanFrancisco-Viaducto-TerminaldeTransporte-Arboleda",
        "_segmentIndex": 0,
        "_position": 8
      },
      "geometry": {
        "type": "Point",
        "coordinates": [
          -73.34434144387932,
          5.558141374421896
        ]
      }
    },
    {
      "type": "Feature",
      "properties": {
        "_source": "Ruta2-PinosdeOriente-SanFrancisco-Viaducto-TerminaldeTransporte-Arboleda",
        "_segmentIndex": 0,
        "_position": 9
      },
      "geometry": {
        "type": "Point",
        "coordinates": [
          -73.34404686576471,
          5.558482302735892
        ]
      }
    },
    {
      "type": "Feature",
      "properties": {
        "_source": "Ruta2-PinosdeOriente-SanFrancisco-Viaducto-TerminaldeTransporte-Arboleda",
        "_segmentIndex": 0,
        "_position": 10
      },
      "geometry": {
        "type": "Point",
        "coordinates": [
          -73.34375228730892,
          5.558823230903878
        ]
      }
    },
    {
      "type": "Feature",
      "properties": {
        "_source": "Ruta2-PinosdeOriente-SanFrancisco-Viaducto-TerminaldeTransporte-Arboleda",
        "_segmentIndex": 0,
        "_position": 11
      },
      "geometry": {
        "type": "Point",
        "coordinates": [
          -73.34345655102976,
          5.559163140804002
        ]
      }
    },
    {
      "type": "Feature",
      "properties": {
        "_source": "Ruta2-PinosdeOriente-SanFrancisco-Viaducto-TerminaldeTransporte-Arboleda",
        "_segmentIndex": 0,
        "_position": 12
      },
      "geometry": {
        "type": "Point",
        "coordinates": [
          -73.34315282852009,
          5.559496026162223
        ]
      }
    },
    {
      "type": "Feature",
      "properties": {
        "_source": "Ruta2-PinosdeOriente-SanFrancisco-Viaducto-TerminaldeTransporte-Arboleda",
        "_segmentIndex": 0,
        "_position": 13
      },
      "geometry": {
        "type": "Point",
        "coordinates": [
          -73.3428491056669,
          5.559828911365201
        ]
      }
    },
    {
      "type": "Feature",
      "properties": {
        "_source": "Ruta2-PinosdeOriente-SanFrancisco-Viaducto-TerminaldeTransporte-Arboleda",
        "_segmentIndex": 0,
        "_position": 14
      },
      "geometry": {
        "type": "Point",
        "coordinates": [
          -73.34254538247016,
          5.560161796412925
        ]
      }
    },
    {
      "type": "Feature",
      "properties": {
        "_source": "Ruta2-PinosdeOriente-SanFrancisco-Viaducto-TerminaldeTransporte-Arboleda",
        "_segmentIndex": 0,
        "_position": 15
      },
      "geometry": {
        "type": "Point",
        "coordinates": [
          -73.34224343866236,
          5.560496280415236
        ]
      }
    },
    {
      "type": "Feature",
      "properties": {
        "_source": "Ruta2-PinosdeOriente-SanFrancisco-Viaducto-TerminaldeTransporte-Arboleda",
        "_segmentIndex": 0,
        "_position": 16
      },
      "geometry": {
        "type": "Point",
        "coordinates": [
          -73.34194168512435,
          5.560830935532106
        ]
      }
    },
    {
      "type": "Feature",
      "properties": {
        "_source": "Ruta2-PinosdeOriente-SanFrancisco-Viaducto-TerminaldeTransporte-Arboleda",
        "_segmentIndex": 0,
        "_position": 17
      },
      "geometry": {
        "type": "Point",
        "coordinates": [
          -73.34163993124314,
          5.561165590495704
        ]
      }
    },
    {
      "type": "Feature",
      "properties": {
        "_source": "Ruta2-PinosdeOriente-SanFrancisco-Viaducto-TerminaldeTransporte-Arboleda",
        "_segmentIndex": 0,
        "_position": 18
      },
      "geometry": {
        "type": "Point",
        "coordinates": [
          -73.34130055036051,
          5.561460353328061
        ]
      }
    },
    {
      "type": "Feature",
      "properties": {
        "_source": "Ruta2-PinosdeOriente-SanFrancisco-Viaducto-TerminaldeTransporte-Arboleda",
        "_segmentIndex": 0,
        "_position": 19
      },
      "geometry": {
        "type": "Point",
        "coordinates": [
          -73.34094527170066,
          5.561738124034223
        ]
      }
    },
    {
      "type": "Feature",
      "properties": {
        "_source": "Ruta2-PinosdeOriente-SanFrancisco-Viaducto-TerminaldeTransporte-Arboleda",
        "_segmentIndex": 0,
        "_position": 20
      },
      "geometry": {
        "type": "Point",
        "coordinates": [
          -73.34058978579765,
          5.562015632818896
        ]
      }
    },
    {
      "type": "Feature",
      "properties": {
        "_source": "Ruta2-PinosdeOriente-SanFrancisco-Viaducto-TerminaldeTransporte-Arboleda",
        "_segmentIndex": 0,
        "_position": 21
      },
      "geometry": {
        "type": "Point",
        "coordinates": [
          -73.3402342995593,
          5.5622931413908026
        ]
      }
    },
    {
      "type": "Feature",
      "properties": {
        "_source": "Ruta2-PinosdeOriente-SanFrancisco-Viaducto-TerminaldeTransporte-Arboleda",
        "_segmentIndex": 0,
        "_position": 22
      },
      "geometry": {
        "type": "Point",
        "coordinates": [
          -73.33987881298559,
          5.562570649749934
        ]
      }
    },
    {
      "type": "Feature",
      "properties": {
        "_source": "Ruta2-PinosdeOriente-SanFrancisco-Viaducto-TerminaldeTransporte-Arboleda",
        "_segmentIndex": 0,
        "_position": 23
      },
      "geometry": {
        "type": "Point",
        "coordinates": [
          -73.33952436422688,
          5.562849462915782
        ]
      }
    },
    {
      "type": "Feature",
      "properties": {
        "_source": "Ruta2-PinosdeOriente-SanFrancisco-Viaducto-TerminaldeTransporte-Arboleda",
        "_segmentIndex": 0,
        "_position": 24
      },
      "geometry": {
        "type": "Point",
        "coordinates": [
          -73.339171445638,
          5.563130199812372
        ]
      }
    },
    {
      "type": "Feature",
      "properties": {
        "_source": "Ruta2-PinosdeOriente-SanFrancisco-Viaducto-TerminaldeTransporte-Arboleda",
        "_segmentIndex": 0,
        "_position": 25
      },
      "geometry": {
        "type": "Point",
        "coordinates": [
          -73.33881852671226,
          5.563410936499216
        ]
      }
    },
    {
      "type": "Feature",
      "properties": {
        "_source": "Ruta2-PinosdeOriente-SanFrancisco-Viaducto-TerminaldeTransporte-Arboleda",
        "_segmentIndex": 0,
        "_position": 26
      },
      "geometry": {
        "type": "Point",
        "coordinates": [
          -73.33846560744963,
          5.563691672976305
        ]
      }
    },
    {
      "type": "Feature",
      "properties": {
        "_source": "Ruta2-PinosdeOriente-SanFrancisco-Viaducto-TerminaldeTransporte-Arboleda",
        "_segmentIndex": 0,
        "_position": 27
      },
      "geometry": {
        "type": "Point",
        "coordinates": [
          -73.33811248928481,
          5.5639721615225985
        ]
      }
    },
    {
      "type": "Feature",
      "properties": {
        "_source": "Ruta2-PinosdeOriente-SanFrancisco-Viaducto-TerminaldeTransporte-Arboleda",
        "_segmentIndex": 0,
        "_position": 28
      },
      "geometry": {
        "type": "Point",
        "coordinates": [
          -73.33775907344207,
          5.564252278909408
        ]
      }
    },
    {
      "type": "Feature",
      "properties": {
        "_source": "Ruta2-PinosdeOriente-SanFrancisco-Viaducto-TerminaldeTransporte-Arboleda",
        "_segmentIndex": 0,
        "_position": 29
      },
      "geometry": {
        "type": "Point",
        "coordinates": [
          -73.33740565726268,
          5.564532396085842
        ]
      }
    },
    {
      "type": "Feature",
      "properties": {
        "_source": "Ruta2-PinosdeOriente-SanFrancisco-Viaducto-TerminaldeTransporte-Arboleda",
        "_segmentIndex": 0,
        "_position": 30
      },
      "geometry": {
        "type": "Point",
        "coordinates": [
          -73.33705026708485,
          5.564809874675519
        ]
      }
    },
    {
      "type": "Feature",
      "properties": {
        "_source": "Ruta2-PinosdeOriente-SanFrancisco-Viaducto-TerminaldeTransporte-Arboleda",
        "_segmentIndex": 0,
        "_position": 31
      },
      "geometry": {
        "type": "Point",
        "coordinates": [
          -73.33667413512654,
          5.565058864066957
        ]
      }
    },
    {
      "type": "Feature",
      "properties": {
        "_source": "Ruta2-PinosdeOriente-SanFrancisco-Viaducto-TerminaldeTransporte-Arboleda",
        "_segmentIndex": 0,
        "_position": 32
      },
      "geometry": {
        "type": "Point",
        "coordinates": [
          -73.33629474895247,
          5.565303023997545
        ]
      }
    },
    {
      "type": "Feature",
      "properties": {
        "_source": "Ruta2-PinosdeOriente-SanFrancisco-Viaducto-TerminaldeTransporte-Arboleda",
        "_segmentIndex": 0,
        "_position": 33
      },
      "geometry": {
        "type": "Point",
        "coordinates": [
          -73.33591536246334,
          5.565547183685654
        ]
      }
    },
    {
      "type": "Feature",
      "properties": {
        "_source": "Ruta2-PinosdeOriente-SanFrancisco-Viaducto-TerminaldeTransporte-Arboleda",
        "_segmentIndex": 0,
        "_position": 34
      },
      "geometry": {
        "type": "Point",
        "coordinates": [
          -73.33553597565913,
          5.565791343131275
        ]
      }
    },
    {
      "type": "Feature",
      "properties": {
        "_source": "Ruta2-PinosdeOriente-SanFrancisco-Viaducto-TerminaldeTransporte-Arboleda",
        "_segmentIndex": 0,
        "_position": 35
      },
      "geometry": {
        "type": "Point",
        "coordinates": [
          -73.33515732926338,
          5.566036601737451
        ]
      }
    },
    {
      "type": "Feature",
      "properties": {
        "_source": "Ruta2-PinosdeOriente-SanFrancisco-Viaducto-TerminaldeTransporte-Arboleda",
        "_segmentIndex": 0,
        "_position": 36
      },
      "geometry": {
        "type": "Point",
        "coordinates": [
          -73.33479663710499,
          5.566306009181993
        ]
      }
    },
    {
      "type": "Feature",
      "properties": {
        "_source": "Ruta2-PinosdeOriente-SanFrancisco-Viaducto-TerminaldeTransporte-Arboleda",
        "_segmentIndex": 0,
        "_position": 37
      },
      "geometry": {
        "type": "Point",
        "coordinates": [
          -73.33446433601226,
          5.566610655285141
        ]
      }
    },
    {
      "type": "Feature",
      "properties": {
        "_source": "Ruta2-PinosdeOriente-SanFrancisco-Viaducto-TerminaldeTransporte-Arboleda",
        "_segmentIndex": 0,
        "_position": 38
      },
      "geometry": {
        "type": "Point",
        "coordinates": [
          -73.33413203457515,
          5.566915301202221
        ]
      }
    },
    {
      "type": "Feature",
      "properties": {
        "_source": "Ruta2-PinosdeOriente-SanFrancisco-Viaducto-TerminaldeTransporte-Arboleda",
        "_segmentIndex": 0,
        "_position": 39
      },
      "geometry": {
        "type": "Point",
        "coordinates": [
          -73.33378981939894,
          5.567208869748868
        ]
      }
    },
    {
      "type": "Feature",
      "properties": {
        "_source": "Ruta2-PinosdeOriente-SanFrancisco-Viaducto-TerminaldeTransporte-Arboleda",
        "_segmentIndex": 0,
        "_position": 40
      },
      "geometry": {
        "type": "Point",
        "coordinates": [
          -73.33344748204009,
          5.567502301953641
        ]
      }
    },
    {
      "type": "Feature",
      "properties": {
        "_source": "Ruta2-PinosdeOriente-SanFrancisco-Viaducto-TerminaldeTransporte-Arboleda",
        "_segmentIndex": 0,
        "_position": 41
      },
      "geometry": {
        "type": "Point",
        "coordinates": [
          -73.33310514433943,
          5.5677957339609065
        ]
      }
    },
    {
      "type": "Feature",
      "properties": {
        "_source": "Ruta2-PinosdeOriente-SanFrancisco-Viaducto-TerminaldeTransporte-Arboleda",
        "_segmentIndex": 0,
        "_position": 42
      },
      "geometry": {
        "type": "Point",
        "coordinates": [
          -73.332762027694,
          5.56808825682311
        ]
      }
    },
    {
      "type": "Feature",
      "properties": {
        "_source": "Ruta2-PinosdeOriente-SanFrancisco-Viaducto-TerminaldeTransporte-Arboleda",
        "_segmentIndex": 0,
        "_position": 43
      },
      "geometry": {
        "type": "Point",
        "coordinates": [
          -73.33241676646047,
          5.568378276273958
        ]
      }
    },
    {
      "type": "Feature",
      "properties": {
        "_source": "Ruta2-PinosdeOriente-SanFrancisco-Viaducto-TerminaldeTransporte-Arboleda",
        "_segmentIndex": 0,
        "_position": 44
      },
      "geometry": {
        "type": "Point",
        "coordinates": [
          -73.33216496084329,
          5.568742324127728
        ]
      }
    },
    {
      "type": "Feature",
      "properties": {
        "_source": "Ruta2-PinosdeOriente-SanFrancisco-Viaducto-TerminaldeTransporte-Arboleda",
        "_segmentIndex": 0,
        "_position": 45
      },
      "geometry": {
        "type": "Point",
        "coordinates": [
          -73.33197695856727,
          5.569150347414504
        ]
      }
    },
    {
      "type": "Feature",
      "properties": {
        "_source": "Ruta2-PinosdeOriente-SanFrancisco-Viaducto-TerminaldeTransporte-Arboleda",
        "_segmentIndex": 0,
        "_position": 46
      },
      "geometry": {
        "type": "Point",
        "coordinates": [
          -73.33228633556696,
          5.569395626318482
        ]
      }
    },
    {
      "type": "Feature",
      "properties": {
        "_source": "Ruta2-PinosdeOriente-SanFrancisco-Viaducto-TerminaldeTransporte-Arboleda",
        "_segmentIndex": 0,
        "_position": 47
      },
      "geometry": {
        "type": "Point",
        "coordinates": [
          -73.33255853042839,
          5.569741928081693
        ]
      }
    },
    {
      "type": "Feature",
      "properties": {
        "_source": "Ruta2-PinosdeOriente-SanFrancisco-Viaducto-TerminaldeTransporte-Arboleda",
        "_segmentIndex": 0,
        "_position": 48
      },
      "geometry": {
        "type": "Point",
        "coordinates": [
          -73.33279267930077,
          5.570126486380119
        ]
      }
    },
    {
      "type": "Feature",
      "properties": {
        "_source": "Ruta2-PinosdeOriente-SanFrancisco-Viaducto-TerminaldeTransporte-Arboleda",
        "_segmentIndex": 0,
        "_position": 49
      },
      "geometry": {
        "type": "Point",
        "coordinates": [
          -73.3330268284797,
          5.570511044586105
        ]
      }
    },
    {
      "type": "Feature",
      "properties": {
        "_source": "Ruta2-PinosdeOriente-SanFrancisco-Viaducto-TerminaldeTransporte-Arboleda",
        "_segmentIndex": 0,
        "_position": 50
      },
      "geometry": {
        "type": "Point",
        "coordinates": [
          -73.33324592962835,
          5.570903312597388
        ]
      }
    },
    {
      "type": "Feature",
      "properties": {
        "_source": "Ruta2-PinosdeOriente-SanFrancisco-Viaducto-TerminaldeTransporte-Arboleda",
        "_segmentIndex": 0,
        "_position": 51
      },
      "geometry": {
        "type": "Point",
        "coordinates": [
          -73.33354915969468,
          5.571236647839294
        ]
      }
    },
    {
      "type": "Feature",
      "properties": {
        "_source": "Ruta2-PinosdeOriente-SanFrancisco-Viaducto-TerminaldeTransporte-Arboleda",
        "_segmentIndex": 0,
        "_position": 52
      },
      "geometry": {
        "type": "Point",
        "coordinates": [
          -73.33385239010518,
          5.571569982926137
        ]
      }
    },
    {
      "type": "Feature",
      "properties": {
        "_source": "Ruta2-PinosdeOriente-SanFrancisco-Viaducto-TerminaldeTransporte-Arboleda",
        "_segmentIndex": 0,
        "_position": 0
      },
      "geometry": {
        "type": "Point",
        "coordinates": [
          -73.333927,
          5.571652
        ]
      }
    },
    {
      "type": "Feature",
      "properties": {
        "_source": "Ruta2-PinosdeOriente-SanFrancisco-Viaducto-TerminaldeTransporte-Arboleda",
        "_segmentIndex": 0,
        "_position": 1
      },
      "geometry": {
        "type": "Point",
        "coordinates": [
          -73.3336552475222,
          5.572011222856646
        ]
      }
    },
    {
      "type": "Feature",
      "properties": {
        "_source": "Ruta2-PinosdeOriente-SanFrancisco-Viaducto-TerminaldeTransporte-Arboleda",
        "_segmentIndex": 0,
        "_position": 2
      },
      "geometry": {
        "type": "Point",
        "coordinates": [
          -73.3333750640981,
          5.572363937101415
        ]
      }
    },
    {
      "type": "Feature",
      "properties": {
        "_source": "Ruta2-PinosdeOriente-SanFrancisco-Viaducto-TerminaldeTransporte-Arboleda",
        "_segmentIndex": 0,
        "_position": 3
      },
      "geometry": {
        "type": "Point",
        "coordinates": [
          -73.33307817952044,
          5.572702875894098
        ]
      }
    },
    {
      "type": "Feature",
      "properties": {
        "_source": "Ruta2-PinosdeOriente-SanFrancisco-Viaducto-TerminaldeTransporte-Arboleda",
        "_segmentIndex": 0,
        "_position": 4
      },
      "geometry": {
        "type": "Point",
        "coordinates": [
          -73.33276722793569,
          5.5730280351801715
        ]
      }
    },
    {
      "type": "Feature",
      "properties": {
        "_source": "Ruta2-PinosdeOriente-SanFrancisco-Viaducto-TerminaldeTransporte-Arboleda",
        "_segmentIndex": 0,
        "_position": 5
      },
      "geometry": {
        "type": "Point",
        "coordinates": [
          -73.33241579950688,
          5.5733068402872386
        ]
      }
    }
  ]
}