{
  "type": "FeatureCollection",
  "features": [
    {
      "type": "Feature",
      "properties": {
        "_source": "Ruta7-EstanciaelRoble-ViaMoniquira-JuandeCastellanos-Florida",
        "_segmentIndex": 0,
        "_position": 0
      },
      "geometry": {
        "type": "Point",
        "coordinates": [
          -73.355127,
          5.564044
        ]
      }
    },
    {
      "type": "Feature",
      "properties": {
        "_source": "Ruta7-EstanciaelRoble-ViaMoniquira-JuandeCastellanos-Florida",
        "_segmentIndex": 0,
        "_position": 1
      },
      "geometry": {
        "type": "Point",
        "coordinates": [
          -73.35515420770001,
          5.56438643184817
        ]
      }
    },
    {
      "type": "Feature",
      "properties": {
        "_source": "Ruta7-EstanciaelRoble-ViaMoniquira-JuandeCastellanos-Florida",
        "_segmentIndex": 0,
        "_position": 0
      },
      "geometry": {
        "type": "Point",
        "coordinates": [
          -73.355112,
          5.564529
        ]
      }
    },
    {
      "type": "Feature",
      "properties": {
        "_source": "Ruta7-EstanciaelRoble-ViaMoniquira-JuandeCastellanos-Florida",
        "_segmentIndex": 0,
        "_position": 1
      },
      "geometry": {
        "type": "Point",
        "coordinates": [
          -73.35499973760511,
          5.564126660820311
        ]
      }
    },
    {
      "type": "Feature",
      "properties": {
        "_source": "Ruta7-EstanciaelRoble-ViaMoniquira-JuandeCastellanos-Florida",
        "_segmentIndex": 0,
        "_position": 2
      },
      "geometry": {
        "type": "Point",
        "coordinates": [
          -73.35464063609321,
          5.5642525457002705
        ]
      }
    },
    {
      "type": "Feature",
      "properties": {
        "_source": "Ruta7-EstanciaelRoble-ViaMoniquira-JuandeCastellanos-Florida",
        "_segmentIndex": 0,
        "_position": 3
      },
      "geometry": {
        "type": "Point",
        "coordinates": [
          -73.35428749878064,
          5.564532169152301
        ]
      }
    },
    {
      "type": "Feature",
      "properties": {
        "_source": "Ruta7-EstanciaelRoble-ViaMoniquira-JuandeCastellanos-Florida",
        "_segmentIndex": 0,
        "_position": 4
      },
      "geometry": {
        "type": "Point",
        "coordinates": [
          -73.35392433106415,
          5.564799643681263
        ]
      }
    },
    {
      "type": "Feature",
      "properties": {
        "_source": "Ruta7-EstanciaelRoble-ViaMoniquira-JuandeCastellanos-Florida",
        "_segmentIndex": 0,
        "_position": 5
      },
      "geometry": {
        "type": "Point",
        "coordinates": [
          -73.35356576665019,
          5.565073176561828
        ]
      }
    },
    {
      "type": "Feature",
      "properties": {
        "_source": "Ruta7-EstanciaelRoble-ViaMoniquira-JuandeCastellanos-Florida",
        "_segmentIndex": 0,
        "_position": 6
      },
      "geometry": {
        "type": "Point",
        "coordinates": [
          -73.35320554454538,
          5.56534423543381
        ]
      }
    },
    {
      "type": "Feature",
      "properties": {
        "_source": "Ruta7-EstanciaelRoble-ViaMoniquira-JuandeCastellanos-Florida",
        "_segmentIndex": 0,
        "_position": 0
      },
      "geometry": {
        "type": "Point",
        "coordinates": [
          -73.353103,
          5.565406
        ]
      }
    },
    {
      "type": "Feature",
      "properties": {
        "_source": "Ruta7-EstanciaelRoble-ViaMoniquira-JuandeCastellanos-Florida",
        "_segmentIndex": 0,
        "_position": 1
      },
      "geometry": {
        "type": "Point",
        "coordinates": [
          -73.35269278370522,
          5.565217586753936
        ]
      }
    },
    {
      "type": "Feature",
      "properties": {
        "_source": "Ruta7-EstanciaelRoble-ViaMoniquira-JuandeCastellanos-Florida",
        "_segmentIndex": 0,
        "_position": 2
      },
      "geometry": {
        "type": "Point",
        "coordinates": [
          -73.35244193718547,
          5.565455045405557
        ]
      }
    },
    {
      "type": "Feature",
      "properties": {
        "_source": "Ruta7-EstanciaelRoble-ViaMoniquira-JuandeCastellanos-Florida",
        "_segmentIndex": 0,
        "_position": 3
      },
      "geometry": {
        "type": "Point",
        "coordinates": [
          -73.35232066651686,
          5.565887826528456
        ]
      }
    },
    {
      "type": "Feature",
      "properties": {
        "_source": "Ruta7-EstanciaelRoble-ViaMoniquira-JuandeCastellanos-Florida",
        "_segmentIndex": 0,
        "_position": 4
      },
      "geometry": {
        "type": "Point",
        "coordinates": [
          -73.35255756261448,
          5.565906668617148
        ]
      }
    },
    {
      "type": "Feature",
      "properties": {
        "_source": "Ruta7-EstanciaelRoble-ViaMoniquira-JuandeCastellanos-Florida",
        "_segmentIndex": 0,
        "_position": 5
      },
      "geometry": {
        "type": "Point",
        "coordinates": [
          -73.352906430286,
          5.565620958090514
        ]
      }
    },
    {
      "type": "Feature",
      "properties": {
        "_source": "Ruta7-EstanciaelRoble-ViaMoniquira-JuandeCastellanos-Florida",
        "_segmentIndex": 0,
        "_position": 6
      },
      "geometry": {
        "type": "Point",
        "coordinates": [
          -73.35326445725121,
          5.565347222917038
        ]
      }
    },
    {
      "type": "Feature",
      "properties": {
        "_source": "Ruta7-EstanciaelRoble-ViaMoniquira-JuandeCastellanos-Florida",
        "_segmentIndex": 0,
        "_position": 7
      },
      "geometry": {
        "type": "Point",
        "coordinates": [
          -73.35362311301094,
          5.565073781684282
        ]
      }
    },
    {
      "type": "Feature",
      "properties": {
        "_source": "Ruta7-EstanciaelRoble-ViaMoniquira-JuandeCastellanos-Florida",
        "_segmentIndex": 0,
        "_position": 8
      },
      "geometry": {
        "type": "Point",
        "coordinates": [
          -73.35398124628784,
          5.564799665028212
        ]
      }
    },
    {
      "type": "Feature",
      "properties": {
        "_source": "Ruta7-EstanciaelRoble-ViaMoniquira-JuandeCastellanos-Florida",
        "_segmentIndex": 0,
        "_position": 9
      },
      "geometry": {
        "type": "Point",
        "coordinates": [
          -73.35434202333323,
          5.564529063482085
        ]
      }
    },
    {
      "type": "Feature",
      "properties": {
        "_source": "Ruta7-EstanciaelRoble-ViaMoniquira-JuandeCastellanos-Florida",
        "_segmentIndex": 0,
        "_position": 10
      },
      "geometry": {
        "type": "Point",
        "coordinates": [
          -73.35469224664833,
          5.564245775879115
        ]
      }
    },
    {
      "type": "Feature",
      "properties": {
        "_source": "Ruta7-EstanciaelRoble-ViaMoniquira-JuandeCastellanos-Florida",
        "_segmentIndex": 0,
        "_position": 11
      },
      "geometry": {
        "type": "Point",
        "coordinates": [
          -73.3549839568848,
          5.564237730935585
        ]
      }
    },
    {
      "type": "Feature",
      "properties": {
        "_source": "Ruta7-EstanciaelRoble-ViaMoniquira-JuandeCastellanos-Florida",
        "_segmentIndex": 0,
        "_position": 0
      },
      "geometry": {
        "type": "Point",
        "coordinates": [
          -73.355062,
          5.564542
        ]
      }
    },
    {
      "type": "Feature",
      "properties": {
        "_source": "Ruta7-EstanciaelRoble-ViaMoniquira-JuandeCastellanos-Florida",
        "_segmentIndex": 0,
        "_position": 1
      },
      "geometry": {
        "type": "Point",
        "coordinates": [
          -73.3552529566313,
          5.564244939091036
        ]
      }
    },
    {
      "type": "Feature",
      "properties": {
        "_source": "Ruta7-EstanciaelRoble-ViaMoniquira-JuandeCastellanos-Florida",
        "_segmentIndex": 0,
        "_position": 2
      },
      "geometry": {
        "type": "Point",
        "coordinates": [
          -73.35537588933661,
          5.563812248970217
        ]
      }
    },
    {
      "type": "Feature",
      "properties": {
        "_source": "Ruta7-EstanciaelRoble-ViaMoniquira-JuandeCastellanos-Florida",
        "_segmentIndex": 0,
        "_position": 3
      },
      "geometry": {
        "type": "Point",
        "coordinates": [
          -73.35548956910135,
          5.563377089299731
        ]
      }
    },
    {
      "type": "Feature",
      "properties": {
        "_source": "Ruta7-EstanciaelRoble-ViaMoniquira-JuandeCastellanos-Florida",
        "_segmentIndex": 0,
        "_position": 4
      },
      "geometry": {
        "type": "Point",
        "coordinates": [
          -73.3555280688993,
          5.5629299430884265
        ]
      }
    },
    {
      "type": "Feature",
      "properties": {
        "_source": "Ruta7-EstanciaelRoble-ViaMoniquira-JuandeCastellanos-Florida",
        "_segmentIndex": 0,
        "_position": 5
      },
      "geometry": {
        "type": "Point",
        "coordinates": [
          -73.35555576346482,
          5.562481128541943
        ]
      }
    },
    {
      "type": "Feature",
      "properties": {
        "_source": "Ruta7-EstanciaelRoble-ViaMoniquira-JuandeCastellanos-Florida",
        "_segmentIndex": 0,
        "_position": 6
      },
      "geometry": {
        "type": "Point",
        "coordinates": [
          -73.35558345798809,
          5.562032313994169
        ]
      }
    },
    {
      "type": "Feature",
      "properties": {
        "_source": "Ruta7-EstanciaelRoble-ViaMoniquira-JuandeCastellanos-Florida",
        "_segmentIndex": 0,
        "_position": 7
      },
      "geometry": {
        "type": "Point",
        "coordinates": [
          -73.35561185646363,
          5.561583545430108
        ]
      }
    },
    {
      "type": "Feature",
      "properties": {
        "_source": "Ruta7-EstanciaelRoble-ViaMoniquira-JuandeCastellanos-Florida",
        "_segmentIndex": 0,
        "_position": 0
      },
      "geometry": {
        "type": "Point",
        "coordinates": [
          -73.35563,
          5.561325
        ]
      }
    },
    {
      "type": "Feature",
      "properties": {
        "_source": "Ruta7-EstanciaelRoble-ViaMoniquira-JuandeCastellanos-Florida",
        "_segmentIndex": 0,
        "_position": 1
      },
      "geometry": {
        "type": "Point",
        "coordinates": [
          -73.35580119283652,
          5.560923714535994
        ]
      }
    },
    {
      "type": "Feature",
      "properties": {
        "_source": "Ruta7-EstanciaelRoble-ViaMoniquira-JuandeCastellanos-Florida",
        "_segmentIndex": 0,
        "_position": 2
      },
      "geometry": {
        "type": "Point",
        "coordinates": [
          -73.35592511066298,
          5.560491580114868
        ]
      }
    },
    {
      "type": "Feature",
      "properties": {
        "_source": "Ruta7-EstanciaelRoble-ViaMoniquira-JuandeCastellanos-Florida",
        "_segmentIndex": 0,
        "_position": 3
      },
      "geometry": {
        "type": "Point",
        "coordinates": [
          -73.3560817697046,
          5.560069854528487
        ]
      }
    },
    {
      "type": "Feature",
      "properties": {
        "_source": "Ruta7-EstanciaelRoble-ViaMoniquira-JuandeCastellanos-Florida",
        "_segmentIndex": 0,
        "_position": 4
      },
      "geometry": {
        "type": "Point",
        "coordinates": [
          -73.3560859565942,
          5.5596309142334155
        ]
      }
    },
    {
      "type": "Feature",
      "properties": {
        "_source": "Ruta7-EstanciaelRoble-ViaMoniquira-JuandeCastellanos-Florida",
        "_segmentIndex": 0,
        "_position": 0
      },
      "geometry": {
        "type": "Point",
        "coordinates": [
          -73.356127,
          5.55949
        ]
      }
    },
    {
      "type": "Feature",
      "properties": {
        "_source": "Ruta7-EstanciaelRoble-ViaMoniquira-JuandeCastellanos-Florida",
        "_segmentIndex": 0,
        "_position": 1
      },
      "geometry": {
        "type": "Point",
        "coordinates": [
          -73.35657144041895,
          5.559570752267332
        ]
      }
    },
    {
      "type": "Feature",
      "properties": {
        "_source": "Ruta7-EstanciaelRoble-ViaMoniquira-JuandeCastellanos-Florida",
        "_segmentIndex": 0,
        "_position": 2
      },
      "geometry": {
        "type": "Point",
        "coordinates": [
          -73.35701397186311,
          5.559660446749344
        ]
      }
    },
    {
      "type": "Feature",
      "properties": {
        "_source": "Ruta7-EstanciaelRoble-ViaMoniquira-JuandeCastellanos-Florida",
        "_segmentIndex": 0,
        "_position": 3
      },
      "geometry": {
        "type": "Point",
        "coordinates": [
          -73.35735610459098,
          5.559931434291705
        ]
      }
    },
    {
      "type": "Feature",
      "properties": {
        "_source": "Ruta7-EstanciaelRoble-ViaMoniquira-JuandeCastellanos-Florida",
        "_segmentIndex": 0,
        "_position": 4
      },
      "geometry": {
        "type": "Point",
        "coordinates": [
          -73.35766396919045,
          5.560149835273869
        ]
      }
    },
    {
      "type": "Feature",
      "properties": {
        "_source": "Ruta7-EstanciaelRoble-ViaMoniquira-JuandeCastellanos-Florida",
        "_segmentIndex": 0,
        "_position": 5
      },
      "geometry": {
        "type": "Point",
        "coordinates": [
          -73.35778053898402,
          5.5597298887913835
        ]
      }
    },
    {
      "type": "Feature",
      "properties": {
        "_source": "Ruta7-EstanciaelRoble-ViaMoniquira-JuandeCastellanos-Florida",
        "_segmentIndex": 0,
        "_position": 6
      },
      "geometry": {
        "type": "Point",
        "coordinates": [
          -73.35747305211211,
          5.559401696723454
        ]
      }
    },
    {
      "type": "Feature",
      "properties": {
        "_source": "Ruta7-EstanciaelRoble-ViaMoniquira-JuandeCastellanos-Florida",
        "_segmentIndex": 0,
        "_position": 7
      },
      "geometry": {
        "type": "Point",
        "coordinates": [
          -73.35745953626129,
          5.559023129399615
        ]
      }
    },
    {
      "type": "Feature",
      "properties": {
        "_source": "Ruta7-EstanciaelRoble-ViaMoniquira-JuandeCastellanos-Florida",
        "_segmentIndex": 0,
        "_position": 8
      },
      "geometry": {
        "type": "Point",
        "coordinates": [
          -73.35716864993113,
          5.558744973670054
        ]
      }
    },
    {
      "type": "Feature",
      "properties": {
        "_source": "Ruta7-EstanciaelRoble-ViaMoniquira-JuandeCastellanos-Florida",
        "_segmentIndex": 0,
        "_position": 9
      },
      "geometry": {
        "type": "Point",
        "coordinates": [
          -73.3567384468776,
          5.558630096039855
        ]
      }
    },
    {
      "type": "Feature",
      "properties": {
        "_source": "Ruta7-EstanciaelRoble-ViaMoniquira-JuandeCastellanos-Florida",
        "_segmentIndex": 0,
        "_position": 10
      },
      "geometry": {
        "type": "Point",
        "coordinates": [
          -73.35644676394415,
          5.558288008748073
        ]
      }
    },
    {
      "type": "Feature",
      "properties": {
        "_source": "Ruta7-EstanciaelRoble-ViaMoniquira-JuandeCastellanos-Florida",
        "_segmentIndex": 0,
        "_position": 11
      },
      "geometry": {
        "type": "Point",
        "coordinates": [
          -73.3561748082309,
          5.5579291120088605
        ]
      }
    },
    {
      "type": "Feature",
      "properties": {
        "_source": "Ruta7-EstanciaelRoble-ViaMoniquira-JuandeCastellanos-Florida",
        "_segmentIndex": 0,
        "_position": 12
      },
      "geometry": {
        "type": "Point",
        "coordinates": [
          -73.35579062480949,
          5.558070243778914
        ]
      }
    },
    {
      "type": "Feature",
      "properties": {
        "_source": "Ruta7-EstanciaelRoble-ViaMoniquira-JuandeCastellanos-Florida",
        "_segmentIndex": 0,
        "_position": 0
      },
      "geometry": {
        "type": "Point",
        "coordinates": [
          -73.355615,
          5.558163
        ]
      }
    },
    {
      "type": "Feature",
      "properties": {
        "_source": "Ruta7-EstanciaelRoble-ViaMoniquira-JuandeCastellanos-Florida",
        "_segmentIndex": 0,
        "_position": 1
      },
      "geometry": {
        "type": "Point",
        "coordinates": [
          -73.3554898702421,
          5.558545187765772
        ]
      }
    },
    {
      "type": "Feature",
      "properties": {
        "_source": "Ruta7-EstanciaelRoble-ViaMoniquira-JuandeCastellanos-Florida",
        "_segmentIndex": 0,
        "_position": 2
      },
      "geometry": {
        "type": "Point",
        "coordinates": [
          -73.3553307452236,
          5.55896570787046
        ]
      }
    },
    {
      "type": "Feature",
      "properties": {
        "_source": "Ruta7-EstanciaelRoble-ViaMoniquira-JuandeCastellanos-Florida",
        "_segmentIndex": 0,
        "_position": 3
      },
      "geometry": {
        "type": "Point",
        "coordinates": [
          -73.35518948342569,
          5.559391287293897
        ]
      }
    },
    {
      "type": "Feature",
      "properties": {
        "_source": "Ruta7-EstanciaelRoble-ViaMoniquira-JuandeCastellanos-Florida",
        "_segmentIndex": 0,
        "_position": 0
      },
      "geometry": {
        "type": "Point",
        "coordinates": [
          -73.355182,
          5.559521
        ]
      }
    },
    {
      "type": "Feature",
      "properties": {
        "_source": "Ruta7-EstanciaelRoble-ViaMoniquira-JuandeCastellanos-Florida",
        "_segmentIndex": 0,
        "_position": 1
      },
      "geometry": {
        "type": "Point",
        "coordinates": [
          -73.35492890856972,
          5.559875058173065
        ]
      }
    },
    {
      "type": "Feature",
      "properties": {
        "_source": "Ruta7-EstanciaelRoble-ViaMoniquira-JuandeCastellanos-Florida",
        "_segmentIndex": 0,
        "_position": 2
      },
      "geometry": {
        "type": "Point",
        "coordinates": [
          -73.35476126844708,
          5.560291267412097
        ]
      }
    },
    {
      "type": "Feature",
      "properties": {
        "_source": "Ruta7-EstanciaelRoble-ViaMoniquira-JuandeCastellanos-Florida",
        "_segmentIndex": 0,
        "_position": 3
      },
      "geometry": {
        "type": "Point",
        "coordinates": [
          -73.35462284955932,
          5.560718719082092
        ]
      }
    },
    {
      "type": "Feature",
      "properties": {
        "_source": "Ruta7-EstanciaelRoble-ViaMoniquira-JuandeCastellanos-Florida",
        "_segmentIndex": 0,
        "_position": 4
      },
      "geometry": {
        "type": "Point",
        "coordinates": [
          -73.35447990699299,
          5.561145279056702
        ]
      }
    },
    {
      "type": "Feature",
      "properties": {
        "_source": "Ruta7-EstanciaelRoble-ViaMoniquira-JuandeCastellanos-Florida",
        "_segmentIndex": 0,
        "_position": 5
      },
      "geometry": {
        "type": "Point",
        "coordinates": [
          -73.3544701336024,
          5.561262344642015
        ]
      }
    },
    {
      "type": "Feature",
      "properties": {
        "_source": "Ruta7-EstanciaelRoble-ViaMoniquira-JuandeCastellanos-Florida",
        "_segmentIndex": 0,
        "_position": 6
      },
      "geometry": {
        "type": "Point",
        "coordinates": [
          -73.35461533796737,
          5.560836557955359
        ]
      }
    },
    {
      "type": "Feature",
      "properties": {
        "_source": "Ruta7-EstanciaelRoble-ViaMoniquira-JuandeCastellanos-Florida",
        "_segmentIndex": 0,
        "_position": 7
      },
      "geometry": {
        "type": "Point",
        "coordinates": [
          -73.35475319646856,
          5.5604083685297825
        ]
      }
    },
    {
      "type": "Feature",
      "properties": {
        "_source": "Ruta7-EstanciaelRoble-ViaMoniquira-JuandeCastellanos-Florida",
        "_segmentIndex": 0,
        "_position": 8
      },
      "geometry": {
        "type": "Point",
        "coordinates": [
          -73.35492352716338,
          5.55999767082987
        ]
      }
    },
    {
      "type": "Feature",
      "properties": {
        "_source": "Ruta7-EstanciaelRoble-ViaMoniquira-JuandeCastellanos-Florida",
        "_segmentIndex": 0,
        "_position": 9
      },
      "geometry": {
        "type": "Point",
        "coordinates": [
          -73.35512450096786,
          5.55960244913008
        ]
      }
    },
    {
      "type": "Feature",
      "properties": {
        "_source": "Ruta7-EstanciaelRoble-ViaMoniquira-JuandeCastellanos-Florida",
        "_segmentIndex": 0,
        "_position": 0
      },
      "geometry": {
        "type": "Point",
        "coordinates": [
          -73.355186,
          5.559562
        ]
      }
    },
    {
      "type": "Feature",
      "properties": {
        "_source": "Ruta7-EstanciaelRoble-ViaMoniquira-JuandeCastellanos-Florida",
        "_segmentIndex": 0,
        "_position": 1
      },
      "geometry": {
        "type": "Point",
        "coordinates": [
          -73.35531653096889,
          5.559156337342713
        ]
      }
    },
    {
      "type": "Feature",
      "properties": {
        "_source": "Ruta7-EstanciaelRoble-ViaMoniquira-JuandeCastellanos-Florida",
        "_segmentIndex": 0,
        "_position": 2
      },
      "geometry": {
        "type": "Point",
        "coordinates": [
          -73.35548507612657,
          5.558739288184709
        ]
      }
    },
    {
      "type": "Feature",
      "properties": {
        "_source": "Ruta7-EstanciaelRoble-ViaMoniquira-JuandeCastellanos-Florida",
        "_segmentIndex": 0,
        "_position": 3
      },
      "geometry": {
        "type": "Point",
        "coordinates": [
          -73.3555747871416,
          5.558301722337547
        ]
      }
    },
    {
      "type": "Feature",
      "properties": {
        "_source": "Ruta7-EstanciaelRoble-ViaMoniquira-JuandeCastellanos-Florida",
        "_segmentIndex": 0,
        "_position": 4
      },
      "geometry": {
        "type": "Point",
        "coordinates": [
          -73.35556199733776,
          5.5578524614172595
        ]
      }
    },
    {
      "type": "Feature",
      "properties": {
        "_source": "Ruta7-EstanciaelRoble-ViaMoniquira-JuandeCastellanos-Florida",
        "_segmentIndex": 0,
        "_position": 5
      },
      "geometry": {
        "type": "Point",
        "coordinates": [
          -73.35554836534816,
          5.55740318831857
        ]
      }
    },
    {
      "type": "Feature",
      "properties": {
        "_source": "Ruta7-EstanciaelRoble-ViaMoniquira-JuandeCastellanos-Florida",
        "_segmentIndex": 0,
        "_position": 6
      },
      "geometry": {
        "type": "Point",
        "coordinates": [
          -73.3556404201887,
          5.556971513015902
        ]
      }
    },
    {
      "type": "Feature",
      "properties": {
        "_source": "Ruta7-EstanciaelRoble-ViaMoniquira-JuandeCastellanos-Florida",
        "_segmentIndex": 0,
        "_position": 7
      },
      "geometry": {
        "type": "Point",
        "coordinates": [
          -73.35597688298044,
          5.556679857207789
        ]
      }
    },
    {
      "type": "Feature",
      "properties": {
        "_source": "Ruta7-EstanciaelRoble-ViaMoniquira-JuandeCastellanos-Florida",
        "_segmentIndex": 0,
        "_position": 0
      },
      "geometry": {
        "type": "Point",
        "coordinates": [
          -73.359321,
          5.547778
        ]
      }
    },
    {
      "type": "Feature",
      "properties": {
        "_source": "Ruta7-EstanciaelRoble-ViaMoniquira-JuandeCastellanos-Florida",
        "_segmentIndex": 0,
        "_position": 1
      },
      "geometry": {
        "type": "Point",
        "coordinates": [
          -73.35952680501188,
          5.548178288096573
        ]
      }
    },
    {
      "type": "Feature",
      "properties": {
        "_source": "Ruta7-EstanciaelRoble-ViaMoniquira-JuandeCastellanos-Florida",
        "_segmentIndex": 0,
        "_position": 2
      },
      "geometry": {
        "type": "Point",
        "coordinates": [
          -73.35973453613887,
          5.548577571936718
        ]
      }
    },
    {
      "type": "Feature",
      "properties": {
        "_source": "Ruta7-EstanciaelRoble-ViaMoniquira-JuandeCastellanos-Florida",
        "_segmentIndex": 0,
        "_position": 3
      },
      "geometry": {
        "type": "Point",
        "coordinates": [
          -73.35994487916005,
          5.548975518633829
        ]
      }
    },
    {
      "type": "Feature",
      "properties": {
        "_source": "Ruta7-EstanciaelRoble-ViaMoniquira-JuandeCastellanos-Florida",
        "_segmentIndex": 0,
        "_position": 4
      },
      "geometry": {
        "type": "Point",
        "coordinates": [
          -73.3601522842901,
          5.549374981880862
        ]
      }
    },
    {
      "type": "Feature",
      "properties": {
        "_source": "Ruta7-EstanciaelRoble-ViaMoniquira-JuandeCastellanos-Florida",
        "_segmentIndex": 0,
        "_position": 5
      },
      "geometry": {
        "type": "Point",
        "coordinates": [
          -73.36035189458218,
          5.549778370815072
        ]
      }
    },
    {
      "type": "Feature",
      "properties": {
        "_source": "Ruta7-EstanciaelRoble-ViaMoniquira-JuandeCastellanos-Florida",
        "_segmentIndex": 0,
        "_position": 6
      },
      "geometry": {
        "type": "Point",
        "coordinates": [
          -73.36054457232109,
          5.550185078024804
        ]
      }
    },
    {
      "type": "Feature",
      "properties": {
        "_source": "Ruta7-EstanciaelRoble-ViaMoniquira-JuandeCastellanos-Florida",
        "_segmentIndex": 0,
        "_position": 7
      },
      "geometry": {
        "type": "Point",
        "coordinates": [
          -73.36074294010832,
          5.5505890643526685
        ]
      }
    },
    {
      "type": "Feature",
      "properties": {
        "_source": "Ruta7-EstanciaelRoble-ViaMoniquira-JuandeCastellanos-Florida",
        "_segmentIndex": 0,
        "_position": 8
      },
      "geometry": {
        "type": "Point",
        "coordinates": [
          -73.36094160061542,
          5.550992917281949
        ]
      }
    },
    {
      "type": "Feature",
      "properties": {
        "_source": "Ruta7-EstanciaelRoble-ViaMoniquira-JuandeCastellanos-Florida",
        "_segmentIndex": 0,
        "_position": 9
      },
      "geometry": {
        "type": "Point",
        "coordinates": [
          -73.36113984640814,
          5.551396972544056
        ]
      }
    },
    {
      "type": "Feature",
      "properties": {
        "_source": "Ruta7-EstanciaelRoble-ViaMoniquira-JuandeCastellanos-Florida",
        "_segmentIndex": 0,
        "_position": 10
      },
      "geometry": {
        "type": "Point",
        "coordinates": [
          -73.36133806233966,
          5.5518010423738415
        ]
      }
    },
    {
      "type": "Feature",
      "properties": {
        "_source": "Ruta7-EstanciaelRoble-ViaMoniquira-JuandeCastellanos-Florida",
        "_segmentIndex": 0,
        "_position": 11
      },
      "geometry": {
        "type": "Point",
        "coordinates": [
          -73.36153603827859,
          5.552205228819315
        ]
      }
    },
    {
      "type": "Feature",
      "properties": {
        "_source": "Ruta7-EstanciaelRoble-ViaMoniquira-JuandeCastellanos-Florida",
        "_segmentIndex": 0,
        "_position": 12
      },
      "geometry": {
        "type": "Point",
        "coordinates": [
          -73.36173401448902,
          5.552609415198912
        ]
      }
    },
    {
      "type": "Feature",
      "properties": {
        "_source": "Ruta7-EstanciaelRoble-ViaMoniquira-JuandeCastellanos-Florida",
        "_segmentIndex": 0,
        "_position": 13
      },
      "geometry": {
        "type": "Point",
        "coordinates": [
          -73.36192820279574,
          5.553015372183177
        ]
      }
    },
    {
      "type": "Feature",
      "properties": {
        "_source": "Ruta7-EstanciaelRoble-ViaMoniquira-JuandeCastellanos-Florida",
        "_segmentIndex": 0,
        "_position": 14
      },
      "geometry": {
        "type": "Point",
        "coordinates": [
          -73.3621157654318,
          5.55342444182718
        ]
      }
    },
    {
      "type": "Feature",
      "properties": {
        "_source": "Ruta7-EstanciaelRoble-ViaMoniquira-JuandeCastellanos-Florida",
        "_segmentIndex": 0,
        "_position": 15
      },
      "geometry": {
        "type": "Point",
        "coordinates": [
          -73.36230668328926,
          5.553831978369207
        ]
      }
    },
    {
      "type": "Feature",
      "properties": {
        "_source": "Ruta7-EstanciaelRoble-ViaMoniquira-JuandeCastellanos-Florida",
        "_segmentIndex": 0,
        "_position": 16
      },
      "geometry": {
        "type": "Point",
        "coordinates": [
          -73.36249760141082,
          5.554239514849953
        ]
      }
    },
    {
      "type": "Feature",
      "properties": {
        "_source": "Ruta7-EstanciaelRoble-ViaMoniquira-JuandeCastellanos-Florida",
        "_segmentIndex": 0,
        "_position": 17
      },
      "geometry": {
        "type": "Point",
        "coordinates": [
          -73.3626860037383,
          5.554648202965304
        ]
      }
    },
    {
      "type": "Feature",
      "properties": {
        "_source": "Ruta7-EstanciaelRoble-ViaMoniquira-JuandeCastellanos-Florida",
        "_segmentIndex": 0,
        "_position": 18
      },
      "geometry": {
        "type": "Point",
        "coordinates": [
          -73.36287261497058,
          5.55505771099337
        ]
      }
    },
    {
      "type": "Feature",
      "properties": {
        "_source": "Ruta7-EstanciaelRoble-ViaMoniquira-JuandeCastellanos-Florida",
        "_segmentIndex": 0,
        "_position": 19
      },
      "geometry": {
        "type": "Point",
        "coordinates": [
          -73.3630586042375,
          5.555467497759098
        ]
      }
    },
    {
      "type": "Feature",
      "properties": {
        "_source": "Ruta7-EstanciaelRoble-ViaMoniquira-JuandeCastellanos-Florida",
        "_segmentIndex": 0,
        "_position": 20
      },
      "geometry": {
        "type": "Point",
        "coordinates": [
          -73.36314830745637,
          5.555895585903176
        ]
      }
    },
    {
      "type": "Feature",
      "properties": {
        "_source": "Ruta7-EstanciaelRoble-ViaMoniquira-JuandeCastellanos-Florida",
        "_segmentIndex": 0,
        "_position": 21
      },
      "geometry": {
        "type": "Point",
        "coordinates": [
          -73.36290873667481,
          5.556253697494703
        ]
      }
    },
    {
      "type": "Feature",
      "properties": {
        "_source": "Ruta7-EstanciaelRoble-ViaMoniquira-JuandeCastellanos-Florida",
        "_segmentIndex": 0,
        "_position": 22
      },
      "geometry": {
        "type": "Point",
        "coordinates": [
          -73.36247278428691,
          5.556309045412638
        ]
      }
    },
    {
      "type": "Feature",
      "properties": {
        "_source": "Ruta7-EstanciaelRoble-ViaMoniquira-JuandeCastellanos-Florida",
        "_segmentIndex": 0,
        "_position": 23
      },
      "geometry": {
        "type": "Point",
        "coordinates": [
          -73.36212929394506,
          5.55602991245373
        ]
      }
    },
    {
      "type": "Feature",
      "properties": {
        "_source": "Ruta7-EstanciaelRoble-ViaMoniquira-JuandeCastellanos-Florida",
        "_segmentIndex": 0,
        "_position": 24
      },
      "geometry": {
        "type": "Point",
        "coordinates": [
          -73.36190075761431,
          5.555642726717862
        ]
      }
    },
    {
      "type": "Feature",
      "properties": {
        "_source": "Ruta7-EstanciaelRoble-ViaMoniquira-JuandeCastellanos-Florida",
        "_segmentIndex": 0,
        "_position": 25
      },
      "geometry": {
        "type": "Point",
        "coordinates": [
          -73.36159278481276,
          5.555324041900103
        ]
      }
    },
    {
      "type": "Feature",
      "properties": {
        "_source": "Ruta7-EstanciaelRoble-ViaMoniquira-JuandeCastellanos-Florida",
        "_segmentIndex": 0,
        "_position": 26
      },
      "geometry": {
        "type": "Point",
        "coordinates": [
          -73.36118293662047,
          5.555146298630502
        ]
      }
    },
    {
      "type": "Feature",
      "properties": {
        "_source": "Ruta7-EstanciaelRoble-ViaMoniquira-JuandeCastellanos-Florida",
        "_segmentIndex": 0,
        "_position": 27
      },
      "geometry": {
        "type": "Point",
        "coordinates": [
          -73.3607366523858,
          5.555077568273989
        ]
      }
    },
    {
      "type": "Feature",
      "properties": {
        "_source": "Ruta7-EstanciaelRoble-ViaMoniquira-JuandeCastellanos-Florida",
        "_segmentIndex": 0,
        "_position": 28
      },
      "geometry": {
        "type": "Point",
        "coordinates": [
          -73.3602932015861,
          5.554991777553791
        ]
      }
    },
    {
      "type": "Feature",
      "properties": {
        "_source": "Ruta7-EstanciaelRoble-ViaMoniquira-JuandeCastellanos-Florida",
        "_segmentIndex": 0,
        "_position": 29
      },
      "geometry": {
        "type": "Point",
        "coordinates": [
          -73.3598499600916,
          5.554905013200931
        ]
      }
    },
    {
      "type": "Feature",
      "properties": {
        "_source": "Ruta7-EstanciaelRoble-ViaMoniquira-JuandeCastellanos-Florida",
        "_segmentIndex": 0,
        "_position": 30
      },
      "geometry": {
        "type": "Point",
        "coordinates": [
          -73.35940329819788,
          5.554840345453219
        ]
      }
    },
    {
      "type": "Feature",
      "properties": {
        "_source": "Ruta7-EstanciaelRoble-ViaMoniquira-JuandeCastellanos-Florida",
        "_segmentIndex": 0,
        "_position": 31
      },
      "geometry": {
        "type": "Point",
        "coordinates": [
          -73.35895298592715,
          5.554836780315214
        ]
      }
    },
    {
      "type": "Feature",
      "properties": {
        "_source": "Ruta7-EstanciaelRoble-ViaMoniquira-JuandeCastellanos-Florida",
        "_segmentIndex": 0,
        "_position": 32
      },
      "geometry": {
        "type": "Point",
        "coordinates": [
          -73.35851829776396,
          5.554940699763776
        ]
      }
    },
    {
      "type": "Feature",
      "properties": {
        "_source": "Ruta7-EstanciaelRoble-ViaMoniquira-JuandeCastellanos-Florida",
        "_segmentIndex": 0,
        "_position": 33
      },
      "geometry": {
        "type": "Point",
        "coordinates": [
          -73.35826412180037,
          5.5552950170893185
        ]
      }
    },
    {
      "type": "Feature",
      "properties": {
        "_source": "Ruta7-EstanciaelRoble-ViaMoniquira-JuandeCastellanos-Florida",
        "_segmentIndex": 0,
        "_position": 34
      },
      "geometry": {
        "type": "Point",
        "coordinates": [
          -73.358218,
          5.555740430533822
        ]
      }
    },
    {
      "type": "Feature",
      "properties": {
        "_source": "Ruta7-EstanciaelRoble-ViaMoniquira-JuandeCastellanos-Florida",
        "_segmentIndex": 0,
        "_position": 35
      },
      "geometry": {
        "type": "Point",
        "coordinates": [
          -73.358218,
          5.556190090715684
        ]
      }
    },
    {
      "type": "Feature",
      "properties": {
        "_source": "Ruta7-EstanciaelRoble-ViaMoniquira-JuandeCastellanos-Florida",
        "_segmentIndex": 0,
        "_position": 36
      },
      "geometry": {
        "type": "Point",
        "coordinates": [
          -73.35804298453745,
          5.556578719205859
        ]
      }
    },
    {
      "type": "Feature",
      "properties": {
        "_source": "Ruta7-EstanciaelRoble-ViaMoniquira-JuandeCastellanos-Florida",
        "_segmentIndex": 0,
        "_position": 37
      },
      "geometry": {
        "type": "Point",
        "coordinates": [
          -73.3576086904456,
          5.556609136648675
        ]
      }
    },
    {
      "type": "Feature",
      "properties": {
        "_source": "Ruta7-EstanciaelRoble-ViaMoniquira-JuandeCastellanos-Florida",
        "_segmentIndex": 0,
        "_position": 38
      },
      "geometry": {
        "type": "Point",
        "coordinates": [
          -73.35718171629627,
          5.556465753692002
        ]
      }
    },
    {
      "type": "Feature",
      "properties": {
        "_source": "Ruta7-EstanciaelRoble-ViaMoniquira-JuandeCastellanos-Florida",
        "_segmentIndex": 0,
        "_position": 39
      },
      "geometry": {
        "type": "Point",
        "coordinates": [
          -73.35673592339964,
          5.556433789719437
        ]
      }
    },
    {
      "type": "Feature",
      "properties": {
        "_source": "Ruta7-EstanciaelRoble-ViaMoniquira-JuandeCastellanos-Florida",
        "_segmentIndex": 0,
        "_position": 40
      },
      "geometry": {
        "type": "Point",
        "coordinates": [
          -73.35629636370817,
          5.556530533377054
        ]
      }
    },
    {
      "type": "Feature",
      "properties": {
        "_source": "Ruta7-EstanciaelRoble-ViaMoniquira-JuandeCastellanos-Florida",
        "_segmentIndex": 0,
        "_position": 0
      },
      "geometry": {
        "type": "Point",
        "coordinates": [
          -73.360371,
          5.549817
        ]
      }
    },
    {
      "type": "Feature",
      "properties": {
        "_source": "Ruta7-EstanciaelRoble-ViaMoniquira-JuandeCastellanos-Florida",
        "_segmentIndex": 0,
        "_position": 1
      },
      "geometry": {
        "type": "Point",
        "coordinates": [
          -73.36017557060029,
          5.549411588085084
        ]
      }
    },
    {
      "type": "Feature",
      "properties": {
        "_source": "Ruta7-EstanciaelRoble-ViaMoniquira-JuandeCastellanos-Florida",
        "_segmentIndex": 0,
        "_position": 2
      },
      "geometry": {
        "type": "Point",
        "coordinates": [
          -73.35997002359763,
          5.5490112902768285
        ]
      }
    },
    {
      "type": "Feature",
      "properties": {
        "_source": "Ruta7-EstanciaelRoble-ViaMoniquira-JuandeCastellanos-Florida",
        "_segmentIndex": 0,
        "_position": 3
      },
      "geometry": {
        "type": "Point",
        "coordinates": [
          -73.35975781115293,
          5.5486143337189935
        ]
      }
    },
    {
      "type": "Feature",
      "properties": {
        "_source": "Ruta7-EstanciaelRoble-ViaMoniquira-JuandeCastellanos-Florida",
        "_segmentIndex": 0,
        "_position": 4
      },
      "geometry": {
        "type": "Point",
        "coordinates": [
          -73.35954943117603,
          5.548215362554484
        ]
      }
    },
    {
      "type": "Feature",
      "properties": {
        "_source": "Ruta7-EstanciaelRoble-ViaMoniquira-JuandeCastellanos-Florida",
        "_segmentIndex": 0,
        "_position": 5
      },
      "geometry": {
        "type": "Point",
        "coordinates": [
          -73.35934105148104,
          5.547816391317045
        ]
      }
    },
    {
      "type": "Feature",
      "properties": {
        "_source": "Ruta7-EstanciaelRoble-ViaMoniquira-JuandeCastellanos-Florida",
        "_segmentIndex": 0,
        "_position": 0
      },
      "geometry": {
        "type": "Point",
        "coordinates": [
          -73.359041,
          5.542841
        ]
      }
    },
    {
      "type": "Feature",
      "properties": {
        "_source": "Ruta7-EstanciaelRoble-ViaMoniquira-JuandeCastellanos-Florida",
        "_segmentIndex": 0,
        "_position": 1
      },
      "geometry": {
        "type": "Point",
        "coordinates": [
          -73.35921936446623,
          5.543254131008383
        ]
      }
    },
    {
      "type": "Feature",
      "properties": {
        "_source": "Ruta7-EstanciaelRoble-ViaMoniquira-JuandeCastellanos-Florida",
        "_segmentIndex": 0,
        "_position": 2
      },
      "geometry": {
        "type": "Point",
        "coordinates": [
          -73.35939772918209,
          5.543667261963379
        ]
      }
    },
    {
      "type": "Feature",
      "properties": {
        "_source": "Ruta7-EstanciaelRoble-ViaMoniquira-JuandeCastellanos-Florida",
        "_segmentIndex": 0,
        "_position": 3
      },
      "geometry": {
        "type": "Point",
        "coordinates": [
          -73.35956963961561,
          5.544083090055911
        ]
      }
    },
    {
      "type": "Feature",
      "properties": {
        "_source": "Ruta7-EstanciaelRoble-ViaMoniquira-JuandeCastellanos-Florida",
        "_segmentIndex": 0,
        "_position": 4
      },
      "geometry": {
        "type": "Point",
        "coordinates": [
          -73.35973963568051,
          5.544499698367347
        ]
      }
    },
    {
      "type": "Feature",
      "properties": {
        "_source": "Ruta7-EstanciaelRoble-ViaMoniquira-JuandeCastellanos-Florida",
        "_segmentIndex": 0,
        "_position": 5
      },
      "geometry": {
        "type": "Point",
        "coordinates": [
          -73.35990783943802,
          5.544917030262819
        ]
      }
    },
    {
      "type": "Feature",
      "properties": {
        "_source": "Ruta7-EstanciaelRoble-ViaMoniquira-JuandeCastellanos-Florida",
        "_segmentIndex": 0,
        "_position": 6
      },
      "geometry": {
        "type": "Point",
        "coordinates": [
          -73.36007342929877,
          5.545335288047608
        ]
      }
    },
    {
      "type": "Feature",
      "properties": {
        "_source": "Ruta7-EstanciaelRoble-ViaMoniquira-JuandeCastellanos-Florida",
        "_segmentIndex": 0,
        "_position": 7
      },
      "geometry": {
        "type": "Point",
        "coordinates": [
          -73.36012807830095,
          5.545772161442718
        ]
      }
    },
    {
      "type": "Feature",
      "properties": {
        "_source": "Ruta7-EstanciaelRoble-ViaMoniquira-JuandeCastellanos-Florida",
        "_segmentIndex": 0,
        "_position": 8
      },
      "geometry": {
        "type": "Point",
        "coordinates": [
          -73.35991945757036,
          5.5461646156032565
        ]
      }
    },
    {
      "type": "Feature",
      "properties": {
        "_source": "Ruta7-EstanciaelRoble-ViaMoniquira-JuandeCastellanos-Florida",
        "_segmentIndex": 0,
        "_position": 9
      },
      "geometry": {
        "type": "Point",
        "coordinates": [
          -73.35977914526073,
          5.546592030849205
        ]
      }
    },
    {
      "type": "Feature",
      "properties": {
        "_source": "Ruta7-EstanciaelRoble-ViaMoniquira-JuandeCastellanos-Florida",
        "_segmentIndex": 0,
        "_position": 10
      },
      "geometry": {
        "type": "Point",
        "coordinates": [
          -73.35962814111305,
          5.547015698591757
        ]
      }
    },
    {
      "type": "Feature",
      "properties": {
        "_source": "Ruta7-EstanciaelRoble-ViaMoniquira-JuandeCastellanos-Florida",
        "_segmentIndex": 0,
        "_position": 11
      },
      "geometry": {
        "type": "Point",
        "coordinates": [
          -73.3594631539583,
          5.547434246001642
        ]
      }
    },
    {
      "type": "Feature",
      "properties": {
        "_source": "Ruta7-EstanciaelRoble-ViaMoniquira-JuandeCastellanos-Florida",
        "_segmentIndex": 0,
        "_position": 0
      },
      "geometry": {
        "type": "Point",
        "coordinates": [
          -73.359041,
          5.542841
        ]
      }
    },
    {
      "type": "Feature",
      "properties": {
        "_source": "Ruta7-EstanciaelRoble-ViaMoniquira-JuandeCastellanos-Florida",
        "_segmentIndex": 0,
        "_position": 1
      },
      "geometry": {
        "type": "Point",
        "coordinates": [
          -73.35945638017013,
          5.542864668902536
        ]
      }
    },
    {
      "type": "Feature",
      "properties": {
        "_source": "Ruta7-EstanciaelRoble-ViaMoniquira-JuandeCastellanos-Florida",
        "_segmentIndex": 0,
        "_position": 2
      },
      "geometry": {
        "type": "Point",
        "coordinates": [
          -73.35989540057133,
          5.542970661152249
        ]
      }
    },
    {
      "type": "Feature",
      "properties": {
        "_source": "Ruta7-EstanciaelRoble-ViaMoniquira-JuandeCastellanos-Florida",
        "_segmentIndex": 0,
        "_position": 3
      },
      "geometry": {
        "type": "Point",
        "coordinates": [
          -73.36033503893042,
          5.542973956091939
        ]
      }
    },
    {
      "type": "Feature",
      "properties": {
        "_source": "Ruta7-EstanciaelRoble-ViaMoniquira-JuandeCastellanos-Florida",
        "_segmentIndex": 0,
        "_position": 4
      },
      "geometry": {
        "type": "Point",
        "coordinates": [
          -73.36063614436742,
          5.5426511402793155
        ]
      }
    },
    {
      "type": "Feature",
      "properties": {
        "_source": "Ruta7-EstanciaelRoble-ViaMoniquira-JuandeCastellanos-Florida",
        "_segmentIndex": 0,
        "_position": 5
      },
      "geometry": {
        "type": "Point",
        "coordinates": [
          -73.36082630789215,
          5.542246964037373
        ]
      }
    },
    {
      "type": "Feature",
      "properties": {
        "_source": "Ruta7-EstanciaelRoble-ViaMoniquira-JuandeCastellanos-Florida",
        "_segmentIndex": 0,
        "_position": 6
      },
      "geometry": {
        "type": "Point",
        "coordinates": [
          -73.36080407995809,
          5.541801769198907
        ]
      }
    },
    {
      "type": "Feature",
      "properties": {
        "_source": "Ruta7-EstanciaelRoble-ViaMoniquira-JuandeCastellanos-Florida",
        "_segmentIndex": 0,
        "_position": 7
      },
      "geometry": {
        "type": "Point",
        "coordinates": [
          -73.36070830440593,
          5.541362785443498
        ]
      }
    },
    {
      "type": "Feature",
      "properties": {
        "_source": "Ruta7-EstanciaelRoble-ViaMoniquira-JuandeCastellanos-Florida",
        "_segmentIndex": 0,
        "_position": 8
      },
      "geometry": {
        "type": "Point",
        "coordinates": [
          -73.36064226954296,
          5.5409179665561235
        ]
      }
    },
    {
      "type": "Feature",
      "properties": {
        "_source": "Ruta7-EstanciaelRoble-ViaMoniquira-JuandeCastellanos-Florida",
        "_segmentIndex": 0,
        "_position": 9
      },
      "geometry": {
        "type": "Point",
        "coordinates": [
          -73.3605532982541,
          5.540477200528961
        ]
      }
    },
    {
      "type": "Feature",
      "properties": {
        "_source": "Ruta7-EstanciaelRoble-ViaMoniquira-JuandeCastellanos-Florida",
        "_segmentIndex": 0,
        "_position": 10
      },
      "geometry": {
        "type": "Point",
        "coordinates": [
          -73.3604483185202,
          5.54003986441593
        ]
      }
    },
    {
      "type": "Feature",
      "properties": {
        "_source": "Ruta7-EstanciaelRoble-ViaMoniquira-JuandeCastellanos-Florida",
        "_segmentIndex": 0,
        "_position": 11
      },
      "geometry": {
        "type": "Point",
        "coordinates": [
          -73.36034664284765,
          5.53960177040949
        ]
      }
    },
    {
      "type": "Feature",
      "properties": {
        "_source": "Ruta7-EstanciaelRoble-ViaMoniquira-JuandeCastellanos-Florida",
        "_segmentIndex": 0,
        "_position": 12
      },
      "geometry": {
        "type": "Point",
        "coordinates": [
          -73.3602464981708,
          5.539163320410917
        ]
      }
    },
    {
      "type": "Feature",
      "properties": {
        "_source": "Ruta7-EstanciaelRoble-ViaMoniquira-JuandeCastellanos-Florida",
        "_segmentIndex": 0,
        "_position": 13
      },
      "geometry": {
        "type": "Point",
        "coordinates": [
          -73.3602409387995,
          5.538719680213078
        ]
      }
    },
    {
      "type": "Feature",
      "properties": {
        "_source": "Ruta7-EstanciaelRoble-ViaMoniquira-JuandeCastellanos-Florida",
        "_segmentIndex": 0,
        "_position": 14
      },
      "geometry": {
        "type": "Point",
        "coordinates": [
          -73.3603457314168,
          5.5382832271946985
        ]
      }
    },
    {
      "type": "Feature",
      "properties": {
        "_source": "Ruta7-EstanciaelRoble-ViaMoniquira-JuandeCastellanos-Florida",
        "_segmentIndex": 0,
        "_position": 15
      },
      "geometry": {
        "type": "Point",
        "coordinates": [
          -73.36040763075893,
          5.53786364100698
        ]
      }
    },
    {
      "type": "Feature",
      "properties": {
        "_source": "Ruta7-EstanciaelRoble-ViaMoniquira-JuandeCastellanos-Florida",
        "_segmentIndex": 0,
        "_position": 0
      },
      "geometry": {
        "type": "Point",
        "coordinates": [
          -73.360355,
          5.537696
        ]
      }
    },
    {
      "type": "Feature",
      "properties": {
        "_source": "Ruta7-EstanciaelRoble-ViaMoniquira-JuandeCastellanos-Florida",
        "_segmentIndex": 0,
        "_position": 1
      },
      "geometry": {
        "type": "Point",
        "coordinates": [
          -73.35993810144055,
          5.537524045602707
        ]
      }
    },
    {
      "type": "Feature",
      "properties": {
        "_source": "Ruta7-EstanciaelRoble-ViaMoniquira-JuandeCastellanos-Florida",
        "_segmentIndex": 0,
        "_position": 0
      },
      "geometry": {
        "type": "Point",
        "coordinates": [
          -73.359583,
          5.537394
        ]
      }
    },
    {
      "type": "Feature",
      "properties": {
        "_source": "Ruta7-EstanciaelRoble-ViaMoniquira-JuandeCastellanos-Florida",
        "_segmentIndex": 0,
        "_position": 1
      },
      "geometry": {
        "type": "Point",
        "coordinates": [
          -73.35969906456256,
          5.536959432721214
        ]
      }
    },
    {
      "type": "Feature",
      "properties": {
        "_source": "Ruta7-EstanciaelRoble-ViaMoniquira-JuandeCastellanos-Florida",
        "_segmentIndex": 0,
        "_position": 2
      },
      "geometry": {
        "type": "Point",
        "coordinates": [
          -73.35982339285111,
          5.536527146341644
        ]
      }
    },
    {
      "type": "Feature",
      "properties": {
        "_source": "Ruta7-EstanciaelRoble-ViaMoniquira-JuandeCastellanos-Florida",
        "_segmentIndex": 0,
        "_position": 3
      },
      "geometry": {
        "type": "Point",
        "coordinates": [
          -73.35992225008826,
          5.536089970766108
        ]
      }
    },
    {
      "type": "Feature",
      "properties": {
        "_source": "Ruta7-EstanciaelRoble-ViaMoniquira-JuandeCastellanos-Florida",
        "_segmentIndex": 0,
        "_position": 4
      },
      "geometry": {
        "type": "Point",
        "coordinates": [
          -73.36005080243137,
          5.535658899580803
        ]
      }
    },
    {
      "type": "Feature",
      "properties": {
        "_source": "Ruta7-EstanciaelRoble-ViaMoniquira-JuandeCastellanos-Florida",
        "_segmentIndex": 0,
        "_position": 5
      },
      "geometry": {
        "type": "Point",
        "coordinates": [
          -73.36017935458703,
          5.535227828367805
        ]
      }
    },
    {
      "type": "Feature",
      "properties": {
        "_source": "Ruta7-EstanciaelRoble-ViaMoniquira-JuandeCastellanos-Florida",
        "_segmentIndex": 0,
        "_position": 6
      },
      "geometry": {
        "type": "Point",
        "coordinates": [
          -73.3603112723549,
          5.534797774984714
        ]
      }
    },
    {
      "type": "Feature",
      "properties": {
        "_source": "Ruta7-EstanciaelRoble-ViaMoniquira-JuandeCastellanos-Florida",
        "_segmentIndex": 0,
        "_position": 7
      },
      "geometry": {
        "type": "Point",
        "coordinates": [
          -73.36044537796346,
          5.534368383259305
        ]
      }
    },
    {
      "type": "Feature",
      "properties": {
        "_source": "Ruta7-EstanciaelRoble-ViaMoniquira-JuandeCastellanos-Florida",
        "_segmentIndex": 0,
        "_position": 8
      },
      "geometry": {
        "type": "Point",
        "coordinates": [
          -73.36057626161568,
          5.533938048368687
        ]
      }
    },
    {
      "type": "Feature",
      "properties": {
        "_source": "Ruta7-EstanciaelRoble-ViaMoniquira-JuandeCastellanos-Florida",
        "_segmentIndex": 0,
        "_position": 9
      },
      "geometry": {
        "type": "Point",
        "coordinates": [
          -73.36067776743954,
          5.533500156927437
        ]
      }
    },
    {
      "type": "Feature",
      "properties": {
        "_source": "Ruta7-EstanciaelRoble-ViaMoniquira-JuandeCastellanos-Florida",
        "_segmentIndex": 0,
        "_position": 10
      },
      "geometry": {
        "type": "Point",
        "coordinates": [
          -73.3608298260516,
          5.533077493017456
        ]
      }
    },
    {
      "type": "Feature",
      "properties": {
        "_source": "Ruta7-EstanciaelRoble-ViaMoniquira-JuandeCastellanos-Florida",
        "_segmentIndex": 0,
        "_position": 11
      },
      "geometry": {
        "type": "Point",
        "coordinates": [
          -73.36099290500722,
          5.532658643238769
        ]
      }
    },
    {
      "type": "Feature",
      "properties": {
        "_source": "Ruta7-EstanciaelRoble-ViaMoniquira-JuandeCastellanos-Florida",
        "_segmentIndex": 0,
        "_position": 12
      },
      "geometry": {
        "type": "Point",
        "coordinates": [
          -73.36116218995575,
          5.532242104744268
        ]
      }
    },
    {
      "type": "Feature",
      "properties": {
        "_source": "Ruta7-EstanciaelRoble-ViaMoniquira-JuandeCastellanos-Florida",
        "_segmentIndex": 0,
        "_position": 13
      },
      "geometry": {
        "type": "Point",
        "coordinates": [
          -73.36125954276214,
          5.531811940288826
        ]
      }
    },
    {
      "type": "Feature",
      "properties": {
        "_source": "Ruta7-EstanciaelRoble-ViaMoniquira-JuandeCastellanos-Florida",
        "_segmentIndex": 0,
        "_position": 14
      },
      "geometry": {
        "type": "Point",
        "coordinates": [
          -73.36132611256417,
          5.531394612670287
        ]
      }
    },
    {
      "type": "Feature",
      "properties": {
        "_source": "Ruta7-EstanciaelRoble-ViaMoniquira-JuandeCastellanos-Florida",
        "_segmentIndex": 0,
        "_position": 15
      },
      "geometry": {
        "type": "Point",
        "coordinates": [
          -73.36144895553224,
          5.530961895577816
        ]
      }
    },
    {
      "type": "Feature",
      "properties": {
        "_source": "Ruta7-EstanciaelRoble-ViaMoniquira-JuandeCastellanos-Florida",
        "_segmentIndex": 0,
        "_position": 16
      },
      "geometry": {
        "type": "Point",
        "coordinates": [
          -73.361575732358,
          5.5305303197361795
        ]
      }
    },
    {
      "type": "Feature",
      "properties": {
        "_source": "Ruta7-EstanciaelRoble-ViaMoniquira-JuandeCastellanos-Florida",
        "_segmentIndex": 0,
        "_position": 17
      },
      "geometry": {
        "type": "Point",
        "coordinates": [
          -73.36170222569248,
          5.530098659724307
        ]
      }
    },
    {
      "type": "Feature",
      "properties": {
        "_source": "Ruta7-EstanciaelRoble-ViaMoniquira-JuandeCastellanos-Florida",
        "_segmentIndex": 0,
        "_position": 18
      },
      "geometry": {
        "type": "Point",
        "coordinates": [
          -73.36182579042833,
          5.529666147147689
        ]
      }
    },
    {
      "type": "Feature",
      "properties": {
        "_source": "Ruta7-EstanciaelRoble-ViaMoniquira-JuandeCastellanos-Florida",
        "_segmentIndex": 0,
        "_position": 19
      },
      "geometry": {
        "type": "Point",
        "coordinates": [
          -73.36195174115021,
          5.52923431618061
        ]
      }
    },
    {
      "type": "Feature",
      "properties": {
        "_source": "Ruta7-EstanciaelRoble-ViaMoniquira-JuandeCastellanos-Florida",
        "_segmentIndex": 0,
        "_position": 20
      },
      "geometry": {
        "type": "Point",
        "coordinates": [
          -73.36208133714038,
          5.528803563842943
        ]
      }
    },
    {
      "type": "Feature",
      "properties": {
        "_source": "Ruta7-EstanciaelRoble-ViaMoniquira-JuandeCastellanos-Florida",
        "_segmentIndex": 0,
        "_position": 0
      },
      "geometry": {
        "type": "Point",
        "coordinates": [
          -73.362124,
          5.528664
        ]
      }
    },
    {
      "type": "Feature",
      "properties": {
        "_source": "Ruta7-EstanciaelRoble-ViaMoniquira-JuandeCastellanos-Florida",
        "_segmentIndex": 0,
        "_position": 1
      },
      "geometry": {
        "type": "Point",
        "coordinates": [
          -73.36255724301546,
          5.5287914247096435
        ]
      }
    },
    {
      "type": "Feature",
      "properties": {
        "_source": "Ruta7-EstanciaelRoble-ViaMoniquira-JuandeCastellanos-Florida",
        "_segmentIndex": 0,
        "_position": 2
      },
      "geometry": {
        "type": "Point",
        "coordinates": [
          -73.36299048621746,
          5.528918849105128
        ]
      }
    },
    {
      "type": "Feature",
      "properties": {
        "_source": "Ruta7-EstanciaelRoble-ViaMoniquira-JuandeCastellanos-Florida",
        "_segmentIndex": 0,
        "_position": 3
      },
      "geometry": {
        "type": "Point",
        "coordinates": [
          -73.36342363328893,
          5.529046596537926
        ]
      }
    },
    {
      "type": "Feature",
      "properties": {
        "_source": "Ruta7-EstanciaelRoble-ViaMoniquira-JuandeCastellanos-Florida",
        "_segmentIndex": 0,
        "_position": 4
      },
      "geometry": {
        "type": "Point",
        "coordinates": [
          -73.36385664207702,
          5.529174808524619
        ]
      }
    },
    {
      "type": "Feature",
      "properties": {
        "_source": "Ruta7-EstanciaelRoble-ViaMoniquira-JuandeCastellanos-Florida",
        "_segmentIndex": 0,
        "_position": 0
      },
      "geometry": {
        "type": "Point",
        "coordinates": [
          -73.364168,
          5.529267
        ]
      }
    },
    {
      "type": "Feature",
      "properties": {
        "_source": "Ruta7-EstanciaelRoble-ViaMoniquira-JuandeCastellanos-Florida",
        "_segmentIndex": 0,
        "_position": 1
      },
      "geometry": {
        "type": "Point",
        "coordinates": [
          -73.36429968673575,
          5.528836867613298
        ]
      }
    },
    {
      "type": "Feature",
      "properties": {
        "_source": "Ruta7-EstanciaelRoble-ViaMoniquira-JuandeCastellanos-Florida",
        "_segmentIndex": 0,
        "_position": 2
      },
      "geometry": {
        "type": "Point",
        "coordinates": [
          -73.36443119876026,
          5.528406682342055
        ]
      }
    },
    {
      "type": "Feature",
      "properties": {
        "_source": "Ruta7-EstanciaelRoble-ViaMoniquira-JuandeCastellanos-Florida",
        "_segmentIndex": 0,
        "_position": 3
      },
      "geometry": {
        "type": "Point",
        "coordinates": [
          -73.36456236922547,
          5.527976394902435
        ]
      }
    },
    {
      "type": "Feature",
      "properties": {
        "_source": "Ruta7-EstanciaelRoble-ViaMoniquira-JuandeCastellanos-Florida",
        "_segmentIndex": 0,
        "_position": 4
      },
      "geometry": {
        "type": "Point",
        "coordinates": [
          -73.36468778434177,
          5.527544409627138
        ]
      }
    },
    {
      "type": "Feature",
      "properties": {
        "_source": "Ruta7-EstanciaelRoble-ViaMoniquira-JuandeCastellanos-Florida",
        "_segmentIndex": 0,
        "_position": 5
      },
      "geometry": {
        "type": "Point",
        "coordinates": [
          -73.3648119176377,
          5.527112059134436
        ]
      }
    },
    {
      "type": "Feature",
      "properties": {
        "_source": "Ruta7-EstanciaelRoble-ViaMoniquira-JuandeCastellanos-Florida",
        "_segmentIndex": 0,
        "_position": 6
      },
      "geometry": {
        "type": "Point",
        "coordinates": [
          -73.36505730236871,
          5.526748991724033
        ]
      }
    },
    {
      "type": "Feature",
      "properties": {
        "_source": "Ruta7-EstanciaelRoble-ViaMoniquira-JuandeCastellanos-Florida",
        "_segmentIndex": 0,
        "_position": 7
      },
      "geometry": {
        "type": "Point",
        "coordinates": [
          -73.36533712223299,
          5.526407706183253
        ]
      }
    },
    {
      "type": "Feature",
      "properties": {
        "_source": "Ruta7-EstanciaelRoble-ViaMoniquira-JuandeCastellanos-Florida",
        "_segmentIndex": 0,
        "_position": 8
      },
      "geometry": {
        "type": "Point",
        "coordinates": [
          -73.36556206369818,
          5.526017751389935
        ]
      }
    },
    {
      "type": "Feature",
      "properties": {
        "_source": "Ruta7-EstanciaelRoble-ViaMoniquira-JuandeCastellanos-Florida",
        "_segmentIndex": 0,
        "_position": 9
      },
      "geometry": {
        "type": "Point",
        "coordinates": [
          -73.36573627743586,
          5.525603011443931
        ]
      }
    },
    {
      "type": "Feature",
      "properties": {
        "_source": "Ruta7-EstanciaelRoble-ViaMoniquira-JuandeCastellanos-Florida",
        "_segmentIndex": 0,
        "_position": 10
      },
      "geometry": {
        "type": "Point",
        "coordinates": [
          -73.3659034086024,
          5.525185361400438
        ]
      }
    },
    {
      "type": "Feature",
      "properties": {
        "_source": "Ruta7-EstanciaelRoble-ViaMoniquira-JuandeCastellanos-Florida",
        "_segmentIndex": 0,
        "_position": 11
      },
      "geometry": {
        "type": "Point",
        "coordinates": [
          -73.36605558841174,
          5.524761981830313
        ]
      }
    },
    {
      "type": "Feature",
      "properties": {
        "_source": "Ruta7-EstanciaelRoble-ViaMoniquira-JuandeCastellanos-Florida",
        "_segmentIndex": 0,
        "_position": 12
      },
      "geometry": {
        "type": "Point",
        "coordinates": [
          -73.36620101674082,
          5.524336359544274
        ]
      }
    },
    {
      "type": "Feature",
      "properties": {
        "_source": "Ruta7-EstanciaelRoble-ViaMoniquira-JuandeCastellanos-Florida",
        "_segmentIndex": 0,
        "_position": 13
      },
      "geometry": {
        "type": "Point",
        "coordinates": [
          -73.36634854149766,
          5.523911845289244
        ]
      }
    },
    {
      "type": "Feature",
      "properties": {
        "_source": "Ruta7-EstanciaelRoble-ViaMoniquira-JuandeCastellanos-Florida",
        "_segmentIndex": 0,
        "_position": 14
      },
      "geometry": {
        "type": "Point",
        "coordinates": [
          -73.36644493820674,
          5.523472541235702
        ]
      }
    },
    {
      "type": "Feature",
      "properties": {
        "_source": "Ruta7-EstanciaelRoble-ViaMoniquira-JuandeCastellanos-Florida",
        "_segmentIndex": 0,
        "_position": 15
      },
      "geometry": {
        "type": "Point",
        "coordinates": [
          -73.36653995472416,
          5.523032940062933
        ]
      }
    },
    {
      "type": "Feature",
      "properties": {
        "_source": "Ruta7-EstanciaelRoble-ViaMoniquira-JuandeCastellanos-Florida",
        "_segmentIndex": 0,
        "_position": 16
      },
      "geometry": {
        "type": "Point",
        "coordinates": [
          -73.36663708475776,
          5.5225938042059495
        ]
      }
    },
    {
      "type": "Feature",
      "properties": {
        "_source": "Ruta7-EstanciaelRoble-ViaMoniquira-JuandeCastellanos-Florida",
        "_segmentIndex": 0,
        "_position": 17
      },
      "geometry": {
        "type": "Point",
        "coordinates": [
          -73.36676718443358,
          5.52216324497853
        ]
      }
    },
    {
      "type": "Feature",
      "properties": {
        "_source": "Ruta7-EstanciaelRoble-ViaMoniquira-JuandeCastellanos-Florida",
        "_segmentIndex": 0,
        "_position": 18
      },
      "geometry": {
        "type": "Point",
        "coordinates": [
          -73.36690740300341,
          5.52173587257687
        ]
      }
    },
    {
      "type": "Feature",
      "properties": {
        "_source": "Ruta7-EstanciaelRoble-ViaMoniquira-JuandeCastellanos-Florida",
        "_segmentIndex": 0,
        "_position": 19
      },
      "geometry": {
        "type": "Point",
        "coordinates": [
          -73.36702268259334,
          5.521301375460825
        ]
      }
    },
    {
      "type": "Feature",
      "properties": {
        "_source": "Ruta7-EstanciaelRoble-ViaMoniquira-JuandeCastellanos-Florida",
        "_segmentIndex": 0,
        "_position": 20
      },
      "geometry": {
        "type": "Point",
        "coordinates": [
          -73.36712422199155,
          5.520863220886234
        ]
      }
    },
    {
      "type": "Feature",
      "properties": {
        "_source": "Ruta7-EstanciaelRoble-ViaMoniquira-JuandeCastellanos-Florida",
        "_segmentIndex": 0,
        "_position": 21
      },
      "geometry": {
        "type": "Point",
        "coordinates": [
          -73.36723586171303,
          5.520427633534014
        ]
      }
    },
    {
      "type": "Feature",
      "properties": {
        "_source": "Ruta7-EstanciaelRoble-ViaMoniquira-JuandeCastellanos-Florida",
        "_segmentIndex": 0,
        "_position": 22
      },
      "geometry": {
        "type": "Point",
        "coordinates": [
          -73.3673486931113,
          5.519992345915035
        ]
      }
    },
    {
      "type": "Feature",
      "properties": {
        "_source": "Ruta7-EstanciaelRoble-ViaMoniquira-JuandeCastellanos-Florida",
        "_segmentIndex": 0,
        "_position": 23
      },
      "geometry": {
        "type": "Point",
        "coordinates": [
          -73.36744466866271,
          5.519553022261352
        ]
      }
    },
    {
      "type": "Feature",
      "properties": {
        "_source": "Ruta7-EstanciaelRoble-ViaMoniquira-JuandeCastellanos-Florida",
        "_segmentIndex": 0,
        "_position": 24
      },
      "geometry": {
        "type": "Point",
        "coordinates": [
          -73.36750479749045,
          5.519107454518835
        ]
      }
    },
    {
      "type": "Feature",
      "properties": {
        "_source": "Ruta7-EstanciaelRoble-ViaMoniquira-JuandeCastellanos-Florida",
        "_segmentIndex": 0,
        "_position": 25
      },
      "geometry": {
        "type": "Point",
        "coordinates": [
          -73.36755395688296,
          5.5186604969643485
        ]
      }
    },
    {
      "type": "Feature",
      "properties": {
        "_source": "Ruta7-EstanciaelRoble-ViaMoniquira-JuandeCastellanos-Florida",
        "_segmentIndex": 0,
        "_position": 26
      },
      "geometry": {
        "type": "Point",
        "coordinates": [
          -73.36768151999918,
          5.518238776289169
        ]
      }
    },
    {
      "type": "Feature",
      "properties": {
        "_source": "Ruta7-EstanciaelRoble-ViaMoniquira-JuandeCastellanos-Florida",
        "_segmentIndex": 0,
        "_position": 27
      },
      "geometry": {
        "type": "Point",
        "coordinates": [
          -73.36790805019402,
          5.517849875229409
        ]
      }
    },
    {
      "type": "Feature",
      "properties": {
        "_source": "Ruta7-EstanciaelRoble-ViaMoniquira-JuandeCastellanos-Florida",
        "_segmentIndex": 0,
        "_position": 28
      },
      "geometry": {
        "type": "Point",
        "coordinates": [
          -73.36814638125624,
          5.517467883432103
        ]
      }
    },
    {
      "type": "Feature",
      "properties": {
        "_source": "Ruta7-EstanciaelRoble-ViaMoniquira-JuandeCastellanos-Florida",
        "_segmentIndex": 0,
        "_position": 29
      },
      "geometry": {
        "type": "Point",
        "coordinates": [
          -73.36836221659107,
          5.517073003193509
        ]
      }
    },
    {
      "type": "Feature",
      "properties": {
        "_source": "Ruta7-EstanciaelRoble-ViaMoniquira-JuandeCastellanos-Florida",
        "_segmentIndex": 0,
        "_position": 30
      },
      "geometry": {
        "type": "Point",
        "coordinates": [
          -73.36856331526809,
          5.5166706398534116
        ]
      }
    },
    {
      "type": "Feature",
      "properties": {
        "_source": "Ruta7-EstanciaelRoble-ViaMoniquira-JuandeCastellanos-Florida",
        "_segmentIndex": 0,
        "_position": 0
      },
      "geometry": {
        "type": "Point",
        "coordinates": [
          -73.368625,
          5.516533
        ]
      }
    },
    {
      "type": "Feature",
      "properties": {
        "_source": "Ruta7-EstanciaelRoble-ViaMoniquira-JuandeCastellanos-Florida",
        "_segmentIndex": 0,
        "_position": 1
      },
      "geometry": {
        "type": "Point",
        "coordinates": [
          -73.36865171943357,
          5.516107599270437
        ]
      }
    },
    {
      "type": "Feature",
      "properties": {
        "_source": "Ruta7-EstanciaelRoble-ViaMoniquira-JuandeCastellanos-Florida",
        "_segmentIndex": 0,
        "_position": 0
      },
      "geometry": {
        "type": "Point",
        "coordinates": [
          -73.368612,
          5.515796
        ]
      }
    },
    {
      "type": "Feature",
      "properties": {
        "_source": "Ruta7-EstanciaelRoble-ViaMoniquira-JuandeCastellanos-Florida",
        "_segmentIndex": 0,
        "_position": 1
      },
      "geometry": {
        "type": "Point",
        "coordinates": [
          -73.3685993769698,
          5.515347523638125
        ]
      }
    },
    {
      "type": "Feature",
      "properties": {
        "_source": "Ruta7-EstanciaelRoble-ViaMoniquira-JuandeCastellanos-Florida",
        "_segmentIndex": 0,
        "_position": 2
      },
      "geometry": {
        "type": "Point",
        "coordinates": [
          -73.36815415404544,
          5.5152974723059245
        ]
      }
    },
    {
      "type": "Feature",
      "properties": {
        "_source": "Ruta7-EstanciaelRoble-ViaMoniquira-JuandeCastellanos-Florida",
        "_segmentIndex": 0,
        "_position": 3
      },
      "geometry": {
        "type": "Point",
        "coordinates": [
          -73.36770669739934,
          5.515237136581393
        ]
      }
    },
    {
      "type": "Feature",
      "properties": {
        "_source": "Ruta7-EstanciaelRoble-ViaMoniquira-JuandeCastellanos-Florida",
        "_segmentIndex": 0,
        "_position": 4
      },
      "geometry": {
        "type": "Point",
        "coordinates": [
          -73.36726266744684,
          5.515154684707338
        ]
      }
    },
    {
      "type": "Feature",
      "properties": {
        "_source": "Ruta7-EstanciaelRoble-ViaMoniquira-JuandeCastellanos-Florida",
        "_segmentIndex": 0,
        "_position": 0
      },
      "geometry": {
        "type": "Point",
        "coordinates": [
          -73.367106,
          5.51512
        ]
      }
    },
    {
      "type": "Feature",
      "properties": {
        "_source": "Ruta7-EstanciaelRoble-ViaMoniquira-JuandeCastellanos-Florida",
        "_segmentIndex": 0,
        "_position": 1
      },
      "geometry": {
        "type": "Point",
        "coordinates": [
          -73.36727396856848,
          5.514702664837872
        ]
      }
    },
    {
      "type": "Feature",
      "properties": {
        "_source": "Ruta7-EstanciaelRoble-ViaMoniquira-JuandeCastellanos-Florida",
        "_segmentIndex": 0,
        "_position": 0
      },
      "geometry": {
        "type": "Point",
        "coordinates": [
          -73.367395,
          5.514354
        ]
      }
    },
    {
      "type": "Feature",
      "properties": {
        "_source": "Ruta7-EstanciaelRoble-ViaMoniquira-JuandeCastellanos-Florida",
        "_segmentIndex": 0,
        "_position": 1
      },
      "geometry": {
        "type": "Point",
        "coordinates": [
          -73.3669534062604,
          5.514259184669118
        ]
      }
    },
    {
      "type": "Feature",
      "properties": {
        "_source": "Ruta7-EstanciaelRoble-ViaMoniquira-JuandeCastellanos-Florida",
        "_segmentIndex": 0,
        "_position": 0
      },
      "geometry": {
        "type": "Point",
        "coordinates": [
          -73.366589,
          5.514189
        ]
      }
    },
    {
      "type": "Feature",
      "properties": {
        "_source": "Ruta7-EstanciaelRoble-ViaMoniquira-JuandeCastellanos-Florida",
        "_segmentIndex": 0,
        "_position": 1
      },
      "geometry": {
        "type": "Point",
        "coordinates": [
          -73.36639192136629,
          5.514593614576033
        ]
      }
    },
    {
      "type": "Feature",
      "properties": {
        "_source": "Ruta7-EstanciaelRoble-ViaMoniquira-JuandeCastellanos-Florida",
        "_segmentIndex": 0,
        "_position": 2
      },
      "geometry": {
        "type": "Point",
        "coordinates": [
          -73.36618878542123,
          5.514995115554751
        ]
      }
    }
  ]
}