{
  "type": "FeatureCollection",
  "features": [
    {
      "type": "Feature",
      "properties": {
        "_source": "Ruta8-LaFuente-Cooservicios",
        "_segmentIndex": 0,
        "_position": 0
      },
      "geometry": {
        "type": "Point",
        "coordinates": [
          -73.366414,
          5.549766
        ]
      }
    },
    {
      "type": "Feature",
      "properties": {
        "_source": "Ruta8-LaFuente-Cooservicios",
        "_segmentIndex": 0,
        "_position": 1
      },
      "geometry": {
        "type": "Point",
        "coordinates": [
          -73.36596520205802,
          5.549714439136878
        ]
      }
    },
    {
      "type": "Feature",
      "properties": {
        "_source": "Ruta8-LaFuente-Cooservicios",
        "_segmentIndex": 0,
        "_position": 2
      },
      "geometry": {
        "type": "Point",
        "coordinates": [
          -73.36564265851601,
          5.549517800454685
        ]
      }
    },
    {
      "type": "Feature",
      "properties": {
        "_source": "Ruta8-LaFuente-Cooservicios",
        "_segmentIndex": 0,
        "_position": 3
      },
      "geometry": {
        "type": "Point",
        "coordinates": [
          -73.36550970427434,
          5.549088759109766
        ]
      }
    },
    {
      "type": "Feature",
      "properties": {
        "_source": "Ruta8-LaFuente-Cooservicios",
        "_segmentIndex": 0,
        "_position": 4
      },
      "geometry": {
        "type": "Point",
        "coordinates": [
          -73.36547145640914,
          5.548648546108973
        ]
      }
    },
    {
      "type": "Feature",
      "properties": {
        "_source": "Ruta8-LaFuente-Cooservicios",
        "_segmentIndex": 0,
        "_position": 5
      },
      "geometry": {
        "type": "Point",
        "coordinates": [
          -73.3653431745149,
          5.548217502327322
        ]
      }
    },
    {
      "type": "Feature",
      "properties": {
        "_source": "Ruta8-LaFuente-Cooservicios",
        "_segmentIndex": 0,
        "_position": 6
      },
      "geometry": {
        "type": "Point",
        "coordinates": [
          -73.36521656136287,
          5.547786784148326
        ]
      }
    },
    {
      "type": "Feature",
      "properties": {
        "_source": "Ruta8-LaFuente-Cooservicios",
        "_segmentIndex": 0,
        "_position": 7
      },
      "geometry": {
        "type": "Point",
        "coordinates": [
          -73.36510120046701,
          5.54735240815635
        ]
      }
    },
    {
      "type": "Feature",
      "properties": {
        "_source": "Ruta8-LaFuente-Cooservicios",
        "_segmentIndex": 0,
        "_position": 8
      },
      "geometry": {
        "type": "Point",
        "coordinates": [
          -73.36488502158647,
          5.54695912256251
        ]
      }
    },
    {
      "type": "Feature",
      "properties": {
        "_source": "Ruta8-LaFuente-Cooservicios",
        "_segmentIndex": 0,
        "_position": 9
      },
      "geometry": {
        "type": "Point",
        "coordinates": [
          -73.3646668187434,
          5.546565416997143
        ]
      }
    },
    {
      "type": "Feature",
      "properties": {
        "_source": "Ruta8-LaFuente-Cooservicios",
        "_segmentIndex": 0,
        "_position": 10
      },
      "geometry": {
        "type": "Point",
        "coordinates": [
          -73.36445032421825,
          5.5461707497534745
        ]
      }
    },
    {
      "type": "Feature",
      "properties": {
        "_source": "Ruta8-LaFuente-Cooservicios",
        "_segmentIndex": 0,
        "_position": 11
      },
      "geometry": {
        "type": "Point",
        "coordinates": [
          -73.36423814029682,
          5.545773857298756
        ]
      }
    },
    {
      "type": "Feature",
      "properties": {
        "_source": "Ruta8-LaFuente-Cooservicios",
        "_segmentIndex": 0,
        "_position": 0
      },
      "geometry": {
        "type": "Point",
        "coordinates": [
          -73.364194,
          5.545723
        ]
      }
    },
    {
      "type": "Feature",
      "properties": {
        "_source": "Ruta8-LaFuente-Cooservicios",
        "_segmentIndex": 0,
        "_position": 1
      },
      "geometry": {
        "type": "Point",
        "coordinates": [
          -73.36375298265668,
          5.545812197895903
        ]
      }
    },
    {
      "type": "Feature",
      "properties": {
        "_source": "Ruta8-LaFuente-Cooservicios",
        "_segmentIndex": 0,
        "_position": 2
      },
      "geometry": {
        "type": "Point",
        "coordinates": [
          -73.36331229357468,
          5.545909284412223
        ]
      }
    },
    {
      "type": "Feature",
      "properties": {
        "_source": "Ruta8-LaFuente-Cooservicios",
        "_segmentIndex": 0,
        "_position": 3
      },
      "geometry": {
        "type": "Point",
        "coordinates": [
          -73.36286246211061,
          5.545898885546266
        ]
      }
    },
    {
      "type": "Feature",
      "properties": {
        "_source": "Ruta8-LaFuente-Cooservicios",
        "_segmentIndex": 0,
        "_position": 4
      },
      "geometry": {
        "type": "Point",
        "coordinates": [
          -73.36241150036986,
          5.545871976401682
        ]
      }
    },
    {
      "type": "Feature",
      "properties": {
        "_source": "Ruta8-LaFuente-Cooservicios",
        "_segmentIndex": 0,
        "_position": 5
      },
      "geometry": {
        "type": "Point",
        "coordinates": [
          -73.36196030275008,
          5.54584963275296
        ]
      }
    },
    {
      "type": "Feature",
      "properties": {
        "_source": "Ruta8-LaFuente-Cooservicios",
        "_segmentIndex": 0,
        "_position": 6
      },
      "geometry": {
        "type": "Point",
        "coordinates": [
          -73.36150880290688,
          5.545833945544855
        ]
      }
    },
    {
      "type": "Feature",
      "properties": {
        "_source": "Ruta8-LaFuente-Cooservicios",
        "_segmentIndex": 0,
        "_position": 7
      },
      "geometry": {
        "type": "Point",
        "coordinates": [
          -73.36105735424528,
          5.545817008397425
        ]
      }
    },
    {
      "type": "Feature",
      "properties": {
        "_source": "Ruta8-LaFuente-Cooservicios",
        "_segmentIndex": 0,
        "_position": 8
      },
      "geometry": {
        "type": "Point",
        "coordinates": [
          -73.3606060774275,
          5.545795905466577
        ]
      }
    },
    {
      "type": "Feature",
      "properties": {
        "_source": "Ruta8-LaFuente-Cooservicios",
        "_segmentIndex": 0,
        "_position": 0
      },
      "geometry": {
        "type": "Point",
        "coordinates": [
          -73.360175,
          5.545747
        ]
      }
    },
    {
      "type": "Feature",
      "properties": {
        "_source": "Ruta8-LaFuente-Cooservicios",
        "_segmentIndex": 0,
        "_position": 1
      },
      "geometry": {
        "type": "Point",
        "coordinates": [
          -73.36006129368971,
          5.5453119750168876
        ]
      }
    },
    {
      "type": "Feature",
      "properties": {
        "_source": "Ruta8-LaFuente-Cooservicios",
        "_segmentIndex": 0,
        "_position": 2
      },
      "geometry": {
        "type": "Point",
        "coordinates": [
          -73.35990537032386,
          5.544890425868585
        ]
      }
    },
    {
      "type": "Feature",
      "properties": {
        "_source": "Ruta8-LaFuente-Cooservicios",
        "_segmentIndex": 0,
        "_position": 3
      },
      "geometry": {
        "type": "Point",
        "coordinates": [
          -73.35974626735295,
          5.54446982479826
        ]
      }
    },
    {
      "type": "Feature",
      "properties": {
        "_source": "Ruta8-LaFuente-Cooservicios",
        "_segmentIndex": 0,
        "_position": 4
      },
      "geometry": {
        "type": "Point",
        "coordinates": [
          -73.35956481257519,
          5.544058029148863
        ]
      }
    },
    {
      "type": "Feature",
      "properties": {
        "_source": "Ruta8-LaFuente-Cooservicios",
        "_segmentIndex": 0,
        "_position": 5
      },
      "geometry": {
        "type": "Point",
        "coordinates": [
          -73.3593826581886,
          5.543646539500965
        ]
      }
    },
    {
      "type": "Feature",
      "properties": {
        "_source": "Ruta8-LaFuente-Cooservicios",
        "_segmentIndex": 0,
        "_position": 6
      },
      "geometry": {
        "type": "Point",
        "coordinates": [
          -73.35920012477953,
          5.543235216532452
        ]
      }
    },
    {
      "type": "Feature",
      "properties": {
        "_source": "Ruta8-LaFuente-Cooservicios",
        "_segmentIndex": 0,
        "_position": 7
      },
      "geometry": {
        "type": "Point",
        "coordinates": [
          -73.35902063704327,
          5.542822591177329
        ]
      }
    },
    {
      "type": "Feature",
      "properties": {
        "_source": "Ruta8-LaFuente-Cooservicios",
        "_segmentIndex": 0,
        "_position": 0
      },
      "geometry": {
        "type": "Point",
        "coordinates": [
          -73.358919,
          5.54264
        ]
      }
    },
    {
      "type": "Feature",
      "properties": {
        "_source": "Ruta8-LaFuente-Cooservicios",
        "_segmentIndex": 0,
        "_position": 1
      },
      "geometry": {
        "type": "Point",
        "coordinates": [
          -73.3589684005276,
          5.542193719800879
        ]
      }
    },
    {
      "type": "Feature",
      "properties": {
        "_source": "Ruta8-LaFuente-Cooservicios",
        "_segmentIndex": 0,
        "_position": 2
      },
      "geometry": {
        "type": "Point",
        "coordinates": [
          -73.3591384716926,
          5.541779653297902
        ]
      }
    },
    {
      "type": "Feature",
      "properties": {
        "_source": "Ruta8-LaFuente-Cooservicios",
        "_segmentIndex": 0,
        "_position": 3
      },
      "geometry": {
        "type": "Point",
        "coordinates": [
          -73.35933483461022,
          5.54137468977398
        ]
      }
    },
    {
      "type": "Feature",
      "properties": {
        "_source": "Ruta8-LaFuente-Cooservicios",
        "_segmentIndex": 0,
        "_position": 4
      },
      "geometry": {
        "type": "Point",
        "coordinates": [
          -73.35952717088732,
          5.540967893947788
        ]
      }
    },
    {
      "type": "Feature",
      "properties": {
        "_source": "Ruta8-LaFuente-Cooservicios",
        "_segmentIndex": 0,
        "_position": 5
      },
      "geometry": {
        "type": "Point",
        "coordinates": [
          -73.3597064190913,
          5.540555142331757
        ]
      }
    },
    {
      "type": "Feature",
      "properties": {
        "_source": "Ruta8-LaFuente-Cooservicios",
        "_segmentIndex": 0,
        "_position": 6
      },
      "geometry": {
        "type": "Point",
        "coordinates": [
          -73.35986117977798,
          5.5401329185902375
        ]
      }
    },
    {
      "type": "Feature",
      "properties": {
        "_source": "Ruta8-LaFuente-Cooservicios",
        "_segmentIndex": 0,
        "_position": 7
      },
      "geometry": {
        "type": "Point",
        "coordinates": [
          -73.3600020425063,
          5.539705989585434
        ]
      }
    },
    {
      "type": "Feature",
      "properties": {
        "_source": "Ruta8-LaFuente-Cooservicios",
        "_segmentIndex": 0,
        "_position": 8
      },
      "geometry": {
        "type": "Point",
        "coordinates": [
          -73.36010618171576,
          5.539268440071129
        ]
      }
    },
    {
      "type": "Feature",
      "properties": {
        "_source": "Ruta8-LaFuente-Cooservicios",
        "_segmentIndex": 0,
        "_position": 9
      },
      "geometry": {
        "type": "Point",
        "coordinates": [
          -73.3602029342115,
          5.538829425106959
        ]
      }
    },
    {
      "type": "Feature",
      "properties": {
        "_source": "Ruta8-LaFuente-Cooservicios",
        "_segmentIndex": 0,
        "_position": 10
      },
      "geometry": {
        "type": "Point",
        "coordinates": [
          -73.36031226131728,
          5.53839361807903
        ]
      }
    },
    {
      "type": "Feature",
      "properties": {
        "_source": "Ruta8-LaFuente-Cooservicios",
        "_segmentIndex": 0,
        "_position": 11
      },
      "geometry": {
        "type": "Point",
        "coordinates": [
          -73.36039953798023,
          5.5379554933109585
        ]
      }
    },
    {
      "type": "Feature",
      "properties": {
        "_source": "Ruta8-LaFuente-Cooservicios",
        "_segmentIndex": 0,
        "_position": 0
      },
      "geometry": {
        "type": "Point",
        "coordinates": [
          -73.360401,
          5.537859
        ]
      }
    },
    {
      "type": "Feature",
      "properties": {
        "_source": "Ruta8-LaFuente-Cooservicios",
        "_segmentIndex": 0,
        "_position": 1
      },
      "geometry": {
        "type": "Point",
        "coordinates": [
          -73.3600753000127,
          5.537584634763742
        ]
      }
    },
    {
      "type": "Feature",
      "properties": {
        "_source": "Ruta8-LaFuente-Cooservicios",
        "_segmentIndex": 0,
        "_position": 2
      },
      "geometry": {
        "type": "Point",
        "coordinates": [
          -73.35965662532207,
          5.537416438077236
        ]
      }
    },
    {
      "type": "Feature",
      "properties": {
        "_source": "Ruta8-LaFuente-Cooservicios",
        "_segmentIndex": 0,
        "_position": 0
      },
      "geometry": {
        "type": "Point",
        "coordinates": [
          -73.35957,
          5.53737
        ]
      }
    },
    {
      "type": "Feature",
      "properties": {
        "_source": "Ruta8-LaFuente-Cooservicios",
        "_segmentIndex": 0,
        "_position": 1
      },
      "geometry": {
        "type": "Point",
        "coordinates": [
          -73.35969484330971,
          5.536937850095373
        ]
      }
    },
    {
      "type": "Feature",
      "properties": {
        "_source": "Ruta8-LaFuente-Cooservicios",
        "_segmentIndex": 0,
        "_position": 2
      },
      "geometry": {
        "type": "Point",
        "coordinates": [
          -73.35981869777893,
          5.536505427574974
        ]
      }
    },
    {
      "type": "Feature",
      "properties": {
        "_source": "Ruta8-LaFuente-Cooservicios",
        "_segmentIndex": 0,
        "_position": 3
      },
      "geometry": {
        "type": "Point",
        "coordinates": [
          -73.35993721614075,
          5.536071668239153
        ]
      }
    },
    {
      "type": "Feature",
      "properties": {
        "_source": "Ruta8-LaFuente-Cooservicios",
        "_segmentIndex": 0,
        "_position": 4
      },
      "geometry": {
        "type": "Point",
        "coordinates": [
          -73.36006128040887,
          5.535639297619966
        ]
      }
    },
    {
      "type": "Feature",
      "properties": {
        "_source": "Ruta8-LaFuente-Cooservicios",
        "_segmentIndex": 0,
        "_position": 5
      },
      "geometry": {
        "type": "Point",
        "coordinates": [
          -73.36018391858643,
          5.53520652273837
        ]
      }
    },
    {
      "type": "Feature",
      "properties": {
        "_source": "Ruta8-LaFuente-Cooservicios",
        "_segmentIndex": 0,
        "_position": 6
      },
      "geometry": {
        "type": "Point",
        "coordinates": [
          -73.36031064072107,
          5.534774926327599
        ]
      }
    },
    {
      "type": "Feature",
      "properties": {
        "_source": "Ruta8-LaFuente-Cooservicios",
        "_segmentIndex": 0,
        "_position": 7
      },
      "geometry": {
        "type": "Point",
        "coordinates": [
          -73.36044517848924,
          5.534345698500031
        ]
      }
    },
    {
      "type": "Feature",
      "properties": {
        "_source": "Ruta8-LaFuente-Cooservicios",
        "_segmentIndex": 0,
        "_position": 8
      },
      "geometry": {
        "type": "Point",
        "coordinates": [
          -73.3605756106086,
          5.533915187216648
        ]
      }
    },
    {
      "type": "Feature",
      "properties": {
        "_source": "Ruta8-LaFuente-Cooservicios",
        "_segmentIndex": 0,
        "_position": 9
      },
      "geometry": {
        "type": "Point",
        "coordinates": [
          -73.36067846169635,
          5.533477917899581
        ]
      }
    },
    {
      "type": "Feature",
      "properties": {
        "_source": "Ruta8-LaFuente-Cooservicios",
        "_segmentIndex": 0,
        "_position": 10
      },
      "geometry": {
        "type": "Point",
        "coordinates": [
          -73.3608343130066,
          5.533056536883344
        ]
      }
    },
    {
      "type": "Feature",
      "properties": {
        "_source": "Ruta8-LaFuente-Cooservicios",
        "_segmentIndex": 0,
        "_position": 0
      },
      "geometry": {
        "type": "Point",
        "coordinates": [
          -73.360977,
          5.532734
        ]
      }
    },
    {
      "type": "Feature",
      "properties": {
        "_source": "Ruta8-LaFuente-Cooservicios",
        "_segmentIndex": 0,
        "_position": 1
      },
      "geometry": {
        "type": "Point",
        "coordinates": [
          -73.36113421321583,
          5.532312449855057
        ]
      }
    },
    {
      "type": "Feature",
      "properties": {
        "_source": "Ruta8-LaFuente-Cooservicios",
        "_segmentIndex": 0,
        "_position": 2
      },
      "geometry": {
        "type": "Point",
        "coordinates": [
          -73.36126781779038,
          5.531884669300719
        ]
      }
    },
    {
      "type": "Feature",
      "properties": {
        "_source": "Ruta8-LaFuente-Cooservicios",
        "_segmentIndex": 0,
        "_position": 3
      },
      "geometry": {
        "type": "Point",
        "coordinates": [
          -73.36130589520062,
          5.531457769890787
        ]
      }
    },
    {
      "type": "Feature",
      "properties": {
        "_source": "Ruta8-LaFuente-Cooservicios",
        "_segmentIndex": 0,
        "_position": 4
      },
      "geometry": {
        "type": "Point",
        "coordinates": [
          -73.36142908989635,
          5.531025158179006
        ]
      }
    },
    {
      "type": "Feature",
      "properties": {
        "_source": "Ruta8-LaFuente-Cooservicios",
        "_segmentIndex": 0,
        "_position": 0
      },
      "geometry": {
        "type": "Point",
        "coordinates": [
          -73.361494,
          5.530767
        ]
      }
    },
    {
      "type": "Feature",
      "properties": {
        "_source": "Ruta8-LaFuente-Cooservicios",
        "_segmentIndex": 0,
        "_position": 1
      },
      "geometry": {
        "type": "Point",
        "coordinates": [
          -73.36106778956665,
          5.530617919518063
        ]
      }
    },
    {
      "type": "Feature",
      "properties": {
        "_source": "Ruta8-LaFuente-Cooservicios",
        "_segmentIndex": 0,
        "_position": 2
      },
      "geometry": {
        "type": "Point",
        "coordinates": [
          -73.3606408890911,
          5.5304708740247275
        ]
      }
    },
    {
      "type": "Feature",
      "properties": {
        "_source": "Ruta8-LaFuente-Cooservicios",
        "_segmentIndex": 0,
        "_position": 3
      },
      "geometry": {
        "type": "Point",
        "coordinates": [
          -73.36020904986663,
          5.530338808790973
        ]
      }
    },
    {
      "type": "Feature",
      "properties": {
        "_source": "Ruta8-LaFuente-Cooservicios",
        "_segmentIndex": 0,
        "_position": 4
      },
      "geometry": {
        "type": "Point",
        "coordinates": [
          -73.35977721083489,
          5.5302067432450075
        ]
      }
    },
    {
      "type": "Feature",
      "properties": {
        "_source": "Ruta8-LaFuente-Cooservicios",
        "_segmentIndex": 0,
        "_position": 0
      },
      "geometry": {
        "type": "Point",
        "coordinates": [
          -73.35953,
          5.53012
        ]
      }
    },
    {
      "type": "Feature",
      "properties": {
        "_source": "Ruta8-LaFuente-Cooservicios",
        "_segmentIndex": 0,
        "_position": 1
      },
      "geometry": {
        "type": "Point",
        "coordinates": [
          -73.35963603289346,
          5.529684046658102
        ]
      }
    },
    {
      "type": "Feature",
      "properties": {
        "_source": "Ruta8-LaFuente-Cooservicios",
        "_segmentIndex": 0,
        "_position": 2
      },
      "geometry": {
        "type": "Point",
        "coordinates": [
          -73.35974691422278,
          5.52924814144843
        ]
      }
    },
    {
      "type": "Feature",
      "properties": {
        "_source": "Ruta8-LaFuente-Cooservicios",
        "_segmentIndex": 0,
        "_position": 3
      },
      "geometry": {
        "type": "Point",
        "coordinates": [
          -73.35986886115016,
          5.5288154518026165
        ]
      }
    },
    {
      "type": "Feature",
      "properties": {
        "_source": "Ruta8-LaFuente-Cooservicios",
        "_segmentIndex": 0,
        "_position": 4
      },
      "geometry": {
        "type": "Point",
        "coordinates": [
          -73.35999983690266,
          5.528385107983534
        ]
      }
    },
    {
      "type": "Feature",
      "properties": {
        "_source": "Ruta8-LaFuente-Cooservicios",
        "_segmentIndex": 0,
        "_position": 5
      },
      "geometry": {
        "type": "Point",
        "coordinates": [
          -73.36012302757351,
          5.5279525438491675
        ]
      }
    },
    {
      "type": "Feature",
      "properties": {
        "_source": "Ruta8-LaFuente-Cooservicios",
        "_segmentIndex": 0,
        "_position": 6
      },
      "geometry": {
        "type": "Point",
        "coordinates": [
          -73.36025462751492,
          5.5275224713991316
        ]
      }
    },
    {
      "type": "Feature",
      "properties": {
        "_source": "Ruta8-LaFuente-Cooservicios",
        "_segmentIndex": 0,
        "_position": 0
      },
      "geometry": {
        "type": "Point",
        "coordinates": [
          -73.360343,
          5.527217
        ]
      }
    },
    {
      "type": "Feature",
      "properties": {
        "_source": "Ruta8-LaFuente-Cooservicios",
        "_segmentIndex": 0,
        "_position": 1
      },
      "geometry": {
        "type": "Point",
        "coordinates": [
          -73.36019751379092,
          5.52702999200459
        ]
      }
    },
    {
      "type": "Feature",
      "properties": {
        "_source": "Ruta8-LaFuente-Cooservicios",
        "_segmentIndex": 0,
        "_position": 2
      },
      "geometry": {
        "type": "Point",
        "coordinates": [
          -73.35990227782013,
          5.5273703427681395
        ]
      }
    },
    {
      "type": "Feature",
      "properties": {
        "_source": "Ruta8-LaFuente-Cooservicios",
        "_segmentIndex": 0,
        "_position": 3
      },
      "geometry": {
        "type": "Point",
        "coordinates": [
          -73.35961611113567,
          5.527718148025954
        ]
      }
    },
    {
      "type": "Feature",
      "properties": {
        "_source": "Ruta8-LaFuente-Cooservicios",
        "_segmentIndex": 0,
        "_position": 4
      },
      "geometry": {
        "type": "Point",
        "coordinates": [
          -73.35933606395186,
          5.528070985634411
        ]
      }
    },
    {
      "type": "Feature",
      "properties": {
        "_source": "Ruta8-LaFuente-Cooservicios",
        "_segmentIndex": 0,
        "_position": 5
      },
      "geometry": {
        "type": "Point",
        "coordinates": [
          -73.35904944130179,
          5.528418554576429
        ]
      }
    },
    {
      "type": "Feature",
      "properties": {
        "_source": "Ruta8-LaFuente-Cooservicios",
        "_segmentIndex": 0,
        "_position": 6
      },
      "geometry": {
        "type": "Point",
        "coordinates": [
          -73.35876281831514,
          5.528766123380955
        ]
      }
    },
    {
      "type": "Feature",
      "properties": {
        "_source": "Ruta8-LaFuente-Cooservicios",
        "_segmentIndex": 0,
        "_position": 7
      },
      "geometry": {
        "type": "Point",
        "coordinates": [
          -73.35849120835475,
          5.529125274923253
        ]
      }
    },
    {
      "type": "Feature",
      "properties": {
        "_source": "Ruta8-LaFuente-Cooservicios",
        "_segmentIndex": 0,
        "_position": 8
      },
      "geometry": {
        "type": "Point",
        "coordinates": [
          -73.3582289293685,
          5.529490975599383
        ]
      }
    },
    {
      "type": "Feature",
      "properties": {
        "_source": "Ruta8-LaFuente-Cooservicios",
        "_segmentIndex": 0,
        "_position": 0
      },
      "geometry": {
        "type": "Point",
        "coordinates": [
          -73.358064,
          5.529752
        ]
      }
    },
    {
      "type": "Feature",
      "properties": {
        "_source": "Ruta8-LaFuente-Cooservicios",
        "_segmentIndex": 0,
        "_position": 1
      },
      "geometry": {
        "type": "Point",
        "coordinates": [
          -73.35766312747617,
          5.52979429075952
        ]
      }
    },
    {
      "type": "Feature",
      "properties": {
        "_source": "Ruta8-LaFuente-Cooservicios",
        "_segmentIndex": 0,
        "_position": 2
      },
      "geometry": {
        "type": "Point",
        "coordinates": [
          -73.3572272253421,
          5.529676189148914
        ]
      }
    },
    {
      "type": "Feature",
      "properties": {
        "_source": "Ruta8-LaFuente-Cooservicios",
        "_segmentIndex": 0,
        "_position": 3
      },
      "geometry": {
        "type": "Point",
        "coordinates": [
          -73.35678327069442,
          5.529593544122949
        ]
      }
    },
    {
      "type": "Feature",
      "properties": {
        "_source": "Ruta8-LaFuente-Cooservicios",
        "_segmentIndex": 0,
        "_position": 4
      },
      "geometry": {
        "type": "Point",
        "coordinates": [
          -73.35634014049155,
          5.5295063887087235
        ]
      }
    },
    {
      "type": "Feature",
      "properties": {
        "_source": "Ruta8-LaFuente-Cooservicios",
        "_segmentIndex": 0,
        "_position": 5
      },
      "geometry": {
        "type": "Point",
        "coordinates": [
          -73.3559021556287,
          5.529396638129667
        ]
      }
    },
    {
      "type": "Feature",
      "properties": {
        "_source": "Ruta8-LaFuente-Cooservicios",
        "_segmentIndex": 0,
        "_position": 6
      },
      "geometry": {
        "type": "Point",
        "coordinates": [
          -73.35548303088454,
          5.529231264102308
        ]
      }
    },
    {
      "type": "Feature",
      "properties": {
        "_source": "Ruta8-LaFuente-Cooservicios",
        "_segmentIndex": 0,
        "_position": 7
      },
      "geometry": {
        "type": "Point",
        "coordinates": [
          -73.35503449849695,
          5.529185525775291
        ]
      }
    },
    {
      "type": "Feature",
      "properties": {
        "_source": "Ruta8-LaFuente-Cooservicios",
        "_segmentIndex": 0,
        "_position": 8
      },
      "geometry": {
        "type": "Point",
        "coordinates": [
          -73.35458327525019,
          5.529165117947464
        ]
      }
    },
    {
      "type": "Feature",
      "properties": {
        "_source": "Ruta8-LaFuente-Cooservicios",
        "_segmentIndex": 0,
        "_position": 9
      },
      "geometry": {
        "type": "Point",
        "coordinates": [
          -73.35413177378189,
          5.529149846020393
        ]
      }
    },
    {
      "type": "Feature",
      "properties": {
        "_source": "Ruta8-LaFuente-Cooservicios",
        "_segmentIndex": 0,
        "_position": 10
      },
      "geometry": {
        "type": "Point",
        "coordinates": [
          -73.35368031857291,
          5.529133470724929
        ]
      }
    },
    {
      "type": "Feature",
      "properties": {
        "_source": "Ruta8-LaFuente-Cooservicios",
        "_segmentIndex": 0,
        "_position": 11
      },
      "geometry": {
        "type": "Point",
        "coordinates": [
          -73.35322910819765,
          5.529111254931844
        ]
      }
    },
    {
      "type": "Feature",
      "properties": {
        "_source": "Ruta8-LaFuente-Cooservicios",
        "_segmentIndex": 0,
        "_position": 12
      },
      "geometry": {
        "type": "Point",
        "coordinates": [
          -73.35277850530757,
          5.529134231132711
        ]
      }
    },
    {
      "type": "Feature",
      "properties": {
        "_source": "Ruta8-LaFuente-Cooservicios",
        "_segmentIndex": 0,
        "_position": 13
      },
      "geometry": {
        "type": "Point",
        "coordinates": [
          -73.3523303820901,
          5.529191188821371
        ]
      }
    },
    {
      "type": "Feature",
      "properties": {
        "_source": "Ruta8-LaFuente-Cooservicios",
        "_segmentIndex": 0,
        "_position": 14
      },
      "geometry": {
        "type": "Point",
        "coordinates": [
          -73.35188454662847,
          5.529263761515922
        ]
      }
    },
    {
      "type": "Feature",
      "properties": {
        "_source": "Ruta8-LaFuente-Cooservicios",
        "_segmentIndex": 0,
        "_position": 15
      },
      "geometry": {
        "type": "Point",
        "coordinates": [
          -73.35143865166725,
          5.529335994483599
        ]
      }
    },
    {
      "type": "Feature",
      "properties": {
        "_source": "Ruta8-LaFuente-Cooservicios",
        "_segmentIndex": 0,
        "_position": 16
      },
      "geometry": {
        "type": "Point",
        "coordinates": [
          -73.35099534262217,
          5.529415407810705
        ]
      }
    },
    {
      "type": "Feature",
      "properties": {
        "_source": "Ruta8-LaFuente-Cooservicios",
        "_segmentIndex": 0,
        "_position": 17
      },
      "geometry": {
        "type": "Point",
        "coordinates": [
          -73.35059868500943,
          5.529630601542182
        ]
      }
    },
    {
      "type": "Feature",
      "properties": {
        "_source": "Ruta8-LaFuente-Cooservicios",
        "_segmentIndex": 0,
        "_position": 18
      },
      "geometry": {
        "type": "Point",
        "coordinates": [
          -73.35015685537343,
          5.529706828360369
        ]
      }
    },
    {
      "type": "Feature",
      "properties": {
        "_source": "Ruta8-LaFuente-Cooservicios",
        "_segmentIndex": 0,
        "_position": 19
      },
      "geometry": {
        "type": "Point",
        "coordinates": [
          -73.34970538925292,
          5.529691420250977
        ]
      }
    },
    {
      "type": "Feature",
      "properties": {
        "_source": "Ruta8-LaFuente-Cooservicios",
        "_segmentIndex": 0,
        "_position": 20
      },
      "geometry": {
        "type": "Point",
        "coordinates": [
          -73.34925568661816,
          5.529650010681184
        ]
      }
    },
    {
      "type": "Feature",
      "properties": {
        "_source": "Ruta8-LaFuente-Cooservicios",
        "_segmentIndex": 0,
        "_position": 0
      },
      "geometry": {
        "type": "Point",
        "coordinates": [
          -73.348947,
          5.529686
        ]
      }
    },
    {
      "type": "Feature",
      "properties": {
        "_source": "Ruta8-LaFuente-Cooservicios",
        "_segmentIndex": 0,
        "_position": 1
      },
      "geometry": {
        "type": "Point",
        "coordinates": [
          -73.34872003175717,
          5.530074609237814
        ]
      }
    },
    {
      "type": "Feature",
      "properties": {
        "_source": "Ruta8-LaFuente-Cooservicios",
        "_segmentIndex": 0,
        "_position": 2
      },
      "geometry": {
        "type": "Point",
        "coordinates": [
          -73.348431756849,
          5.530418015846223
        ]
      }
    },
    {
      "type": "Feature",
      "properties": {
        "_source": "Ruta8-LaFuente-Cooservicios",
        "_segmentIndex": 0,
        "_position": 3
      },
      "geometry": {
        "type": "Point",
        "coordinates": [
          -73.34817054338498,
          5.530784888561797
        ]
      }
    },
    {
      "type": "Feature",
      "properties": {
        "_source": "Ruta8-LaFuente-Cooservicios",
        "_segmentIndex": 0,
        "_position": 4
      },
      "geometry": {
        "type": "Point",
        "coordinates": [
          -73.34791597362418,
          5.531156346513396
        ]
      }
    },
    {
      "type": "Feature",
      "properties": {
        "_source": "Ruta8-LaFuente-Cooservicios",
        "_segmentIndex": 0,
        "_position": 5
      },
      "geometry": {
        "type": "Point",
        "coordinates": [
          -73.3476417708836,
          5.531512910362146
        ]
      }
    },
    {
      "type": "Feature",
      "properties": {
        "_source": "Ruta8-LaFuente-Cooservicios",
        "_segmentIndex": 0,
        "_position": 6
      },
      "geometry": {
        "type": "Point",
        "coordinates": [
          -73.3473471762603,
          5.531853798574053
        ]
      }
    },
    {
      "type": "Feature",
      "properties": {
        "_source": "Ruta8-LaFuente-Cooservicios",
        "_segmentIndex": 0,
        "_position": 7
      },
      "geometry": {
        "type": "Point",
        "coordinates": [
          -73.34710087120305,
          5.532211529784628
        ]
      }
    },
    {
      "type": "Feature",
      "properties": {
        "_source": "Ruta8-LaFuente-Cooservicios",
        "_segmentIndex": 0,
        "_position": 8
      },
      "geometry": {
        "type": "Point",
        "coordinates": [
          -73.34702472904118,
          5.532645078316254
        ]
      }
    },
    {
      "type": "Feature",
      "properties": {
        "_source": "Ruta8-LaFuente-Cooservicios",
        "_segmentIndex": 0,
        "_position": 9
      },
      "geometry": {
        "type": "Point",
        "coordinates": [
          -73.34708076309587,
          5.5330870081585575
        ]
      }
    },
    {
      "type": "Feature",
      "properties": {
        "_source": "Ruta8-LaFuente-Cooservicios",
        "_segmentIndex": 0,
        "_position": 10
      },
      "geometry": {
        "type": "Point",
        "coordinates": [
          -73.3471425546505,
          5.533532025679026
        ]
      }
    },
    {
      "type": "Feature",
      "properties": {
        "_source": "Ruta8-LaFuente-Cooservicios",
        "_segmentIndex": 0,
        "_position": 0
      },
      "geometry": {
        "type": "Point",
        "coordinates": [
          -73.347166,
          5.533856
        ]
      }
    },
    {
      "type": "Feature",
      "properties": {
        "_source": "Ruta8-LaFuente-Cooservicios",
        "_segmentIndex": 0,
        "_position": 1
      },
      "geometry": {
        "type": "Point",
        "coordinates": [
          -73.34671850040493,
          5.533896352133149
        ]
      }
    },
    {
      "type": "Feature",
      "properties": {
        "_source": "Ruta8-LaFuente-Cooservicios",
        "_segmentIndex": 0,
        "_position": 2
      },
      "geometry": {
        "type": "Point",
        "coordinates": [
          -73.34633741578315,
          5.534124584297583
        ]
      }
    },
    {
      "type": "Feature",
      "properties": {
        "_source": "Ruta8-LaFuente-Cooservicios",
        "_segmentIndex": 0,
        "_position": 3
      },
      "geometry": {
        "type": "Point",
        "coordinates": [
          -73.34601949062875,
          5.534444016565046
        ]
      }
    },
    {
      "type": "Feature",
      "properties": {
        "_source": "Ruta8-LaFuente-Cooservicios",
        "_segmentIndex": 0,
        "_position": 4
      },
      "geometry": {
        "type": "Point",
        "coordinates": [
          -73.34571595080416,
          5.5347770554571225
        ]
      }
    },
    {
      "type": "Feature",
      "properties": {
        "_source": "Ruta8-LaFuente-Cooservicios",
        "_segmentIndex": 0,
        "_position": 5
      },
      "geometry": {
        "type": "Point",
        "coordinates": [
          -73.34532223218834,
          5.534903398273263
        ]
      }
    },
    {
      "type": "Feature",
      "properties": {
        "_source": "Ruta8-LaFuente-Cooservicios",
        "_segmentIndex": 0,
        "_position": 6
      },
      "geometry": {
        "type": "Point",
        "coordinates": [
          -73.34508963884319,
          5.534522115190194
        ]
      }
    },
    {
      "type": "Feature",
      "properties": {
        "_source": "Ruta8-LaFuente-Cooservicios",
        "_segmentIndex": 0,
        "_position": 7
      },
      "geometry": {
        "type": "Point",
        "coordinates": [
          -73.3448959005845,
          5.5341159023436575
        ]
      }
    },
    {
      "type": "Feature",
      "properties": {
        "_source": "Ruta8-LaFuente-Cooservicios",
        "_segmentIndex": 0,
        "_position": 8
      },
      "geometry": {
        "type": "Point",
        "coordinates": [
          -73.34470216259197,
          5.533709689434242
        ]
      }
    },
    {
      "type": "Feature",
      "properties": {
        "_source": "Ruta8-LaFuente-Cooservicios",
        "_segmentIndex": 0,
        "_position": 9
      },
      "geometry": {
        "type": "Point",
        "coordinates": [
          -73.34450626701064,
          5.533304511710352
        ]
      }
    },
    {
      "type": "Feature",
      "properties": {
        "_source": "Ruta8-LaFuente-Cooservicios",
        "_segmentIndex": 0,
        "_position": 10
      },
      "geometry": {
        "type": "Point",
        "coordinates": [
          -73.34430770071084,
          5.532900615349583
        ]
      }
    },
    {
      "type": "Feature",
      "properties": {
        "_source": "Ruta8-LaFuente-Cooservicios",
        "_segmentIndex": 0,
        "_position": 11
      },
      "geometry": {
        "type": "Point",
        "coordinates": [
          -73.34412506173183,
          5.5324899377045895
        ]
      }
    },
    {
      "type": "Feature",
      "properties": {
        "_source": "Ruta8-LaFuente-Cooservicios",
        "_segmentIndex": 0,
        "_position": 0
      },
      "geometry": {
        "type": "Point",
        "coordinates": [
          -73.34409,
          5.532134
        ]
      }
    },
    {
      "type": "Feature",
      "properties": {
        "_source": "Ruta8-LaFuente-Cooservicios",
        "_segmentIndex": 0,
        "_position": 1
      },
      "geometry": {
        "type": "Point",
        "coordinates": [
          -73.34439055210694,
          5.531804107785625
        ]
      }
    },
    {
      "type": "Feature",
      "properties": {
        "_source": "Ruta8-LaFuente-Cooservicios",
        "_segmentIndex": 0,
        "_position": 2
      },
      "geometry": {
        "type": "Point",
        "coordinates": [
          -73.34461688091733,
          5.53141510669854
        ]
      }
    },
    {
      "type": "Feature",
      "properties": {
        "_source": "Ruta8-LaFuente-Cooservicios",
        "_segmentIndex": 0,
        "_position": 3
      },
      "geometry": {
        "type": "Point",
        "coordinates": [
          -73.34483644312878,
          5.531022125026188
        ]
      }
    },
    {
      "type": "Feature",
      "properties": {
        "_source": "Ruta8-LaFuente-Cooservicios",
        "_segmentIndex": 0,
        "_position": 4
      },
      "geometry": {
        "type": "Point",
        "coordinates": [
          -73.34504728197022,
          5.530625912672069
        ]
      }
    },
    {
      "type": "Feature",
      "properties": {
        "_source": "Ruta8-LaFuente-Cooservicios",
        "_segmentIndex": 0,
        "_position": 5
      },
      "geometry": {
        "type": "Point",
        "coordinates": [
          -73.34479967376264,
          5.530328342478891
        ]
      }
    },
    {
      "type": "Feature",
      "properties": {
        "_source": "Ruta8-LaFuente-Cooservicios",
        "_segmentIndex": 0,
        "_position": 6
      },
      "geometry": {
        "type": "Point",
        "coordinates": [
          -73.34459337052179,
          5.530671164283157
        ]
      }
    },
    {
      "type": "Feature",
      "properties": {
        "_source": "Ruta8-LaFuente-Cooservicios",
        "_segmentIndex": 0,
        "_position": 7
      },
      "geometry": {
        "type": "Point",
        "coordinates": [
          -73.34457988981431,
          5.531120620943845
        ]
      }
    },
    {
      "type": "Feature",
      "properties": {
        "_source": "Ruta8-LaFuente-Cooservicios",
        "_segmentIndex": 0,
        "_position": 8
      },
      "geometry": {
        "type": "Point",
        "coordinates": [
          -73.3445666068782,
          5.5315700867179
        ]
      }
    },
    {
      "type": "Feature",
      "properties": {
        "_source": "Ruta8-LaFuente-Cooservicios",
        "_segmentIndex": 0,
        "_position": 9
      },
      "geometry": {
        "type": "Point",
        "coordinates": [
          -73.34455088535452,
          5.5320194485052125
        ]
      }
    },
    {
      "type": "Feature",
      "properties": {
        "_source": "Ruta8-LaFuente-Cooservicios",
        "_segmentIndex": 0,
        "_position": 10
      },
      "geometry": {
        "type": "Point",
        "coordinates": [
          -73.34446430360556,
          5.532449198790589
        ]
      }
    },
    {
      "type": "Feature",
      "properties": {
        "_source": "Ruta8-LaFuente-Cooservicios",
        "_segmentIndex": 0,
        "_position": 11
      },
      "geometry": {
        "type": "Point",
        "coordinates": [
          -73.34413316825282,
          5.532305907048278
        ]
      }
    },
    {
      "type": "Feature",
      "properties": {
        "_source": "Ruta8-LaFuente-Cooservicios",
        "_segmentIndex": 0,
        "_position": 12
      },
      "geometry": {
        "type": "Point",
        "coordinates": [
          -73.34423215081448,
          5.531868412687401
        ]
      }
    },
    {
      "type": "Feature",
      "properties": {
        "_source": "Ruta8-LaFuente-Cooservicios",
        "_segmentIndex": 0,
        "_position": 13
      },
      "geometry": {
        "type": "Point",
        "coordinates": [
          -73.344350517456,
          5.5314352530186
        ]
      }
    },
    {
      "type": "Feature",
      "properties": {
        "_source": "Ruta8-LaFuente-Cooservicios",
        "_segmentIndex": 0,
        "_position": 14
      },
      "geometry": {
        "type": "Point",
        "coordinates": [
          -73.34434803475965,
          5.530987158349403
        ]
      }
    },
    {
      "type": "Feature",
      "properties": {
        "_source": "Ruta8-LaFuente-Cooservicios",
        "_segmentIndex": 0,
        "_position": 15
      },
      "geometry": {
        "type": "Point",
        "coordinates": [
          -73.34430217686075,
          5.530540944267796
        ]
      }
    },
    {
      "type": "Feature",
      "properties": {
        "_source": "Ruta8-LaFuente-Cooservicios",
        "_segmentIndex": 0,
        "_position": 16
      },
      "geometry": {
        "type": "Point",
        "coordinates": [
          -73.34433855395577,
          5.530093408783092
        ]
      }
    },
    {
      "type": "Feature",
      "properties": {
        "_source": "Ruta8-LaFuente-Cooservicios",
        "_segmentIndex": 0,
        "_position": 0
      },
      "geometry": {
        "type": "Point",
        "coordinates": [
          -73.344352,
          5.529985
        ]
      }
    },
    {
      "type": "Feature",
      "properties": {
        "_source": "Ruta8-LaFuente-Cooservicios",
        "_segmentIndex": 0,
        "_position": 1
      },
      "geometry": {
        "type": "Point",
        "coordinates": [
          -73.34458612379063,
          5.529600878118449
        ]
      }
    },
    {
      "type": "Feature",
      "properties": {
        "_source": "Ruta8-LaFuente-Cooservicios",
        "_segmentIndex": 0,
        "_position": 2
      },
      "geometry": {
        "type": "Point",
        "coordinates": [
          -73.34483981534657,
          5.529228814157625
        ]
      }
    },
    {
      "type": "Feature",
      "properties": {
        "_source": "Ruta8-LaFuente-Cooservicios",
        "_segmentIndex": 0,
        "_position": 3
      },
      "geometry": {
        "type": "Point",
        "coordinates": [
          -73.34509494124828,
          5.528857722118425
        ]
      }
    },
    {
      "type": "Feature",
      "properties": {
        "_source": "Ruta8-LaFuente-Cooservicios",
        "_segmentIndex": 0,
        "_position": 4
      },
      "geometry": {
        "type": "Point",
        "coordinates": [
          -73.34535104495502,
          5.528487308910246
        ]
      }
    },
    {
      "type": "Feature",
      "properties": {
        "_source": "Ruta8-LaFuente-Cooservicios",
        "_segmentIndex": 0,
        "_position": 5
      },
      "geometry": {
        "type": "Point",
        "coordinates": [
          -73.34561214555512,
          5.52812036409606
        ]
      }
    },
    {
      "type": "Feature",
      "properties": {
        "_source": "Ruta8-LaFuente-Cooservicios",
        "_segmentIndex": 0,
        "_position": 6
      },
      "geometry": {
        "type": "Point",
        "coordinates": [
          -73.34586742783159,
          5.527749378940332
        ]
      }
    },
    {
      "type": "Feature",
      "properties": {
        "_source": "Ruta8-LaFuente-Cooservicios",
        "_segmentIndex": 0,
        "_position": 7
      },
      "geometry": {
        "type": "Point",
        "coordinates": [
          -73.34612270978813,
          5.52737839367555
        ]
      }
    },
    {
      "type": "Feature",
      "properties": {
        "_source": "Ruta8-LaFuente-Cooservicios",
        "_segmentIndex": 0,
        "_position": 8
      },
      "geometry": {
        "type": "Point",
        "coordinates": [
          -73.34637799142475,
          5.527007408301719
        ]
      }
    },
    {
      "type": "Feature",
      "properties": {
        "_source": "Ruta8-LaFuente-Cooservicios",
        "_segmentIndex": 0,
        "_position": 9
      },
      "geometry": {
        "type": "Point",
        "coordinates": [
          -73.34664033031632,
          5.5266413547498425
        ]
      }
    },
    {
      "type": "Feature",
      "properties": {
        "_source": "Ruta8-LaFuente-Cooservicios",
        "_segmentIndex": 0,
        "_position": 10
      },
      "geometry": {
        "type": "Point",
        "coordinates": [
          -73.34690417954582,
          5.526276356754156
        ]
      }
    },
    {
      "type": "Feature",
      "properties": {
        "_source": "Ruta8-LaFuente-Cooservicios",
        "_segmentIndex": 0,
        "_position": 11
      },
      "geometry": {
        "type": "Point",
        "coordinates": [
          -73.3471668646175,
          5.525910535271498
        ]
      }
    },
    {
      "type": "Feature",
      "properties": {
        "_source": "Ruta8-LaFuente-Cooservicios",
        "_segmentIndex": 0,
        "_position": 12
      },
      "geometry": {
        "type": "Point",
        "coordinates": [
          -73.34742644994107,
          5.525542520941073
        ]
      }
    },
    {
      "type": "Feature",
      "properties": {
        "_source": "Ruta8-LaFuente-Cooservicios",
        "_segmentIndex": 0,
        "_position": 13
      },
      "geometry": {
        "type": "Point",
        "coordinates": [
          -73.34768603494201,
          5.52517450649793
        ]
      }
    },
    {
      "type": "Feature",
      "properties": {
        "_source": "Ruta8-LaFuente-Cooservicios",
        "_segmentIndex": 0,
        "_position": 14
      },
      "geometry": {
        "type": "Point",
        "coordinates": [
          -73.3479465248841,
          5.524807126647926
        ]
      }
    },
    {
      "type": "Feature",
      "properties": {
        "_source": "Ruta8-LaFuente-Cooservicios",
        "_segmentIndex": 0,
        "_position": 15
      },
      "geometry": {
        "type": "Point",
        "coordinates": [
          -73.3482072520901,
          5.524439913263358
        ]
      }
    },
    {
      "type": "Feature",
      "properties": {
        "_source": "Ruta8-LaFuente-Cooservicios",
        "_segmentIndex": 0,
        "_position": 16
      },
      "geometry": {
        "type": "Point",
        "coordinates": [
          -73.34846797897286,
          5.5240726997650995
        ]
      }
    },
    {
      "type": "Feature",
      "properties": {
        "_source": "Ruta8-LaFuente-Cooservicios",
        "_segmentIndex": 0,
        "_position": 17
      },
      "geometry": {
        "type": "Point",
        "coordinates": [
          -73.34873013286351,
          5.523706518473732
        ]
      }
    },
    {
      "type": "Feature",
      "properties": {
        "_source": "Ruta8-LaFuente-Cooservicios",
        "_segmentIndex": 0,
        "_position": 18
      },
      "geometry": {
        "type": "Point",
        "coordinates": [
          -73.3490004738185,
          5.523346258613443
        ]
      }
    },
    {
      "type": "Feature",
      "properties": {
        "_source": "Ruta8-LaFuente-Cooservicios",
        "_segmentIndex": 0,
        "_position": 19
      },
      "geometry": {
        "type": "Point",
        "coordinates": [
          -73.34928506226282,
          5.52299766517341
        ]
      }
    },
    {
      "type": "Feature",
      "properties": {
        "_source": "Ruta8-LaFuente-Cooservicios",
        "_segmentIndex": 0,
        "_position": 20
      },
      "geometry": {
        "type": "Point",
        "coordinates": [
          -73.3496172303793,
          5.522693699616612
        ]
      }
    },
    {
      "type": "Feature",
      "properties": {
        "_source": "Ruta8-LaFuente-Cooservicios",
        "_segmentIndex": 0,
        "_position": 21
      },
      "geometry": {
        "type": "Point",
        "coordinates": [
          -73.34995587775076,
          5.522396099083879
        ]
      }
    },
    {
      "type": "Feature",
      "properties": {
        "_source": "Ruta8-LaFuente-Cooservicios",
        "_segmentIndex": 0,
        "_position": 22
      },
      "geometry": {
        "type": "Point",
        "coordinates": [
          -73.35027117637355,
          5.522075147589072
        ]
      }
    },
    {
      "type": "Feature",
      "properties": {
        "_source": "Ruta8-LaFuente-Cooservicios",
        "_segmentIndex": 0,
        "_position": 23
      },
      "geometry": {
        "type": "Point",
        "coordinates": [
          -73.35054140752052,
          5.521716439059091
        ]
      }
    },
    {
      "type": "Feature",
      "properties": {
        "_source": "Ruta8-LaFuente-Cooservicios",
        "_segmentIndex": 0,
        "_position": 24
      },
      "geometry": {
        "type": "Point",
        "coordinates": [
          -73.35071404521207,
          5.521301581407018
        ]
      }
    },
    {
      "type": "Feature",
      "properties": {
        "_source": "Ruta8-LaFuente-Cooservicios",
        "_segmentIndex": 0,
        "_position": 25
      },
      "geometry": {
        "type": "Point",
        "coordinates": [
          -73.35084130235862,
          5.520870191516937
        ]
      }
    },
    {
      "type": "Feature",
      "properties": {
        "_source": "Ruta8-LaFuente-Cooservicios",
        "_segmentIndex": 0,
        "_position": 26
      },
      "geometry": {
        "type": "Point",
        "coordinates": [
          -73.35096193524463,
          5.520436883506082
        ]
      }
    },
    {
      "type": "Feature",
      "properties": {
        "_source": "Ruta8-LaFuente-Cooservicios",
        "_segmentIndex": 0,
        "_position": 27
      },
      "geometry": {
        "type": "Point",
        "coordinates": [
          -73.35110463335968,
          5.520010593514558
        ]
      }
    },
    {
      "type": "Feature",
      "properties": {
        "_source": "Ruta8-LaFuente-Cooservicios",
        "_segmentIndex": 0,
        "_position": 28
      },
      "geometry": {
        "type": "Point",
        "coordinates": [
          -73.35127252978684,
          5.519593141854196
        ]
      }
    },
    {
      "type": "Feature",
      "properties": {
        "_source": "Ruta8-LaFuente-Cooservicios",
        "_segmentIndex": 0,
        "_position": 29
      },
      "geometry": {
        "type": "Point",
        "coordinates": [
          -73.35144106601663,
          5.519175945757382
        ]
      }
    },
    {
      "type": "Feature",
      "properties": {
        "_source": "Ruta8-LaFuente-Cooservicios",
        "_segmentIndex": 0,
        "_position": 30
      },
      "geometry": {
        "type": "Point",
        "coordinates": [
          -73.35161142905679,
          5.518759505430092
        ]
      }
    },
    {
      "type": "Feature",
      "properties": {
        "_source": "Ruta8-LaFuente-Cooservicios",
        "_segmentIndex": 0,
        "_position": 31
      },
      "geometry": {
        "type": "Point",
        "coordinates": [
          -73.35178966479424,
          5.518346322539904
        ]
      }
    },
    {
      "type": "Feature",
      "properties": {
        "_source": "Ruta8-LaFuente-Cooservicios",
        "_segmentIndex": 0,
        "_position": 32
      },
      "geometry": {
        "type": "Point",
        "coordinates": [
          -73.35197688956715,
          5.517937144141714
        ]
      }
    },
    {
      "type": "Feature",
      "properties": {
        "_source": "Ruta8-LaFuente-Cooservicios",
        "_segmentIndex": 0,
        "_position": 0
      },
      "geometry": {
        "type": "Point",
        "coordinates": [
          -73.352058,
          5.517937
        ]
      }
    },
    {
      "type": "Feature",
      "properties": {
        "_source": "Ruta8-LaFuente-Cooservicios",
        "_segmentIndex": 0,
        "_position": 1
      },
      "geometry": {
        "type": "Point",
        "coordinates": [
          -73.35248163163362,
          5.518093172756289
        ]
      }
    },
    {
      "type": "Feature",
      "properties": {
        "_source": "Ruta8-LaFuente-Cooservicios",
        "_segmentIndex": 0,
        "_position": 2
      },
      "geometry": {
        "type": "Point",
        "coordinates": [
          -73.35290526349034,
          5.518249345212778
        ]
      }
    },
    {
      "type": "Feature",
      "properties": {
        "_source": "Ruta8-LaFuente-Cooservicios",
        "_segmentIndex": 0,
        "_position": 3
      },
      "geometry": {
        "type": "Point",
        "coordinates": [
          -73.35332774816672,
          5.518408494070765
        ]
      }
    },
    {
      "type": "Feature",
      "properties": {
        "_source": "Ruta8-LaFuente-Cooservicios",
        "_segmentIndex": 0,
        "_position": 4
      },
      "geometry": {
        "type": "Point",
        "coordinates": [
          -73.35374760938578,
          5.518574449249441
        ]
      }
    },
    {
      "type": "Feature",
      "properties": {
        "_source": "Ruta8-LaFuente-Cooservicios",
        "_segmentIndex": 0,
        "_position": 5
      },
      "geometry": {
        "type": "Point",
        "coordinates": [
          -73.35416467087929,
          5.518747027683506
        ]
      }
    },
    {
      "type": "Feature",
      "properties": {
        "_source": "Ruta8-LaFuente-Cooservicios",
        "_segmentIndex": 0,
        "_position": 6
      },
      "geometry": {
        "type": "Point",
        "coordinates": [
          -73.35457742803275,
          5.518929788708078
        ]
      }
    },
    {
      "type": "Feature",
      "properties": {
        "_source": "Ruta8-LaFuente-Cooservicios",
        "_segmentIndex": 0,
        "_position": 7
      },
      "geometry": {
        "type": "Point",
        "coordinates": [
          -73.35499018544067,
          5.519112549448004
        ]
      }
    },
    {
      "type": "Feature",
      "properties": {
        "_source": "Ruta8-LaFuente-Cooservicios",
        "_segmentIndex": 0,
        "_position": 8
      },
      "geometry": {
        "type": "Point",
        "coordinates": [
          -73.35540294310303,
          5.519295309903269
        ]
      }
    },
    {
      "type": "Feature",
      "properties": {
        "_source": "Ruta8-LaFuente-Cooservicios",
        "_segmentIndex": 0,
        "_position": 9
      },
      "geometry": {
        "type": "Point",
        "coordinates": [
          -73.35581570101982,
          5.519478070073867
        ]
      }
    },
    {
      "type": "Feature",
      "properties": {
        "_source": "Ruta8-LaFuente-Cooservicios",
        "_segmentIndex": 0,
        "_position": 10
      },
      "geometry": {
        "type": "Point",
        "coordinates": [
          -73.3562260606776,
          5.519665094179049
        ]
      }
    },
    {
      "type": "Feature",
      "properties": {
        "_source": "Ruta8-LaFuente-Cooservicios",
        "_segmentIndex": 0,
        "_position": 11
      },
      "geometry": {
        "type": "Point",
        "coordinates": [
          -73.35659834329738,
          5.519919814154612
        ]
      }
    },
    {
      "type": "Feature",
      "properties": {
        "_source": "Ruta8-LaFuente-Cooservicios",
        "_segmentIndex": 0,
        "_position": 12
      },
      "geometry": {
        "type": "Point",
        "coordinates": [
          -73.35697062623701,
          5.520174533898574
        ]
      }
    },
    {
      "type": "Feature",
      "properties": {
        "_source": "Ruta8-LaFuente-Cooservicios",
        "_segmentIndex": 0,
        "_position": 13
      },
      "geometry": {
        "type": "Point",
        "coordinates": [
          -73.35734774949889,
          5.520422020571918
        ]
      }
    },
    {
      "type": "Feature",
      "properties": {
        "_source": "Ruta8-LaFuente-Cooservicios",
        "_segmentIndex": 0,
        "_position": 14
      },
      "geometry": {
        "type": "Point",
        "coordinates": [
          -73.35772526629462,
          5.520668970222344
        ]
      }
    },
    {
      "type": "Feature",
      "properties": {
        "_source": "Ruta8-LaFuente-Cooservicios",
        "_segmentIndex": 0,
        "_position": 15
      },
      "geometry": {
        "type": "Point",
        "coordinates": [
          -73.35809530365506,
          5.520926304512659
        ]
      }
    },
    {
      "type": "Feature",
      "properties": {
        "_source": "Ruta8-LaFuente-Cooservicios",
        "_segmentIndex": 0,
        "_position": 16
      },
      "geometry": {
        "type": "Point",
        "coordinates": [
          -73.35844690115475,
          5.521208647917307
        ]
      }
    },
    {
      "type": "Feature",
      "properties": {
        "_source": "Ruta8-LaFuente-Cooservicios",
        "_segmentIndex": 0,
        "_position": 17
      },
      "geometry": {
        "type": "Point",
        "coordinates": [
          -73.35882484001624,
          5.521454678845937
        ]
      }
    },
    {
      "type": "Feature",
      "properties": {
        "_source": "Ruta8-LaFuente-Cooservicios",
        "_segmentIndex": 0,
        "_position": 0
      },
      "geometry": {
        "type": "Point",
        "coordinates": [
          -73.359047,
          5.521564
        ]
      }
    },
    {
      "type": "Feature",
      "properties": {
        "_source": "Ruta8-LaFuente-Cooservicios",
        "_segmentIndex": 0,
        "_position": 1
      },
      "geometry": {
        "type": "Point",
        "coordinates": [
          -73.35928953197985,
          5.521184649739406
        ]
      }
    },
    {
      "type": "Feature",
      "properties": {
        "_source": "Ruta8-LaFuente-Cooservicios",
        "_segmentIndex": 0,
        "_position": 2
      },
      "geometry": {
        "type": "Point",
        "coordinates": [
          -73.35950567398304,
          5.520790624623415
        ]
      }
    },
    {
      "type": "Feature",
      "properties": {
        "_source": "Ruta8-LaFuente-Cooservicios",
        "_segmentIndex": 0,
        "_position": 3
      },
      "geometry": {
        "type": "Point",
        "coordinates": [
          -73.35966255054892,
          5.520369712605999
        ]
      }
    },
    {
      "type": "Feature",
      "properties": {
        "_source": "Ruta8-LaFuente-Cooservicios",
        "_segmentIndex": 0,
        "_position": 0
      },
      "geometry": {
        "type": "Point",
        "coordinates": [
          -73.35978,
          5.520088
        ]
      }
    },
    {
      "type": "Feature",
      "properties": {
        "_source": "Ruta8-LaFuente-Cooservicios",
        "_segmentIndex": 0,
        "_position": 1
      },
      "geometry": {
        "type": "Point",
        "coordinates": [
          -73.3599524078057,
          5.519672374134485
        ]
      }
    },
    {
      "type": "Feature",
      "properties": {
        "_source": "Ruta8-LaFuente-Cooservicios",
        "_segmentIndex": 0,
        "_position": 2
      },
      "geometry": {
        "type": "Point",
        "coordinates": [
          -73.36013698880703,
          5.519262051554265
        ]
      }
    },
    {
      "type": "Feature",
      "properties": {
        "_source": "Ruta8-LaFuente-Cooservicios",
        "_segmentIndex": 0,
        "_position": 3
      },
      "geometry": {
        "type": "Point",
        "coordinates": [
          -73.36032474700717,
          5.51885310022926
        ]
      }
    },
    {
      "type": "Feature",
      "properties": {
        "_source": "Ruta8-LaFuente-Cooservicios",
        "_segmentIndex": 0,
        "_position": 4
      },
      "geometry": {
        "type": "Point",
        "coordinates": [
          -73.36039818839181,
          5.51842599830218
        ]
      }
    },
    {
      "type": "Feature",
      "properties": {
        "_source": "Ruta8-LaFuente-Cooservicios",
        "_segmentIndex": 0,
        "_position": 5
      },
      "geometry": {
        "type": "Point",
        "coordinates": [
          -73.36029052587028,
          5.517989295324725
        ]
      }
    },
    {
      "type": "Feature",
      "properties": {
        "_source": "Ruta8-LaFuente-Cooservicios",
        "_segmentIndex": 0,
        "_position": 6
      },
      "geometry": {
        "type": "Point",
        "coordinates": [
          -73.36018402917726,
          5.51755231781572
        ]
      }
    },
    {
      "type": "Feature",
      "properties": {
        "_source": "Ruta8-LaFuente-Cooservicios",
        "_segmentIndex": 0,
        "_position": 7
      },
      "geometry": {
        "type": "Point",
        "coordinates": [
          -73.36012006160773,
          5.517107718861691
        ]
      }
    },
    {
      "type": "Feature",
      "properties": {
        "_source": "Ruta8-LaFuente-Cooservicios",
        "_segmentIndex": 0,
        "_position": 8
      },
      "geometry": {
        "type": "Point",
        "coordinates": [
          -73.36007811984116,
          5.516705930286934
        ]
      }
    },
    {
      "type": "Feature",
      "properties": {
        "_source": "Ruta8-LaFuente-Cooservicios",
        "_segmentIndex": 0,
        "_position": 9
      },
      "geometry": {
        "type": "Point",
        "coordinates": [
          -73.35964559322481,
          5.5165761815919945
        ]
      }
    },
    {
      "type": "Feature",
      "properties": {
        "_source": "Ruta8-LaFuente-Cooservicios",
        "_segmentIndex": 0,
        "_position": 10
      },
      "geometry": {
        "type": "Point",
        "coordinates": [
          -73.359213142614,
          5.516446146868133
        ]
      }
    },
    {
      "type": "Feature",
      "properties": {
        "_source": "Ruta8-LaFuente-Cooservicios",
        "_segmentIndex": 0,
        "_position": 11
      },
      "geometry": {
        "type": "Point",
        "coordinates": [
          -73.35878398928286,
          5.51630592310963
        ]
      }
    },
    {
      "type": "Feature",
      "properties": {
        "_source": "Ruta8-LaFuente-Cooservicios",
        "_segmentIndex": 0,
        "_position": 12
      },
      "geometry": {
        "type": "Point",
        "coordinates": [
          -73.3583518901382,
          5.516174815816205
        ]
      }
    },
    {
      "type": "Feature",
      "properties": {
        "_source": "Ruta8-LaFuente-Cooservicios",
        "_segmentIndex": 0,
        "_position": 13
      },
      "geometry": {
        "type": "Point",
        "coordinates": [
          -73.35791991521955,
          5.5160433050782265
        ]
      }
    },
    {
      "type": "Feature",
      "properties": {
        "_source": "Ruta8-LaFuente-Cooservicios",
        "_segmentIndex": 0,
        "_position": 14
      },
      "geometry": {
        "type": "Point",
        "coordinates": [
          -73.35789363452949,
          5.515670177250084
        ]
      }
    },
    {
      "type": "Feature",
      "properties": {
        "_source": "Ruta8-LaFuente-Cooservicios",
        "_segmentIndex": 0,
        "_position": 15
      },
      "geometry": {
        "type": "Point",
        "coordinates": [
          -73.35787785295842,
          5.51531583794993
        ]
      }
    },
    {
      "type": "Feature",
      "properties": {
        "_source": "Ruta8-LaFuente-Cooservicios",
        "_segmentIndex": 0,
        "_position": 16
      },
      "geometry": {
        "type": "Point",
        "coordinates": [
          -73.35744808974009,
          5.515177259658609
        ]
      }
    },
    {
      "type": "Feature",
      "properties": {
        "_source": "Ruta8-LaFuente-Cooservicios",
        "_segmentIndex": 0,
        "_position": 17
      },
      "geometry": {
        "type": "Point",
        "coordinates": [
          -73.35701832672248,
          5.515038681058904
        ]
      }
    },
    {
      "type": "Feature",
      "properties": {
        "_source": "Ruta8-LaFuente-Cooservicios",
        "_segmentIndex": 0,
        "_position": 18
      },
      "geometry": {
        "type": "Point",
        "coordinates": [
          -73.3565880871784,
          5.514901576453402
        ]
      }
    },
    {
      "type": "Feature",
      "properties": {
        "_source": "Ruta8-LaFuente-Cooservicios",
        "_segmentIndex": 0,
        "_position": 19
      },
      "geometry": {
        "type": "Point",
        "coordinates": [
          -73.35615625679087,
          5.514769526872616
        ]
      }
    },
    {
      "type": "Feature",
      "properties": {
        "_source": "Ruta8-LaFuente-Cooservicios",
        "_segmentIndex": 0,
        "_position": 20
      },
      "geometry": {
        "type": "Point",
        "coordinates": [
          -73.35572687487301,
          5.51462987278025
        ]
      }
    },
    {
      "type": "Feature",
      "properties": {
        "_source": "Ruta8-LaFuente-Cooservicios",
        "_segmentIndex": 0,
        "_position": 21
      },
      "geometry": {
        "type": "Point",
        "coordinates": [
          -73.3552984044613,
          5.514487384878251
        ]
      }
    },
    {
      "type": "Feature",
      "properties": {
        "_source": "Ruta8-LaFuente-Cooservicios",
        "_segmentIndex": 0,
        "_position": 22
      },
      "geometry": {
        "type": "Point",
        "coordinates": [
          -73.35486752594704,
          5.514352358461807
        ]
      }
    },
    {
      "type": "Feature",
      "properties": {
        "_source": "Ruta8-LaFuente-Cooservicios",
        "_segmentIndex": 0,
        "_position": 23
      },
      "geometry": {
        "type": "Point",
        "coordinates": [
          -73.35449236018626,
          5.51436556179964
        ]
      }
    },
    {
      "type": "Feature",
      "properties": {
        "_source": "Ruta8-LaFuente-Cooservicios",
        "_segmentIndex": 0,
        "_position": 24
      },
      "geometry": {
        "type": "Point",
        "coordinates": [
          -73.35425878009127,
          5.514750397198981
        ]
      }
    }
  ]
}