{
  "type": "FeatureCollection",
  "features": [
    {
      "type": "Feature",
      "properties": {
        "_source": "Ruta3-Escandinavo-SantaInes-Arboleda",
        "_segmentIndex": 0,
        "_position": 0
      },
      "geometry": {
        "type": "Point",
        "coordinates": [
          -73.373165,
          5.523731
        ]
      }
    },
    {
      "type": "Feature",
      "properties": {
        "_source": "Ruta3-Escandinavo-SantaInes-Arboleda",
        "_segmentIndex": 0,
        "_position": 1
      },
      "geometry": {
        "type": "Point",
        "coordinates": [
          -73.37299901794178,
          5.5241286587518355
        ]
      }
    },
    {
      "type": "Feature",
      "properties": {
        "_source": "Ruta3-Escandinavo-SantaInes-Arboleda",
        "_segmentIndex": 0,
        "_position": 2
      },
      "geometry": {
        "type": "Point",
        "coordinates": [
          -73.37282573851292,
          5.524543343116052
        ]
      }
    },
    {
      "type": "Feature",
      "properties": {
        "_source": "Ruta3-Escandinavo-SantaInes-Arboleda",
        "_segmentIndex": 0,
        "_position": 3
      },
      "geometry": {
        "type": "Point",
        "coordinates": [
          -73.37271107486664,
          5.524978004389153
        ]
      }
    },
    {
      "type": "Feature",
      "properties": {
        "_source": "Ruta3-Escandinavo-SantaInes-Arboleda",
        "_segmentIndex": 0,
        "_position": 4
      },
      "geometry": {
        "type": "Point",
        "coordinates": [
          -73.37257016554841,
          5.525404731737792
        ]
      }
    },
    {
      "type": "Feature",
      "properties": {
        "_source": "Ruta3-Escandinavo-SantaInes-Arboleda",
        "_segmentIndex": 0,
        "_position": 0
      },
      "geometry": {
        "type": "Point",
        "coordinates": [
          -73.372517,
          5.525526
        ]
      }
    },
    {
      "type": "Feature",
      "properties": {
        "_source": "Ruta3-Escandinavo-SantaInes-Arboleda",
        "_segmentIndex": 0,
        "_position": 1
      },
      "geometry": {
        "type": "Point",
        "coordinates": [
          -73.37211821506767,
          5.525678327686154
        ]
      }
    },
    {
      "type": "Feature",
      "properties": {
        "_source": "Ruta3-Escandinavo-SantaInes-Arboleda",
        "_segmentIndex": 0,
        "_position": 2
      },
      "geometry": {
        "type": "Point",
        "coordinates": [
          -73.37168702620436,
          5.5256263238504575
        ]
      }
    },
    {
      "type": "Feature",
      "properties": {
        "_source": "Ruta3-Escandinavo-SantaInes-Arboleda",
        "_segmentIndex": 0,
        "_position": 3
      },
      "geometry": {
        "type": "Point",
        "coordinates": [
          -73.37125935247239,
          5.525481464218868
        ]
      }
    },
    {
      "type": "Feature",
      "properties": {
        "_source": "Ruta3-Escandinavo-SantaInes-Arboleda",
        "_segmentIndex": 0,
        "_position": 0
      },
      "geometry": {
        "type": "Point",
        "coordinates": [
          -73.371138,
          5.525442
        ]
      }
    },
    {
      "type": "Feature",
      "properties": {
        "_source": "Ruta3-Escandinavo-SantaInes-Arboleda",
        "_segmentIndex": 0,
        "_position": 1
      },
      "geometry": {
        "type": "Point",
        "coordinates": [
          -73.37127328171368,
          5.525013290747005
        ]
      }
    },
    {
      "type": "Feature",
      "properties": {
        "_source": "Ruta3-Escandinavo-SantaInes-Arboleda",
        "_segmentIndex": 0,
        "_position": 0
      },
      "geometry": {
        "type": "Point",
        "coordinates": [
          -73.371273,
          5.524972
        ]
      }
    },
    {
      "type": "Feature",
      "properties": {
        "_source": "Ruta3-Escandinavo-SantaInes-Arboleda",
        "_segmentIndex": 0,
        "_position": 1
      },
      "geometry": {
        "type": "Point",
        "coordinates": [
          -73.37084766324166,
          5.524820762527234
        ]
      }
    },
    {
      "type": "Feature",
      "properties": {
        "_source": "Ruta3-Escandinavo-SantaInes-Arboleda",
        "_segmentIndex": 0,
        "_position": 2
      },
      "geometry": {
        "type": "Point",
        "coordinates": [
          -73.37042121679532,
          5.524672552862668
        ]
      }
    },
    {
      "type": "Feature",
      "properties": {
        "_source": "Ruta3-Escandinavo-SantaInes-Arboleda",
        "_segmentIndex": 0,
        "_position": 0
      },
      "geometry": {
        "type": "Point",
        "coordinates": [
          -73.370062,
          5.524556
        ]
      }
    },
    {
      "type": "Feature",
      "properties": {
        "_source": "Ruta3-Escandinavo-SantaInes-Arboleda",
        "_segmentIndex": 0,
        "_position": 1
      },
      "geometry": {
        "type": "Point",
        "coordinates": [
          -73.36988295010438,
          5.52495114971558
        ]
      }
    },
    {
      "type": "Feature",
      "properties": {
        "_source": "Ruta3-Escandinavo-SantaInes-Arboleda",
        "_segmentIndex": 0,
        "_position": 2
      },
      "geometry": {
        "type": "Point",
        "coordinates": [
          -73.36973497375438,
          5.525375770886802
        ]
      }
    },
    {
      "type": "Feature",
      "properties": {
        "_source": "Ruta3-Escandinavo-SantaInes-Arboleda",
        "_segmentIndex": 0,
        "_position": 3
      },
      "geometry": {
        "type": "Point",
        "coordinates": [
          -73.36960113755929,
          5.525805245251783
        ]
      }
    },
    {
      "type": "Feature",
      "properties": {
        "_source": "Ruta3-Escandinavo-SantaInes-Arboleda",
        "_segmentIndex": 0,
        "_position": 4
      },
      "geometry": {
        "type": "Point",
        "coordinates": [
          -73.3694542796229,
          5.526230356697507
        ]
      }
    },
    {
      "type": "Feature",
      "properties": {
        "_source": "Ruta3-Escandinavo-SantaInes-Arboleda",
        "_segmentIndex": 0,
        "_position": 5
      },
      "geometry": {
        "type": "Point",
        "coordinates": [
          -73.36930249389597,
          5.526653768835097
        ]
      }
    },
    {
      "type": "Feature",
      "properties": {
        "_source": "Ruta3-Escandinavo-SantaInes-Arboleda",
        "_segmentIndex": 0,
        "_position": 6
      },
      "geometry": {
        "type": "Point",
        "coordinates": [
          -73.3691745031502,
          5.527084663053357
        ]
      }
    },
    {
      "type": "Feature",
      "properties": {
        "_source": "Ruta3-Escandinavo-SantaInes-Arboleda",
        "_segmentIndex": 0,
        "_position": 7
      },
      "geometry": {
        "type": "Point",
        "coordinates": [
          -73.36909336279412,
          5.527526992840047
        ]
      }
    },
    {
      "type": "Feature",
      "properties": {
        "_source": "Ruta3-Escandinavo-SantaInes-Arboleda",
        "_segmentIndex": 0,
        "_position": 8
      },
      "geometry": {
        "type": "Point",
        "coordinates": [
          -73.36901138867539,
          5.527969179075756
        ]
      }
    },
    {
      "type": "Feature",
      "properties": {
        "_source": "Ruta3-Escandinavo-SantaInes-Arboleda",
        "_segmentIndex": 0,
        "_position": 9
      },
      "geometry": {
        "type": "Point",
        "coordinates": [
          -73.36892645744665,
          5.528410821361866
        ]
      }
    },
    {
      "type": "Feature",
      "properties": {
        "_source": "Ruta3-Escandinavo-SantaInes-Arboleda",
        "_segmentIndex": 0,
        "_position": 10
      },
      "geometry": {
        "type": "Point",
        "coordinates": [
          -73.36884748649146,
          5.528853549598392
        ]
      }
    },
    {
      "type": "Feature",
      "properties": {
        "_source": "Ruta3-Escandinavo-SantaInes-Arboleda",
        "_segmentIndex": 0,
        "_position": 11
      },
      "geometry": {
        "type": "Point",
        "coordinates": [
          -73.36877444257654,
          5.529297259302871
        ]
      }
    },
    {
      "type": "Feature",
      "properties": {
        "_source": "Ruta3-Escandinavo-SantaInes-Arboleda",
        "_segmentIndex": 0,
        "_position": 12
      },
      "geometry": {
        "type": "Point",
        "coordinates": [
          -73.36869829806149,
          5.529740215982405
        ]
      }
    },
    {
      "type": "Feature",
      "properties": {
        "_source": "Ruta3-Escandinavo-SantaInes-Arboleda",
        "_segmentIndex": 0,
        "_position": 13
      },
      "geometry": {
        "type": "Point",
        "coordinates": [
          -73.36861637834738,
          5.530182279890017
        ]
      }
    },
    {
      "type": "Feature",
      "properties": {
        "_source": "Ruta3-Escandinavo-SantaInes-Arboleda",
        "_segmentIndex": 0,
        "_position": 14
      },
      "geometry": {
        "type": "Point",
        "coordinates": [
          -73.3685420818257,
          5.530625811814994
        ]
      }
    },
    {
      "type": "Feature",
      "properties": {
        "_source": "Ruta3-Escandinavo-SantaInes-Arboleda",
        "_segmentIndex": 0,
        "_position": 15
      },
      "geometry": {
        "type": "Point",
        "coordinates": [
          -73.36848803551382,
          5.531071506563376
        ]
      }
    },
    {
      "type": "Feature",
      "properties": {
        "_source": "Ruta3-Escandinavo-SantaInes-Arboleda",
        "_segmentIndex": 0,
        "_position": 0
      },
      "geometry": {
        "type": "Point",
        "coordinates": [
          -73.368366,
          5.531407
        ]
      }
    },
    {
      "type": "Feature",
      "properties": {
        "_source": "Ruta3-Escandinavo-SantaInes-Arboleda",
        "_segmentIndex": 0,
        "_position": 1
      },
      "geometry": {
        "type": "Point",
        "coordinates": [
          -73.36792079114667,
          5.531330678527613
        ]
      }
    },
    {
      "type": "Feature",
      "properties": {
        "_source": "Ruta3-Escandinavo-SantaInes-Arboleda",
        "_segmentIndex": 0,
        "_position": 2
      },
      "geometry": {
        "type": "Point",
        "coordinates": [
          -73.36747853266456,
          5.531239366527751
        ]
      }
    },
    {
      "type": "Feature",
      "properties": {
        "_source": "Ruta3-Escandinavo-SantaInes-Arboleda",
        "_segmentIndex": 0,
        "_position": 3
      },
      "geometry": {
        "type": "Point",
        "coordinates": [
          -73.36704085421059,
          5.531128420314639
        ]
      }
    },
    {
      "type": "Feature",
      "properties": {
        "_source": "Ruta3-Escandinavo-SantaInes-Arboleda",
        "_segmentIndex": 0,
        "_position": 4
      },
      "geometry": {
        "type": "Point",
        "coordinates": [
          -73.36660057423038,
          5.53102769364057
        ]
      }
    },
    {
      "type": "Feature",
      "properties": {
        "_source": "Ruta3-Escandinavo-SantaInes-Arboleda",
        "_segmentIndex": 0,
        "_position": 5
      },
      "geometry": {
        "type": "Point",
        "coordinates": [
          -73.36616041629894,
          5.5309264494716235
        ]
      }
    },
    {
      "type": "Feature",
      "properties": {
        "_source": "Ruta3-Escandinavo-SantaInes-Arboleda",
        "_segmentIndex": 0,
        "_position": 6
      },
      "geometry": {
        "type": "Point",
        "coordinates": [
          -73.36572046144889,
          5.530824409882137
        ]
      }
    },
    {
      "type": "Feature",
      "properties": {
        "_source": "Ruta3-Escandinavo-SantaInes-Arboleda",
        "_segmentIndex": 0,
        "_position": 7
      },
      "geometry": {
        "type": "Point",
        "coordinates": [
          -73.36527743512589,
          5.530736720206939
        ]
      }
    },
    {
      "type": "Feature",
      "properties": {
        "_source": "Ruta3-Escandinavo-SantaInes-Arboleda",
        "_segmentIndex": 0,
        "_position": 0
      },
      "geometry": {
        "type": "Point",
        "coordinates": [
          -73.364848,
          5.530692
        ]
      }
    },
    {
      "type": "Feature",
      "properties": {
        "_source": "Ruta3-Escandinavo-SantaInes-Arboleda",
        "_segmentIndex": 0,
        "_position": 1
      },
      "geometry": {
        "type": "Point",
        "coordinates": [
          -73.36472608138834,
          5.531124975996644
        ]
      }
    },
    {
      "type": "Feature",
      "properties": {
        "_source": "Ruta3-Escandinavo-SantaInes-Arboleda",
        "_segmentIndex": 0,
        "_position": 2
      },
      "geometry": {
        "type": "Point",
        "coordinates": [
          -73.36460000550551,
          5.531556747838517
        ]
      }
    },
    {
      "type": "Feature",
      "properties": {
        "_source": "Ruta3-Escandinavo-SantaInes-Arboleda",
        "_segmentIndex": 0,
        "_position": 3
      },
      "geometry": {
        "type": "Point",
        "coordinates": [
          -73.36447440695639,
          5.531988651561175
        ]
      }
    },
    {
      "type": "Feature",
      "properties": {
        "_source": "Ruta3-Escandinavo-SantaInes-Arboleda",
        "_segmentIndex": 0,
        "_position": 4
      },
      "geometry": {
        "type": "Point",
        "coordinates": [
          -73.36434107356229,
          5.532418274120176
        ]
      }
    },
    {
      "type": "Feature",
      "properties": {
        "_source": "Ruta3-Escandinavo-SantaInes-Arboleda",
        "_segmentIndex": 0,
        "_position": 5
      },
      "geometry": {
        "type": "Point",
        "coordinates": [
          -73.36420639325917,
          5.532847469222586
        ]
      }
    },
    {
      "type": "Feature",
      "properties": {
        "_source": "Ruta3-Escandinavo-SantaInes-Arboleda",
        "_segmentIndex": 0,
        "_position": 6
      },
      "geometry": {
        "type": "Point",
        "coordinates": [
          -73.36407325904594,
          5.533277136539229
        ]
      }
    },
    {
      "type": "Feature",
      "properties": {
        "_source": "Ruta3-Escandinavo-SantaInes-Arboleda",
        "_segmentIndex": 0,
        "_position": 7
      },
      "geometry": {
        "type": "Point",
        "coordinates": [
          -73.3639305592799,
          5.53370364603823
        ]
      }
    },
    {
      "type": "Feature",
      "properties": {
        "_source": "Ruta3-Escandinavo-SantaInes-Arboleda",
        "_segmentIndex": 0,
        "_position": 8
      },
      "geometry": {
        "type": "Point",
        "coordinates": [
          -73.36382500098695,
          5.534140567363964
        ]
      }
    },
    {
      "type": "Feature",
      "properties": {
        "_source": "Ruta3-Escandinavo-SantaInes-Arboleda",
        "_segmentIndex": 0,
        "_position": 9
      },
      "geometry": {
        "type": "Point",
        "coordinates": [
          -73.36371275602018,
          5.534576086860931
        ]
      }
    },
    {
      "type": "Feature",
      "properties": {
        "_source": "Ruta3-Escandinavo-SantaInes-Arboleda",
        "_segmentIndex": 0,
        "_position": 10
      },
      "geometry": {
        "type": "Point",
        "coordinates": [
          -73.36357943562192,
          5.535005446913876
        ]
      }
    },
    {
      "type": "Feature",
      "properties": {
        "_source": "Ruta3-Escandinavo-SantaInes-Arboleda",
        "_segmentIndex": 0,
        "_position": 11
      },
      "geometry": {
        "type": "Point",
        "coordinates": [
          -73.36345606921779,
          5.535438016673598
        ]
      }
    },
    {
      "type": "Feature",
      "properties": {
        "_source": "Ruta3-Escandinavo-SantaInes-Arboleda",
        "_segmentIndex": 0,
        "_position": 0
      },
      "geometry": {
        "type": "Point",
        "coordinates": [
          -73.363316,
          5.5358
        ]
      }
    },
    {
      "type": "Feature",
      "properties": {
        "_source": "Ruta3-Escandinavo-SantaInes-Arboleda",
        "_segmentIndex": 0,
        "_position": 1
      },
      "geometry": {
        "type": "Point",
        "coordinates": [
          -73.36329084425581,
          5.536245904402344
        ]
      }
    },
    {
      "type": "Feature",
      "properties": {
        "_source": "Ruta3-Escandinavo-SantaInes-Arboleda",
        "_segmentIndex": 0,
        "_position": 0
      },
      "geometry": {
        "type": "Point",
        "coordinates": [
          -73.363248,
          5.53634
        ]
      }
    },
    {
      "type": "Feature",
      "properties": {
        "_source": "Ruta3-Escandinavo-SantaInes-Arboleda",
        "_segmentIndex": 0,
        "_position": 1
      },
      "geometry": {
        "type": "Point",
        "coordinates": [
          -73.36279841955425,
          5.536384193193414
        ]
      }
    },
    {
      "type": "Feature",
      "properties": {
        "_source": "Ruta3-Escandinavo-SantaInes-Arboleda",
        "_segmentIndex": 0,
        "_position": 2
      },
      "geometry": {
        "type": "Point",
        "coordinates": [
          -73.36234990007162,
          5.536437835741458
        ]
      }
    },
    {
      "type": "Feature",
      "properties": {
        "_source": "Ruta3-Escandinavo-SantaInes-Arboleda",
        "_segmentIndex": 0,
        "_position": 3
      },
      "geometry": {
        "type": "Point",
        "coordinates": [
          -73.36190770787027,
          5.536517309208894
        ]
      }
    },
    {
      "type": "Feature",
      "properties": {
        "_source": "Ruta3-Escandinavo-SantaInes-Arboleda",
        "_segmentIndex": 0,
        "_position": 4
      },
      "geometry": {
        "type": "Point",
        "coordinates": [
          -73.36155647937713,
          5.5367885042087375
        ]
      }
    },
    {
      "type": "Feature",
      "properties": {
        "_source": "Ruta3-Escandinavo-SantaInes-Arboleda",
        "_segmentIndex": 0,
        "_position": 5
      },
      "geometry": {
        "type": "Point",
        "coordinates": [
          -73.36130744992141,
          5.537155925173868
        ]
      }
    },
    {
      "type": "Feature",
      "properties": {
        "_source": "Ruta3-Escandinavo-SantaInes-Arboleda",
        "_segmentIndex": 0,
        "_position": 6
      },
      "geometry": {
        "type": "Point",
        "coordinates": [
          -73.36106197046126,
          5.537529796924492
        ]
      }
    },
    {
      "type": "Feature",
      "properties": {
        "_source": "Ruta3-Escandinavo-SantaInes-Arboleda",
        "_segmentIndex": 0,
        "_position": 7
      },
      "geometry": {
        "type": "Point",
        "coordinates": [
          -73.36066021153034,
          5.537733993015159
        ]
      }
    },
    {
      "type": "Feature",
      "properties": {
        "_source": "Ruta3-Escandinavo-SantaInes-Arboleda",
        "_segmentIndex": 0,
        "_position": 8
      },
      "geometry": {
        "type": "Point",
        "coordinates": [
          -73.36034041847184,
          5.538044441796011
        ]
      }
    },
    {
      "type": "Feature",
      "properties": {
        "_source": "Ruta3-Escandinavo-SantaInes-Arboleda",
        "_segmentIndex": 0,
        "_position": 0
      },
      "geometry": {
        "type": "Point",
        "coordinates": [
          -73.360274,
          5.53817
        ]
      }
    },
    {
      "type": "Feature",
      "properties": {
        "_source": "Ruta3-Escandinavo-SantaInes-Arboleda",
        "_segmentIndex": 0,
        "_position": 1
      },
      "geometry": {
        "type": "Point",
        "coordinates": [
          -73.36017264785285,
          5.538608197854212
        ]
      }
    },
    {
      "type": "Feature",
      "properties": {
        "_source": "Ruta3-Escandinavo-SantaInes-Arboleda",
        "_segmentIndex": 0,
        "_position": 2
      },
      "geometry": {
        "type": "Point",
        "coordinates": [
          -73.36007308220782,
          5.53904680167952
        ]
      }
    },
    {
      "type": "Feature",
      "properties": {
        "_source": "Ruta3-Escandinavo-SantaInes-Arboleda",
        "_segmentIndex": 0,
        "_position": 3
      },
      "geometry": {
        "type": "Point",
        "coordinates": [
          -73.35996100741686,
          5.5394823909242
        ]
      }
    },
    {
      "type": "Feature",
      "properties": {
        "_source": "Ruta3-Escandinavo-SantaInes-Arboleda",
        "_segmentIndex": 0,
        "_position": 4
      },
      "geometry": {
        "type": "Point",
        "coordinates": [
          -73.35983583476627,
          5.539914301591325
        ]
      }
    },
    {
      "type": "Feature",
      "properties": {
        "_source": "Ruta3-Escandinavo-SantaInes-Arboleda",
        "_segmentIndex": 0,
        "_position": 5
      },
      "geometry": {
        "type": "Point",
        "coordinates": [
          -73.35970462656711,
          5.540344376633179
        ]
      }
    },
    {
      "type": "Feature",
      "properties": {
        "_source": "Ruta3-Escandinavo-SantaInes-Arboleda",
        "_segmentIndex": 0,
        "_position": 6
      },
      "geometry": {
        "type": "Point",
        "coordinates": [
          -73.35953084533107,
          5.540759309350061
        ]
      }
    },
    {
      "type": "Feature",
      "properties": {
        "_source": "Ruta3-Escandinavo-SantaInes-Arboleda",
        "_segmentIndex": 0,
        "_position": 7
      },
      "geometry": {
        "type": "Point",
        "coordinates": [
          -73.35933176608498,
          5.54116294545255
        ]
      }
    },
    {
      "type": "Feature",
      "properties": {
        "_source": "Ruta3-Escandinavo-SantaInes-Arboleda",
        "_segmentIndex": 0,
        "_position": 8
      },
      "geometry": {
        "type": "Point",
        "coordinates": [
          -73.35913627948945,
          5.5415683038310375
        ]
      }
    },
    {
      "type": "Feature",
      "properties": {
        "_source": "Ruta3-Escandinavo-SantaInes-Arboleda",
        "_segmentIndex": 0,
        "_position": 9
      },
      "geometry": {
        "type": "Point",
        "coordinates": [
          -73.35895659434297,
          5.541980856287908
        ]
      }
    },
    {
      "type": "Feature",
      "properties": {
        "_source": "Ruta3-Escandinavo-SantaInes-Arboleda",
        "_segmentIndex": 0,
        "_position": 10
      },
      "geometry": {
        "type": "Point",
        "coordinates": [
          -73.35884792743747,
          5.542414798214491
        ]
      }
    },
    {
      "type": "Feature",
      "properties": {
        "_source": "Ruta3-Escandinavo-SantaInes-Arboleda",
        "_segmentIndex": 0,
        "_position": 11
      },
      "geometry": {
        "type": "Point",
        "coordinates": [
          -73.35876893140141,
          5.542841195744483
        ]
      }
    },
    {
      "type": "Feature",
      "properties": {
        "_source": "Ruta3-Escandinavo-SantaInes-Arboleda",
        "_segmentIndex": 0,
        "_position": 12
      },
      "geometry": {
        "type": "Point",
        "coordinates": [
          -73.35856601300326,
          5.543204338411615
        ]
      }
    },
    {
      "type": "Feature",
      "properties": {
        "_source": "Ruta3-Escandinavo-SantaInes-Arboleda",
        "_segmentIndex": 0,
        "_position": 13
      },
      "geometry": {
        "type": "Point",
        "coordinates": [
          -73.35830503533849,
          5.543571267352682
        ]
      }
    },
    {
      "type": "Feature",
      "properties": {
        "_source": "Ruta3-Escandinavo-SantaInes-Arboleda",
        "_segmentIndex": 0,
        "_position": 14
      },
      "geometry": {
        "type": "Point",
        "coordinates": [
          -73.3580154587771,
          5.543916354634723
        ]
      }
    },
    {
      "type": "Feature",
      "properties": {
        "_source": "Ruta3-Escandinavo-SantaInes-Arboleda",
        "_segmentIndex": 0,
        "_position": 15
      },
      "geometry": {
        "type": "Point",
        "coordinates": [
          -73.35770941993042,
          5.544245603071745
        ]
      }
    },
    {
      "type": "Feature",
      "properties": {
        "_source": "Ruta3-Escandinavo-SantaInes-Arboleda",
        "_segmentIndex": 0,
        "_position": 16
      },
      "geometry": {
        "type": "Point",
        "coordinates": [
          -73.35731946257668,
          5.544408382336324
        ]
      }
    },
    {
      "type": "Feature",
      "properties": {
        "_source": "Ruta3-Escandinavo-SantaInes-Arboleda",
        "_segmentIndex": 0,
        "_position": 0
      },
      "geometry": {
        "type": "Point",
        "coordinates": [
          -73.357289,
          5.544715
        ]
      }
    },
    {
      "type": "Feature",
      "properties": {
        "_source": "Ruta3-Escandinavo-SantaInes-Arboleda",
        "_segmentIndex": 0,
        "_position": 1
      },
      "geometry": {
        "type": "Point",
        "coordinates": [
          -73.35711938679232,
          5.545124108191296
        ]
      }
    },
    {
      "type": "Feature",
      "properties": {
        "_source": "Ruta3-Escandinavo-SantaInes-Arboleda",
        "_segmentIndex": 0,
        "_position": 2
      },
      "geometry": {
        "type": "Point",
        "coordinates": [
          -73.35685031570543,
          5.545485316007031
        ]
      }
    },
    {
      "type": "Feature",
      "properties": {
        "_source": "Ruta3-Escandinavo-SantaInes-Arboleda",
        "_segmentIndex": 0,
        "_position": 3
      },
      "geometry": {
        "type": "Point",
        "coordinates": [
          -73.35658124428917,
          5.545846523701229
        ]
      }
    },
    {
      "type": "Feature",
      "properties": {
        "_source": "Ruta3-Escandinavo-SantaInes-Arboleda",
        "_segmentIndex": 0,
        "_position": 4
      },
      "geometry": {
        "type": "Point",
        "coordinates": [
          -73.35631198974684,
          5.546207596287782
        ]
      }
    },
    {
      "type": "Feature",
      "properties": {
        "_source": "Ruta3-Escandinavo-SantaInes-Arboleda",
        "_segmentIndex": 0,
        "_position": 5
      },
      "geometry": {
        "type": "Point",
        "coordinates": [
          -73.35604333299176,
          5.546569108794766
        ]
      }
    },
    {
      "type": "Feature",
      "properties": {
        "_source": "Ruta3-Escandinavo-SantaInes-Arboleda",
        "_segmentIndex": 0,
        "_position": 6
      },
      "geometry": {
        "type": "Point",
        "coordinates": [
          -73.35577546058103,
          5.546931198625772
        ]
      }
    },
    {
      "type": "Feature",
      "properties": {
        "_source": "Ruta3-Escandinavo-SantaInes-Arboleda",
        "_segmentIndex": 0,
        "_position": 7
      },
      "geometry": {
        "type": "Point",
        "coordinates": [
          -73.35550758784153,
          5.54729328833629
        ]
      }
    },
    {
      "type": "Feature",
      "properties": {
        "_source": "Ruta3-Escandinavo-SantaInes-Arboleda",
        "_segmentIndex": 0,
        "_position": 8
      },
      "geometry": {
        "type": "Point",
        "coordinates": [
          -73.35524211696783,
          5.54765712219913
        ]
      }
    },
    {
      "type": "Feature",
      "properties": {
        "_source": "Ruta3-Escandinavo-SantaInes-Arboleda",
        "_segmentIndex": 0,
        "_position": 9
      },
      "geometry": {
        "type": "Point",
        "coordinates": [
          -73.35497747252887,
          5.5480215562693695
        ]
      }
    },
    {
      "type": "Feature",
      "properties": {
        "_source": "Ruta3-Escandinavo-SantaInes-Arboleda",
        "_segmentIndex": 0,
        "_position": 10
      },
      "geometry": {
        "type": "Point",
        "coordinates": [
          -73.35471282776292,
          5.548385990221984
        ]
      }
    },
    {
      "type": "Feature",
      "properties": {
        "_source": "Ruta3-Escandinavo-SantaInes-Arboleda",
        "_segmentIndex": 0,
        "_position": 11
      },
      "geometry": {
        "type": "Point",
        "coordinates": [
          -73.35443722401264,
          5.548742211620022
        ]
      }
    },
    {
      "type": "Feature",
      "properties": {
        "_source": "Ruta3-Escandinavo-SantaInes-Arboleda",
        "_segmentIndex": 0,
        "_position": 12
      },
      "geometry": {
        "type": "Point",
        "coordinates": [
          -73.35415848766725,
          5.5490960855667675
        ]
      }
    },
    {
      "type": "Feature",
      "properties": {
        "_source": "Ruta3-Escandinavo-SantaInes-Arboleda",
        "_segmentIndex": 0,
        "_position": 13
      },
      "geometry": {
        "type": "Point",
        "coordinates": [
          -73.35387678486153,
          5.549447577633512
        ]
      }
    },
    {
      "type": "Feature",
      "properties": {
        "_source": "Ruta3-Escandinavo-SantaInes-Arboleda",
        "_segmentIndex": 0,
        "_position": 14
      },
      "geometry": {
        "type": "Point",
        "coordinates": [
          -73.35358823445452,
          5.54979357132497
        ]
      }
    },
    {
      "type": "Feature",
      "properties": {
        "_source": "Ruta3-Escandinavo-SantaInes-Arboleda",
        "_segmentIndex": 0,
        "_position": 15
      },
      "geometry": {
        "type": "Point",
        "coordinates": [
          -73.35329968370888,
          5.550139564876546
        ]
      }
    },
    {
      "type": "Feature",
      "properties": {
        "_source": "Ruta3-Escandinavo-SantaInes-Arboleda",
        "_segmentIndex": 0,
        "_position": 16
      },
      "geometry": {
        "type": "Point",
        "coordinates": [
          -73.35301134131926,
          5.550485730365582
        ]
      }
    },
    {
      "type": "Feature",
      "properties": {
        "_source": "Ruta3-Escandinavo-SantaInes-Arboleda",
        "_segmentIndex": 0,
        "_position": 17
      },
      "geometry": {
        "type": "Point",
        "coordinates": [
          -73.3527234675253,
          5.550832282370689
        ]
      }
    },
    {
      "type": "Feature",
      "properties": {
        "_source": "Ruta3-Escandinavo-SantaInes-Arboleda",
        "_segmentIndex": 0,
        "_position": 18
      },
      "geometry": {
        "type": "Point",
        "coordinates": [
          -73.35245447849525,
          5.55119196025901
        ]
      }
    },
    {
      "type": "Feature",
      "properties": {
        "_source": "Ruta3-Escandinavo-SantaInes-Arboleda",
        "_segmentIndex": 0,
        "_position": 0
      },
      "geometry": {
        "type": "Point",
        "coordinates": [
          -73.352197,
          5.551516
        ]
      }
    },
    {
      "type": "Feature",
      "properties": {
        "_source": "Ruta3-Escandinavo-SantaInes-Arboleda",
        "_segmentIndex": 0,
        "_position": 1
      },
      "geometry": {
        "type": "Point",
        "coordinates": [
          -73.35196780515561,
          5.55117091128765
        ]
      }
    },
    {
      "type": "Feature",
      "properties": {
        "_source": "Ruta3-Escandinavo-SantaInes-Arboleda",
        "_segmentIndex": 0,
        "_position": 2
      },
      "geometry": {
        "type": "Point",
        "coordinates": [
          -73.35215541714649,
          5.550763797045878
        ]
      }
    },
    {
      "type": "Feature",
      "properties": {
        "_source": "Ruta3-Escandinavo-SantaInes-Arboleda",
        "_segmentIndex": 0,
        "_position": 3
      },
      "geometry": {
        "type": "Point",
        "coordinates": [
          -73.35235646021815,
          5.5503611480477035
        ]
      }
    },
    {
      "type": "Feature",
      "properties": {
        "_source": "Ruta3-Escandinavo-SantaInes-Arboleda",
        "_segmentIndex": 0,
        "_position": 4
      },
      "geometry": {
        "type": "Point",
        "coordinates": [
          -73.35233270712774,
          5.5499919636119195
        ]
      }
    },
    {
      "type": "Feature",
      "properties": {
        "_source": "Ruta3-Escandinavo-SantaInes-Arboleda",
        "_segmentIndex": 0,
        "_position": 5
      },
      "geometry": {
        "type": "Point",
        "coordinates": [
          -73.35197684104094,
          5.549714956967892
        ]
      }
    },
    {
      "type": "Feature",
      "properties": {
        "_source": "Ruta3-Escandinavo-SantaInes-Arboleda",
        "_segmentIndex": 0,
        "_position": 6
      },
      "geometry": {
        "type": "Point",
        "coordinates": [
          -73.35162102262842,
          5.5494379039190695
        ]
      }
    },
    {
      "type": "Feature",
      "properties": {
        "_source": "Ruta3-Escandinavo-SantaInes-Arboleda",
        "_segmentIndex": 0,
        "_position": 7
      },
      "geometry": {
        "type": "Point",
        "coordinates": [
          -73.35126167280006,
          5.549165379539141
        ]
      }
    },
    {
      "type": "Feature",
      "properties": {
        "_source": "Ruta3-Escandinavo-SantaInes-Arboleda",
        "_segmentIndex": 0,
        "_position": 8
      },
      "geometry": {
        "type": "Point",
        "coordinates": [
          -73.35090232330381,
          5.548892854942292
        ]
      }
    },
    {
      "type": "Feature",
      "properties": {
        "_source": "Ruta3-Escandinavo-SantaInes-Arboleda",
        "_segmentIndex": 0,
        "_position": 9
      },
      "geometry": {
        "type": "Point",
        "coordinates": [
          -73.35054487483706,
          5.548617885041698
        ]
      }
    },
    {
      "type": "Feature",
      "properties": {
        "_source": "Ruta3-Escandinavo-SantaInes-Arboleda",
        "_segmentIndex": 0,
        "_position": 10
      },
      "geometry": {
        "type": "Point",
        "coordinates": [
          -73.35018961527695,
          5.5483400995137035
        ]
      }
    },
    {
      "type": "Feature",
      "properties": {
        "_source": "Ruta3-Escandinavo-SantaInes-Arboleda",
        "_segmentIndex": 0,
        "_position": 11
      },
      "geometry": {
        "type": "Point",
        "coordinates": [
          -73.34983435605147,
          5.548062313773732
        ]
      }
    },
    {
      "type": "Feature",
      "properties": {
        "_source": "Ruta3-Escandinavo-SantaInes-Arboleda",
        "_segmentIndex": 0,
        "_position": 12
      },
      "geometry": {
        "type": "Point",
        "coordinates": [
          -73.349478999584,
          5.547784652084212
        ]
      }
    },
    {
      "type": "Feature",
      "properties": {
        "_source": "Ruta3-Escandinavo-SantaInes-Arboleda",
        "_segmentIndex": 0,
        "_position": 13
      },
      "geometry": {
        "type": "Point",
        "coordinates": [
          -73.34912234901994,
          5.547508638621264
        ]
      }
    },
    {
      "type": "Feature",
      "properties": {
        "_source": "Ruta3-Escandinavo-SantaInes-Arboleda",
        "_segmentIndex": 0,
        "_position": 14
      },
      "geometry": {
        "type": "Point",
        "coordinates": [
          -73.3487656987896,
          5.547232624944707
        ]
      }
    },
    {
      "type": "Feature",
      "properties": {
        "_source": "Ruta3-Escandinavo-SantaInes-Arboleda",
        "_segmentIndex": 0,
        "_position": 15
      },
      "geometry": {
        "type": "Point",
        "coordinates": [
          -73.348409048893,
          5.546956611054552
        ]
      }
    },
    {
      "type": "Feature",
      "properties": {
        "_source": "Ruta3-Escandinavo-SantaInes-Arboleda",
        "_segmentIndex": 0,
        "_position": 16
      },
      "geometry": {
        "type": "Point",
        "coordinates": [
          -73.34805164343912,
          5.54668156903006
        ]
      }
    },
    {
      "type": "Feature",
      "properties": {
        "_source": "Ruta3-Escandinavo-SantaInes-Arboleda",
        "_segmentIndex": 0,
        "_position": 17
      },
      "geometry": {
        "type": "Point",
        "coordinates": [
          -73.347693755297,
          5.546407147958372
        ]
      }
    },
    {
      "type": "Feature",
      "properties": {
        "_source": "Ruta3-Escandinavo-SantaInes-Arboleda",
        "_segmentIndex": 0,
        "_position": 0
      },
      "geometry": {
        "type": "Point",
        "coordinates": [
          -73.347674,
          5.546392
        ]
      }
    },
    {
      "type": "Feature",
      "properties": {
        "_source": "Ruta3-Escandinavo-SantaInes-Arboleda",
        "_segmentIndex": 0,
        "_position": 1
      },
      "geometry": {
        "type": "Point",
        "coordinates": [
          -73.3473622265846,
          5.5467023647283975
        ]
      }
    },
    {
      "type": "Feature",
      "properties": {
        "_source": "Ruta3-Escandinavo-SantaInes-Arboleda",
        "_segmentIndex": 0,
        "_position": 2
      },
      "geometry": {
        "type": "Point",
        "coordinates": [
          -73.34709584664553,
          5.547065296585168
        ]
      }
    },
    {
      "type": "Feature",
      "properties": {
        "_source": "Ruta3-Escandinavo-SantaInes-Arboleda",
        "_segmentIndex": 0,
        "_position": 3
      },
      "geometry": {
        "type": "Point",
        "coordinates": [
          -73.34686164015511,
          5.547449814682814
        ]
      }
    },
    {
      "type": "Feature",
      "properties": {
        "_source": "Ruta3-Escandinavo-SantaInes-Arboleda",
        "_segmentIndex": 0,
        "_position": 4
      },
      "geometry": {
        "type": "Point",
        "coordinates": [
          -73.34667290624655,
          5.547858017068477
        ]
      }
    },
    {
      "type": "Feature",
      "properties": {
        "_source": "Ruta3-Escandinavo-SantaInes-Arboleda",
        "_segmentIndex": 0,
        "_position": 5
      },
      "geometry": {
        "type": "Point",
        "coordinates": [
          -73.34656076568166,
          5.548293604394593
        ]
      }
    },
    {
      "type": "Feature",
      "properties": {
        "_source": "Ruta3-Escandinavo-SantaInes-Arboleda",
        "_segmentIndex": 0,
        "_position": 6
      },
      "geometry": {
        "type": "Point",
        "coordinates": [
          -73.34645207584344,
          5.54873005663546
        ]
      }
    },
    {
      "type": "Feature",
      "properties": {
        "_source": "Ruta3-Escandinavo-SantaInes-Arboleda",
        "_segmentIndex": 0,
        "_position": 7
      },
      "geometry": {
        "type": "Point",
        "coordinates": [
          -73.346343572888,
          5.549166555737326
        ]
      }
    },
    {
      "type": "Feature",
      "properties": {
        "_source": "Ruta3-Escandinavo-SantaInes-Arboleda",
        "_segmentIndex": 0,
        "_position": 8
      },
      "geometry": {
        "type": "Point",
        "coordinates": [
          -73.34623506977194,
          5.549603054819417
        ]
      }
    },
    {
      "type": "Feature",
      "properties": {
        "_source": "Ruta3-Escandinavo-SantaInes-Arboleda",
        "_segmentIndex": 0,
        "_position": 9
      },
      "geometry": {
        "type": "Point",
        "coordinates": [
          -73.34612923522195,
          5.5500401993674995
        ]
      }
    },
    {
      "type": "Feature",
      "properties": {
        "_source": "Ruta3-Escandinavo-SantaInes-Arboleda",
        "_segmentIndex": 0,
        "_position": 10
      },
      "geometry": {
        "type": "Point",
        "coordinates": [
          -73.34602437717328,
          5.550477580121413
        ]
      }
    },
    {
      "type": "Feature",
      "properties": {
        "_source": "Ruta3-Escandinavo-SantaInes-Arboleda",
        "_segmentIndex": 0,
        "_position": 11
      },
      "geometry": {
        "type": "Point",
        "coordinates": [
          -73.34594127789698,
          5.550919222881692
        ]
      }
    },
    {
      "type": "Feature",
      "properties": {
        "_source": "Ruta3-Escandinavo-SantaInes-Arboleda",
        "_segmentIndex": 0,
        "_position": 12
      },
      "geometry": {
        "type": "Point",
        "coordinates": [
          -73.34588463626372,
          5.551365028701996
        ]
      }
    },
    {
      "type": "Feature",
      "properties": {
        "_source": "Ruta3-Escandinavo-SantaInes-Arboleda",
        "_segmentIndex": 0,
        "_position": 13
      },
      "geometry": {
        "type": "Point",
        "coordinates": [
          -73.34584919478502,
          5.551813303100748
        ]
      }
    },
    {
      "type": "Feature",
      "properties": {
        "_source": "Ruta3-Escandinavo-SantaInes-Arboleda",
        "_segmentIndex": 0,
        "_position": 14
      },
      "geometry": {
        "type": "Point",
        "coordinates": [
          -73.34581375325241,
          5.552261577497389
        ]
      }
    },
    {
      "type": "Feature",
      "properties": {
        "_source": "Ruta3-Escandinavo-SantaInes-Arboleda",
        "_segmentIndex": 0,
        "_position": 15
      },
      "geometry": {
        "type": "Point",
        "coordinates": [
          -73.34577831166592,
          5.552709851891918
        ]
      }
    },
    {
      "type": "Feature",
      "properties": {
        "_source": "Ruta3-Escandinavo-SantaInes-Arboleda",
        "_segmentIndex": 0,
        "_position": 16
      },
      "geometry": {
        "type": "Point",
        "coordinates": [
          -73.34574178314631,
          5.553158036559522
        ]
      }
    },
    {
      "type": "Feature",
      "properties": {
        "_source": "Ruta3-Escandinavo-SantaInes-Arboleda",
        "_segmentIndex": 0,
        "_position": 17
      },
      "geometry": {
        "type": "Point",
        "coordinates": [
          -73.3457025387929,
          5.553605997030045
        ]
      }
    },
    {
      "type": "Feature",
      "properties": {
        "_source": "Ruta3-Escandinavo-SantaInes-Arboleda",
        "_segmentIndex": 0,
        "_position": 18
      },
      "geometry": {
        "type": "Point",
        "coordinates": [
          -73.34566329437985,
          5.5540539574979775
        ]
      }
    },
    {
      "type": "Feature",
      "properties": {
        "_source": "Ruta3-Escandinavo-SantaInes-Arboleda",
        "_segmentIndex": 0,
        "_position": 19
      },
      "geometry": {
        "type": "Point",
        "coordinates": [
          -73.34561959110832,
          5.554501383912665
        ]
      }
    },
    {
      "type": "Feature",
      "properties": {
        "_source": "Ruta3-Escandinavo-SantaInes-Arboleda",
        "_segmentIndex": 0,
        "_position": 20
      },
      "geometry": {
        "type": "Point",
        "coordinates": [
          -73.34552807218617,
          5.554940407032653
        ]
      }
    },
    {
      "type": "Feature",
      "properties": {
        "_source": "Ruta3-Escandinavo-SantaInes-Arboleda",
        "_segmentIndex": 0,
        "_position": 21
      },
      "geometry": {
        "type": "Point",
        "coordinates": [
          -73.34538994798105,
          5.5553685294417905
        ]
      }
    },
    {
      "type": "Feature",
      "properties": {
        "_source": "Ruta3-Escandinavo-SantaInes-Arboleda",
        "_segmentIndex": 0,
        "_position": 22
      },
      "geometry": {
        "type": "Point",
        "coordinates": [
          -73.34525507118481,
          5.555797683295354
        ]
      }
    },
    {
      "type": "Feature",
      "properties": {
        "_source": "Ruta3-Escandinavo-SantaInes-Arboleda",
        "_segmentIndex": 0,
        "_position": 23
      },
      "geometry": {
        "type": "Point",
        "coordinates": [
          -73.34512019419203,
          5.55622683711832
        ]
      }
    },
    {
      "type": "Feature",
      "properties": {
        "_source": "Ruta3-Escandinavo-SantaInes-Arboleda",
        "_segmentIndex": 0,
        "_position": 24
      },
      "geometry": {
        "type": "Point",
        "coordinates": [
          -73.34498646682539,
          5.556656344772781
        ]
      }
    },
    {
      "type": "Feature",
      "properties": {
        "_source": "Ruta3-Escandinavo-SantaInes-Arboleda",
        "_segmentIndex": 0,
        "_position": 25
      },
      "geometry": {
        "type": "Point",
        "coordinates": [
          -73.34485442551419,
          5.557086371346869
        ]
      }
    },
    {
      "type": "Feature",
      "properties": {
        "_source": "Ruta3-Escandinavo-SantaInes-Arboleda",
        "_segmentIndex": 0,
        "_position": 26
      },
      "geometry": {
        "type": "Point",
        "coordinates": [
          -73.34471611633634,
          5.5575141800940075
        ]
      }
    },
    {
      "type": "Feature",
      "properties": {
        "_source": "Ruta3-Escandinavo-SantaInes-Arboleda",
        "_segmentIndex": 0,
        "_position": 27
      },
      "geometry": {
        "type": "Point",
        "coordinates": [
          -73.34452172275036,
          5.557917356962097
        ]
      }
    },
    {
      "type": "Feature",
      "properties": {
        "_source": "Ruta3-Escandinavo-SantaInes-Arboleda",
        "_segmentIndex": 0,
        "_position": 28
      },
      "geometry": {
        "type": "Point",
        "coordinates": [
          -73.34423867304348,
          5.558267370569312
        ]
      }
    },
    {
      "type": "Feature",
      "properties": {
        "_source": "Ruta3-Escandinavo-SantaInes-Arboleda",
        "_segmentIndex": 0,
        "_position": 29
      },
      "geometry": {
        "type": "Point",
        "coordinates": [
          -73.34394450814337,
          5.558608652193261
        ]
      }
    },
    {
      "type": "Feature",
      "properties": {
        "_source": "Ruta3-Escandinavo-SantaInes-Arboleda",
        "_segmentIndex": 0,
        "_position": 30
      },
      "geometry": {
        "type": "Point",
        "coordinates": [
          -73.34365034290221,
          5.558949933671603
        ]
      }
    },
    {
      "type": "Feature",
      "properties": {
        "_source": "Ruta3-Escandinavo-SantaInes-Arboleda",
        "_segmentIndex": 0,
        "_position": 31
      },
      "geometry": {
        "type": "Point",
        "coordinates": [
          -73.34335617731996,
          5.5592912150043325
        ]
      }
    },
    {
      "type": "Feature",
      "properties": {
        "_source": "Ruta3-Escandinavo-SantaInes-Arboleda",
        "_segmentIndex": 0,
        "_position": 32
      },
      "geometry": {
        "type": "Point",
        "coordinates": [
          -73.34305678913532,
          5.559627921031307
        ]
      }
    },
    {
      "type": "Feature",
      "properties": {
        "_source": "Ruta3-Escandinavo-SantaInes-Arboleda",
        "_segmentIndex": 0,
        "_position": 33
      },
      "geometry": {
        "type": "Point",
        "coordinates": [
          -73.34275399191385,
          5.5599616405900445
        ]
      }
    },
    {
      "type": "Feature",
      "properties": {
        "_source": "Ruta3-Escandinavo-SantaInes-Arboleda",
        "_segmentIndex": 0,
        "_position": 34
      },
      "geometry": {
        "type": "Point",
        "coordinates": [
          -73.34245089657637,
          5.560295090255974
        ]
      }
    },
    {
      "type": "Feature",
      "properties": {
        "_source": "Ruta3-Escandinavo-SantaInes-Arboleda",
        "_segmentIndex": 0,
        "_position": 35
      },
      "geometry": {
        "type": "Point",
        "coordinates": [
          -73.34214550814387,
          5.56062646286846
        ]
      }
    },
    {
      "type": "Feature",
      "properties": {
        "_source": "Ruta3-Escandinavo-SantaInes-Arboleda",
        "_segmentIndex": 0,
        "_position": 36
      },
      "geometry": {
        "type": "Point",
        "coordinates": [
          -73.34184011936746,
          5.560957835323962
        ]
      }
    },
    {
      "type": "Feature",
      "properties": {
        "_source": "Ruta3-Escandinavo-SantaInes-Arboleda",
        "_segmentIndex": 0,
        "_position": 37
      },
      "geometry": {
        "type": "Point",
        "coordinates": [
          -73.34153473024713,
          5.5612892076224725
        ]
      }
    },
    {
      "type": "Feature",
      "properties": {
        "_source": "Ruta3-Escandinavo-SantaInes-Arboleda",
        "_segmentIndex": 0,
        "_position": 38
      },
      "geometry": {
        "type": "Point",
        "coordinates": [
          -73.34117443354378,
          5.561560169724545
        ]
      }
    },
    {
      "type": "Feature",
      "properties": {
        "_source": "Ruta3-Escandinavo-SantaInes-Arboleda",
        "_segmentIndex": 0,
        "_position": 39
      },
      "geometry": {
        "type": "Point",
        "coordinates": [
          -73.34082146144411,
          5.561840839007436
        ]
      }
    },
    {
      "type": "Feature",
      "properties": {
        "_source": "Ruta3-Escandinavo-SantaInes-Arboleda",
        "_segmentIndex": 0,
        "_position": 40
      },
      "geometry": {
        "type": "Point",
        "coordinates": [
          -73.3404684890077,
          5.562121508080566
        ]
      }
    },
    {
      "type": "Feature",
      "properties": {
        "_source": "Ruta3-Escandinavo-SantaInes-Arboleda",
        "_segmentIndex": 0,
        "_position": 41
      },
      "geometry": {
        "type": "Point",
        "coordinates": [
          -73.34011551623452,
          5.562402176943927
        ]
      }
    },
    {
      "type": "Feature",
      "properties": {
        "_source": "Ruta3-Escandinavo-SantaInes-Arboleda",
        "_segmentIndex": 0,
        "_position": 42
      },
      "geometry": {
        "type": "Point",
        "coordinates": [
          -73.33976254312455,
          5.562682845597505
        ]
      }
    },
    {
      "type": "Feature",
      "properties": {
        "_source": "Ruta3-Escandinavo-SantaInes-Arboleda",
        "_segmentIndex": 0,
        "_position": 43
      },
      "geometry": {
        "type": "Point",
        "coordinates": [
          -73.33940956967778,
          5.56296351404129
        ]
      }
    },
    {
      "type": "Feature",
      "properties": {
        "_source": "Ruta3-Escandinavo-SantaInes-Arboleda",
        "_segmentIndex": 0,
        "_position": 44
      },
      "geometry": {
        "type": "Point",
        "coordinates": [
          -73.33905375925683,
          5.563240592679044
        ]
      }
    },
    {
      "type": "Feature",
      "properties": {
        "_source": "Ruta3-Escandinavo-SantaInes-Arboleda",
        "_segmentIndex": 0,
        "_position": 45
      },
      "geometry": {
        "type": "Point",
        "coordinates": [
          -73.3386965317769,
          5.5635158783223195
        ]
      }
    },
    {
      "type": "Feature",
      "properties": {
        "_source": "Ruta3-Escandinavo-SantaInes-Arboleda",
        "_segmentIndex": 0,
        "_position": 46
      },
      "geometry": {
        "type": "Point",
        "coordinates": [
          -73.33833930396258,
          5.563791163750678
        ]
      }
    },
    {
      "type": "Feature",
      "properties": {
        "_source": "Ruta3-Escandinavo-SantaInes-Arboleda",
        "_segmentIndex": 0,
        "_position": 47
      },
      "geometry": {
        "type": "Point",
        "coordinates": [
          -73.3379820758139,
          5.564066448964118
        ]
      }
    },
    {
      "type": "Feature",
      "properties": {
        "_source": "Ruta3-Escandinavo-SantaInes-Arboleda",
        "_segmentIndex": 0,
        "_position": 48
      },
      "geometry": {
        "type": "Point",
        "coordinates": [
          -73.33762484733079,
          5.564341733962622
        ]
      }
    },
    {
      "type": "Feature",
      "properties": {
        "_source": "Ruta3-Escandinavo-SantaInes-Arboleda",
        "_segmentIndex": 0,
        "_position": 49
      },
      "geometry": {
        "type": "Point",
        "coordinates": [
          -73.33727432772389,
          5.5646253969322945
        ]
      }
    },
    {
      "type": "Feature",
      "properties": {
        "_source": "Ruta3-Escandinavo-SantaInes-Arboleda",
        "_segmentIndex": 0,
        "_position": 50
      },
      "geometry": {
        "type": "Point",
        "coordinates": [
          -73.33691900807655,
          5.564902419509819
        ]
      }
    },
    {
      "type": "Feature",
      "properties": {
        "_source": "Ruta3-Escandinavo-SantaInes-Arboleda",
        "_segmentIndex": 0,
        "_position": 51
      },
      "geometry": {
        "type": "Point",
        "coordinates": [
          -73.33654090548374,
          5.5651485437690855
        ]
      }
    },
    {
      "type": "Feature",
      "properties": {
        "_source": "Ruta3-Escandinavo-SantaInes-Arboleda",
        "_segmentIndex": 0,
        "_position": 52
      },
      "geometry": {
        "type": "Point",
        "coordinates": [
          -73.33616280257444,
          5.565394667787517
        ]
      }
    },
    {
      "type": "Feature",
      "properties": {
        "_source": "Ruta3-Escandinavo-SantaInes-Arboleda",
        "_segmentIndex": 0,
        "_position": 53
      },
      "geometry": {
        "type": "Point",
        "coordinates": [
          -73.3357846993486,
          5.565640791565105
        ]
      }
    },
    {
      "type": "Feature",
      "properties": {
        "_source": "Ruta3-Escandinavo-SantaInes-Arboleda",
        "_segmentIndex": 0,
        "_position": 54
      },
      "geometry": {
        "type": "Point",
        "coordinates": [
          -73.33540659580622,
          5.5658869151018395
        ]
      }
    },
    {
      "type": "Feature",
      "properties": {
        "_source": "Ruta3-Escandinavo-SantaInes-Arboleda",
        "_segmentIndex": 0,
        "_position": 55
      },
      "geometry": {
        "type": "Point",
        "coordinates": [
          -73.33502849194727,
          5.566133038397708
        ]
      }
    },
    {
      "type": "Feature",
      "properties": {
        "_source": "Ruta3-Escandinavo-SantaInes-Arboleda",
        "_segmentIndex": 0,
        "_position": 56
      },
      "geometry": {
        "type": "Point",
        "coordinates": [
          -73.33468826404166,
          5.566428030437437
        ]
      }
    },
    {
      "type": "Feature",
      "properties": {
        "_source": "Ruta3-Escandinavo-SantaInes-Arboleda",
        "_segmentIndex": 0,
        "_position": 57
      },
      "geometry": {
        "type": "Point",
        "coordinates": [
          -73.33435085001923,
          5.566727042120622
        ]
      }
    },
    {
      "type": "Feature",
      "properties": {
        "_source": "Ruta3-Escandinavo-SantaInes-Arboleda",
        "_segmentIndex": 0,
        "_position": 58
      },
      "geometry": {
        "type": "Point",
        "coordinates": [
          -73.33401157338618,
          5.567023974554493
        ]
      }
    },
    {
      "type": "Feature",
      "properties": {
        "_source": "Ruta3-Escandinavo-SantaInes-Arboleda",
        "_segmentIndex": 0,
        "_position": 59
      },
      "geometry": {
        "type": "Point",
        "coordinates": [
          -73.33367229641036,
          5.567320906794387
        ]
      }
    },
    {
      "type": "Feature",
      "properties": {
        "_source": "Ruta3-Escandinavo-SantaInes-Arboleda",
        "_segmentIndex": 0,
        "_position": 60
      },
      "geometry": {
        "type": "Point",
        "coordinates": [
          -73.33333301909175,
          5.567617838840293
        ]
      }
    },
    {
      "type": "Feature",
      "properties": {
        "_source": "Ruta3-Escandinavo-SantaInes-Arboleda",
        "_segmentIndex": 0,
        "_position": 61
      },
      "geometry": {
        "type": "Point",
        "coordinates": [
          -73.33299014514847,
          5.567910627735091
        ]
      }
    },
    {
      "type": "Feature",
      "properties": {
        "_source": "Ruta3-Escandinavo-SantaInes-Arboleda",
        "_segmentIndex": 0,
        "_position": 62
      },
      "geometry": {
        "type": "Point",
        "coordinates": [
          -73.33264570272655,
          5.568201609919033
        ]
      }
    },
    {
      "type": "Feature",
      "properties": {
        "_source": "Ruta3-Escandinavo-SantaInes-Arboleda",
        "_segmentIndex": 0,
        "_position": 63
      },
      "geometry": {
        "type": "Point",
        "coordinates": [
          -73.33230125996357,
          5.568492591903003
        ]
      }
    },
    {
      "type": "Feature",
      "properties": {
        "_source": "Ruta3-Escandinavo-SantaInes-Arboleda",
        "_segmentIndex": 0,
        "_position": 64
      },
      "geometry": {
        "type": "Point",
        "coordinates": [
          -73.33210398659736,
          5.568892976459978
        ]
      }
    },
    {
      "type": "Feature",
      "properties": {
        "_source": "Ruta3-Escandinavo-SantaInes-Arboleda",
        "_segmentIndex": 0,
        "_position": 0
      },
      "geometry": {
        "type": "Point",
        "coordinates": [
          -73.332084,
          5.568938
        ]
      }
    },
    {
      "type": "Feature",
      "properties": {
        "_source": "Ruta3-Escandinavo-SantaInes-Arboleda",
        "_segmentIndex": 0,
        "_position": 1
      },
      "geometry": {
        "type": "Point",
        "coordinates": [
          -73.33205910038897,
          5.56932413231533
        ]
      }
    },
    {
      "type": "Feature",
      "properties": {
        "_source": "Ruta3-Escandinavo-SantaInes-Arboleda",
        "_segmentIndex": 0,
        "_position": 2
      },
      "geometry": {
        "type": "Point",
        "coordinates": [
          -73.33242286604028,
          5.569535781841909
        ]
      }
    },
    {
      "type": "Feature",
      "properties": {
        "_source": "Ruta3-Escandinavo-SantaInes-Arboleda",
        "_segmentIndex": 0,
        "_position": 3
      },
      "geometry": {
        "type": "Point",
        "coordinates": [
          -73.33266472849475,
          5.569915581633966
        ]
      }
    },
    {
      "type": "Feature",
      "properties": {
        "_source": "Ruta3-Escandinavo-SantaInes-Arboleda",
        "_segmentIndex": 0,
        "_position": 4
      },
      "geometry": {
        "type": "Point",
        "coordinates": [
          -73.3328980720518,
          5.570300463477916
        ]
      }
    },
    {
      "type": "Feature",
      "properties": {
        "_source": "Ruta3-Escandinavo-SantaInes-Arboleda",
        "_segmentIndex": 0,
        "_position": 5
      },
      "geometry": {
        "type": "Point",
        "coordinates": [
          -73.3331206044503,
          5.570691794830312
        ]
      }
    },
    {
      "type": "Feature",
      "properties": {
        "_source": "Ruta3-Escandinavo-SantaInes-Arboleda",
        "_segmentIndex": 0,
        "_position": 6
      },
      "geometry": {
        "type": "Point",
        "coordinates": [
          -73.33336973372384,
          5.571065161381306
        ]
      }
    },
    {
      "type": "Feature",
      "properties": {
        "_source": "Ruta3-Escandinavo-SantaInes-Arboleda",
        "_segmentIndex": 0,
        "_position": 7
      },
      "geometry": {
        "type": "Point",
        "coordinates": [
          -73.33366945172693,
          5.571401628418777
        ]
      }
    },
    {
      "type": "Feature",
      "properties": {
        "_source": "Ruta3-Escandinavo-SantaInes-Arboleda",
        "_segmentIndex": 0,
        "_position": 0
      },
      "geometry": {
        "type": "Point",
        "coordinates": [
          -73.333929,
          5.571693
        ]
      }
    },
    {
      "type": "Feature",
      "properties": {
        "_source": "Ruta3-Escandinavo-SantaInes-Arboleda",
        "_segmentIndex": 0,
        "_position": 1
      },
      "geometry": {
        "type": "Point",
        "coordinates": [
          -73.33363348484149,
          5.572033129896675
        ]
      }
    },
    {
      "type": "Feature",
      "properties": {
        "_source": "Ruta3-Escandinavo-SantaInes-Arboleda",
        "_segmentIndex": 0,
        "_position": 2
      },
      "geometry": {
        "type": "Point",
        "coordinates": [
          -73.33333796934069,
          5.572373259646058
        ]
      }
    },
    {
      "type": "Feature",
      "properties": {
        "_source": "Ruta3-Escandinavo-SantaInes-Arboleda",
        "_segmentIndex": 0,
        "_position": 3
      },
      "geometry": {
        "type": "Point",
        "coordinates": [
          -73.33304569290131,
          5.572716141328666
        ]
      }
    },
    {
      "type": "Feature",
      "properties": {
        "_source": "Ruta3-Escandinavo-SantaInes-Arboleda",
        "_segmentIndex": 0,
        "_position": 4
      },
      "geometry": {
        "type": "Point",
        "coordinates": [
          -73.33273853650077,
          5.573045614421196
        ]
      }
    },
    {
      "type": "Feature",
      "properties": {
        "_source": "Ruta3-Escandinavo-SantaInes-Arboleda",
        "_segmentIndex": 0,
        "_position": 5
      },
      "geometry": {
        "type": "Point",
        "coordinates": [
          -73.33238491605148,
          5.573318429131581
        ]
      }
    }
  ]
}