{
  "type": "FeatureCollection",
  "features": [
    {
      "type": "Feature",
      "properties": {
        "_source": "Ruta21-Pirgua-Terminalo-Estadio-Runta",
        "_segmentIndex": 0,
        "_position": 0
      },
      "geometry": {
        "type": "Point",
        "coordinates": [
          -73.329505,
          5.529627
        ]
      }
    },
    {
      "type": "Feature",
      "properties": {
        "_source": "Ruta21-Pirgua-Terminalo-Estadio-Runta",
        "_segmentIndex": 0,
        "_position": 1
      },
      "geometry": {
        "type": "Point",
        "coordinates": [
          -73.32990998944456,
          5.529427756910398
        ]
      }
    },
    {
      "type": "Feature",
      "properties": {
        "_source": "Ruta21-Pirgua-Terminalo-Estadio-Runta",
        "_segmentIndex": 0,
        "_position": 2
      },
      "geometry": {
        "type": "Point",
        "coordinates": [
          -73.33031238026095,
          5.529223359511965
        ]
      }
    },
    {
      "type": "Feature",
      "properties": {
        "_source": "Ruta21-Pirgua-Terminalo-Estadio-Runta",
        "_segmentIndex": 0,
        "_position": 3
      },
      "geometry": {
        "type": "Point",
        "coordinates": [
          -73.33074660690818,
          5.529107580216964
        ]
      }
    },
    {
      "type": "Feature",
      "properties": {
        "_source": "Ruta21-Pirgua-Terminalo-Estadio-Runta",
        "_segmentIndex": 0,
        "_position": 4
      },
      "geometry": {
        "type": "Point",
        "coordinates": [
          -73.3311962320425,
          5.52906959901739
        ]
      }
    },
    {
      "type": "Feature",
      "properties": {
        "_source": "Ruta21-Pirgua-Terminalo-Estadio-Runta",
        "_segmentIndex": 0,
        "_position": 5
      },
      "geometry": {
        "type": "Point",
        "coordinates": [
          -73.33164622760778,
          5.529080121672756
        ]
      }
    },
    {
      "type": "Feature",
      "properties": {
        "_source": "Ruta21-Pirgua-Terminalo-Estadio-Runta",
        "_segmentIndex": 0,
        "_position": 6
      },
      "geometry": {
        "type": "Point",
        "coordinates": [
          -73.33206966926122,
          5.529233297069512
        ]
      }
    },
    {
      "type": "Feature",
      "properties": {
        "_source": "Ruta21-Pirgua-Terminalo-Estadio-Runta",
        "_segmentIndex": 0,
        "_position": 7
      },
      "geometry": {
        "type": "Point",
        "coordinates": [
          -73.33248513239168,
          5.529409893236609
        ]
      }
    },
    {
      "type": "Feature",
      "properties": {
        "_source": "Ruta21-Pirgua-Terminalo-Estadio-Runta",
        "_segmentIndex": 0,
        "_position": 8
      },
      "geometry": {
        "type": "Point",
        "coordinates": [
          -73.3329011484786,
          5.529585198190735
        ]
      }
    },
    {
      "type": "Feature",
      "properties": {
        "_source": "Ruta21-Pirgua-Terminalo-Estadio-Runta",
        "_segmentIndex": 0,
        "_position": 9
      },
      "geometry": {
        "type": "Point",
        "coordinates": [
          -73.33331716481196,
          5.5297605028551455
        ]
      }
    },
    {
      "type": "Feature",
      "properties": {
        "_source": "Ruta21-Pirgua-Terminalo-Estadio-Runta",
        "_segmentIndex": 0,
        "_position": 10
      },
      "geometry": {
        "type": "Point",
        "coordinates": [
          -73.33374190322353,
          5.529912896837211
        ]
      }
    },
    {
      "type": "Feature",
      "properties": {
        "_source": "Ruta21-Pirgua-Terminalo-Estadio-Runta",
        "_segmentIndex": 0,
        "_position": 11
      },
      "geometry": {
        "type": "Point",
        "coordinates": [
          -73.33417017070784,
          5.530056020951888
        ]
      }
    },
    {
      "type": "Feature",
      "properties": {
        "_source": "Ruta21-Pirgua-Terminalo-Estadio-Runta",
        "_segmentIndex": 0,
        "_position": 12
      },
      "geometry": {
        "type": "Point",
        "coordinates": [
          -73.33460269549323,
          5.530185761643529
        ]
      }
    },
    {
      "type": "Feature",
      "properties": {
        "_source": "Ruta21-Pirgua-Terminalo-Estadio-Runta",
        "_segmentIndex": 0,
        "_position": 13
      },
      "geometry": {
        "type": "Point",
        "coordinates": [
          -73.33502981298624,
          5.530332121494935
        ]
      }
    },
    {
      "type": "Feature",
      "properties": {
        "_source": "Ruta21-Pirgua-Terminalo-Estadio-Runta",
        "_segmentIndex": 0,
        "_position": 14
      },
      "geometry": {
        "type": "Point",
        "coordinates": [
          -73.33545940701626,
          5.53047041661401
        ]
      }
    },
    {
      "type": "Feature",
      "properties": {
        "_source": "Ruta21-Pirgua-Terminalo-Estadio-Runta",
        "_segmentIndex": 0,
        "_position": 15
      },
      "geometry": {
        "type": "Point",
        "coordinates": [
          -73.33590364525911,
          5.530549679855281
        ]
      }
    },
    {
      "type": "Feature",
      "properties": {
        "_source": "Ruta21-Pirgua-Terminalo-Estadio-Runta",
        "_segmentIndex": 0,
        "_position": 16
      },
      "geometry": {
        "type": "Point",
        "coordinates": [
          -73.33635429006631,
          5.530565779660123
        ]
      }
    },
    {
      "type": "Feature",
      "properties": {
        "_source": "Ruta21-Pirgua-Terminalo-Estadio-Runta",
        "_segmentIndex": 0,
        "_position": 17
      },
      "geometry": {
        "type": "Point",
        "coordinates": [
          -73.33680603920557,
          5.530569116855983
        ]
      }
    },
    {
      "type": "Feature",
      "properties": {
        "_source": "Ruta21-Pirgua-Terminalo-Estadio-Runta",
        "_segmentIndex": 0,
        "_position": 18
      },
      "geometry": {
        "type": "Point",
        "coordinates": [
          -73.33725769345347,
          5.530561304043169
        ]
      }
    },
    {
      "type": "Feature",
      "properties": {
        "_source": "Ruta21-Pirgua-Terminalo-Estadio-Runta",
        "_segmentIndex": 0,
        "_position": 19
      },
      "geometry": {
        "type": "Point",
        "coordinates": [
          -73.33770933297276,
          5.530551000001867
        ]
      }
    },
    {
      "type": "Feature",
      "properties": {
        "_source": "Ruta21-Pirgua-Terminalo-Estadio-Runta",
        "_segmentIndex": 0,
        "_position": 20
      },
      "geometry": {
        "type": "Point",
        "coordinates": [
          -73.33808989146874,
          5.530733248058367
        ]
      }
    },
    {
      "type": "Feature",
      "properties": {
        "_source": "Ruta21-Pirgua-Terminalo-Estadio-Runta",
        "_segmentIndex": 0,
        "_position": 21
      },
      "geometry": {
        "type": "Point",
        "coordinates": [
          -73.33825133668968,
          5.5311526618728655
        ]
      }
    },
    {
      "type": "Feature",
      "properties": {
        "_source": "Ruta21-Pirgua-Terminalo-Estadio-Runta",
        "_segmentIndex": 0,
        "_position": 22
      },
      "geometry": {
        "type": "Point",
        "coordinates": [
          -73.33859778418108,
          5.53138657166567
        ]
      }
    },
    {
      "type": "Feature",
      "properties": {
        "_source": "Ruta21-Pirgua-Terminalo-Estadio-Runta",
        "_segmentIndex": 0,
        "_position": 23
      },
      "geometry": {
        "type": "Point",
        "coordinates": [
          -73.33900147717533,
          5.531198787820281
        ]
      }
    },
    {
      "type": "Feature",
      "properties": {
        "_source": "Ruta21-Pirgua-Terminalo-Estadio-Runta",
        "_segmentIndex": 0,
        "_position": 24
      },
      "geometry": {
        "type": "Point",
        "coordinates": [
          -73.3393833937098,
          5.5309586022458355
        ]
      }
    },
    {
      "type": "Feature",
      "properties": {
        "_source": "Ruta21-Pirgua-Terminalo-Estadio-Runta",
        "_segmentIndex": 0,
        "_position": 25
      },
      "geometry": {
        "type": "Point",
        "coordinates": [
          -73.3397653099342,
          5.530718416427165
        ]
      }
    },
    {
      "type": "Feature",
      "properties": {
        "_source": "Ruta21-Pirgua-Terminalo-Estadio-Runta",
        "_segmentIndex": 0,
        "_position": 26
      },
      "geometry": {
        "type": "Point",
        "coordinates": [
          -73.34014722584855,
          5.53047823036428
        ]
      }
    },
    {
      "type": "Feature",
      "properties": {
        "_source": "Ruta21-Pirgua-Terminalo-Estadio-Runta",
        "_segmentIndex": 0,
        "_position": 27
      },
      "geometry": {
        "type": "Point",
        "coordinates": [
          -73.34053060637368,
          5.530240577083225
        ]
      }
    },
    {
      "type": "Feature",
      "properties": {
        "_source": "Ruta21-Pirgua-Terminalo-Estadio-Runta",
        "_segmentIndex": 0,
        "_position": 28
      },
      "geometry": {
        "type": "Point",
        "coordinates": [
          -73.34092794442222,
          5.530034123327676
        ]
      }
    },
    {
      "type": "Feature",
      "properties": {
        "_source": "Ruta21-Pirgua-Terminalo-Estadio-Runta",
        "_segmentIndex": 0,
        "_position": 29
      },
      "geometry": {
        "type": "Point",
        "coordinates": [
          -73.34136974207675,
          5.530074283155641
        ]
      }
    },
    {
      "type": "Feature",
      "properties": {
        "_source": "Ruta21-Pirgua-Terminalo-Estadio-Runta",
        "_segmentIndex": 0,
        "_position": 30
      },
      "geometry": {
        "type": "Point",
        "coordinates": [
          -73.34174284038404,
          5.530322777982895
        ]
      }
    },
    {
      "type": "Feature",
      "properties": {
        "_source": "Ruta21-Pirgua-Terminalo-Estadio-Runta",
        "_segmentIndex": 0,
        "_position": 31
      },
      "geometry": {
        "type": "Point",
        "coordinates": [
          -73.3420786736018,
          5.530623499433581
        ]
      }
    },
    {
      "type": "Feature",
      "properties": {
        "_source": "Ruta21-Pirgua-Terminalo-Estadio-Runta",
        "_segmentIndex": 0,
        "_position": 32
      },
      "geometry": {
        "type": "Point",
        "coordinates": [
          -73.34240376524937,
          5.530935522044364
        ]
      }
    },
    {
      "type": "Feature",
      "properties": {
        "_source": "Ruta21-Pirgua-Terminalo-Estadio-Runta",
        "_segmentIndex": 0,
        "_position": 33
      },
      "geometry": {
        "type": "Point",
        "coordinates": [
          -73.34272239546885,
          5.53125408249865
        ]
      }
    },
    {
      "type": "Feature",
      "properties": {
        "_source": "Ruta21-Pirgua-Terminalo-Estadio-Runta",
        "_segmentIndex": 0,
        "_position": 34
      },
      "geometry": {
        "type": "Point",
        "coordinates": [
          -73.34306393554685,
          5.531548119297148
        ]
      }
    },
    {
      "type": "Feature",
      "properties": {
        "_source": "Ruta21-Pirgua-Terminalo-Estadio-Runta",
        "_segmentIndex": 0,
        "_position": 35
      },
      "geometry": {
        "type": "Point",
        "coordinates": [
          -73.34338838757206,
          5.531860992460334
        ]
      }
    },
    {
      "type": "Feature",
      "properties": {
        "_source": "Ruta21-Pirgua-Terminalo-Estadio-Runta",
        "_segmentIndex": 0,
        "_position": 36
      },
      "geometry": {
        "type": "Point",
        "coordinates": [
          -73.34372312316648,
          5.532162580084189
        ]
      }
    },
    {
      "type": "Feature",
      "properties": {
        "_source": "Ruta21-Pirgua-Terminalo-Estadio-Runta",
        "_segmentIndex": 0,
        "_position": 37
      },
      "geometry": {
        "type": "Point",
        "coordinates": [
          -73.3441247221007,
          5.532114784538362
        ]
      }
    },
    {
      "type": "Feature",
      "properties": {
        "_source": "Ruta21-Pirgua-Terminalo-Estadio-Runta",
        "_segmentIndex": 0,
        "_position": 38
      },
      "geometry": {
        "type": "Point",
        "coordinates": [
          -73.34429412413664,
          5.5317000486566785
        ]
      }
    },
    {
      "type": "Feature",
      "properties": {
        "_source": "Ruta21-Pirgua-Terminalo-Estadio-Runta",
        "_segmentIndex": 0,
        "_position": 39
      },
      "geometry": {
        "type": "Point",
        "coordinates": [
          -73.34436334473209,
          5.53125627965305
        ]
      }
    },
    {
      "type": "Feature",
      "properties": {
        "_source": "Ruta21-Pirgua-Terminalo-Estadio-Runta",
        "_segmentIndex": 0,
        "_position": 40
      },
      "geometry": {
        "type": "Point",
        "coordinates": [
          -73.34431248796663,
          5.530809633216912
        ]
      }
    },
    {
      "type": "Feature",
      "properties": {
        "_source": "Ruta21-Pirgua-Terminalo-Estadio-Runta",
        "_segmentIndex": 0,
        "_position": 41
      },
      "geometry": {
        "type": "Point",
        "coordinates": [
          -73.34427974591051,
          5.530362129933388
        ]
      }
    },
    {
      "type": "Feature",
      "properties": {
        "_source": "Ruta21-Pirgua-Terminalo-Estadio-Runta",
        "_segmentIndex": 0,
        "_position": 42
      },
      "geometry": {
        "type": "Point",
        "coordinates": [
          -73.34438621842591,
          5.5299280460082665
        ]
      }
    },
    {
      "type": "Feature",
      "properties": {
        "_source": "Ruta21-Pirgua-Terminalo-Estadio-Runta",
        "_segmentIndex": 0,
        "_position": 43
      },
      "geometry": {
        "type": "Point",
        "coordinates": [
          -73.3446413447058,
          5.529556954021362
        ]
      }
    },
    {
      "type": "Feature",
      "properties": {
        "_source": "Ruta21-Pirgua-Terminalo-Estadio-Runta",
        "_segmentIndex": 0,
        "_position": 44
      },
      "geometry": {
        "type": "Point",
        "coordinates": [
          -73.34489647066576,
          5.529185861925496
        ]
      }
    },
    {
      "type": "Feature",
      "properties": {
        "_source": "Ruta21-Pirgua-Terminalo-Estadio-Runta",
        "_segmentIndex": 0,
        "_position": 45
      },
      "geometry": {
        "type": "Point",
        "coordinates": [
          -73.3451515963058,
          5.528814769720685
        ]
      }
    },
    {
      "type": "Feature",
      "properties": {
        "_source": "Ruta21-Pirgua-Terminalo-Estadio-Runta",
        "_segmentIndex": 0,
        "_position": 0
      },
      "geometry": {
        "type": "Point",
        "coordinates": [
          -73.345357,
          5.528516
        ]
      }
    },
    {
      "type": "Feature",
      "properties": {
        "_source": "Ruta21-Pirgua-Terminalo-Estadio-Runta",
        "_segmentIndex": 0,
        "_position": 1
      },
      "geometry": {
        "type": "Point",
        "coordinates": [
          -73.34575268935998,
          5.528728844735389
        ]
      }
    },
    {
      "type": "Feature",
      "properties": {
        "_source": "Ruta21-Pirgua-Terminalo-Estadio-Runta",
        "_segmentIndex": 0,
        "_position": 2
      },
      "geometry": {
        "type": "Point",
        "coordinates": [
          -73.34616020163396,
          5.528922848116618
        ]
      }
    },
    {
      "type": "Feature",
      "properties": {
        "_source": "Ruta21-Pirgua-Terminalo-Estadio-Runta",
        "_segmentIndex": 0,
        "_position": 3
      },
      "geometry": {
        "type": "Point",
        "coordinates": [
          -73.34657025080271,
          5.52911156067063
        ]
      }
    },
    {
      "type": "Feature",
      "properties": {
        "_source": "Ruta21-Pirgua-Terminalo-Estadio-Runta",
        "_segmentIndex": 0,
        "_position": 4
      },
      "geometry": {
        "type": "Point",
        "coordinates": [
          -73.34698498811777,
          5.529289614104026
        ]
      }
    },
    {
      "type": "Feature",
      "properties": {
        "_source": "Ruta21-Pirgua-Terminalo-Estadio-Runta",
        "_segmentIndex": 0,
        "_position": 5
      },
      "geometry": {
        "type": "Point",
        "coordinates": [
          -73.3474075130015,
          5.529448386823668
        ]
      }
    },
    {
      "type": "Feature",
      "properties": {
        "_source": "Ruta21-Pirgua-Terminalo-Estadio-Runta",
        "_segmentIndex": 0,
        "_position": 0
      },
      "geometry": {
        "type": "Point",
        "coordinates": [
          -73.347506,
          5.529476
        ]
      }
    },
    {
      "type": "Feature",
      "properties": {
        "_source": "Ruta21-Pirgua-Terminalo-Estadio-Runta",
        "_segmentIndex": 0,
        "_position": 1
      },
      "geometry": {
        "type": "Point",
        "coordinates": [
          -73.34734671375172,
          5.529896667921288
        ]
      }
    },
    {
      "type": "Feature",
      "properties": {
        "_source": "Ruta21-Pirgua-Terminalo-Estadio-Runta",
        "_segmentIndex": 0,
        "_position": 2
      },
      "geometry": {
        "type": "Point",
        "coordinates": [
          -73.34720132193459,
          5.530322196382814
        ]
      }
    },
    {
      "type": "Feature",
      "properties": {
        "_source": "Ruta21-Pirgua-Terminalo-Estadio-Runta",
        "_segmentIndex": 0,
        "_position": 3
      },
      "geometry": {
        "type": "Point",
        "coordinates": [
          -73.34703964147886,
          5.530741780594641
        ]
      }
    },
    {
      "type": "Feature",
      "properties": {
        "_source": "Ruta21-Pirgua-Terminalo-Estadio-Runta",
        "_segmentIndex": 0,
        "_position": 4
      },
      "geometry": {
        "type": "Point",
        "coordinates": [
          -73.3468773715121,
          5.5311613940034405
        ]
      }
    },
    {
      "type": "Feature",
      "properties": {
        "_source": "Ruta21-Pirgua-Terminalo-Estadio-Runta",
        "_segmentIndex": 0,
        "_position": 5
      },
      "geometry": {
        "type": "Point",
        "coordinates": [
          -73.346842740635,
          5.531586508551858
        ]
      }
    },
    {
      "type": "Feature",
      "properties": {
        "_source": "Ruta21-Pirgua-Terminalo-Estadio-Runta",
        "_segmentIndex": 0,
        "_position": 6
      },
      "geometry": {
        "type": "Point",
        "coordinates": [
          -73.34698062131393,
          5.531960077180479
        ]
      }
    },
    {
      "type": "Feature",
      "properties": {
        "_source": "Ruta21-Pirgua-Terminalo-Estadio-Runta",
        "_segmentIndex": 0,
        "_position": 7
      },
      "geometry": {
        "type": "Point",
        "coordinates": [
          -73.34710126581045,
          5.532359622930159
        ]
      }
    },
    {
      "type": "Feature",
      "properties": {
        "_source": "Ruta21-Pirgua-Terminalo-Estadio-Runta",
        "_segmentIndex": 0,
        "_position": 8
      },
      "geometry": {
        "type": "Point",
        "coordinates": [
          -73.34703321169309,
          5.532793587859699
        ]
      }
    },
    {
      "type": "Feature",
      "properties": {
        "_source": "Ruta21-Pirgua-Terminalo-Estadio-Runta",
        "_segmentIndex": 0,
        "_position": 9
      },
      "geometry": {
        "type": "Point",
        "coordinates": [
          -73.34711014676905,
          5.533236678375622
        ]
      }
    },
    {
      "type": "Feature",
      "properties": {
        "_source": "Ruta21-Pirgua-Terminalo-Estadio-Runta",
        "_segmentIndex": 0,
        "_position": 10
      },
      "geometry": {
        "type": "Point",
        "coordinates": [
          -73.34716141517451,
          5.53368320802468
        ]
      }
    },
    {
      "type": "Feature",
      "properties": {
        "_source": "Ruta21-Pirgua-Terminalo-Estadio-Runta",
        "_segmentIndex": 0,
        "_position": 0
      },
      "geometry": {
        "type": "Point",
        "coordinates": [
          -73.347178,
          5.53389
        ]
      }
    },
    {
      "type": "Feature",
      "properties": {
        "_source": "Ruta21-Pirgua-Terminalo-Estadio-Runta",
        "_segmentIndex": 0,
        "_position": 1
      },
      "geometry": {
        "type": "Point",
        "coordinates": [
          -73.34760270538585,
          5.534038352695368
        ]
      }
    },
    {
      "type": "Feature",
      "properties": {
        "_source": "Ruta21-Pirgua-Terminalo-Estadio-Runta",
        "_segmentIndex": 0,
        "_position": 2
      },
      "geometry": {
        "type": "Point",
        "coordinates": [
          -73.34795125104498,
          5.534320938584681
        ]
      }
    },
    {
      "type": "Feature",
      "properties": {
        "_source": "Ruta21-Pirgua-Terminalo-Estadio-Runta",
        "_segmentIndex": 0,
        "_position": 3
      },
      "geometry": {
        "type": "Point",
        "coordinates": [
          -73.34813972347669,
          5.5347261250374045
        ]
      }
    },
    {
      "type": "Feature",
      "properties": {
        "_source": "Ruta21-Pirgua-Terminalo-Estadio-Runta",
        "_segmentIndex": 0,
        "_position": 4
      },
      "geometry": {
        "type": "Point",
        "coordinates": [
          -73.34821259378936,
          5.535169897047815
        ]
      }
    },
    {
      "type": "Feature",
      "properties": {
        "_source": "Ruta21-Pirgua-Terminalo-Estadio-Runta",
        "_segmentIndex": 0,
        "_position": 5
      },
      "geometry": {
        "type": "Point",
        "coordinates": [
          -73.34828216910832,
          5.535614191260682
        ]
      }
    },
    {
      "type": "Feature",
      "properties": {
        "_source": "Ruta21-Pirgua-Terminalo-Estadio-Runta",
        "_segmentIndex": 0,
        "_position": 6
      },
      "geometry": {
        "type": "Point",
        "coordinates": [
          -73.34838807357904,
          5.53604920462259
        ]
      }
    },
    {
      "type": "Feature",
      "properties": {
        "_source": "Ruta21-Pirgua-Terminalo-Estadio-Runta",
        "_segmentIndex": 0,
        "_position": 7
      },
      "geometry": {
        "type": "Point",
        "coordinates": [
          -73.34867841484034,
          5.536390278067956
        ]
      }
    },
    {
      "type": "Feature",
      "properties": {
        "_source": "Ruta21-Pirgua-Terminalo-Estadio-Runta",
        "_segmentIndex": 0,
        "_position": 8
      },
      "geometry": {
        "type": "Point",
        "coordinates": [
          -73.3490726163328,
          5.536601373002264
        ]
      }
    },
    {
      "type": "Feature",
      "properties": {
        "_source": "Ruta21-Pirgua-Terminalo-Estadio-Runta",
        "_segmentIndex": 0,
        "_position": 9
      },
      "geometry": {
        "type": "Point",
        "coordinates": [
          -73.34952011756762,
          5.536599738427552
        ]
      }
    },
    {
      "type": "Feature",
      "properties": {
        "_source": "Ruta21-Pirgua-Terminalo-Estadio-Runta",
        "_segmentIndex": 0,
        "_position": 10
      },
      "geometry": {
        "type": "Point",
        "coordinates": [
          -73.3499474171516,
          5.536488276923398
        ]
      }
    },
    {
      "type": "Feature",
      "properties": {
        "_source": "Ruta21-Pirgua-Terminalo-Estadio-Runta",
        "_segmentIndex": 0,
        "_position": 11
      },
      "geometry": {
        "type": "Point",
        "coordinates": [
          -73.35026080862056,
          5.536164528755787
        ]
      }
    },
    {
      "type": "Feature",
      "properties": {
        "_source": "Ruta21-Pirgua-Terminalo-Estadio-Runta",
        "_segmentIndex": 0,
        "_position": 12
      },
      "geometry": {
        "type": "Point",
        "coordinates": [
          -73.35056463946927,
          5.535831796551088
        ]
      }
    },
    {
      "type": "Feature",
      "properties": {
        "_source": "Ruta21-Pirgua-Terminalo-Estadio-Runta",
        "_segmentIndex": 0,
        "_position": 13
      },
      "geometry": {
        "type": "Point",
        "coordinates": [
          -73.35085218914558,
          5.5354849846205525
        ]
      }
    },
    {
      "type": "Feature",
      "properties": {
        "_source": "Ruta21-Pirgua-Terminalo-Estadio-Runta",
        "_segmentIndex": 0,
        "_position": 14
      },
      "geometry": {
        "type": "Point",
        "coordinates": [
          -73.35109261410322,
          5.535106329156173
        ]
      }
    },
    {
      "type": "Feature",
      "properties": {
        "_source": "Ruta21-Pirgua-Terminalo-Estadio-Runta",
        "_segmentIndex": 0,
        "_position": 15
      },
      "geometry": {
        "type": "Point",
        "coordinates": [
          -73.35122308950608,
          5.534678904827801
        ]
      }
    },
    {
      "type": "Feature",
      "properties": {
        "_source": "Ruta21-Pirgua-Terminalo-Estadio-Runta",
        "_segmentIndex": 0,
        "_position": 16
      },
      "geometry": {
        "type": "Point",
        "coordinates": [
          -73.35122128303871,
          5.534230478268348
        ]
      }
    },
    {
      "type": "Feature",
      "properties": {
        "_source": "Ruta21-Pirgua-Terminalo-Estadio-Runta",
        "_segmentIndex": 0,
        "_position": 17
      },
      "geometry": {
        "type": "Point",
        "coordinates": [
          -73.35127544220038,
          5.533798637485348
        ]
      }
    },
    {
      "type": "Feature",
      "properties": {
        "_source": "Ruta21-Pirgua-Terminalo-Estadio-Runta",
        "_segmentIndex": 0,
        "_position": 18
      },
      "geometry": {
        "type": "Point",
        "coordinates": [
          -73.3517150125298,
          5.533730834246405
        ]
      }
    },
    {
      "type": "Feature",
      "properties": {
        "_source": "Ruta21-Pirgua-Terminalo-Estadio-Runta",
        "_segmentIndex": 0,
        "_position": 19
      },
      "geometry": {
        "type": "Point",
        "coordinates": [
          -73.35216668717307,
          5.533723838787539
        ]
      }
    },
    {
      "type": "Feature",
      "properties": {
        "_source": "Ruta21-Pirgua-Terminalo-Estadio-Runta",
        "_segmentIndex": 0,
        "_position": 20
      },
      "geometry": {
        "type": "Point",
        "coordinates": [
          -73.35261842715205,
          5.533719051486972
        ]
      }
    },
    {
      "type": "Feature",
      "properties": {
        "_source": "Ruta21-Pirgua-Terminalo-Estadio-Runta",
        "_segmentIndex": 0,
        "_position": 21
      },
      "geometry": {
        "type": "Point",
        "coordinates": [
          -73.35307017866417,
          5.533715741723625
        ]
      }
    },
    {
      "type": "Feature",
      "properties": {
        "_source": "Ruta21-Pirgua-Terminalo-Estadio-Runta",
        "_segmentIndex": 0,
        "_position": 22
      },
      "geometry": {
        "type": "Point",
        "coordinates": [
          -73.35352193882505,
          5.533713539727191
        ]
      }
    },
    {
      "type": "Feature",
      "properties": {
        "_source": "Ruta21-Pirgua-Terminalo-Estadio-Runta",
        "_segmentIndex": 0,
        "_position": 23
      },
      "geometry": {
        "type": "Point",
        "coordinates": [
          -73.35397369898261,
          5.533711337388869
        ]
      }
    },
    {
      "type": "Feature",
      "properties": {
        "_source": "Ruta21-Pirgua-Terminalo-Estadio-Runta",
        "_segmentIndex": 0,
        "_position": 24
      },
      "geometry": {
        "type": "Point",
        "coordinates": [
          -73.35442546126627,
          5.533710000000525
        ]
      }
    },
    {
      "type": "Feature",
      "properties": {
        "_source": "Ruta21-Pirgua-Terminalo-Estadio-Runta",
        "_segmentIndex": 0,
        "_position": 0
      },
      "geometry": {
        "type": "Point",
        "coordinates": [
          -73.354429,
          5.53371
        ]
      }
    },
    {
      "type": "Feature",
      "properties": {
        "_source": "Ruta21-Pirgua-Terminalo-Estadio-Runta",
        "_segmentIndex": 0,
        "_position": 1
      },
      "geometry": {
        "type": "Point",
        "coordinates": [
          -73.3543209546975,
          5.5341434827507126
        ]
      }
    },
    {
      "type": "Feature",
      "properties": {
        "_source": "Ruta21-Pirgua-Terminalo-Estadio-Runta",
        "_segmentIndex": 0,
        "_position": 2
      },
      "geometry": {
        "type": "Point",
        "coordinates": [
          -73.35410393840425,
          5.534537750956694
        ]
      }
    },
    {
      "type": "Feature",
      "properties": {
        "_source": "Ruta21-Pirgua-Terminalo-Estadio-Runta",
        "_segmentIndex": 0,
        "_position": 3
      },
      "geometry": {
        "type": "Point",
        "coordinates": [
          -73.35387544310471,
          5.534925253483888
        ]
      }
    },
    {
      "type": "Feature",
      "properties": {
        "_source": "Ruta21-Pirgua-Terminalo-Estadio-Runta",
        "_segmentIndex": 0,
        "_position": 4
      },
      "geometry": {
        "type": "Point",
        "coordinates": [
          -73.35362517854925,
          5.535299460068073
        ]
      }
    },
    {
      "type": "Feature",
      "properties": {
        "_source": "Ruta21-Pirgua-Terminalo-Estadio-Runta",
        "_segmentIndex": 0,
        "_position": 5
      },
      "geometry": {
        "type": "Point",
        "coordinates": [
          -73.35336654160807,
          5.535668138313638
        ]
      }
    },
    {
      "type": "Feature",
      "properties": {
        "_source": "Ruta21-Pirgua-Terminalo-Estadio-Runta",
        "_segmentIndex": 0,
        "_position": 6
      },
      "geometry": {
        "type": "Point",
        "coordinates": [
          -73.35310965952296,
          5.536037902521644
        ]
      }
    },
    {
      "type": "Feature",
      "properties": {
        "_source": "Ruta21-Pirgua-Terminalo-Estadio-Runta",
        "_segmentIndex": 0,
        "_position": 7
      },
      "geometry": {
        "type": "Point",
        "coordinates": [
          -73.35289193480163,
          5.536431896730722
        ]
      }
    },
    {
      "type": "Feature",
      "properties": {
        "_source": "Ruta21-Pirgua-Terminalo-Estadio-Runta",
        "_segmentIndex": 0,
        "_position": 8
      },
      "geometry": {
        "type": "Point",
        "coordinates": [
          -73.35267420979008,
          5.536825890860349
        ]
      }
    },
    {
      "type": "Feature",
      "properties": {
        "_source": "Ruta21-Pirgua-Terminalo-Estadio-Runta",
        "_segmentIndex": 0,
        "_position": 9
      },
      "geometry": {
        "type": "Point",
        "coordinates": [
          -73.35245648448824,
          5.53721988491052
        ]
      }
    },
    {
      "type": "Feature",
      "properties": {
        "_source": "Ruta21-Pirgua-Terminalo-Estadio-Runta",
        "_segmentIndex": 0,
        "_position": 10
      },
      "geometry": {
        "type": "Point",
        "coordinates": [
          -73.3522428883542,
          5.537616111271587
        ]
      }
    },
    {
      "type": "Feature",
      "properties": {
        "_source": "Ruta21-Pirgua-Terminalo-Estadio-Runta",
        "_segmentIndex": 0,
        "_position": 11
      },
      "geometry": {
        "type": "Point",
        "coordinates": [
          -73.35203585033054,
          5.538015631864287
        ]
      }
    },
    {
      "type": "Feature",
      "properties": {
        "_source": "Ruta21-Pirgua-Terminalo-Estadio-Runta",
        "_segmentIndex": 0,
        "_position": 12
      },
      "geometry": {
        "type": "Point",
        "coordinates": [
          -73.35181276785187,
          5.538406645943693
        ]
      }
    },
    {
      "type": "Feature",
      "properties": {
        "_source": "Ruta21-Pirgua-Terminalo-Estadio-Runta",
        "_segmentIndex": 0,
        "_position": 13
      },
      "geometry": {
        "type": "Point",
        "coordinates": [
          -73.35159207940613,
          5.538798996765145
        ]
      }
    },
    {
      "type": "Feature",
      "properties": {
        "_source": "Ruta21-Pirgua-Terminalo-Estadio-Runta",
        "_segmentIndex": 0,
        "_position": 14
      },
      "geometry": {
        "type": "Point",
        "coordinates": [
          -73.35137312682629,
          5.539192316854938
        ]
      }
    },
    {
      "type": "Feature",
      "properties": {
        "_source": "Ruta21-Pirgua-Terminalo-Estadio-Runta",
        "_segmentIndex": 0,
        "_position": 15
      },
      "geometry": {
        "type": "Point",
        "coordinates": [
          -73.35115231544972,
          5.53958459367506
        ]
      }
    },
    {
      "type": "Feature",
      "properties": {
        "_source": "Ruta21-Pirgua-Terminalo-Estadio-Runta",
        "_segmentIndex": 0,
        "_position": 16
      },
      "geometry": {
        "type": "Point",
        "coordinates": [
          -73.3509274499106,
          5.539974594953522
        ]
      }
    },
    {
      "type": "Feature",
      "properties": {
        "_source": "Ruta21-Pirgua-Terminalo-Estadio-Runta",
        "_segmentIndex": 0,
        "_position": 17
      },
      "geometry": {
        "type": "Point",
        "coordinates": [
          -73.35070944008207,
          5.540368273114782
        ]
      }
    },
    {
      "type": "Feature",
      "properties": {
        "_source": "Ruta21-Pirgua-Terminalo-Estadio-Runta",
        "_segmentIndex": 0,
        "_position": 18
      },
      "geometry": {
        "type": "Point",
        "coordinates": [
          -73.3505310591327,
          5.540780848172599
        ]
      }
    },
    {
      "type": "Feature",
      "properties": {
        "_source": "Ruta21-Pirgua-Terminalo-Estadio-Runta",
        "_segmentIndex": 0,
        "_position": 19
      },
      "geometry": {
        "type": "Point",
        "coordinates": [
          -73.35038582491394,
          5.541206446259706
        ]
      }
    },
    {
      "type": "Feature",
      "properties": {
        "_source": "Ruta21-Pirgua-Terminalo-Estadio-Runta",
        "_segmentIndex": 0,
        "_position": 0
      },
      "geometry": {
        "type": "Point",
        "coordinates": [
          -73.350322,
          5.541406
        ]
      }
    },
    {
      "type": "Feature",
      "properties": {
        "_source": "Ruta21-Pirgua-Terminalo-Estadio-Runta",
        "_segmentIndex": 0,
        "_position": 1
      },
      "geometry": {
        "type": "Point",
        "coordinates": [
          -73.35006566317654,
          5.5417579877460135
        ]
      }
    },
    {
      "type": "Feature",
      "properties": {
        "_source": "Ruta21-Pirgua-Terminalo-Estadio-Runta",
        "_segmentIndex": 0,
        "_position": 2
      },
      "geometry": {
        "type": "Point",
        "coordinates": [
          -73.3502223652269,
          5.542144895579039
        ]
      }
    },
    {
      "type": "Feature",
      "properties": {
        "_source": "Ruta21-Pirgua-Terminalo-Estadio-Runta",
        "_segmentIndex": 0,
        "_position": 3
      },
      "geometry": {
        "type": "Point",
        "coordinates": [
          -73.35066227773076,
          5.542164416654717
        ]
      }
    },
    {
      "type": "Feature",
      "properties": {
        "_source": "Ruta21-Pirgua-Terminalo-Estadio-Runta",
        "_segmentIndex": 0,
        "_position": 0
      },
      "geometry": {
        "type": "Point",
        "coordinates": [
          -73.350726,
          5.542186
        ]
      }
    },
    {
      "type": "Feature",
      "properties": {
        "_source": "Ruta21-Pirgua-Terminalo-Estadio-Runta",
        "_segmentIndex": 0,
        "_position": 1
      },
      "geometry": {
        "type": "Point",
        "coordinates": [
          -73.35112160744491,
          5.542403137922706
        ]
      }
    },
    {
      "type": "Feature",
      "properties": {
        "_source": "Ruta21-Pirgua-Terminalo-Estadio-Runta",
        "_segmentIndex": 0,
        "_position": 2
      },
      "geometry": {
        "type": "Point",
        "coordinates": [
          -73.35151648764489,
          5.542621583540418
        ]
      }
    },
    {
      "type": "Feature",
      "properties": {
        "_source": "Ruta21-Pirgua-Terminalo-Estadio-Runta",
        "_segmentIndex": 0,
        "_position": 3
      },
      "geometry": {
        "type": "Point",
        "coordinates": [
          -73.35191801226561,
          5.54282688419258
        ]
      }
    },
    {
      "type": "Feature",
      "properties": {
        "_source": "Ruta21-Pirgua-Terminalo-Estadio-Runta",
        "_segmentIndex": 0,
        "_position": 4
      },
      "geometry": {
        "type": "Point",
        "coordinates": [
          -73.35233253364284,
          5.543005684196657
        ]
      }
    },
    {
      "type": "Feature",
      "properties": {
        "_source": "Ruta21-Pirgua-Terminalo-Estadio-Runta",
        "_segmentIndex": 0,
        "_position": 5
      },
      "geometry": {
        "type": "Point",
        "coordinates": [
          -73.3527539913629,
          5.543167317552664
        ]
      }
    },
    {
      "type": "Feature",
      "properties": {
        "_source": "Ruta21-Pirgua-Terminalo-Estadio-Runta",
        "_segmentIndex": 0,
        "_position": 6
      },
      "geometry": {
        "type": "Point",
        "coordinates": [
          -73.35317746856242,
          5.543323953097081
        ]
      }
    },
    {
      "type": "Feature",
      "properties": {
        "_source": "Ruta21-Pirgua-Terminalo-Estadio-Runta",
        "_segmentIndex": 0,
        "_position": 7
      },
      "geometry": {
        "type": "Point",
        "coordinates": [
          -73.35360094598667,
          5.543480588340566
        ]
      }
    },
    {
      "type": "Feature",
      "properties": {
        "_source": "Ruta21-Pirgua-Terminalo-Estadio-Runta",
        "_segmentIndex": 0,
        "_position": 8
      },
      "geometry": {
        "type": "Point",
        "coordinates": [
          -73.35402442363562,
          5.543637223283109
        ]
      }
    },
    {
      "type": "Feature",
      "properties": {
        "_source": "Ruta21-Pirgua-Terminalo-Estadio-Runta",
        "_segmentIndex": 0,
        "_position": 9
      },
      "geometry": {
        "type": "Point",
        "coordinates": [
          -73.35444721753079,
          5.543795672302889
        ]
      }
    },
    {
      "type": "Feature",
      "properties": {
        "_source": "Ruta21-Pirgua-Terminalo-Estadio-Runta",
        "_segmentIndex": 0,
        "_position": 10
      },
      "geometry": {
        "type": "Point",
        "coordinates": [
          -73.35486914118228,
          5.543956342780333
        ]
      }
    },
    {
      "type": "Feature",
      "properties": {
        "_source": "Ruta21-Pirgua-Terminalo-Estadio-Runta",
        "_segmentIndex": 0,
        "_position": 11
      },
      "geometry": {
        "type": "Point",
        "coordinates": [
          -73.35528574317576,
          5.5441302881247925
        ]
      }
    },
    {
      "type": "Feature",
      "properties": {
        "_source": "Ruta21-Pirgua-Terminalo-Estadio-Runta",
        "_segmentIndex": 0,
        "_position": 0
      },
      "geometry": {
        "type": "Point",
        "coordinates": [
          -73.355503,
          5.544221
        ]
      }
    },
    {
      "type": "Feature",
      "properties": {
        "_source": "Ruta21-Pirgua-Terminalo-Estadio-Runta",
        "_segmentIndex": 0,
        "_position": 1
      },
      "geometry": {
        "type": "Point",
        "coordinates": [
          -73.3556940567734,
          5.5446283411018
        ]
      }
    },
    {
      "type": "Feature",
      "properties": {
        "_source": "Ruta21-Pirgua-Terminalo-Estadio-Runta",
        "_segmentIndex": 0,
        "_position": 2
      },
      "geometry": {
        "type": "Point",
        "coordinates": [
          -73.35580076776397,
          5.545065000142643
        ]
      }
    },
    {
      "type": "Feature",
      "properties": {
        "_source": "Ruta21-Pirgua-Terminalo-Estadio-Runta",
        "_segmentIndex": 0,
        "_position": 3
      },
      "geometry": {
        "type": "Point",
        "coordinates": [
          -73.3557895445145,
          5.545511030053468
        ]
      }
    },
    {
      "type": "Feature",
      "properties": {
        "_source": "Ruta21-Pirgua-Terminalo-Estadio-Runta",
        "_segmentIndex": 0,
        "_position": 4
      },
      "geometry": {
        "type": "Point",
        "coordinates": [
          -73.35566609039645,
          5.545939901922415
        ]
      }
    },
    {
      "type": "Feature",
      "properties": {
        "_source": "Ruta21-Pirgua-Terminalo-Estadio-Runta",
        "_segmentIndex": 0,
        "_position": 5
      },
      "geometry": {
        "type": "Point",
        "coordinates": [
          -73.3554341174047,
          5.546324533536711
        ]
      }
    },
    {
      "type": "Feature",
      "properties": {
        "_source": "Ruta21-Pirgua-Terminalo-Estadio-Runta",
        "_segmentIndex": 0,
        "_position": 6
      },
      "geometry": {
        "type": "Point",
        "coordinates": [
          -73.35518308614087,
          5.5466983868268285
        ]
      }
    },
    {
      "type": "Feature",
      "properties": {
        "_source": "Ruta21-Pirgua-Terminalo-Estadio-Runta",
        "_segmentIndex": 0,
        "_position": 7
      },
      "geometry": {
        "type": "Point",
        "coordinates": [
          -73.35494666901293,
          5.5470814705257165
        ]
      }
    },
    {
      "type": "Feature",
      "properties": {
        "_source": "Ruta21-Pirgua-Terminalo-Estadio-Runta",
        "_segmentIndex": 0,
        "_position": 0
      },
      "geometry": {
        "type": "Point",
        "coordinates": [
          -73.354901,
          5.547157
        ]
      }
    },
    {
      "type": "Feature",
      "properties": {
        "_source": "Ruta21-Pirgua-Terminalo-Estadio-Runta",
        "_segmentIndex": 0,
        "_position": 1
      },
      "geometry": {
        "type": "Point",
        "coordinates": [
          -73.35523678585609,
          5.547413111819285
        ]
      }
    },
    {
      "type": "Feature",
      "properties": {
        "_source": "Ruta21-Pirgua-Terminalo-Estadio-Runta",
        "_segmentIndex": 0,
        "_position": 0
      },
      "geometry": {
        "type": "Point",
        "coordinates": [
          -73.355338,
          5.547472
        ]
      }
    },
    {
      "type": "Feature",
      "properties": {
        "_source": "Ruta21-Pirgua-Terminalo-Estadio-Runta",
        "_segmentIndex": 0,
        "_position": 1
      },
      "geometry": {
        "type": "Point",
        "coordinates": [
          -73.35566346914828,
          5.5472955528720265
        ]
      }
    },
    {
      "type": "Feature",
      "properties": {
        "_source": "Ruta21-Pirgua-Terminalo-Estadio-Runta",
        "_segmentIndex": 0,
        "_position": 2
      },
      "geometry": {
        "type": "Point",
        "coordinates": [
          -73.35592106598568,
          5.546926150411671
        ]
      }
    },
    {
      "type": "Feature",
      "properties": {
        "_source": "Ruta21-Pirgua-Terminalo-Estadio-Runta",
        "_segmentIndex": 0,
        "_position": 3
      },
      "geometry": {
        "type": "Point",
        "coordinates": [
          -73.35617882720666,
          5.546556865498152
        ]
      }
    },
    {
      "type": "Feature",
      "properties": {
        "_source": "Ruta21-Pirgua-Terminalo-Estadio-Runta",
        "_segmentIndex": 0,
        "_position": 4
      },
      "geometry": {
        "type": "Point",
        "coordinates": [
          -73.35644800775128,
          5.546195738122845
        ]
      }
    },
    {
      "type": "Feature",
      "properties": {
        "_source": "Ruta21-Pirgua-Terminalo-Estadio-Runta",
        "_segmentIndex": 0,
        "_position": 5
      },
      "geometry": {
        "type": "Point",
        "coordinates": [
          -73.35671718796642,
          5.545834610625886
        ]
      }
    },
    {
      "type": "Feature",
      "properties": {
        "_source": "Ruta21-Pirgua-Terminalo-Estadio-Runta",
        "_segmentIndex": 0,
        "_position": 6
      },
      "geometry": {
        "type": "Point",
        "coordinates": [
          -73.35698636785209,
          5.5454734830072825
        ]
      }
    },
    {
      "type": "Feature",
      "properties": {
        "_source": "Ruta21-Pirgua-Terminalo-Estadio-Runta",
        "_segmentIndex": 0,
        "_position": 7
      },
      "geometry": {
        "type": "Point",
        "coordinates": [
          -73.35725554740831,
          5.545112355267042
        ]
      }
    },
    {
      "type": "Feature",
      "properties": {
        "_source": "Ruta21-Pirgua-Terminalo-Estadio-Runta",
        "_segmentIndex": 0,
        "_position": 0
      },
      "geometry": {
        "type": "Point",
        "coordinates": [
          -73.357387,
          5.544936
        ]
      }
    },
    {
      "type": "Feature",
      "properties": {
        "_source": "Ruta21-Pirgua-Terminalo-Estadio-Runta",
        "_segmentIndex": 0,
        "_position": 1
      },
      "geometry": {
        "type": "Point",
        "coordinates": [
          -73.35778562858353,
          5.544749771403815
        ]
      }
    },
    {
      "type": "Feature",
      "properties": {
        "_source": "Ruta21-Pirgua-Terminalo-Estadio-Runta",
        "_segmentIndex": 0,
        "_position": 2
      },
      "geometry": {
        "type": "Point",
        "coordinates": [
          -73.3578957255639,
          5.5443206283864
        ]
      }
    },
    {
      "type": "Feature",
      "properties": {
        "_source": "Ruta21-Pirgua-Terminalo-Estadio-Runta",
        "_segmentIndex": 0,
        "_position": 0
      },
      "geometry": {
        "type": "Point",
        "coordinates": [
          -73.357968,
          5.544184
        ]
      }
    },
    {
      "type": "Feature",
      "properties": {
        "_source": "Ruta21-Pirgua-Terminalo-Estadio-Runta",
        "_segmentIndex": 0,
        "_position": 1
      },
      "geometry": {
        "type": "Point",
        "coordinates": [
          -73.35823396206513,
          5.5438205186749805
        ]
      }
    },
    {
      "type": "Feature",
      "properties": {
        "_source": "Ruta21-Pirgua-Terminalo-Estadio-Runta",
        "_segmentIndex": 0,
        "_position": 2
      },
      "geometry": {
        "type": "Point",
        "coordinates": [
          -73.35849858304051,
          5.543456074195187
        ]
      }
    },
    {
      "type": "Feature",
      "properties": {
        "_source": "Ruta21-Pirgua-Terminalo-Estadio-Runta",
        "_segmentIndex": 0,
        "_position": 3
      },
      "geometry": {
        "type": "Point",
        "coordinates": [
          -73.35876135843324,
          5.54309030419702
        ]
      }
    },
    {
      "type": "Feature",
      "properties": {
        "_source": "Ruta21-Pirgua-Terminalo-Estadio-Runta",
        "_segmentIndex": 0,
        "_position": 4
      },
      "geometry": {
        "type": "Point",
        "coordinates": [
          -73.35906401290993,
          5.542804935284449
        ]
      }
    },
    {
      "type": "Feature",
      "properties": {
        "_source": "Ruta21-Pirgua-Terminalo-Estadio-Runta",
        "_segmentIndex": 0,
        "_position": 0
      },
      "geometry": {
        "type": "Point",
        "coordinates": [
          -73.35908,
          5.542801
        ]
      }
    },
    {
      "type": "Feature",
      "properties": {
        "_source": "Ruta21-Pirgua-Terminalo-Estadio-Runta",
        "_segmentIndex": 0,
        "_position": 1
      },
      "geometry": {
        "type": "Point",
        "coordinates": [
          -73.35952343210478,
          5.542884502214033
        ]
      }
    },
    {
      "type": "Feature",
      "properties": {
        "_source": "Ruta21-Pirgua-Terminalo-Estadio-Runta",
        "_segmentIndex": 0,
        "_position": 2
      },
      "geometry": {
        "type": "Point",
        "coordinates": [
          -73.35996415648899,
          5.54298329317222
        ]
      }
    },
    {
      "type": "Feature",
      "properties": {
        "_source": "Ruta21-Pirgua-Terminalo-Estadio-Runta",
        "_segmentIndex": 0,
        "_position": 3
      },
      "geometry": {
        "type": "Point",
        "coordinates": [
          -73.36039933592912,
          5.542949026457205
        ]
      }
    },
    {
      "type": "Feature",
      "properties": {
        "_source": "Ruta21-Pirgua-Terminalo-Estadio-Runta",
        "_segmentIndex": 0,
        "_position": 4
      },
      "geometry": {
        "type": "Point",
        "coordinates": [
          -73.36066832410798,
          5.5425913769082245
        ]
      }
    },
    {
      "type": "Feature",
      "properties": {
        "_source": "Ruta21-Pirgua-Terminalo-Estadio-Runta",
        "_segmentIndex": 0,
        "_position": 5
      },
      "geometry": {
        "type": "Point",
        "coordinates": [
          -73.36083912107456,
          5.542180503078616
        ]
      }
    },
    {
      "type": "Feature",
      "properties": {
        "_source": "Ruta21-Pirgua-Terminalo-Estadio-Runta",
        "_segmentIndex": 0,
        "_position": 6
      },
      "geometry": {
        "type": "Point",
        "coordinates": [
          -73.36080187439721,
          5.5417350721919805
        ]
      }
    },
    {
      "type": "Feature",
      "properties": {
        "_source": "Ruta21-Pirgua-Terminalo-Estadio-Runta",
        "_segmentIndex": 0,
        "_position": 7
      },
      "geometry": {
        "type": "Point",
        "coordinates": [
          -73.36070730885822,
          5.541295623398846
        ]
      }
    },
    {
      "type": "Feature",
      "properties": {
        "_source": "Ruta21-Pirgua-Terminalo-Estadio-Runta",
        "_segmentIndex": 0,
        "_position": 8
      },
      "geometry": {
        "type": "Point",
        "coordinates": [
          -73.3606373594363,
          5.540851467699803
        ]
      }
    },
    {
      "type": "Feature",
      "properties": {
        "_source": "Ruta21-Pirgua-Terminalo-Estadio-Runta",
        "_segmentIndex": 0,
        "_position": 9
      },
      "geometry": {
        "type": "Point",
        "coordinates": [
          -73.36054555851433,
          5.540411972022194
        ]
      }
    },
    {
      "type": "Feature",
      "properties": {
        "_source": "Ruta21-Pirgua-Terminalo-Estadio-Runta",
        "_segmentIndex": 0,
        "_position": 10
      },
      "geometry": {
        "type": "Point",
        "coordinates": [
          -73.36043893361264,
          5.539975034838338
        ]
      }
    },
    {
      "type": "Feature",
      "properties": {
        "_source": "Ruta21-Pirgua-Terminalo-Estadio-Runta",
        "_segmentIndex": 0,
        "_position": 11
      },
      "geometry": {
        "type": "Point",
        "coordinates": [
          -73.36033561534526,
          5.539537291654555
        ]
      }
    },
    {
      "type": "Feature",
      "properties": {
        "_source": "Ruta21-Pirgua-Terminalo-Estadio-Runta",
        "_segmentIndex": 0,
        "_position": 12
      },
      "geometry": {
        "type": "Point",
        "coordinates": [
          -73.36023425692474,
          5.53909910183629
        ]
      }
    },
    {
      "type": "Feature",
      "properties": {
        "_source": "Ruta21-Pirgua-Terminalo-Estadio-Runta",
        "_segmentIndex": 0,
        "_position": 13
      },
      "geometry": {
        "type": "Point",
        "coordinates": [
          -73.36026188395881,
          5.53865764014055
        ]
      }
    },
    {
      "type": "Feature",
      "properties": {
        "_source": "Ruta21-Pirgua-Terminalo-Estadio-Runta",
        "_segmentIndex": 0,
        "_position": 14
      },
      "geometry": {
        "type": "Point",
        "coordinates": [
          -73.36037450115647,
          5.5382224395523565
        ]
      }
    },
    {
      "type": "Feature",
      "properties": {
        "_source": "Ruta21-Pirgua-Terminalo-Estadio-Runta",
        "_segmentIndex": 0,
        "_position": 0
      },
      "geometry": {
        "type": "Point",
        "coordinates": [
          -73.360525,
          5.537924
        ]
      }
    },
    {
      "type": "Feature",
      "properties": {
        "_source": "Ruta21-Pirgua-Terminalo-Estadio-Runta",
        "_segmentIndex": 0,
        "_position": 1
      },
      "geometry": {
        "type": "Point",
        "coordinates": [
          -73.36090343128848,
          5.5376810251767425
        ]
      }
    },
    {
      "type": "Feature",
      "properties": {
        "_source": "Ruta21-Pirgua-Terminalo-Estadio-Runta",
        "_segmentIndex": 0,
        "_position": 2
      },
      "geometry": {
        "type": "Point",
        "coordinates": [
          -73.36124344590326,
          5.537396711705245
        ]
      }
    },
    {
      "type": "Feature",
      "properties": {
        "_source": "Ruta21-Pirgua-Terminalo-Estadio-Runta",
        "_segmentIndex": 0,
        "_position": 3
      },
      "geometry": {
        "type": "Point",
        "coordinates": [
          -73.36144762060894,
          5.536995613190816
        ]
      }
    },
    {
      "type": "Feature",
      "properties": {
        "_source": "Ruta21-Pirgua-Terminalo-Estadio-Runta",
        "_segmentIndex": 0,
        "_position": 4
      },
      "geometry": {
        "type": "Point",
        "coordinates": [
          -73.36175856850602,
          5.536674865859324
        ]
      }
    },
    {
      "type": "Feature",
      "properties": {
        "_source": "Ruta21-Pirgua-Terminalo-Estadio-Runta",
        "_segmentIndex": 0,
        "_position": 5
      },
      "geometry": {
        "type": "Point",
        "coordinates": [
          -73.36217073297975,
          5.536509187218583
        ]
      }
    },
    {
      "type": "Feature",
      "properties": {
        "_source": "Ruta21-Pirgua-Terminalo-Estadio-Runta",
        "_segmentIndex": 0,
        "_position": 6
      },
      "geometry": {
        "type": "Point",
        "coordinates": [
          -73.36262015533704,
          5.536463427830962
        ]
      }
    },
    {
      "type": "Feature",
      "properties": {
        "_source": "Ruta21-Pirgua-Terminalo-Estadio-Runta",
        "_segmentIndex": 0,
        "_position": 7
      },
      "geometry": {
        "type": "Point",
        "coordinates": [
          -73.36306987636584,
          5.536420680557755
        ]
      }
    },
    {
      "type": "Feature",
      "properties": {
        "_source": "Ruta21-Pirgua-Terminalo-Estadio-Runta",
        "_segmentIndex": 0,
        "_position": 8
      },
      "geometry": {
        "type": "Point",
        "coordinates": [
          -73.36351961406785,
          5.536378101730093
        ]
      }
    },
    {
      "type": "Feature",
      "properties": {
        "_source": "Ruta21-Pirgua-Terminalo-Estadio-Runta",
        "_segmentIndex": 0,
        "_position": 9
      },
      "geometry": {
        "type": "Point",
        "coordinates": [
          -73.36396859614531,
          5.536332618459564
        ]
      }
    },
    {
      "type": "Feature",
      "properties": {
        "_source": "Ruta21-Pirgua-Terminalo-Estadio-Runta",
        "_segmentIndex": 0,
        "_position": 10
      },
      "geometry": {
        "type": "Point",
        "coordinates": [
          -73.36441682944877,
          5.536281315151614
        ]
      }
    },
    {
      "type": "Feature",
      "properties": {
        "_source": "Ruta21-Pirgua-Terminalo-Estadio-Runta",
        "_segmentIndex": 0,
        "_position": 0
      },
      "geometry": {
        "type": "Point",
        "coordinates": [
          -73.364742,
          5.536138
        ]
      }
    },
    {
      "type": "Feature",
      "properties": {
        "_source": "Ruta21-Pirgua-Terminalo-Estadio-Runta",
        "_segmentIndex": 0,
        "_position": 1
      },
      "geometry": {
        "type": "Point",
        "coordinates": [
          -73.36492304211727,
          5.5357341764172
        ]
      }
    },
    {
      "type": "Feature",
      "properties": {
        "_source": "Ruta21-Pirgua-Terminalo-Estadio-Runta",
        "_segmentIndex": 0,
        "_position": 2
      },
      "geometry": {
        "type": "Point",
        "coordinates": [
          -73.36535413542657,
          5.535608398835466
        ]
      }
    },
    {
      "type": "Feature",
      "properties": {
        "_source": "Ruta21-Pirgua-Terminalo-Estadio-Runta",
        "_segmentIndex": 0,
        "_position": 3
      },
      "geometry": {
        "type": "Point",
        "coordinates": [
          -73.36559556758223,
          5.535266256451304
        ]
      }
    },
    {
      "type": "Feature",
      "properties": {
        "_source": "Ruta21-Pirgua-Terminalo-Estadio-Runta",
        "_segmentIndex": 0,
        "_position": 4
      },
      "geometry": {
        "type": "Point",
        "coordinates": [
          -73.36576372704435,
          5.534849061236375
        ]
      }
    },
    {
      "type": "Feature",
      "properties": {
        "_source": "Ruta21-Pirgua-Terminalo-Estadio-Runta",
        "_segmentIndex": 0,
        "_position": 5
      },
      "geometry": {
        "type": "Point",
        "coordinates": [
          -73.36594246390555,
          5.534436179455671
        ]
      }
    },
    {
      "type": "Feature",
      "properties": {
        "_source": "Ruta21-Pirgua-Terminalo-Estadio-Runta",
        "_segmentIndex": 0,
        "_position": 6
      },
      "geometry": {
        "type": "Point",
        "coordinates": [
          -73.36613037185147,
          5.534027276866793
        ]
      }
    },
    {
      "type": "Feature",
      "properties": {
        "_source": "Ruta21-Pirgua-Terminalo-Estadio-Runta",
        "_segmentIndex": 0,
        "_position": 7
      },
      "geometry": {
        "type": "Point",
        "coordinates": [
          -73.36632330821561,
          5.533620686159533
        ]
      }
    },
    {
      "type": "Feature",
      "properties": {
        "_source": "Ruta21-Pirgua-Terminalo-Estadio-Runta",
        "_segmentIndex": 0,
        "_position": 8
      },
      "geometry": {
        "type": "Point",
        "coordinates": [
          -73.36649868340312,
          5.533206482243932
        ]
      }
    },
    {
      "type": "Feature",
      "properties": {
        "_source": "Ruta21-Pirgua-Terminalo-Estadio-Runta",
        "_segmentIndex": 0,
        "_position": 9
      },
      "geometry": {
        "type": "Point",
        "coordinates": [
          -73.36666026511982,
          5.532786612982272
        ]
      }
    },
    {
      "type": "Feature",
      "properties": {
        "_source": "Ruta21-Pirgua-Terminalo-Estadio-Runta",
        "_segmentIndex": 0,
        "_position": 10
      },
      "geometry": {
        "type": "Point",
        "coordinates": [
          -73.36673076791104,
          5.53234297822065
        ]
      }
    },
    {
      "type": "Feature",
      "properties": {
        "_source": "Ruta21-Pirgua-Terminalo-Estadio-Runta",
        "_segmentIndex": 0,
        "_position": 11
      },
      "geometry": {
        "type": "Point",
        "coordinates": [
          -73.36679108480324,
          5.531897459288773
        ]
      }
    },
    {
      "type": "Feature",
      "properties": {
        "_source": "Ruta21-Pirgua-Terminalo-Estadio-Runta",
        "_segmentIndex": 0,
        "_position": 12
      },
      "geometry": {
        "type": "Point",
        "coordinates": [
          -73.36686154978773,
          5.531453302667997
        ]
      }
    },
    {
      "type": "Feature",
      "properties": {
        "_source": "Ruta21-Pirgua-Terminalo-Estadio-Runta",
        "_segmentIndex": 0,
        "_position": 0
      },
      "geometry": {
        "type": "Point",
        "coordinates": [
          -73.366913,
          5.531129
        ]
      }
    },
    {
      "type": "Feature",
      "properties": {
        "_source": "Ruta21-Pirgua-Terminalo-Estadio-Runta",
        "_segmentIndex": 0,
        "_position": 1
      },
      "geometry": {
        "type": "Point",
        "coordinates": [
          -73.36735435173654,
          5.531224981461904
        ]
      }
    },
    {
      "type": "Feature",
      "properties": {
        "_source": "Ruta21-Pirgua-Terminalo-Estadio-Runta",
        "_segmentIndex": 0,
        "_position": 2
      },
      "geometry": {
        "type": "Point",
        "coordinates": [
          -73.36779515851212,
          5.531323414062153
        ]
      }
    },
    {
      "type": "Feature",
      "properties": {
        "_source": "Ruta21-Pirgua-Terminalo-Estadio-Runta",
        "_segmentIndex": 0,
        "_position": 3
      },
      "geometry": {
        "type": "Point",
        "coordinates": [
          -73.36824120622481,
          5.531393797728536
        ]
      }
    },
    {
      "type": "Feature",
      "properties": {
        "_source": "Ruta21-Pirgua-Terminalo-Estadio-Runta",
        "_segmentIndex": 0,
        "_position": 0
      },
      "geometry": {
        "type": "Point",
        "coordinates": [
          -73.368491,
          5.531342
        ]
      }
    },
    {
      "type": "Feature",
      "properties": {
        "_source": "Ruta21-Pirgua-Terminalo-Estadio-Runta",
        "_segmentIndex": 0,
        "_position": 1
      },
      "geometry": {
        "type": "Point",
        "coordinates": [
          -73.36851067706372,
          5.530896209087881
        ]
      }
    },
    {
      "type": "Feature",
      "properties": {
        "_source": "Ruta21-Pirgua-Terminalo-Estadio-Runta",
        "_segmentIndex": 0,
        "_position": 2
      },
      "geometry": {
        "type": "Point",
        "coordinates": [
          -73.36858472775765,
          5.5304526307866775
        ]
      }
    },
    {
      "type": "Feature",
      "properties": {
        "_source": "Ruta21-Pirgua-Terminalo-Estadio-Runta",
        "_segmentIndex": 0,
        "_position": 3
      },
      "geometry": {
        "type": "Point",
        "coordinates": [
          -73.3686702338661,
          5.530011098916918
        ]
      }
    },
    {
      "type": "Feature",
      "properties": {
        "_source": "Ruta21-Pirgua-Terminalo-Estadio-Runta",
        "_segmentIndex": 0,
        "_position": 4
      },
      "geometry": {
        "type": "Point",
        "coordinates": [
          -73.36875578211782,
          5.529569574586282
        ]
      }
    },
    {
      "type": "Feature",
      "properties": {
        "_source": "Ruta21-Pirgua-Terminalo-Estadio-Runta",
        "_segmentIndex": 0,
        "_position": 5
      },
      "geometry": {
        "type": "Point",
        "coordinates": [
          -73.36882601330099,
          5.529125413865134
        ]
      }
    },
    {
      "type": "Feature",
      "properties": {
        "_source": "Ruta21-Pirgua-Terminalo-Estadio-Runta",
        "_segmentIndex": 0,
        "_position": 6
      },
      "geometry": {
        "type": "Point",
        "coordinates": [
          -73.36889439465912,
          5.528680934758754
        ]
      }
    },
    {
      "type": "Feature",
      "properties": {
        "_source": "Ruta21-Pirgua-Terminalo-Estadio-Runta",
        "_segmentIndex": 0,
        "_position": 7
      },
      "geometry": {
        "type": "Point",
        "coordinates": [
          -73.36897464335344,
          5.528238437484124
        ]
      }
    },
    {
      "type": "Feature",
      "properties": {
        "_source": "Ruta21-Pirgua-Terminalo-Estadio-Runta",
        "_segmentIndex": 0,
        "_position": 8
      },
      "geometry": {
        "type": "Point",
        "coordinates": [
          -73.36905574888956,
          5.527796083309668
        ]
      }
    },
    {
      "type": "Feature",
      "properties": {
        "_source": "Ruta21-Pirgua-Terminalo-Estadio-Runta",
        "_segmentIndex": 0,
        "_position": 9
      },
      "geometry": {
        "type": "Point",
        "coordinates": [
          -73.36913745324652,
          5.527353838558214
        ]
      }
    },
    {
      "type": "Feature",
      "properties": {
        "_source": "Ruta21-Pirgua-Terminalo-Estadio-Runta",
        "_segmentIndex": 0,
        "_position": 10
      },
      "geometry": {
        "type": "Point",
        "coordinates": [
          -73.36923844521016,
          5.5269165226907235
        ]
      }
    },
    {
      "type": "Feature",
      "properties": {
        "_source": "Ruta21-Pirgua-Terminalo-Estadio-Runta",
        "_segmentIndex": 0,
        "_position": 11
      },
      "geometry": {
        "type": "Point",
        "coordinates": [
          -73.36938371102896,
          5.526490743575232
        ]
      }
    },
    {
      "type": "Feature",
      "properties": {
        "_source": "Ruta21-Pirgua-Terminalo-Estadio-Runta",
        "_segmentIndex": 0,
        "_position": 12
      },
      "geometry": {
        "type": "Point",
        "coordinates": [
          -73.36953341182854,
          5.526066492435117
        ]
      }
    },
    {
      "type": "Feature",
      "properties": {
        "_source": "Ruta21-Pirgua-Terminalo-Estadio-Runta",
        "_segmentIndex": 0,
        "_position": 13
      },
      "geometry": {
        "type": "Point",
        "coordinates": [
          -73.3696836725506,
          5.5256424342357535
        ]
      }
    },
    {
      "type": "Feature",
      "properties": {
        "_source": "Ruta21-Pirgua-Terminalo-Estadio-Runta",
        "_segmentIndex": 0,
        "_position": 14
      },
      "geometry": {
        "type": "Point",
        "coordinates": [
          -73.3698327051501,
          5.525217947123351
        ]
      }
    },
    {
      "type": "Feature",
      "properties": {
        "_source": "Ruta21-Pirgua-Terminalo-Estadio-Runta",
        "_segmentIndex": 0,
        "_position": 15
      },
      "geometry": {
        "type": "Point",
        "coordinates": [
          -73.36997787382496,
          5.5247921454227145
        ]
      }
    },
    {
      "type": "Feature",
      "properties": {
        "_source": "Ruta21-Pirgua-Terminalo-Estadio-Runta",
        "_segmentIndex": 0,
        "_position": 16
      },
      "geometry": {
        "type": "Point",
        "coordinates": [
          -73.37007596279491,
          5.524355174080248
        ]
      }
    },
    {
      "type": "Feature",
      "properties": {
        "_source": "Ruta21-Pirgua-Terminalo-Estadio-Runta",
        "_segmentIndex": 0,
        "_position": 17
      },
      "geometry": {
        "type": "Point",
        "coordinates": [
          -73.37016306597033,
          5.523917396894259
        ]
      }
    },
    {
      "type": "Feature",
      "properties": {
        "_source": "Ruta21-Pirgua-Terminalo-Estadio-Runta",
        "_segmentIndex": 0,
        "_position": 18
      },
      "geometry": {
        "type": "Point",
        "coordinates": [
          -73.37031995195463,
          5.523495857957004
        ]
      }
    },
    {
      "type": "Feature",
      "properties": {
        "_source": "Ruta21-Pirgua-Terminalo-Estadio-Runta",
        "_segmentIndex": 0,
        "_position": 19
      },
      "geometry": {
        "type": "Point",
        "coordinates": [
          -73.37041382379464,
          5.523062197158251
        ]
      }
    },
    {
      "type": "Feature",
      "properties": {
        "_source": "Ruta21-Pirgua-Terminalo-Estadio-Runta",
        "_segmentIndex": 0,
        "_position": 20
      },
      "geometry": {
        "type": "Point",
        "coordinates": [
          -73.37035110150393,
          5.52261724790948
        ]
      }
    },
    {
      "type": "Feature",
      "properties": {
        "_source": "Ruta21-Pirgua-Terminalo-Estadio-Runta",
        "_segmentIndex": 0,
        "_position": 21
      },
      "geometry": {
        "type": "Point",
        "coordinates": [
          -73.37033820772476,
          5.522172327503925
        ]
      }
    },
    {
      "type": "Feature",
      "properties": {
        "_source": "Ruta21-Pirgua-Terminalo-Estadio-Runta",
        "_segmentIndex": 0,
        "_position": 22
      },
      "geometry": {
        "type": "Point",
        "coordinates": [
          -73.37040048047075,
          5.5217269599800956
        ]
      }
    },
    {
      "type": "Feature",
      "properties": {
        "_source": "Ruta21-Pirgua-Terminalo-Estadio-Runta",
        "_segmentIndex": 0,
        "_position": 23
      },
      "geometry": {
        "type": "Point",
        "coordinates": [
          -73.37046486603106,
          5.521281895864601
        ]
      }
    },
    {
      "type": "Feature",
      "properties": {
        "_source": "Ruta21-Pirgua-Terminalo-Estadio-Runta",
        "_segmentIndex": 0,
        "_position": 24
      },
      "geometry": {
        "type": "Point",
        "coordinates": [
          -73.37053138966853,
          5.520837137672721
        ]
      }
    },
    {
      "type": "Feature",
      "properties": {
        "_source": "Ruta21-Pirgua-Terminalo-Estadio-Runta",
        "_segmentIndex": 0,
        "_position": 0
      },
      "geometry": {
        "type": "Point",
        "coordinates": [
          -73.37053,
          5.520645
        ]
      }
    },
    {
      "type": "Feature",
      "properties": {
        "_source": "Ruta21-Pirgua-Terminalo-Estadio-Runta",
        "_segmentIndex": 0,
        "_position": 1
      },
      "geometry": {
        "type": "Point",
        "coordinates": [
          -73.37008274593616,
          5.520583432164382
        ]
      }
    },
    {
      "type": "Feature",
      "properties": {
        "_source": "Ruta21-Pirgua-Terminalo-Estadio-Runta",
        "_segmentIndex": 0,
        "_position": 0
      },
      "geometry": {
        "type": "Point",
        "coordinates": [
          -73.369723,
          5.520519
        ]
      }
    },
    {
      "type": "Feature",
      "properties": {
        "_source": "Ruta21-Pirgua-Terminalo-Estadio-Runta",
        "_segmentIndex": 0,
        "_position": 1
      },
      "geometry": {
        "type": "Point",
        "coordinates": [
          -73.36977856338673,
          5.52007275393665
        ]
      }
    },
    {
      "type": "Feature",
      "properties": {
        "_source": "Ruta21-Pirgua-Terminalo-Estadio-Runta",
        "_segmentIndex": 0,
        "_position": 2
      },
      "geometry": {
        "type": "Point",
        "coordinates": [
          -73.3698387777037,
          5.519627166241013
        ]
      }
    },
    {
      "type": "Feature",
      "properties": {
        "_source": "Ruta21-Pirgua-Terminalo-Estadio-Runta",
        "_segmentIndex": 0,
        "_position": 3
      },
      "geometry": {
        "type": "Point",
        "coordinates": [
          -73.36990445363895,
          5.519182321188074
        ]
      }
    },
    {
      "type": "Feature",
      "properties": {
        "_source": "Ruta21-Pirgua-Terminalo-Estadio-Runta",
        "_segmentIndex": 0,
        "_position": 4
      },
      "geometry": {
        "type": "Point",
        "coordinates": [
          -73.36996767101891,
          5.5187371008321175
        ]
      }
    },
    {
      "type": "Feature",
      "properties": {
        "_source": "Ruta21-Pirgua-Terminalo-Estadio-Runta",
        "_segmentIndex": 0,
        "_position": 5
      },
      "geometry": {
        "type": "Point",
        "coordinates": [
          -73.37003056622474,
          5.51829184690029
        ]
      }
    },
    {
      "type": "Feature",
      "properties": {
        "_source": "Ruta21-Pirgua-Terminalo-Estadio-Runta",
        "_segmentIndex": 0,
        "_position": 0
      },
      "geometry": {
        "type": "Point",
        "coordinates": [
          -73.370077,
          5.517929
        ]
      }
    },
    {
      "type": "Feature",
      "properties": {
        "_source": "Ruta21-Pirgua-Terminalo-Estadio-Runta",
        "_segmentIndex": 0,
        "_position": 1
      },
      "geometry": {
        "type": "Point",
        "coordinates": [
          -73.37028577379999,
          5.517538641682688
        ]
      }
    },
    {
      "type": "Feature",
      "properties": {
        "_source": "Ruta21-Pirgua-Terminalo-Estadio-Runta",
        "_segmentIndex": 0,
        "_position": 2
      },
      "geometry": {
        "type": "Point",
        "coordinates": [
          -73.3703918413954,
          5.517101807510007
        ]
      }
    },
    {
      "type": "Feature",
      "properties": {
        "_source": "Ruta21-Pirgua-Terminalo-Estadio-Runta",
        "_segmentIndex": 0,
        "_position": 3
      },
      "geometry": {
        "type": "Point",
        "coordinates": [
          -73.37048674921205,
          5.51666218262538
        ]
      }
    },
    {
      "type": "Feature",
      "properties": {
        "_source": "Ruta21-Pirgua-Terminalo-Estadio-Runta",
        "_segmentIndex": 0,
        "_position": 4
      },
      "geometry": {
        "type": "Point",
        "coordinates": [
          -73.37058070479489,
          5.516222356882828
        ]
      }
    },
    {
      "type": "Feature",
      "properties": {
        "_source": "Ruta21-Pirgua-Terminalo-Estadio-Runta",
        "_segmentIndex": 0,
        "_position": 5
      },
      "geometry": {
        "type": "Point",
        "coordinates": [
          -73.37067212998399,
          5.515782001406853
        ]
      }
    },
    {
      "type": "Feature",
      "properties": {
        "_source": "Ruta21-Pirgua-Terminalo-Estadio-Runta",
        "_segmentIndex": 0,
        "_position": 6
      },
      "geometry": {
        "type": "Point",
        "coordinates": [
          -73.37076816713916,
          5.51534267234263
        ]
      }
    },
    {
      "type": "Feature",
      "properties": {
        "_source": "Ruta21-Pirgua-Terminalo-Estadio-Runta",
        "_segmentIndex": 0,
        "_position": 7
      },
      "geometry": {
        "type": "Point",
        "coordinates": [
          -73.3708858322961,
          5.5149087151444895
        ]
      }
    },
    {
      "type": "Feature",
      "properties": {
        "_source": "Ruta21-Pirgua-Terminalo-Estadio-Runta",
        "_segmentIndex": 0,
        "_position": 8
      },
      "geometry": {
        "type": "Point",
        "coordinates": [
          -73.37106422482917,
          5.514496999450036
        ]
      }
    },
    {
      "type": "Feature",
      "properties": {
        "_source": "Ruta21-Pirgua-Terminalo-Estadio-Runta",
        "_segmentIndex": 0,
        "_position": 9
      },
      "geometry": {
        "type": "Point",
        "coordinates": [
          -73.37128146670553,
          5.514102745673474
        ]
      }
    },
    {
      "type": "Feature",
      "properties": {
        "_source": "Ruta21-Pirgua-Terminalo-Estadio-Runta",
        "_segmentIndex": 0,
        "_position": 10
      },
      "geometry": {
        "type": "Point",
        "coordinates": [
          -73.37148899233979,
          5.513703373188448
        ]
      }
    },
    {
      "type": "Feature",
      "properties": {
        "_source": "Ruta21-Pirgua-Terminalo-Estadio-Runta",
        "_segmentIndex": 0,
        "_position": 0
      },
      "geometry": {
        "type": "Point",
        "coordinates": [
          -73.371563,
          5.513361
        ]
      }
    },
    {
      "type": "Feature",
      "properties": {
        "_source": "Ruta21-Pirgua-Terminalo-Estadio-Runta",
        "_segmentIndex": 0,
        "_position": 1
      },
      "geometry": {
        "type": "Point",
        "coordinates": [
          -73.37177541633145,
          5.5129667175516195
        ]
      }
    },
    {
      "type": "Feature",
      "properties": {
        "_source": "Ruta21-Pirgua-Terminalo-Estadio-Runta",
        "_segmentIndex": 0,
        "_position": 2
      },
      "geometry": {
        "type": "Point",
        "coordinates": [
          -73.37197014151197,
          5.512561209392218
        ]
      }
    },
    {
      "type": "Feature",
      "properties": {
        "_source": "Ruta21-Pirgua-Terminalo-Estadio-Runta",
        "_segmentIndex": 0,
        "_position": 3
      },
      "geometry": {
        "type": "Point",
        "coordinates": [
          -73.37215987145312,
          5.5121531297445
        ]
      }
    },
    {
      "type": "Feature",
      "properties": {
        "_source": "Ruta21-Pirgua-Terminalo-Estadio-Runta",
        "_segmentIndex": 0,
        "_position": 4
      },
      "geometry": {
        "type": "Point",
        "coordinates": [
          -73.37234960113348,
          5.511745050036712
        ]
      }
    },
    {
      "type": "Feature",
      "properties": {
        "_source": "Ruta21-Pirgua-Terminalo-Estadio-Runta",
        "_segmentIndex": 0,
        "_position": 5
      },
      "geometry": {
        "type": "Point",
        "coordinates": [
          -73.372539584132,
          5.511337087885534
        ]
      }
    },
    {
      "type": "Feature",
      "properties": {
        "_source": "Ruta21-Pirgua-Terminalo-Estadio-Runta",
        "_segmentIndex": 0,
        "_position": 6
      },
      "geometry": {
        "type": "Point",
        "coordinates": [
          -73.37272547126805,
          5.510927301082735
        ]
      }
    },
    {
      "type": "Feature",
      "properties": {
        "_source": "Ruta21-Pirgua-Terminalo-Estadio-Runta",
        "_segmentIndex": 0,
        "_position": 7
      },
      "geometry": {
        "type": "Point",
        "coordinates": [
          -73.37290664788415,
          5.5105153884346985
        ]
      }
    },
    {
      "type": "Feature",
      "properties": {
        "_source": "Ruta21-Pirgua-Terminalo-Estadio-Runta",
        "_segmentIndex": 0,
        "_position": 8
      },
      "geometry": {
        "type": "Point",
        "coordinates": [
          -73.37308869142309,
          5.510103864693627
        ]
      }
    },
    {
      "type": "Feature",
      "properties": {
        "_source": "Ruta21-Pirgua-Terminalo-Estadio-Runta",
        "_segmentIndex": 0,
        "_position": 9
      },
      "geometry": {
        "type": "Point",
        "coordinates": [
          -73.37327868200461,
          5.509695905571077
        ]
      }
    },
    {
      "type": "Feature",
      "properties": {
        "_source": "Ruta21-Pirgua-Terminalo-Estadio-Runta",
        "_segmentIndex": 0,
        "_position": 10
      },
      "geometry": {
        "type": "Point",
        "coordinates": [
          -73.3734768482161,
          5.509291897525916
        ]
      }
    }
  ]
}