{
  "type": "FeatureCollection",
  "features": [
    {
      "type": "Feature",
      "properties": {
        "_source": "Ruta17-Altamira-AvenidaNorte-Asis",
        "_segmentIndex": 0,
        "_position": 0
      },
      "geometry": {
        "type": "Point",
        "coordinates": [
          -73.369402,
          5.543931
        ]
      }
    },
    {
      "type": "Feature",
      "properties": {
        "_source": "Ruta17-Altamira-AvenidaNorte-Asis",
        "_segmentIndex": 0,
        "_position": 1
      },
      "geometry": {
        "type": "Point",
        "coordinates": [
          -73.36959627385615,
          5.543525055593764
        ]
      }
    },
    {
      "type": "Feature",
      "properties": {
        "_source": "Ruta17-Altamira-AvenidaNorte-Asis",
        "_segmentIndex": 0,
        "_position": 2
      },
      "geometry": {
        "type": "Point",
        "coordinates": [
          -73.36985529425867,
          5.54316038008286
        ]
      }
    },
    {
      "type": "Feature",
      "properties": {
        "_source": "Ruta17-Altamira-AvenidaNorte-Asis",
        "_segmentIndex": 0,
        "_position": 3
      },
      "geometry": {
        "type": "Point",
        "coordinates": [
          -73.37015532734333,
          5.542824296968908
        ]
      }
    },
    {
      "type": "Feature",
      "properties": {
        "_source": "Ruta17-Altamira-AvenidaNorte-Asis",
        "_segmentIndex": 0,
        "_position": 4
      },
      "geometry": {
        "type": "Point",
        "coordinates": [
          -73.37047329476634,
          5.542505355028489
        ]
      }
    },
    {
      "type": "Feature",
      "properties": {
        "_source": "Ruta17-Altamira-AvenidaNorte-Asis",
        "_segmentIndex": 0,
        "_position": 5
      },
      "geometry": {
        "type": "Point",
        "coordinates": [
          -73.37062329773826,
          5.542102502552446
        ]
      }
    },
    {
      "type": "Feature",
      "properties": {
        "_source": "Ruta17-Altamira-AvenidaNorte-Asis",
        "_segmentIndex": 0,
        "_position": 6
      },
      "geometry": {
        "type": "Point",
        "coordinates": [
          -73.37074625387655,
          5.541669829341914
        ]
      }
    },
    {
      "type": "Feature",
      "properties": {
        "_source": "Ruta17-Altamira-AvenidaNorte-Asis",
        "_segmentIndex": 0,
        "_position": 7
      },
      "geometry": {
        "type": "Point",
        "coordinates": [
          -73.37085593159595,
          5.5412336463245015
        ]
      }
    },
    {
      "type": "Feature",
      "properties": {
        "_source": "Ruta17-Altamira-AvenidaNorte-Asis",
        "_segmentIndex": 0,
        "_position": 0
      },
      "geometry": {
        "type": "Point",
        "coordinates": [
          -73.370877,
          5.541145
        ]
      }
    },
    {
      "type": "Feature",
      "properties": {
        "_source": "Ruta17-Altamira-AvenidaNorte-Asis",
        "_segmentIndex": 0,
        "_position": 1
      },
      "geometry": {
        "type": "Point",
        "coordinates": [
          -73.37077223313948,
          5.540714735148404
        ]
      }
    },
    {
      "type": "Feature",
      "properties": {
        "_source": "Ruta17-Altamira-AvenidaNorte-Asis",
        "_segmentIndex": 0,
        "_position": 2
      },
      "geometry": {
        "type": "Point",
        "coordinates": [
          -73.37074092186872,
          5.540267466789273
        ]
      }
    },
    {
      "type": "Feature",
      "properties": {
        "_source": "Ruta17-Altamira-AvenidaNorte-Asis",
        "_segmentIndex": 0,
        "_position": 3
      },
      "geometry": {
        "type": "Point",
        "coordinates": [
          -73.370747,
          5.539817880544356
        ]
      }
    },
    {
      "type": "Feature",
      "properties": {
        "_source": "Ruta17-Altamira-AvenidaNorte-Asis",
        "_segmentIndex": 0,
        "_position": 4
      },
      "geometry": {
        "type": "Point",
        "coordinates": [
          -73.37058624056716,
          5.539406573154286
        ]
      }
    },
    {
      "type": "Feature",
      "properties": {
        "_source": "Ruta17-Altamira-AvenidaNorte-Asis",
        "_segmentIndex": 0,
        "_position": 5
      },
      "geometry": {
        "type": "Point",
        "coordinates": [
          -73.37048659146991,
          5.538973277588691
        ]
      }
    },
    {
      "type": "Feature",
      "properties": {
        "_source": "Ruta17-Altamira-AvenidaNorte-Asis",
        "_segmentIndex": 0,
        "_position": 6
      },
      "geometry": {
        "type": "Point",
        "coordinates": [
          -73.37049842741598,
          5.538524298429597
        ]
      }
    },
    {
      "type": "Feature",
      "properties": {
        "_source": "Ruta17-Altamira-AvenidaNorte-Asis",
        "_segmentIndex": 0,
        "_position": 7
      },
      "geometry": {
        "type": "Point",
        "coordinates": [
          -73.37061888609303,
          5.538097398980175
        ]
      }
    },
    {
      "type": "Feature",
      "properties": {
        "_source": "Ruta17-Altamira-AvenidaNorte-Asis",
        "_segmentIndex": 0,
        "_position": 8
      },
      "geometry": {
        "type": "Point",
        "coordinates": [
          -73.37076255644801,
          5.537699445848285
        ]
      }
    },
    {
      "type": "Feature",
      "properties": {
        "_source": "Ruta17-Altamira-AvenidaNorte-Asis",
        "_segmentIndex": 0,
        "_position": 9
      },
      "geometry": {
        "type": "Point",
        "coordinates": [
          -73.37054367355108,
          5.537307301546824
        ]
      }
    },
    {
      "type": "Feature",
      "properties": {
        "_source": "Ruta17-Altamira-AvenidaNorte-Asis",
        "_segmentIndex": 0,
        "_position": 10
      },
      "geometry": {
        "type": "Point",
        "coordinates": [
          -73.37037994651232,
          5.536889954858719
        ]
      }
    },
    {
      "type": "Feature",
      "properties": {
        "_source": "Ruta17-Altamira-AvenidaNorte-Asis",
        "_segmentIndex": 0,
        "_position": 11
      },
      "geometry": {
        "type": "Point",
        "coordinates": [
          -73.37027546605606,
          5.536453184605865
        ]
      }
    },
    {
      "type": "Feature",
      "properties": {
        "_source": "Ruta17-Altamira-AvenidaNorte-Asis",
        "_segmentIndex": 0,
        "_position": 12
      },
      "geometry": {
        "type": "Point",
        "coordinates": [
          -73.37021167066801,
          5.536011040329968
        ]
      }
    },
    {
      "type": "Feature",
      "properties": {
        "_source": "Ruta17-Altamira-AvenidaNorte-Asis",
        "_segmentIndex": 0,
        "_position": 13
      },
      "geometry": {
        "type": "Point",
        "coordinates": [
          -73.37024641706746,
          5.535563463759273
        ]
      }
    },
    {
      "type": "Feature",
      "properties": {
        "_source": "Ruta17-Altamira-AvenidaNorte-Asis",
        "_segmentIndex": 0,
        "_position": 0
      },
      "geometry": {
        "type": "Point",
        "coordinates": [
          -73.370279,
          5.535374
        ]
      }
    },
    {
      "type": "Feature",
      "properties": {
        "_source": "Ruta17-Altamira-AvenidaNorte-Asis",
        "_segmentIndex": 0,
        "_position": 1
      },
      "geometry": {
        "type": "Point",
        "coordinates": [
          -73.36987755508436,
          5.535167931649482
        ]
      }
    },
    {
      "type": "Feature",
      "properties": {
        "_source": "Ruta17-Altamira-AvenidaNorte-Asis",
        "_segmentIndex": 0,
        "_position": 2
      },
      "geometry": {
        "type": "Point",
        "coordinates": [
          -73.36947667309116,
          5.534960712361506
        ]
      }
    },
    {
      "type": "Feature",
      "properties": {
        "_source": "Ruta17-Altamira-AvenidaNorte-Asis",
        "_segmentIndex": 0,
        "_position": 3
      },
      "geometry": {
        "type": "Point",
        "coordinates": [
          -73.36907141345081,
          5.534762017433005
        ]
      }
    },
    {
      "type": "Feature",
      "properties": {
        "_source": "Ruta17-Altamira-AvenidaNorte-Asis",
        "_segmentIndex": 0,
        "_position": 4
      },
      "geometry": {
        "type": "Point",
        "coordinates": [
          -73.36866735477257,
          5.534560920369096
        ]
      }
    },
    {
      "type": "Feature",
      "properties": {
        "_source": "Ruta17-Altamira-AvenidaNorte-Asis",
        "_segmentIndex": 0,
        "_position": 5
      },
      "geometry": {
        "type": "Point",
        "coordinates": [
          -73.36830124991674,
          5.53430843221181
        ]
      }
    },
    {
      "type": "Feature",
      "properties": {
        "_source": "Ruta17-Altamira-AvenidaNorte-Asis",
        "_segmentIndex": 0,
        "_position": 6
      },
      "geometry": {
        "type": "Point",
        "coordinates": [
          -73.36793490699891,
          5.53405937936847
        ]
      }
    },
    {
      "type": "Feature",
      "properties": {
        "_source": "Ruta17-Altamira-AvenidaNorte-Asis",
        "_segmentIndex": 0,
        "_position": 7
      },
      "geometry": {
        "type": "Point",
        "coordinates": [
          -73.36751962442794,
          5.533891258016869
        ]
      }
    },
    {
      "type": "Feature",
      "properties": {
        "_source": "Ruta17-Altamira-AvenidaNorte-Asis",
        "_segmentIndex": 0,
        "_position": 0
      },
      "geometry": {
        "type": "Point",
        "coordinates": [
          -73.36741,
          5.533799
        ]
      }
    },
    {
      "type": "Feature",
      "properties": {
        "_source": "Ruta17-Altamira-AvenidaNorte-Asis",
        "_segmentIndex": 0,
        "_position": 1
      },
      "geometry": {
        "type": "Point",
        "coordinates": [
          -73.36760253701793,
          5.533392237167763
        ]
      }
    },
    {
      "type": "Feature",
      "properties": {
        "_source": "Ruta17-Altamira-AvenidaNorte-Asis",
        "_segmentIndex": 0,
        "_position": 2
      },
      "geometry": {
        "type": "Point",
        "coordinates": [
          -73.3677959486216,
          5.532985870632384
        ]
      }
    },
    {
      "type": "Feature",
      "properties": {
        "_source": "Ruta17-Altamira-AvenidaNorte-Asis",
        "_segmentIndex": 0,
        "_position": 3
      },
      "geometry": {
        "type": "Point",
        "coordinates": [
          -73.36798973684634,
          5.5325796816365385
        ]
      }
    },
    {
      "type": "Feature",
      "properties": {
        "_source": "Ruta17-Altamira-AvenidaNorte-Asis",
        "_segmentIndex": 0,
        "_position": 4
      },
      "geometry": {
        "type": "Point",
        "coordinates": [
          -73.36817095534421,
          5.532168175347092
        ]
      }
    },
    {
      "type": "Feature",
      "properties": {
        "_source": "Ruta17-Altamira-AvenidaNorte-Asis",
        "_segmentIndex": 0,
        "_position": 5
      },
      "geometry": {
        "type": "Point",
        "coordinates": [
          -73.36833541580927,
          5.53174946071494
        ]
      }
    },
    {
      "type": "Feature",
      "properties": {
        "_source": "Ruta17-Altamira-AvenidaNorte-Asis",
        "_segmentIndex": 0,
        "_position": 0
      },
      "geometry": {
        "type": "Point",
        "coordinates": [
          -73.368447,
          5.531412
        ]
      }
    },
    {
      "type": "Feature",
      "properties": {
        "_source": "Ruta17-Altamira-AvenidaNorte-Asis",
        "_segmentIndex": 0,
        "_position": 1
      },
      "geometry": {
        "type": "Point",
        "coordinates": [
          -73.36800080662961,
          5.531341612450104
        ]
      }
    },
    {
      "type": "Feature",
      "properties": {
        "_source": "Ruta17-Altamira-AvenidaNorte-Asis",
        "_segmentIndex": 0,
        "_position": 2
      },
      "geometry": {
        "type": "Point",
        "coordinates": [
          -73.36755770690556,
          5.531254587928158
        ]
      }
    },
    {
      "type": "Feature",
      "properties": {
        "_source": "Ruta17-Altamira-AvenidaNorte-Asis",
        "_segmentIndex": 0,
        "_position": 3
      },
      "geometry": {
        "type": "Point",
        "coordinates": [
          -73.36711860700335,
          5.531149177393284
        ]
      }
    },
    {
      "type": "Feature",
      "properties": {
        "_source": "Ruta17-Altamira-AvenidaNorte-Asis",
        "_segmentIndex": 0,
        "_position": 4
      },
      "geometry": {
        "type": "Point",
        "coordinates": [
          -73.36667849484103,
          5.531047775776276
        ]
      }
    },
    {
      "type": "Feature",
      "properties": {
        "_source": "Ruta17-Altamira-AvenidaNorte-Asis",
        "_segmentIndex": 0,
        "_position": 5
      },
      "geometry": {
        "type": "Point",
        "coordinates": [
          -73.36623687713626,
          5.530953271185488
        ]
      }
    },
    {
      "type": "Feature",
      "properties": {
        "_source": "Ruta17-Altamira-AvenidaNorte-Asis",
        "_segmentIndex": 0,
        "_position": 6
      },
      "geometry": {
        "type": "Point",
        "coordinates": [
          -73.3657962749248,
          5.5308539777173955
        ]
      }
    },
    {
      "type": "Feature",
      "properties": {
        "_source": "Ruta17-Altamira-AvenidaNorte-Asis",
        "_segmentIndex": 0,
        "_position": 7
      },
      "geometry": {
        "type": "Point",
        "coordinates": [
          -73.36535358907955,
          5.530764289638122
        ]
      }
    },
    {
      "type": "Feature",
      "properties": {
        "_source": "Ruta17-Altamira-AvenidaNorte-Asis",
        "_segmentIndex": 0,
        "_position": 8
      },
      "geometry": {
        "type": "Point",
        "coordinates": [
          -73.36491090336851,
          5.530674601230731
        ]
      }
    },
    {
      "type": "Feature",
      "properties": {
        "_source": "Ruta17-Altamira-AvenidaNorte-Asis",
        "_segmentIndex": 0,
        "_position": 0
      },
      "geometry": {
        "type": "Point",
        "coordinates": [
          -73.364903,
          5.530673
        ]
      }
    },
    {
      "type": "Feature",
      "properties": {
        "_source": "Ruta17-Altamira-AvenidaNorte-Asis",
        "_segmentIndex": 0,
        "_position": 1
      },
      "geometry": {
        "type": "Point",
        "coordinates": [
          -73.36473264447788,
          5.531081853955959
        ]
      }
    },
    {
      "type": "Feature",
      "properties": {
        "_source": "Ruta17-Altamira-AvenidaNorte-Asis",
        "_segmentIndex": 0,
        "_position": 2
      },
      "geometry": {
        "type": "Point",
        "coordinates": [
          -73.36460061551523,
          5.531511877603584
        ]
      }
    },
    {
      "type": "Feature",
      "properties": {
        "_source": "Ruta17-Altamira-AvenidaNorte-Asis",
        "_segmentIndex": 0,
        "_position": 3
      },
      "geometry": {
        "type": "Point",
        "coordinates": [
          -73.36447968752442,
          5.531944954603117
        ]
      }
    },
    {
      "type": "Feature",
      "properties": {
        "_source": "Ruta17-Altamira-AvenidaNorte-Asis",
        "_segmentIndex": 0,
        "_position": 4
      },
      "geometry": {
        "type": "Point",
        "coordinates": [
          -73.36434602366081,
          5.532374478930806
        ]
      }
    },
    {
      "type": "Feature",
      "properties": {
        "_source": "Ruta17-Altamira-AvenidaNorte-Asis",
        "_segmentIndex": 0,
        "_position": 5
      },
      "geometry": {
        "type": "Point",
        "coordinates": [
          -73.3642141962501,
          5.5328045173095255
        ]
      }
    },
    {
      "type": "Feature",
      "properties": {
        "_source": "Ruta17-Altamira-AvenidaNorte-Asis",
        "_segmentIndex": 0,
        "_position": 6
      },
      "geometry": {
        "type": "Point",
        "coordinates": [
          -73.3640720406075,
          5.533231325025298
        ]
      }
    },
    {
      "type": "Feature",
      "properties": {
        "_source": "Ruta17-Altamira-AvenidaNorte-Asis",
        "_segmentIndex": 0,
        "_position": 7
      },
      "geometry": {
        "type": "Point",
        "coordinates": [
          -73.36393270061232,
          5.533658916505781
        ]
      }
    },
    {
      "type": "Feature",
      "properties": {
        "_source": "Ruta17-Altamira-AvenidaNorte-Asis",
        "_segmentIndex": 0,
        "_position": 8
      },
      "geometry": {
        "type": "Point",
        "coordinates": [
          -73.3638229139383,
          5.534095075369693
        ]
      }
    },
    {
      "type": "Feature",
      "properties": {
        "_source": "Ruta17-Altamira-AvenidaNorte-Asis",
        "_segmentIndex": 0,
        "_position": 9
      },
      "geometry": {
        "type": "Point",
        "coordinates": [
          -73.36370611785104,
          5.534529322907981
        ]
      }
    },
    {
      "type": "Feature",
      "properties": {
        "_source": "Ruta17-Altamira-AvenidaNorte-Asis",
        "_segmentIndex": 0,
        "_position": 10
      },
      "geometry": {
        "type": "Point",
        "coordinates": [
          -73.36359212192185,
          5.534964137375347
        ]
      }
    },
    {
      "type": "Feature",
      "properties": {
        "_source": "Ruta17-Altamira-AvenidaNorte-Asis",
        "_segmentIndex": 0,
        "_position": 11
      },
      "geometry": {
        "type": "Point",
        "coordinates": [
          -73.36346428223352,
          5.535395401581792
        ]
      }
    },
    {
      "type": "Feature",
      "properties": {
        "_source": "Ruta17-Altamira-AvenidaNorte-Asis",
        "_segmentIndex": 0,
        "_position": 0
      },
      "geometry": {
        "type": "Point",
        "coordinates": [
          -73.363326,
          5.535772
        ]
      }
    },
    {
      "type": "Feature",
      "properties": {
        "_source": "Ruta17-Altamira-AvenidaNorte-Asis",
        "_segmentIndex": 0,
        "_position": 1
      },
      "geometry": {
        "type": "Point",
        "coordinates": [
          -73.36329452131487,
          5.5362120158379
        ]
      }
    },
    {
      "type": "Feature",
      "properties": {
        "_source": "Ruta17-Altamira-AvenidaNorte-Asis",
        "_segmentIndex": 0,
        "_position": 0
      },
      "geometry": {
        "type": "Point",
        "coordinates": [
          -73.363224,
          5.536347
        ]
      }
    },
    {
      "type": "Feature",
      "properties": {
        "_source": "Ruta17-Altamira-AvenidaNorte-Asis",
        "_segmentIndex": 0,
        "_position": 1
      },
      "geometry": {
        "type": "Point",
        "coordinates": [
          -73.36277502051725,
          5.536396875484288
        ]
      }
    },
    {
      "type": "Feature",
      "properties": {
        "_source": "Ruta17-Altamira-AvenidaNorte-Asis",
        "_segmentIndex": 0,
        "_position": 2
      },
      "geometry": {
        "type": "Point",
        "coordinates": [
          -73.36232597218874,
          5.536446138082229
        ]
      }
    },
    {
      "type": "Feature",
      "properties": {
        "_source": "Ruta17-Altamira-AvenidaNorte-Asis",
        "_segmentIndex": 0,
        "_position": 3
      },
      "geometry": {
        "type": "Point",
        "coordinates": [
          -73.36188513293251,
          5.536529286274531
        ]
      }
    },
    {
      "type": "Feature",
      "properties": {
        "_source": "Ruta17-Altamira-AvenidaNorte-Asis",
        "_segmentIndex": 0,
        "_position": 4
      },
      "geometry": {
        "type": "Point",
        "coordinates": [
          -73.36153582396102,
          5.536807498392598
        ]
      }
    },
    {
      "type": "Feature",
      "properties": {
        "_source": "Ruta17-Altamira-AvenidaNorte-Asis",
        "_segmentIndex": 0,
        "_position": 5
      },
      "geometry": {
        "type": "Point",
        "coordinates": [
          -73.36129474207351,
          5.537180421797607
        ]
      }
    },
    {
      "type": "Feature",
      "properties": {
        "_source": "Ruta17-Altamira-AvenidaNorte-Asis",
        "_segmentIndex": 0,
        "_position": 6
      },
      "geometry": {
        "type": "Point",
        "coordinates": [
          -73.36103319797148,
          5.537541816781267
        ]
      }
    },
    {
      "type": "Feature",
      "properties": {
        "_source": "Ruta17-Altamira-AvenidaNorte-Asis",
        "_segmentIndex": 0,
        "_position": 7
      },
      "geometry": {
        "type": "Point",
        "coordinates": [
          -73.36064724919827,
          5.537773597366849
        ]
      }
    },
    {
      "type": "Feature",
      "properties": {
        "_source": "Ruta17-Altamira-AvenidaNorte-Asis",
        "_segmentIndex": 0,
        "_position": 8
      },
      "geometry": {
        "type": "Point",
        "coordinates": [
          -73.36032687282525,
          5.53808065925091
        ]
      }
    },
    {
      "type": "Feature",
      "properties": {
        "_source": "Ruta17-Altamira-AvenidaNorte-Asis",
        "_segmentIndex": 0,
        "_position": 0
      },
      "geometry": {
        "type": "Point",
        "coordinates": [
          -73.360323,
          5.538086
        ]
      }
    },
    {
      "type": "Feature",
      "properties": {
        "_source": "Ruta17-Altamira-AvenidaNorte-Asis",
        "_segmentIndex": 0,
        "_position": 1
      },
      "geometry": {
        "type": "Point",
        "coordinates": [
          -73.36017142297081,
          5.538503236734449
        ]
      }
    },
    {
      "type": "Feature",
      "properties": {
        "_source": "Ruta17-Altamira-AvenidaNorte-Asis",
        "_segmentIndex": 0,
        "_position": 2
      },
      "geometry": {
        "type": "Point",
        "coordinates": [
          -73.36007477949825,
          5.538942487605468
        ]
      }
    },
    {
      "type": "Feature",
      "properties": {
        "_source": "Ruta17-Altamira-AvenidaNorte-Asis",
        "_segmentIndex": 0,
        "_position": 3
      },
      "geometry": {
        "type": "Point",
        "coordinates": [
          -73.35997691542866,
          5.539381463392944
        ]
      }
    },
    {
      "type": "Feature",
      "properties": {
        "_source": "Ruta17-Altamira-AvenidaNorte-Asis",
        "_segmentIndex": 0,
        "_position": 4
      },
      "geometry": {
        "type": "Point",
        "coordinates": [
          -73.35987401910013,
          5.539819305017848
        ]
      }
    },
    {
      "type": "Feature",
      "properties": {
        "_source": "Ruta17-Altamira-AvenidaNorte-Asis",
        "_segmentIndex": 0,
        "_position": 5
      },
      "geometry": {
        "type": "Point",
        "coordinates": [
          -73.35973201953833,
          5.54024564987984
        ]
      }
    },
    {
      "type": "Feature",
      "properties": {
        "_source": "Ruta17-Altamira-AvenidaNorte-Asis",
        "_segmentIndex": 0,
        "_position": 6
      },
      "geometry": {
        "type": "Point",
        "coordinates": [
          -73.35956893654362,
          5.540664559738107
        ]
      }
    },
    {
      "type": "Feature",
      "properties": {
        "_source": "Ruta17-Altamira-AvenidaNorte-Asis",
        "_segmentIndex": 0,
        "_position": 7
      },
      "geometry": {
        "type": "Point",
        "coordinates": [
          -73.35937608463492,
          5.541071191218012
        ]
      }
    },
    {
      "type": "Feature",
      "properties": {
        "_source": "Ruta17-Altamira-AvenidaNorte-Asis",
        "_segmentIndex": 0,
        "_position": 8
      },
      "geometry": {
        "type": "Point",
        "coordinates": [
          -73.35918323246065,
          5.541477822635529
        ]
      }
    },
    {
      "type": "Feature",
      "properties": {
        "_source": "Ruta17-Altamira-AvenidaNorte-Asis",
        "_segmentIndex": 0,
        "_position": 9
      },
      "geometry": {
        "type": "Point",
        "coordinates": [
          -73.35899573651345,
          5.541886702670103
        ]
      }
    },
    {
      "type": "Feature",
      "properties": {
        "_source": "Ruta17-Altamira-AvenidaNorte-Asis",
        "_segmentIndex": 0,
        "_position": 10
      },
      "geometry": {
        "type": "Point",
        "coordinates": [
          -73.35886518722528,
          5.542313643308841
        ]
      }
    },
    {
      "type": "Feature",
      "properties": {
        "_source": "Ruta17-Altamira-AvenidaNorte-Asis",
        "_segmentIndex": 0,
        "_position": 11
      },
      "geometry": {
        "type": "Point",
        "coordinates": [
          -73.3588008193135,
          5.542749717596447
        ]
      }
    },
    {
      "type": "Feature",
      "properties": {
        "_source": "Ruta17-Altamira-AvenidaNorte-Asis",
        "_segmentIndex": 0,
        "_position": 12
      },
      "geometry": {
        "type": "Point",
        "coordinates": [
          -73.35861973884046,
          5.5431453316267145
        ]
      }
    },
    {
      "type": "Feature",
      "properties": {
        "_source": "Ruta17-Altamira-AvenidaNorte-Asis",
        "_segmentIndex": 0,
        "_position": 13
      },
      "geometry": {
        "type": "Point",
        "coordinates": [
          -73.3583474552252,
          5.543504145946062
        ]
      }
    },
    {
      "type": "Feature",
      "properties": {
        "_source": "Ruta17-Altamira-AvenidaNorte-Asis",
        "_segmentIndex": 0,
        "_position": 14
      },
      "geometry": {
        "type": "Point",
        "coordinates": [
          -73.35806864008148,
          5.543857935807902
        ]
      }
    },
    {
      "type": "Feature",
      "properties": {
        "_source": "Ruta17-Altamira-AvenidaNorte-Asis",
        "_segmentIndex": 0,
        "_position": 0
      },
      "geometry": {
        "type": "Point",
        "coordinates": [
          -73.3578,
          5.544166
        ]
      }
    },
    {
      "type": "Feature",
      "properties": {
        "_source": "Ruta17-Altamira-AvenidaNorte-Asis",
        "_segmentIndex": 0,
        "_position": 1
      },
      "geometry": {
        "type": "Point",
        "coordinates": [
          -73.35739249066397,
          5.544322324212032
        ]
      }
    },
    {
      "type": "Feature",
      "properties": {
        "_source": "Ruta17-Altamira-AvenidaNorte-Asis",
        "_segmentIndex": 0,
        "_position": 2
      },
      "geometry": {
        "type": "Point",
        "coordinates": [
          -73.35727763997646,
          5.544733586320079
        ]
      }
    },
    {
      "type": "Feature",
      "properties": {
        "_source": "Ruta17-Altamira-AvenidaNorte-Asis",
        "_segmentIndex": 0,
        "_position": 0
      },
      "geometry": {
        "type": "Point",
        "coordinates": [
          -73.357166,
          5.54502
        ]
      }
    },
    {
      "type": "Feature",
      "properties": {
        "_source": "Ruta17-Altamira-AvenidaNorte-Asis",
        "_segmentIndex": 0,
        "_position": 1
      },
      "geometry": {
        "type": "Point",
        "coordinates": [
          -73.35691140524052,
          5.545391457984834
        ]
      }
    },
    {
      "type": "Feature",
      "properties": {
        "_source": "Ruta17-Altamira-AvenidaNorte-Asis",
        "_segmentIndex": 0,
        "_position": 2
      },
      "geometry": {
        "type": "Point",
        "coordinates": [
          -73.35664756635336,
          5.545756426630567
        ]
      }
    },
    {
      "type": "Feature",
      "properties": {
        "_source": "Ruta17-Altamira-AvenidaNorte-Asis",
        "_segmentIndex": 0,
        "_position": 3
      },
      "geometry": {
        "type": "Point",
        "coordinates": [
          -73.35638144525963,
          5.546119793259794
        ]
      }
    },
    {
      "type": "Feature",
      "properties": {
        "_source": "Ruta17-Altamira-AvenidaNorte-Asis",
        "_segmentIndex": 0,
        "_position": 4
      },
      "geometry": {
        "type": "Point",
        "coordinates": [
          -73.35611383187378,
          5.546482070571007
        ]
      }
    },
    {
      "type": "Feature",
      "properties": {
        "_source": "Ruta17-Altamira-AvenidaNorte-Asis",
        "_segmentIndex": 0,
        "_position": 5
      },
      "geometry": {
        "type": "Point",
        "coordinates": [
          -73.35584556017763,
          5.546843867406458
        ]
      }
    },
    {
      "type": "Feature",
      "properties": {
        "_source": "Ruta17-Altamira-AvenidaNorte-Asis",
        "_segmentIndex": 0,
        "_position": 6
      },
      "geometry": {
        "type": "Point",
        "coordinates": [
          -73.35557728815242,
          5.547205664121064
        ]
      }
    },
    {
      "type": "Feature",
      "properties": {
        "_source": "Ruta17-Altamira-AvenidaNorte-Asis",
        "_segmentIndex": 0,
        "_position": 7
      },
      "geometry": {
        "type": "Point",
        "coordinates": [
          -73.35530901579818,
          5.5475674607148155
        ]
      }
    },
    {
      "type": "Feature",
      "properties": {
        "_source": "Ruta17-Altamira-AvenidaNorte-Asis",
        "_segmentIndex": 0,
        "_position": 8
      },
      "geometry": {
        "type": "Point",
        "coordinates": [
          -73.35504074311486,
          5.547929257187705
        ]
      }
    },
    {
      "type": "Feature",
      "properties": {
        "_source": "Ruta17-Altamira-AvenidaNorte-Asis",
        "_segmentIndex": 0,
        "_position": 9
      },
      "geometry": {
        "type": "Point",
        "coordinates": [
          -73.35477153855443,
          5.548290358066123
        ]
      }
    },
    {
      "type": "Feature",
      "properties": {
        "_source": "Ruta17-Altamira-AvenidaNorte-Asis",
        "_segmentIndex": 0,
        "_position": 10
      },
      "geometry": {
        "type": "Point",
        "coordinates": [
          -73.35449765304193,
          5.5486479643701205
        ]
      }
    },
    {
      "type": "Feature",
      "properties": {
        "_source": "Ruta17-Altamira-AvenidaNorte-Asis",
        "_segmentIndex": 0,
        "_position": 11
      },
      "geometry": {
        "type": "Point",
        "coordinates": [
          -73.35422376719731,
          5.549005570548123
        ]
      }
    },
    {
      "type": "Feature",
      "properties": {
        "_source": "Ruta17-Altamira-AvenidaNorte-Asis",
        "_segmentIndex": 0,
        "_position": 12
      },
      "geometry": {
        "type": "Point",
        "coordinates": [
          -73.35394027312033,
          5.549355569372669
        ]
      }
    },
    {
      "type": "Feature",
      "properties": {
        "_source": "Ruta17-Altamira-AvenidaNorte-Asis",
        "_segmentIndex": 0,
        "_position": 13
      },
      "geometry": {
        "type": "Point",
        "coordinates": [
          -73.35365177697628,
          5.549701607850617
        ]
      }
    },
    {
      "type": "Feature",
      "properties": {
        "_source": "Ruta17-Altamira-AvenidaNorte-Asis",
        "_segmentIndex": 0,
        "_position": 14
      },
      "geometry": {
        "type": "Point",
        "coordinates": [
          -73.35336328049367,
          5.55004764618874
        ]
      }
    },
    {
      "type": "Feature",
      "properties": {
        "_source": "Ruta17-Altamira-AvenidaNorte-Asis",
        "_segmentIndex": 0,
        "_position": 15
      },
      "geometry": {
        "type": "Point",
        "coordinates": [
          -73.35307478367241,
          5.550393684387028
        ]
      }
    },
    {
      "type": "Feature",
      "properties": {
        "_source": "Ruta17-Altamira-AvenidaNorte-Asis",
        "_segmentIndex": 0,
        "_position": 16
      },
      "geometry": {
        "type": "Point",
        "coordinates": [
          -73.35278628651253,
          5.550739722445473
        ]
      }
    },
    {
      "type": "Feature",
      "properties": {
        "_source": "Ruta17-Altamira-AvenidaNorte-Asis",
        "_segmentIndex": 0,
        "_position": 17
      },
      "geometry": {
        "type": "Point",
        "coordinates": [
          -73.3525230712895,
          5.551104227063956
        ]
      }
    },
    {
      "type": "Feature",
      "properties": {
        "_source": "Ruta17-Altamira-AvenidaNorte-Asis",
        "_segmentIndex": 0,
        "_position": 18
      },
      "geometry": {
        "type": "Point",
        "coordinates": [
          -73.35227793493816,
          5.551481936990449
        ]
      }
    },
    {
      "type": "Feature",
      "properties": {
        "_source": "Ruta17-Altamira-AvenidaNorte-Asis",
        "_segmentIndex": 0,
        "_position": 19
      },
      "geometry": {
        "type": "Point",
        "coordinates": [
          -73.35211299402631,
          5.551900401285161
        ]
      }
    },
    {
      "type": "Feature",
      "properties": {
        "_source": "Ruta17-Altamira-AvenidaNorte-Asis",
        "_segmentIndex": 0,
        "_position": 20
      },
      "geometry": {
        "type": "Point",
        "coordinates": [
          -73.35197903056353,
          5.552329764212004
        ]
      }
    },
    {
      "type": "Feature",
      "properties": {
        "_source": "Ruta17-Altamira-AvenidaNorte-Asis",
        "_segmentIndex": 0,
        "_position": 21
      },
      "geometry": {
        "type": "Point",
        "coordinates": [
          -73.35184699686671,
          5.552759792807203
        ]
      }
    },
    {
      "type": "Feature",
      "properties": {
        "_source": "Ruta17-Altamira-AvenidaNorte-Asis",
        "_segmentIndex": 0,
        "_position": 22
      },
      "geometry": {
        "type": "Point",
        "coordinates": [
          -73.35171496297721,
          5.553189821373098
        ]
      }
    },
    {
      "type": "Feature",
      "properties": {
        "_source": "Ruta17-Altamira-AvenidaNorte-Asis",
        "_segmentIndex": 0,
        "_position": 23
      },
      "geometry": {
        "type": "Point",
        "coordinates": [
          -73.35157543952751,
          5.553617393758593
        ]
      }
    },
    {
      "type": "Feature",
      "properties": {
        "_source": "Ruta17-Altamira-AvenidaNorte-Asis",
        "_segmentIndex": 0,
        "_position": 24
      },
      "geometry": {
        "type": "Point",
        "coordinates": [
          -73.35142477264468,
          5.554041311669026
        ]
      }
    },
    {
      "type": "Feature",
      "properties": {
        "_source": "Ruta17-Altamira-AvenidaNorte-Asis",
        "_segmentIndex": 0,
        "_position": 25
      },
      "geometry": {
        "type": "Point",
        "coordinates": [
          -73.35127009611233,
          5.554463681617934
        ]
      }
    },
    {
      "type": "Feature",
      "properties": {
        "_source": "Ruta17-Altamira-AvenidaNorte-Asis",
        "_segmentIndex": 0,
        "_position": 26
      },
      "geometry": {
        "type": "Point",
        "coordinates": [
          -73.35109414718205,
          5.554877838967565
        ]
      }
    },
    {
      "type": "Feature",
      "properties": {
        "_source": "Ruta17-Altamira-AvenidaNorte-Asis",
        "_segmentIndex": 0,
        "_position": 27
      },
      "geometry": {
        "type": "Point",
        "coordinates": [
          -73.35091819800438,
          5.5552919962651375
        ]
      }
    },
    {
      "type": "Feature",
      "properties": {
        "_source": "Ruta17-Altamira-AvenidaNorte-Asis",
        "_segmentIndex": 0,
        "_position": 28
      },
      "geometry": {
        "type": "Point",
        "coordinates": [
          -73.35074224857931,
          5.55570615351065
        ]
      }
    },
    {
      "type": "Feature",
      "properties": {
        "_source": "Ruta17-Altamira-AvenidaNorte-Asis",
        "_segmentIndex": 0,
        "_position": 29
      },
      "geometry": {
        "type": "Point",
        "coordinates": [
          -73.3505585737416,
          5.5561169576424785
        ]
      }
    },
    {
      "type": "Feature",
      "properties": {
        "_source": "Ruta17-Altamira-AvenidaNorte-Asis",
        "_segmentIndex": 0,
        "_position": 30
      },
      "geometry": {
        "type": "Point",
        "coordinates": [
          -73.35037335843832,
          5.556527093198835
        ]
      }
    },
    {
      "type": "Feature",
      "properties": {
        "_source": "Ruta17-Altamira-AvenidaNorte-Asis",
        "_segmentIndex": 0,
        "_position": 31
      },
      "geometry": {
        "type": "Point",
        "coordinates": [
          -73.3501881428771,
          5.556937228697489
        ]
      }
    },
    {
      "type": "Feature",
      "properties": {
        "_source": "Ruta17-Altamira-AvenidaNorte-Asis",
        "_segmentIndex": 0,
        "_position": 32
      },
      "geometry": {
        "type": "Point",
        "coordinates": [
          -73.3500029270579,
          5.557347364138438
        ]
      }
    },
    {
      "type": "Feature",
      "properties": {
        "_source": "Ruta17-Altamira-AvenidaNorte-Asis",
        "_segmentIndex": 0,
        "_position": 33
      },
      "geometry": {
        "type": "Point",
        "coordinates": [
          -73.34981758952343,
          5.557757445063391
        ]
      }
    },
    {
      "type": "Feature",
      "properties": {
        "_source": "Ruta17-Altamira-AvenidaNorte-Asis",
        "_segmentIndex": 0,
        "_position": 34
      },
      "geometry": {
        "type": "Point",
        "coordinates": [
          -73.34963167648488,
          5.558167268005194
        ]
      }
    },
    {
      "type": "Feature",
      "properties": {
        "_source": "Ruta17-Altamira-AvenidaNorte-Asis",
        "_segmentIndex": 0,
        "_position": 35
      },
      "geometry": {
        "type": "Point",
        "coordinates": [
          -73.34944027308903,
          5.558574560557121
        ]
      }
    },
    {
      "type": "Feature",
      "properties": {
        "_source": "Ruta17-Altamira-AvenidaNorte-Asis",
        "_segmentIndex": 0,
        "_position": 36
      },
      "geometry": {
        "type": "Point",
        "coordinates": [
          -73.34924652239792,
          5.558980771324254
        ]
      }
    },
    {
      "type": "Feature",
      "properties": {
        "_source": "Ruta17-Altamira-AvenidaNorte-Asis",
        "_segmentIndex": 0,
        "_position": 37
      },
      "geometry": {
        "type": "Point",
        "coordinates": [
          -73.34905277143943,
          5.559386982028219
        ]
      }
    },
    {
      "type": "Feature",
      "properties": {
        "_source": "Ruta17-Altamira-AvenidaNorte-Asis",
        "_segmentIndex": 0,
        "_position": 38
      },
      "geometry": {
        "type": "Point",
        "coordinates": [
          -73.34885762036625,
          5.55979252587871
        ]
      }
    },
    {
      "type": "Feature",
      "properties": {
        "_source": "Ruta17-Altamira-AvenidaNorte-Asis",
        "_segmentIndex": 0,
        "_position": 39
      },
      "geometry": {
        "type": "Point",
        "coordinates": [
          -73.34866130968271,
          5.560197517435033
        ]
      }
    },
    {
      "type": "Feature",
      "properties": {
        "_source": "Ruta17-Altamira-AvenidaNorte-Asis",
        "_segmentIndex": 0,
        "_position": 0
      },
      "geometry": {
        "type": "Point",
        "coordinates": [
          -73.3486,
          5.560324
        ]
      }
    },
    {
      "type": "Feature",
      "properties": {
        "_source": "Ruta17-Altamira-AvenidaNorte-Asis",
        "_segmentIndex": 0,
        "_position": 1
      },
      "geometry": {
        "type": "Point",
        "coordinates": [
          -73.3482714207635,
          5.560597204100612
        ]
      }
    },
    {
      "type": "Feature",
      "properties": {
        "_source": "Ruta17-Altamira-AvenidaNorte-Asis",
        "_segmentIndex": 0,
        "_position": 2
      },
      "geometry": {
        "type": "Point",
        "coordinates": [
          -73.34799811765684,
          5.5609547891748425
        ]
      }
    },
    {
      "type": "Feature",
      "properties": {
        "_source": "Ruta17-Altamira-AvenidaNorte-Asis",
        "_segmentIndex": 0,
        "_position": 3
      },
      "geometry": {
        "type": "Point",
        "coordinates": [
          -73.34773903101703,
          5.561323112771194
        ]
      }
    },
    {
      "type": "Feature",
      "properties": {
        "_source": "Ruta17-Altamira-AvenidaNorte-Asis",
        "_segmentIndex": 0,
        "_position": 4
      },
      "geometry": {
        "type": "Point",
        "coordinates": [
          -73.34749255368473,
          5.5616997514133475
        ]
      }
    },
    {
      "type": "Feature",
      "properties": {
        "_source": "Ruta17-Altamira-AvenidaNorte-Asis",
        "_segmentIndex": 0,
        "_position": 5
      },
      "geometry": {
        "type": "Point",
        "coordinates": [
          -73.34722663278119,
          5.562056883523003
        ]
      }
    },
    {
      "type": "Feature",
      "properties": {
        "_source": "Ruta17-Altamira-AvenidaNorte-Asis",
        "_segmentIndex": 0,
        "_position": 0
      },
      "geometry": {
        "type": "Point",
        "coordinates": [
          -73.347198,
          5.562122
        ]
      }
    },
    {
      "type": "Feature",
      "properties": {
        "_source": "Ruta17-Altamira-AvenidaNorte-Asis",
        "_segmentIndex": 0,
        "_position": 1
      },
      "geometry": {
        "type": "Point",
        "coordinates": [
          -73.34690480323061,
          5.5624623356188
        ]
      }
    },
    {
      "type": "Feature",
      "properties": {
        "_source": "Ruta17-Altamira-AvenidaNorte-Asis",
        "_segmentIndex": 0,
        "_position": 2
      },
      "geometry": {
        "type": "Point",
        "coordinates": [
          -73.34658430489245,
          5.562779217973457
        ]
      }
    },
    {
      "type": "Feature",
      "properties": {
        "_source": "Ruta17-Altamira-AvenidaNorte-Asis",
        "_segmentIndex": 0,
        "_position": 3
      },
      "geometry": {
        "type": "Point",
        "coordinates": [
          -73.34627961672672,
          5.563111132296905
        ]
      }
    },
    {
      "type": "Feature",
      "properties": {
        "_source": "Ruta17-Altamira-AvenidaNorte-Asis",
        "_segmentIndex": 0,
        "_position": 4
      },
      "geometry": {
        "type": "Point",
        "coordinates": [
          -73.34597921697396,
          5.563446990758958
        ]
      }
    },
    {
      "type": "Feature",
      "properties": {
        "_source": "Ruta17-Altamira-AvenidaNorte-Asis",
        "_segmentIndex": 0,
        "_position": 5
      },
      "geometry": {
        "type": "Point",
        "coordinates": [
          -73.34575743381573,
          5.563832838378256
        ]
      }
    },
    {
      "type": "Feature",
      "properties": {
        "_source": "Ruta17-Altamira-AvenidaNorte-Asis",
        "_segmentIndex": 0,
        "_position": 6
      },
      "geometry": {
        "type": "Point",
        "coordinates": [
          -73.34557785939766,
          5.564245452554088
        ]
      }
    },
    {
      "type": "Feature",
      "properties": {
        "_source": "Ruta17-Altamira-AvenidaNorte-Asis",
        "_segmentIndex": 0,
        "_position": 0
      },
      "geometry": {
        "type": "Point",
        "coordinates": [
          -73.345565,
          5.564275
        ]
      }
    },
    {
      "type": "Feature",
      "properties": {
        "_source": "Ruta17-Altamira-AvenidaNorte-Asis",
        "_segmentIndex": 0,
        "_position": 1
      },
      "geometry": {
        "type": "Point",
        "coordinates": [
          -73.34591335478035,
          5.564561176193304
        ]
      }
    },
    {
      "type": "Feature",
      "properties": {
        "_source": "Ruta17-Altamira-AvenidaNorte-Asis",
        "_segmentIndex": 0,
        "_position": 2
      },
      "geometry": {
        "type": "Point",
        "coordinates": [
          -73.3462732096803,
          5.564833051885331
        ]
      }
    },
    {
      "type": "Feature",
      "properties": {
        "_source": "Ruta17-Altamira-AvenidaNorte-Asis",
        "_segmentIndex": 0,
        "_position": 3
      },
      "geometry": {
        "type": "Point",
        "coordinates": [
          -73.34653361344897,
          5.565181715577786
        ]
      }
    },
    {
      "type": "Feature",
      "properties": {
        "_source": "Ruta17-Altamira-AvenidaNorte-Asis",
        "_segmentIndex": 0,
        "_position": 4
      },
      "geometry": {
        "type": "Point",
        "coordinates": [
          -73.3468747449324,
          5.565471596296692
        ]
      }
    },
    {
      "type": "Feature",
      "properties": {
        "_source": "Ruta17-Altamira-AvenidaNorte-Asis",
        "_segmentIndex": 0,
        "_position": 5
      },
      "geometry": {
        "type": "Point",
        "coordinates": [
          -73.34722688187854,
          5.565753305762747
        ]
      }
    },
    {
      "type": "Feature",
      "properties": {
        "_source": "Ruta17-Altamira-AvenidaNorte-Asis",
        "_segmentIndex": 0,
        "_position": 0
      },
      "geometry": {
        "type": "Point",
        "coordinates": [
          -73.347424,
          5.565911
        ]
      }
    },
    {
      "type": "Feature",
      "properties": {
        "_source": "Ruta17-Altamira-AvenidaNorte-Asis",
        "_segmentIndex": 0,
        "_position": 1
      },
      "geometry": {
        "type": "Point",
        "coordinates": [
          -73.3471615929232,
          5.56627635678625
        ]
      }
    },
    {
      "type": "Feature",
      "properties": {
        "_source": "Ruta17-Altamira-AvenidaNorte-Asis",
        "_segmentIndex": 0,
        "_position": 2
      },
      "geometry": {
        "type": "Point",
        "coordinates": [
          -73.34693988760691,
          5.566662153603052
        ]
      }
    },
    {
      "type": "Feature",
      "properties": {
        "_source": "Ruta17-Altamira-AvenidaNorte-Asis",
        "_segmentIndex": 0,
        "_position": 0
      },
      "geometry": {
        "type": "Point",
        "coordinates": [
          -73.346797,
          5.567058
        ]
      }
    },
    {
      "type": "Feature",
      "properties": {
        "_source": "Ruta17-Altamira-AvenidaNorte-Asis",
        "_segmentIndex": 0,
        "_position": 1
      },
      "geometry": {
        "type": "Point",
        "coordinates": [
          -73.34719777560652,
          5.567265295984388
        ]
      }
    },
    {
      "type": "Feature",
      "properties": {
        "_source": "Ruta17-Altamira-AvenidaNorte-Asis",
        "_segmentIndex": 0,
        "_position": 2
      },
      "geometry": {
        "type": "Point",
        "coordinates": [
          -73.34761269178466,
          5.567442861449852
        ]
      }
    },
    {
      "type": "Feature",
      "properties": {
        "_source": "Ruta17-Altamira-AvenidaNorte-Asis",
        "_segmentIndex": 0,
        "_position": 0
      },
      "geometry": {
        "type": "Point",
        "coordinates": [
          -73.347868,
          5.567571
        ]
      }
    },
    {
      "type": "Feature",
      "properties": {
        "_source": "Ruta17-Altamira-AvenidaNorte-Asis",
        "_segmentIndex": 0,
        "_position": 1
      },
      "geometry": {
        "type": "Point",
        "coordinates": [
          -73.34770347396513,
          5.5679897812825025
        ]
      }
    },
    {
      "type": "Feature",
      "properties": {
        "_source": "Ruta17-Altamira-AvenidaNorte-Asis",
        "_segmentIndex": 0,
        "_position": 2
      },
      "geometry": {
        "type": "Point",
        "coordinates": [
          -73.34751164327706,
          5.568394388434162
        ]
      }
    },
    {
      "type": "Feature",
      "properties": {
        "_source": "Ruta17-Altamira-AvenidaNorte-Asis",
        "_segmentIndex": 0,
        "_position": 3
      },
      "geometry": {
        "type": "Point",
        "coordinates": [
          -73.34717158177435,
          5.56868262733859
        ]
      }
    },
    {
      "type": "Feature",
      "properties": {
        "_source": "Ruta17-Altamira-AvenidaNorte-Asis",
        "_segmentIndex": 0,
        "_position": 4
      },
      "geometry": {
        "type": "Point",
        "coordinates": [
          -73.3469204989602,
          5.569056358813317
        ]
      }
    },
    {
      "type": "Feature",
      "properties": {
        "_source": "Ruta17-Altamira-AvenidaNorte-Asis",
        "_segmentIndex": 0,
        "_position": 5
      },
      "geometry": {
        "type": "Point",
        "coordinates": [
          -73.34666126143647,
          5.569424242820592
        ]
      }
    },
    {
      "type": "Feature",
      "properties": {
        "_source": "Ruta17-Altamira-AvenidaNorte-Asis",
        "_segmentIndex": 0,
        "_position": 6
      },
      "geometry": {
        "type": "Point",
        "coordinates": [
          -73.34639167972718,
          5.569784886985635
        ]
      }
    },
    {
      "type": "Feature",
      "properties": {
        "_source": "Ruta17-Altamira-AvenidaNorte-Asis",
        "_segmentIndex": 0,
        "_position": 0
      },
      "geometry": {
        "type": "Point",
        "coordinates": [
          -73.346219,
          5.570058
        ]
      }
    },
    {
      "type": "Feature",
      "properties": {
        "_source": "Ruta17-Altamira-AvenidaNorte-Asis",
        "_segmentIndex": 0,
        "_position": 1
      },
      "geometry": {
        "type": "Point",
        "coordinates": [
          -73.34658897375473,
          5.570316076223073
        ]
      }
    },
    {
      "type": "Feature",
      "properties": {
        "_source": "Ruta17-Altamira-AvenidaNorte-Asis",
        "_segmentIndex": 0,
        "_position": 2
      },
      "geometry": {
        "type": "Point",
        "coordinates": [
          -73.34695901027504,
          5.570574063494852
        ]
      }
    },
    {
      "type": "Feature",
      "properties": {
        "_source": "Ruta17-Altamira-AvenidaNorte-Asis",
        "_segmentIndex": 0,
        "_position": 3
      },
      "geometry": {
        "type": "Point",
        "coordinates": [
          -73.34732912223069,
          5.570831943812821
        ]
      }
    },
    {
      "type": "Feature",
      "properties": {
        "_source": "Ruta17-Altamira-AvenidaNorte-Asis",
        "_segmentIndex": 0,
        "_position": 4
      },
      "geometry": {
        "type": "Point",
        "coordinates": [
          -73.34770475067464,
          5.571081687258157
        ]
      }
    }
  ]
}