{
  "type": "FeatureCollection",
  "features": [
    {
      "type": "Feature",
      "properties": {
        "_source": "Ruta20-Pirgua-Terminal-AvenidaNorte-Arboleda",
        "_segmentIndex": 0,
        "_position": 0
      },
      "geometry": {
        "type": "Point",
        "coordinates": [
          -73.329505,
          5.529627
        ]
      }
    },
    {
      "type": "Feature",
      "properties": {
        "_source": "Ruta20-Pirgua-Terminal-AvenidaNorte-Arboleda",
        "_segmentIndex": 0,
        "_position": 1
      },
      "geometry": {
        "type": "Point",
        "coordinates": [
          -73.32990998944456,
          5.529427756910398
        ]
      }
    },
    {
      "type": "Feature",
      "properties": {
        "_source": "Ruta20-Pirgua-Terminal-AvenidaNorte-Arboleda",
        "_segmentIndex": 0,
        "_position": 2
      },
      "geometry": {
        "type": "Point",
        "coordinates": [
          -73.33031238026095,
          5.529223359511965
        ]
      }
    },
    {
      "type": "Feature",
      "properties": {
        "_source": "Ruta20-Pirgua-Terminal-AvenidaNorte-Arboleda",
        "_segmentIndex": 0,
        "_position": 3
      },
      "geometry": {
        "type": "Point",
        "coordinates": [
          -73.33074660690818,
          5.529107580216964
        ]
      }
    },
    {
      "type": "Feature",
      "properties": {
        "_source": "Ruta20-Pirgua-Terminal-AvenidaNorte-Arboleda",
        "_segmentIndex": 0,
        "_position": 4
      },
      "geometry": {
        "type": "Point",
        "coordinates": [
          -73.3311962320425,
          5.52906959901739
        ]
      }
    },
    {
      "type": "Feature",
      "properties": {
        "_source": "Ruta20-Pirgua-Terminal-AvenidaNorte-Arboleda",
        "_segmentIndex": 0,
        "_position": 5
      },
      "geometry": {
        "type": "Point",
        "coordinates": [
          -73.33164622760778,
          5.529080121672756
        ]
      }
    },
    {
      "type": "Feature",
      "properties": {
        "_source": "Ruta20-Pirgua-Terminal-AvenidaNorte-Arboleda",
        "_segmentIndex": 0,
        "_position": 6
      },
      "geometry": {
        "type": "Point",
        "coordinates": [
          -73.33206966926122,
          5.529233297069512
        ]
      }
    },
    {
      "type": "Feature",
      "properties": {
        "_source": "Ruta20-Pirgua-Terminal-AvenidaNorte-Arboleda",
        "_segmentIndex": 0,
        "_position": 7
      },
      "geometry": {
        "type": "Point",
        "coordinates": [
          -73.33248513239168,
          5.529409893236609
        ]
      }
    },
    {
      "type": "Feature",
      "properties": {
        "_source": "Ruta20-Pirgua-Terminal-AvenidaNorte-Arboleda",
        "_segmentIndex": 0,
        "_position": 8
      },
      "geometry": {
        "type": "Point",
        "coordinates": [
          -73.3329011484786,
          5.529585198190735
        ]
      }
    },
    {
      "type": "Feature",
      "properties": {
        "_source": "Ruta20-Pirgua-Terminal-AvenidaNorte-Arboleda",
        "_segmentIndex": 0,
        "_position": 9
      },
      "geometry": {
        "type": "Point",
        "coordinates": [
          -73.33331716481196,
          5.5297605028551455
        ]
      }
    },
    {
      "type": "Feature",
      "properties": {
        "_source": "Ruta20-Pirgua-Terminal-AvenidaNorte-Arboleda",
        "_segmentIndex": 0,
        "_position": 10
      },
      "geometry": {
        "type": "Point",
        "coordinates": [
          -73.33374190322353,
          5.529912896837211
        ]
      }
    },
    {
      "type": "Feature",
      "properties": {
        "_source": "Ruta20-Pirgua-Terminal-AvenidaNorte-Arboleda",
        "_segmentIndex": 0,
        "_position": 11
      },
      "geometry": {
        "type": "Point",
        "coordinates": [
          -73.33417017070784,
          5.530056020951888
        ]
      }
    },
    {
      "type": "Feature",
      "properties": {
        "_source": "Ruta20-Pirgua-Terminal-AvenidaNorte-Arboleda",
        "_segmentIndex": 0,
        "_position": 12
      },
      "geometry": {
        "type": "Point",
        "coordinates": [
          -73.33460269549323,
          5.530185761643529
        ]
      }
    },
    {
      "type": "Feature",
      "properties": {
        "_source": "Ruta20-Pirgua-Terminal-AvenidaNorte-Arboleda",
        "_segmentIndex": 0,
        "_position": 13
      },
      "geometry": {
        "type": "Point",
        "coordinates": [
          -73.33502981298624,
          5.530332121494935
        ]
      }
    },
    {
      "type": "Feature",
      "properties": {
        "_source": "Ruta20-Pirgua-Terminal-AvenidaNorte-Arboleda",
        "_segmentIndex": 0,
        "_position": 14
      },
      "geometry": {
        "type": "Point",
        "coordinates": [
          -73.33545940701626,
          5.53047041661401
        ]
      }
    },
    {
      "type": "Feature",
      "properties": {
        "_source": "Ruta20-Pirgua-Terminal-AvenidaNorte-Arboleda",
        "_segmentIndex": 0,
        "_position": 15
      },
      "geometry": {
        "type": "Point",
        "coordinates": [
          -73.33590364525911,
          5.530549679855281
        ]
      }
    },
    {
      "type": "Feature",
      "properties": {
        "_source": "Ruta20-Pirgua-Terminal-AvenidaNorte-Arboleda",
        "_segmentIndex": 0,
        "_position": 16
      },
      "geometry": {
        "type": "Point",
        "coordinates": [
          -73.33635429006631,
          5.530565779660123
        ]
      }
    },
    {
      "type": "Feature",
      "properties": {
        "_source": "Ruta20-Pirgua-Terminal-AvenidaNorte-Arboleda",
        "_segmentIndex": 0,
        "_position": 17
      },
      "geometry": {
        "type": "Point",
        "coordinates": [
          -73.33680603920557,
          5.530569116855983
        ]
      }
    },
    {
      "type": "Feature",
      "properties": {
        "_source": "Ruta20-Pirgua-Terminal-AvenidaNorte-Arboleda",
        "_segmentIndex": 0,
        "_position": 18
      },
      "geometry": {
        "type": "Point",
        "coordinates": [
          -73.33725769345347,
          5.530561304043169
        ]
      }
    },
    {
      "type": "Feature",
      "properties": {
        "_source": "Ruta20-Pirgua-Terminal-AvenidaNorte-Arboleda",
        "_segmentIndex": 0,
        "_position": 19
      },
      "geometry": {
        "type": "Point",
        "coordinates": [
          -73.33770933297276,
          5.530551000001867
        ]
      }
    },
    {
      "type": "Feature",
      "properties": {
        "_source": "Ruta20-Pirgua-Terminal-AvenidaNorte-Arboleda",
        "_segmentIndex": 0,
        "_position": 20
      },
      "geometry": {
        "type": "Point",
        "coordinates": [
          -73.33808989146874,
          5.530733248058367
        ]
      }
    },
    {
      "type": "Feature",
      "properties": {
        "_source": "Ruta20-Pirgua-Terminal-AvenidaNorte-Arboleda",
        "_segmentIndex": 0,
        "_position": 21
      },
      "geometry": {
        "type": "Point",
        "coordinates": [
          -73.33825133668968,
          5.5311526618728655
        ]
      }
    },
    {
      "type": "Feature",
      "properties": {
        "_source": "Ruta20-Pirgua-Terminal-AvenidaNorte-Arboleda",
        "_segmentIndex": 0,
        "_position": 22
      },
      "geometry": {
        "type": "Point",
        "coordinates": [
          -73.33859778418108,
          5.53138657166567
        ]
      }
    },
    {
      "type": "Feature",
      "properties": {
        "_source": "Ruta20-Pirgua-Terminal-AvenidaNorte-Arboleda",
        "_segmentIndex": 0,
        "_position": 23
      },
      "geometry": {
        "type": "Point",
        "coordinates": [
          -73.33900147717533,
          5.531198787820281
        ]
      }
    },
    {
      "type": "Feature",
      "properties": {
        "_source": "Ruta20-Pirgua-Terminal-AvenidaNorte-Arboleda",
        "_segmentIndex": 0,
        "_position": 24
      },
      "geometry": {
        "type": "Point",
        "coordinates": [
          -73.3393833937098,
          5.5309586022458355
        ]
      }
    },
    {
      "type": "Feature",
      "properties": {
        "_source": "Ruta20-Pirgua-Terminal-AvenidaNorte-Arboleda",
        "_segmentIndex": 0,
        "_position": 25
      },
      "geometry": {
        "type": "Point",
        "coordinates": [
          -73.3397653099342,
          5.530718416427165
        ]
      }
    },
    {
      "type": "Feature",
      "properties": {
        "_source": "Ruta20-Pirgua-Terminal-AvenidaNorte-Arboleda",
        "_segmentIndex": 0,
        "_position": 26
      },
      "geometry": {
        "type": "Point",
        "coordinates": [
          -73.34014722584855,
          5.53047823036428
        ]
      }
    },
    {
      "type": "Feature",
      "properties": {
        "_source": "Ruta20-Pirgua-Terminal-AvenidaNorte-Arboleda",
        "_segmentIndex": 0,
        "_position": 27
      },
      "geometry": {
        "type": "Point",
        "coordinates": [
          -73.34053060637368,
          5.530240577083225
        ]
      }
    },
    {
      "type": "Feature",
      "properties": {
        "_source": "Ruta20-Pirgua-Terminal-AvenidaNorte-Arboleda",
        "_segmentIndex": 0,
        "_position": 28
      },
      "geometry": {
        "type": "Point",
        "coordinates": [
          -73.34092794442222,
          5.530034123327676
        ]
      }
    },
    {
      "type": "Feature",
      "properties": {
        "_source": "Ruta20-Pirgua-Terminal-AvenidaNorte-Arboleda",
        "_segmentIndex": 0,
        "_position": 29
      },
      "geometry": {
        "type": "Point",
        "coordinates": [
          -73.34136974207675,
          5.530074283155641
        ]
      }
    },
    {
      "type": "Feature",
      "properties": {
        "_source": "Ruta20-Pirgua-Terminal-AvenidaNorte-Arboleda",
        "_segmentIndex": 0,
        "_position": 30
      },
      "geometry": {
        "type": "Point",
        "coordinates": [
          -73.34174284038404,
          5.530322777982895
        ]
      }
    },
    {
      "type": "Feature",
      "properties": {
        "_source": "Ruta20-Pirgua-Terminal-AvenidaNorte-Arboleda",
        "_segmentIndex": 0,
        "_position": 31
      },
      "geometry": {
        "type": "Point",
        "coordinates": [
          -73.3420786736018,
          5.530623499433581
        ]
      }
    },
    {
      "type": "Feature",
      "properties": {
        "_source": "Ruta20-Pirgua-Terminal-AvenidaNorte-Arboleda",
        "_segmentIndex": 0,
        "_position": 32
      },
      "geometry": {
        "type": "Point",
        "coordinates": [
          -73.34240376524937,
          5.530935522044364
        ]
      }
    },
    {
      "type": "Feature",
      "properties": {
        "_source": "Ruta20-Pirgua-Terminal-AvenidaNorte-Arboleda",
        "_segmentIndex": 0,
        "_position": 33
      },
      "geometry": {
        "type": "Point",
        "coordinates": [
          -73.34272239546885,
          5.53125408249865
        ]
      }
    },
    {
      "type": "Feature",
      "properties": {
        "_source": "Ruta20-Pirgua-Terminal-AvenidaNorte-Arboleda",
        "_segmentIndex": 0,
        "_position": 34
      },
      "geometry": {
        "type": "Point",
        "coordinates": [
          -73.34306393554685,
          5.531548119297148
        ]
      }
    },
    {
      "type": "Feature",
      "properties": {
        "_source": "Ruta20-Pirgua-Terminal-AvenidaNorte-Arboleda",
        "_segmentIndex": 0,
        "_position": 35
      },
      "geometry": {
        "type": "Point",
        "coordinates": [
          -73.34338838757206,
          5.531860992460334
        ]
      }
    },
    {
      "type": "Feature",
      "properties": {
        "_source": "Ruta20-Pirgua-Terminal-AvenidaNorte-Arboleda",
        "_segmentIndex": 0,
        "_position": 36
      },
      "geometry": {
        "type": "Point",
        "coordinates": [
          -73.34372312316648,
          5.532162580084189
        ]
      }
    },
    {
      "type": "Feature",
      "properties": {
        "_source": "Ruta20-Pirgua-Terminal-AvenidaNorte-Arboleda",
        "_segmentIndex": 0,
        "_position": 37
      },
      "geometry": {
        "type": "Point",
        "coordinates": [
          -73.3441247221007,
          5.532114784538362
        ]
      }
    },
    {
      "type": "Feature",
      "properties": {
        "_source": "Ruta20-Pirgua-Terminal-AvenidaNorte-Arboleda",
        "_segmentIndex": 0,
        "_position": 38
      },
      "geometry": {
        "type": "Point",
        "coordinates": [
          -73.34429412413664,
          5.5317000486566785
        ]
      }
    },
    {
      "type": "Feature",
      "properties": {
        "_source": "Ruta20-Pirgua-Terminal-AvenidaNorte-Arboleda",
        "_segmentIndex": 0,
        "_position": 39
      },
      "geometry": {
        "type": "Point",
        "coordinates": [
          -73.34436334473209,
          5.53125627965305
        ]
      }
    },
    {
      "type": "Feature",
      "properties": {
        "_source": "Ruta20-Pirgua-Terminal-AvenidaNorte-Arboleda",
        "_segmentIndex": 0,
        "_position": 40
      },
      "geometry": {
        "type": "Point",
        "coordinates": [
          -73.34431248796663,
          5.530809633216912
        ]
      }
    },
    {
      "type": "Feature",
      "properties": {
        "_source": "Ruta20-Pirgua-Terminal-AvenidaNorte-Arboleda",
        "_segmentIndex": 0,
        "_position": 41
      },
      "geometry": {
        "type": "Point",
        "coordinates": [
          -73.34427974591051,
          5.530362129933388
        ]
      }
    },
    {
      "type": "Feature",
      "properties": {
        "_source": "Ruta20-Pirgua-Terminal-AvenidaNorte-Arboleda",
        "_segmentIndex": 0,
        "_position": 42
      },
      "geometry": {
        "type": "Point",
        "coordinates": [
          -73.34438621842591,
          5.5299280460082665
        ]
      }
    },
    {
      "type": "Feature",
      "properties": {
        "_source": "Ruta20-Pirgua-Terminal-AvenidaNorte-Arboleda",
        "_segmentIndex": 0,
        "_position": 43
      },
      "geometry": {
        "type": "Point",
        "coordinates": [
          -73.3446413447058,
          5.529556954021362
        ]
      }
    },
    {
      "type": "Feature",
      "properties": {
        "_source": "Ruta20-Pirgua-Terminal-AvenidaNorte-Arboleda",
        "_segmentIndex": 0,
        "_position": 44
      },
      "geometry": {
        "type": "Point",
        "coordinates": [
          -73.34489647066576,
          5.529185861925496
        ]
      }
    },
    {
      "type": "Feature",
      "properties": {
        "_source": "Ruta20-Pirgua-Terminal-AvenidaNorte-Arboleda",
        "_segmentIndex": 0,
        "_position": 45
      },
      "geometry": {
        "type": "Point",
        "coordinates": [
          -73.3451515963058,
          5.528814769720685
        ]
      }
    },
    {
      "type": "Feature",
      "properties": {
        "_source": "Ruta20-Pirgua-Terminal-AvenidaNorte-Arboleda",
        "_segmentIndex": 0,
        "_position": 0
      },
      "geometry": {
        "type": "Point",
        "coordinates": [
          -73.345357,
          5.528516
        ]
      }
    },
    {
      "type": "Feature",
      "properties": {
        "_source": "Ruta20-Pirgua-Terminal-AvenidaNorte-Arboleda",
        "_segmentIndex": 0,
        "_position": 1
      },
      "geometry": {
        "type": "Point",
        "coordinates": [
          -73.34575268935998,
          5.528728844735389
        ]
      }
    },
    {
      "type": "Feature",
      "properties": {
        "_source": "Ruta20-Pirgua-Terminal-AvenidaNorte-Arboleda",
        "_segmentIndex": 0,
        "_position": 2
      },
      "geometry": {
        "type": "Point",
        "coordinates": [
          -73.34616020163396,
          5.528922848116618
        ]
      }
    },
    {
      "type": "Feature",
      "properties": {
        "_source": "Ruta20-Pirgua-Terminal-AvenidaNorte-Arboleda",
        "_segmentIndex": 0,
        "_position": 3
      },
      "geometry": {
        "type": "Point",
        "coordinates": [
          -73.34657025080271,
          5.52911156067063
        ]
      }
    },
    {
      "type": "Feature",
      "properties": {
        "_source": "Ruta20-Pirgua-Terminal-AvenidaNorte-Arboleda",
        "_segmentIndex": 0,
        "_position": 4
      },
      "geometry": {
        "type": "Point",
        "coordinates": [
          -73.34698498811777,
          5.529289614104026
        ]
      }
    },
    {
      "type": "Feature",
      "properties": {
        "_source": "Ruta20-Pirgua-Terminal-AvenidaNorte-Arboleda",
        "_segmentIndex": 0,
        "_position": 5
      },
      "geometry": {
        "type": "Point",
        "coordinates": [
          -73.34740754202663,
          5.529448281775368
        ]
      }
    },
    {
      "type": "Feature",
      "properties": {
        "_source": "Ruta20-Pirgua-Terminal-AvenidaNorte-Arboleda",
        "_segmentIndex": 0,
        "_position": 6
      },
      "geometry": {
        "type": "Point",
        "coordinates": [
          -73.3478485009134,
          5.529542850510443
        ]
      }
    },
    {
      "type": "Feature",
      "properties": {
        "_source": "Ruta20-Pirgua-Terminal-AvenidaNorte-Arboleda",
        "_segmentIndex": 0,
        "_position": 7
      },
      "geometry": {
        "type": "Point",
        "coordinates": [
          -73.34829666985097,
          5.529599453114812
        ]
      }
    },
    {
      "type": "Feature",
      "properties": {
        "_source": "Ruta20-Pirgua-Terminal-AvenidaNorte-Arboleda",
        "_segmentIndex": 0,
        "_position": 8
      },
      "geometry": {
        "type": "Point",
        "coordinates": [
          -73.34874668797337,
          5.529638801164724
        ]
      }
    },
    {
      "type": "Feature",
      "properties": {
        "_source": "Ruta20-Pirgua-Terminal-AvenidaNorte-Arboleda",
        "_segmentIndex": 0,
        "_position": 9
      },
      "geometry": {
        "type": "Point",
        "coordinates": [
          -73.3491972990126,
          5.529670263876165
        ]
      }
    },
    {
      "type": "Feature",
      "properties": {
        "_source": "Ruta20-Pirgua-Terminal-AvenidaNorte-Arboleda",
        "_segmentIndex": 0,
        "_position": 10
      },
      "geometry": {
        "type": "Point",
        "coordinates": [
          -73.34964709386752,
          5.529711962761503
        ]
      }
    },
    {
      "type": "Feature",
      "properties": {
        "_source": "Ruta20-Pirgua-Terminal-AvenidaNorte-Arboleda",
        "_segmentIndex": 0,
        "_position": 11
      },
      "geometry": {
        "type": "Point",
        "coordinates": [
          -73.35009816813535,
          5.529728520386809
        ]
      }
    },
    {
      "type": "Feature",
      "properties": {
        "_source": "Ruta20-Pirgua-Terminal-AvenidaNorte-Arboleda",
        "_segmentIndex": 0,
        "_position": 12
      },
      "geometry": {
        "type": "Point",
        "coordinates": [
          -73.35054459741093,
          5.529674748213891
        ]
      }
    },
    {
      "type": "Feature",
      "properties": {
        "_source": "Ruta20-Pirgua-Terminal-AvenidaNorte-Arboleda",
        "_segmentIndex": 0,
        "_position": 13
      },
      "geometry": {
        "type": "Point",
        "coordinates": [
          -73.35094407177515,
          5.5294669529775335
        ]
      }
    },
    {
      "type": "Feature",
      "properties": {
        "_source": "Ruta20-Pirgua-Terminal-AvenidaNorte-Arboleda",
        "_segmentIndex": 0,
        "_position": 0
      },
      "geometry": {
        "type": "Point",
        "coordinates": [
          -73.351017,
          5.529386
        ]
      }
    },
    {
      "type": "Feature",
      "properties": {
        "_source": "Ruta20-Pirgua-Terminal-AvenidaNorte-Arboleda",
        "_segmentIndex": 0,
        "_position": 1
      },
      "geometry": {
        "type": "Point",
        "coordinates": [
          -73.35105001253541,
          5.52893754676208
        ]
      }
    },
    {
      "type": "Feature",
      "properties": {
        "_source": "Ruta20-Pirgua-Terminal-AvenidaNorte-Arboleda",
        "_segmentIndex": 0,
        "_position": 2
      },
      "geometry": {
        "type": "Point",
        "coordinates": [
          -73.35108527212184,
          5.528489258325605
        ]
      }
    },
    {
      "type": "Feature",
      "properties": {
        "_source": "Ruta20-Pirgua-Terminal-AvenidaNorte-Arboleda",
        "_segmentIndex": 0,
        "_position": 3
      },
      "geometry": {
        "type": "Point",
        "coordinates": [
          -73.3511340190773,
          5.528042313923733
        ]
      }
    },
    {
      "type": "Feature",
      "properties": {
        "_source": "Ruta20-Pirgua-Terminal-AvenidaNorte-Arboleda",
        "_segmentIndex": 0,
        "_position": 0
      },
      "geometry": {
        "type": "Point",
        "coordinates": [
          -73.351165,
          5.527785
        ]
      }
    },
    {
      "type": "Feature",
      "properties": {
        "_source": "Ruta20-Pirgua-Terminal-AvenidaNorte-Arboleda",
        "_segmentIndex": 0,
        "_position": 1
      },
      "geometry": {
        "type": "Point",
        "coordinates": [
          -73.35161616432809,
          5.527805876593851
        ]
      }
    },
    {
      "type": "Feature",
      "properties": {
        "_source": "Ruta20-Pirgua-Terminal-AvenidaNorte-Arboleda",
        "_segmentIndex": 0,
        "_position": 2
      },
      "geometry": {
        "type": "Point",
        "coordinates": [
          -73.35206597780922,
          5.527847578862604
        ]
      }
    },
    {
      "type": "Feature",
      "properties": {
        "_source": "Ruta20-Pirgua-Terminal-AvenidaNorte-Arboleda",
        "_segmentIndex": 0,
        "_position": 3
      },
      "geometry": {
        "type": "Point",
        "coordinates": [
          -73.35251563352581,
          5.527890912479443
        ]
      }
    },
    {
      "type": "Feature",
      "properties": {
        "_source": "Ruta20-Pirgua-Terminal-AvenidaNorte-Arboleda",
        "_segmentIndex": 0,
        "_position": 0
      },
      "geometry": {
        "type": "Point",
        "coordinates": [
          -73.352812,
          5.527924
        ]
      }
    },
    {
      "type": "Feature",
      "properties": {
        "_source": "Ruta20-Pirgua-Terminal-AvenidaNorte-Arboleda",
        "_segmentIndex": 0,
        "_position": 1
      },
      "geometry": {
        "type": "Point",
        "coordinates": [
          -73.35302732884882,
          5.527528743761957
        ]
      }
    },
    {
      "type": "Feature",
      "properties": {
        "_source": "Ruta20-Pirgua-Terminal-AvenidaNorte-Arboleda",
        "_segmentIndex": 0,
        "_position": 2
      },
      "geometry": {
        "type": "Point",
        "coordinates": [
          -73.35324235770629,
          5.5271332878515835
        ]
      }
    },
    {
      "type": "Feature",
      "properties": {
        "_source": "Ruta20-Pirgua-Terminal-AvenidaNorte-Arboleda",
        "_segmentIndex": 0,
        "_position": 3
      },
      "geometry": {
        "type": "Point",
        "coordinates": [
          -73.35345592872986,
          5.526737064002795
        ]
      }
    },
    {
      "type": "Feature",
      "properties": {
        "_source": "Ruta20-Pirgua-Terminal-AvenidaNorte-Arboleda",
        "_segmentIndex": 0,
        "_position": 4
      },
      "geometry": {
        "type": "Point",
        "coordinates": [
          -73.35369227005378,
          5.526354629618503
        ]
      }
    },
    {
      "type": "Feature",
      "properties": {
        "_source": "Ruta20-Pirgua-Terminal-AvenidaNorte-Arboleda",
        "_segmentIndex": 0,
        "_position": 5
      },
      "geometry": {
        "type": "Point",
        "coordinates": [
          -73.35398711549962,
          5.526014298435771
        ]
      }
    },
    {
      "type": "Feature",
      "properties": {
        "_source": "Ruta20-Pirgua-Terminal-AvenidaNorte-Arboleda",
        "_segmentIndex": 0,
        "_position": 6
      },
      "geometry": {
        "type": "Point",
        "coordinates": [
          -73.35429727715322,
          5.525687510805125
        ]
      }
    },
    {
      "type": "Feature",
      "properties": {
        "_source": "Ruta20-Pirgua-Terminal-AvenidaNorte-Arboleda",
        "_segmentIndex": 0,
        "_position": 7
      },
      "geometry": {
        "type": "Point",
        "coordinates": [
          -73.3546154414748,
          5.525368296216436
        ]
      }
    },
    {
      "type": "Feature",
      "properties": {
        "_source": "Ruta20-Pirgua-Terminal-AvenidaNorte-Arboleda",
        "_segmentIndex": 0,
        "_position": 8
      },
      "geometry": {
        "type": "Point",
        "coordinates": [
          -73.35493162480967,
          5.525047127856455
        ]
      }
    },
    {
      "type": "Feature",
      "properties": {
        "_source": "Ruta20-Pirgua-Terminal-AvenidaNorte-Arboleda",
        "_segmentIndex": 0,
        "_position": 9
      },
      "geometry": {
        "type": "Point",
        "coordinates": [
          -73.35525313830169,
          5.524731288401618
        ]
      }
    },
    {
      "type": "Feature",
      "properties": {
        "_source": "Ruta20-Pirgua-Terminal-AvenidaNorte-Arboleda",
        "_segmentIndex": 0,
        "_position": 10
      },
      "geometry": {
        "type": "Point",
        "coordinates": [
          -73.35557040910112,
          5.524411228642868
        ]
      }
    },
    {
      "type": "Feature",
      "properties": {
        "_source": "Ruta20-Pirgua-Terminal-AvenidaNorte-Arboleda",
        "_segmentIndex": 0,
        "_position": 0
      },
      "geometry": {
        "type": "Point",
        "coordinates": [
          -73.355642,
          5.524338
        ]
      }
    },
    {
      "type": "Feature",
      "properties": {
        "_source": "Ruta20-Pirgua-Terminal-AvenidaNorte-Arboleda",
        "_segmentIndex": 0,
        "_position": 1
      },
      "geometry": {
        "type": "Point",
        "coordinates": [
          -73.35600604848402,
          5.524604250936085
        ]
      }
    },
    {
      "type": "Feature",
      "properties": {
        "_source": "Ruta20-Pirgua-Terminal-AvenidaNorte-Arboleda",
        "_segmentIndex": 0,
        "_position": 2
      },
      "geometry": {
        "type": "Point",
        "coordinates": [
          -73.35637440174708,
          5.524864001350176
        ]
      }
    },
    {
      "type": "Feature",
      "properties": {
        "_source": "Ruta20-Pirgua-Terminal-AvenidaNorte-Arboleda",
        "_segmentIndex": 0,
        "_position": 3
      },
      "geometry": {
        "type": "Point",
        "coordinates": [
          -73.35676930519331,
          5.525082384396387
        ]
      }
    },
    {
      "type": "Feature",
      "properties": {
        "_source": "Ruta20-Pirgua-Terminal-AvenidaNorte-Arboleda",
        "_segmentIndex": 0,
        "_position": 4
      },
      "geometry": {
        "type": "Point",
        "coordinates": [
          -73.35717032400265,
          5.5252892364997335
        ]
      }
    },
    {
      "type": "Feature",
      "properties": {
        "_source": "Ruta20-Pirgua-Terminal-AvenidaNorte-Arboleda",
        "_segmentIndex": 0,
        "_position": 5
      },
      "geometry": {
        "type": "Point",
        "coordinates": [
          -73.35757426538389,
          5.525490578004469
        ]
      }
    },
    {
      "type": "Feature",
      "properties": {
        "_source": "Ruta20-Pirgua-Terminal-AvenidaNorte-Arboleda",
        "_segmentIndex": 0,
        "_position": 6
      },
      "geometry": {
        "type": "Point",
        "coordinates": [
          -73.35798052255996,
          5.5256870723452485
        ]
      }
    },
    {
      "type": "Feature",
      "properties": {
        "_source": "Ruta20-Pirgua-Terminal-AvenidaNorte-Arboleda",
        "_segmentIndex": 0,
        "_position": 7
      },
      "geometry": {
        "type": "Point",
        "coordinates": [
          -73.35839237716586,
          5.5258718503102
        ]
      }
    },
    {
      "type": "Feature",
      "properties": {
        "_source": "Ruta20-Pirgua-Terminal-AvenidaNorte-Arboleda",
        "_segmentIndex": 0,
        "_position": 8
      },
      "geometry": {
        "type": "Point",
        "coordinates": [
          -73.3587970942216,
          5.52607160343699
        ]
      }
    },
    {
      "type": "Feature",
      "properties": {
        "_source": "Ruta20-Pirgua-Terminal-AvenidaNorte-Arboleda",
        "_segmentIndex": 0,
        "_position": 9
      },
      "geometry": {
        "type": "Point",
        "coordinates": [
          -73.35917534861814,
          5.526317248378975
        ]
      }
    },
    {
      "type": "Feature",
      "properties": {
        "_source": "Ruta20-Pirgua-Terminal-AvenidaNorte-Arboleda",
        "_segmentIndex": 0,
        "_position": 10
      },
      "geometry": {
        "type": "Point",
        "coordinates": [
          -73.35952547755707,
          5.526600250606067
        ]
      }
    },
    {
      "type": "Feature",
      "properties": {
        "_source": "Ruta20-Pirgua-Terminal-AvenidaNorte-Arboleda",
        "_segmentIndex": 0,
        "_position": 11
      },
      "geometry": {
        "type": "Point",
        "coordinates": [
          -73.35986173723093,
          5.526900468677069
        ]
      }
    },
    {
      "type": "Feature",
      "properties": {
        "_source": "Ruta20-Pirgua-Terminal-AvenidaNorte-Arboleda",
        "_segmentIndex": 0,
        "_position": 0
      },
      "geometry": {
        "type": "Point",
        "coordinates": [
          -73.360051,
          5.527206
        ]
      }
    },
    {
      "type": "Feature",
      "properties": {
        "_source": "Ruta20-Pirgua-Terminal-AvenidaNorte-Arboleda",
        "_segmentIndex": 0,
        "_position": 1
      },
      "geometry": {
        "type": "Point",
        "coordinates": [
          -73.35976338396841,
          5.527551616039839
        ]
      }
    },
    {
      "type": "Feature",
      "properties": {
        "_source": "Ruta20-Pirgua-Terminal-AvenidaNorte-Arboleda",
        "_segmentIndex": 0,
        "_position": 2
      },
      "geometry": {
        "type": "Point",
        "coordinates": [
          -73.3600074710683,
          5.527831874163336
        ]
      }
    },
    {
      "type": "Feature",
      "properties": {
        "_source": "Ruta20-Pirgua-Terminal-AvenidaNorte-Arboleda",
        "_segmentIndex": 0,
        "_position": 0
      },
      "geometry": {
        "type": "Point",
        "coordinates": [
          -73.360109,
          5.527914
        ]
      }
    },
    {
      "type": "Feature",
      "properties": {
        "_source": "Ruta20-Pirgua-Terminal-AvenidaNorte-Arboleda",
        "_segmentIndex": 0,
        "_position": 0
      },
      "geometry": {
        "type": "Point",
        "coordinates": [
          -73.360096,
          5.528151
        ]
      }
    },
    {
      "type": "Feature",
      "properties": {
        "_source": "Ruta20-Pirgua-Terminal-AvenidaNorte-Arboleda",
        "_segmentIndex": 0,
        "_position": 1
      },
      "geometry": {
        "type": "Point",
        "coordinates": [
          -73.36053476610273,
          5.528257881625628
        ]
      }
    },
    {
      "type": "Feature",
      "properties": {
        "_source": "Ruta20-Pirgua-Terminal-AvenidaNorte-Arboleda",
        "_segmentIndex": 0,
        "_position": 2
      },
      "geometry": {
        "type": "Point",
        "coordinates": [
          -73.3609713719802,
          5.528373375194219
        ]
      }
    },
    {
      "type": "Feature",
      "properties": {
        "_source": "Ruta20-Pirgua-Terminal-AvenidaNorte-Arboleda",
        "_segmentIndex": 0,
        "_position": 3
      },
      "geometry": {
        "type": "Point",
        "coordinates": [
          -73.36140981085262,
          5.528481726404096
        ]
      }
    },
    {
      "type": "Feature",
      "properties": {
        "_source": "Ruta20-Pirgua-Terminal-AvenidaNorte-Arboleda",
        "_segmentIndex": 0,
        "_position": 4
      },
      "geometry": {
        "type": "Point",
        "coordinates": [
          -73.3618475983916,
          5.528592558660457
        ]
      }
    },
    {
      "type": "Feature",
      "properties": {
        "_source": "Ruta20-Pirgua-Terminal-AvenidaNorte-Arboleda",
        "_segmentIndex": 0,
        "_position": 5
      },
      "geometry": {
        "type": "Point",
        "coordinates": [
          -73.36228334705137,
          5.5287112171434565
        ]
      }
    },
    {
      "type": "Feature",
      "properties": {
        "_source": "Ruta20-Pirgua-Terminal-AvenidaNorte-Arboleda",
        "_segmentIndex": 0,
        "_position": 6
      },
      "geometry": {
        "type": "Point",
        "coordinates": [
          -73.36271909588582,
          5.528829875308659
        ]
      }
    },
    {
      "type": "Feature",
      "properties": {
        "_source": "Ruta20-Pirgua-Terminal-AvenidaNorte-Arboleda",
        "_segmentIndex": 0,
        "_position": 7
      },
      "geometry": {
        "type": "Point",
        "coordinates": [
          -73.36314981605445,
          5.528965279091972
        ]
      }
    },
    {
      "type": "Feature",
      "properties": {
        "_source": "Ruta20-Pirgua-Terminal-AvenidaNorte-Arboleda",
        "_segmentIndex": 0,
        "_position": 8
      },
      "geometry": {
        "type": "Point",
        "coordinates": [
          -73.36358289181702,
          5.52909294103304
        ]
      }
    },
    {
      "type": "Feature",
      "properties": {
        "_source": "Ruta20-Pirgua-Terminal-AvenidaNorte-Arboleda",
        "_segmentIndex": 0,
        "_position": 9
      },
      "geometry": {
        "type": "Point",
        "coordinates": [
          -73.36401803886943,
          5.529213768296017
        ]
      }
    },
    {
      "type": "Feature",
      "properties": {
        "_source": "Ruta20-Pirgua-Terminal-AvenidaNorte-Arboleda",
        "_segmentIndex": 0,
        "_position": 10
      },
      "geometry": {
        "type": "Point",
        "coordinates": [
          -73.36445332667942,
          5.529334089150428
        ]
      }
    },
    {
      "type": "Feature",
      "properties": {
        "_source": "Ruta20-Pirgua-Terminal-AvenidaNorte-Arboleda",
        "_segmentIndex": 0,
        "_position": 11
      },
      "geometry": {
        "type": "Point",
        "coordinates": [
          -73.36488902926403,
          5.5294529171203495
        ]
      }
    },
    {
      "type": "Feature",
      "properties": {
        "_source": "Ruta20-Pirgua-Terminal-AvenidaNorte-Arboleda",
        "_segmentIndex": 0,
        "_position": 0
      },
      "geometry": {
        "type": "Point",
        "coordinates": [
          -73.365173,
          5.52955
        ]
      }
    },
    {
      "type": "Feature",
      "properties": {
        "_source": "Ruta20-Pirgua-Terminal-AvenidaNorte-Arboleda",
        "_segmentIndex": 0,
        "_position": 1
      },
      "geometry": {
        "type": "Point",
        "coordinates": [
          -73.36505967217893,
          5.529985281912734
        ]
      }
    },
    {
      "type": "Feature",
      "properties": {
        "_source": "Ruta20-Pirgua-Terminal-AvenidaNorte-Arboleda",
        "_segmentIndex": 0,
        "_position": 2
      },
      "geometry": {
        "type": "Point",
        "coordinates": [
          -73.36493565225274,
          5.530417638425816
        ]
      }
    },
    {
      "type": "Feature",
      "properties": {
        "_source": "Ruta20-Pirgua-Terminal-AvenidaNorte-Arboleda",
        "_segmentIndex": 0,
        "_position": 3
      },
      "geometry": {
        "type": "Point",
        "coordinates": [
          -73.36481032266369,
          5.53084964779815
        ]
      }
    },
    {
      "type": "Feature",
      "properties": {
        "_source": "Ruta20-Pirgua-Terminal-AvenidaNorte-Arboleda",
        "_segmentIndex": 0,
        "_position": 4
      },
      "geometry": {
        "type": "Point",
        "coordinates": [
          -73.36468476830626,
          5.531281591946242
        ]
      }
    },
    {
      "type": "Feature",
      "properties": {
        "_source": "Ruta20-Pirgua-Terminal-AvenidaNorte-Arboleda",
        "_segmentIndex": 0,
        "_position": 5
      },
      "geometry": {
        "type": "Point",
        "coordinates": [
          -73.36455839809437,
          5.531713300778709
        ]
      }
    },
    {
      "type": "Feature",
      "properties": {
        "_source": "Ruta20-Pirgua-Terminal-AvenidaNorte-Arboleda",
        "_segmentIndex": 0,
        "_position": 6
      },
      "geometry": {
        "type": "Point",
        "coordinates": [
          -73.3644336710652,
          5.532145482896775
        ]
      }
    },
    {
      "type": "Feature",
      "properties": {
        "_source": "Ruta20-Pirgua-Terminal-AvenidaNorte-Arboleda",
        "_segmentIndex": 0,
        "_position": 7
      },
      "geometry": {
        "type": "Point",
        "coordinates": [
          -73.36430634373421,
          5.532576863331651
        ]
      }
    },
    {
      "type": "Feature",
      "properties": {
        "_source": "Ruta20-Pirgua-Terminal-AvenidaNorte-Arboleda",
        "_segmentIndex": 0,
        "_position": 8
      },
      "geometry": {
        "type": "Point",
        "coordinates": [
          -73.36415542938097,
          5.533000672932013
        ]
      }
    },
    {
      "type": "Feature",
      "properties": {
        "_source": "Ruta20-Pirgua-Terminal-AvenidaNorte-Arboleda",
        "_segmentIndex": 0,
        "_position": 9
      },
      "geometry": {
        "type": "Point",
        "coordinates": [
          -73.36400808821189,
          5.5334257455129165
        ]
      }
    },
    {
      "type": "Feature",
      "properties": {
        "_source": "Ruta20-Pirgua-Terminal-AvenidaNorte-Arboleda",
        "_segmentIndex": 0,
        "_position": 10
      },
      "geometry": {
        "type": "Point",
        "coordinates": [
          -73.36389192498066,
          5.533860285221783
        ]
      }
    },
    {
      "type": "Feature",
      "properties": {
        "_source": "Ruta20-Pirgua-Terminal-AvenidaNorte-Arboleda",
        "_segmentIndex": 0,
        "_position": 11
      },
      "geometry": {
        "type": "Point",
        "coordinates": [
          -73.36378248042627,
          5.534296550700626
        ]
      }
    },
    {
      "type": "Feature",
      "properties": {
        "_source": "Ruta20-Pirgua-Terminal-AvenidaNorte-Arboleda",
        "_segmentIndex": 0,
        "_position": 12
      },
      "geometry": {
        "type": "Point",
        "coordinates": [
          -73.36367252279716,
          5.534732676833076
        ]
      }
    },
    {
      "type": "Feature",
      "properties": {
        "_source": "Ruta20-Pirgua-Terminal-AvenidaNorte-Arboleda",
        "_segmentIndex": 0,
        "_position": 13
      },
      "geometry": {
        "type": "Point",
        "coordinates": [
          -73.36354414059225,
          5.535163798188624
        ]
      }
    },
    {
      "type": "Feature",
      "properties": {
        "_source": "Ruta20-Pirgua-Terminal-AvenidaNorte-Arboleda",
        "_segmentIndex": 0,
        "_position": 14
      },
      "geometry": {
        "type": "Point",
        "coordinates": [
          -73.3633963579109,
          5.535586394436021
        ]
      }
    },
    {
      "type": "Feature",
      "properties": {
        "_source": "Ruta20-Pirgua-Terminal-AvenidaNorte-Arboleda",
        "_segmentIndex": 0,
        "_position": 0
      },
      "geometry": {
        "type": "Point",
        "coordinates": [
          -73.363298,
          5.535776
        ]
      }
    },
    {
      "type": "Feature",
      "properties": {
        "_source": "Ruta20-Pirgua-Terminal-AvenidaNorte-Arboleda",
        "_segmentIndex": 0,
        "_position": 1
      },
      "geometry": {
        "type": "Point",
        "coordinates": [
          -73.36328959752127,
          5.536220363570549
        ]
      }
    },
    {
      "type": "Feature",
      "properties": {
        "_source": "Ruta20-Pirgua-Terminal-AvenidaNorte-Arboleda",
        "_segmentIndex": 0,
        "_position": 0
      },
      "geometry": {
        "type": "Point",
        "coordinates": [
          -73.363235,
          5.536347
        ]
      }
    },
    {
      "type": "Feature",
      "properties": {
        "_source": "Ruta20-Pirgua-Terminal-AvenidaNorte-Arboleda",
        "_segmentIndex": 0,
        "_position": 1
      },
      "geometry": {
        "type": "Point",
        "coordinates": [
          -73.36278464158883,
          5.536374045248468
        ]
      }
    },
    {
      "type": "Feature",
      "properties": {
        "_source": "Ruta20-Pirgua-Terminal-AvenidaNorte-Arboleda",
        "_segmentIndex": 0,
        "_position": 2
      },
      "geometry": {
        "type": "Point",
        "coordinates": [
          -73.36233657251519,
          5.536430836149023
        ]
      }
    },
    {
      "type": "Feature",
      "properties": {
        "_source": "Ruta20-Pirgua-Terminal-AvenidaNorte-Arboleda",
        "_segmentIndex": 0,
        "_position": 3
      },
      "geometry": {
        "type": "Point",
        "coordinates": [
          -73.36189124371457,
          5.536500713199654
        ]
      }
    },
    {
      "type": "Feature",
      "properties": {
        "_source": "Ruta20-Pirgua-Terminal-AvenidaNorte-Arboleda",
        "_segmentIndex": 0,
        "_position": 4
      },
      "geometry": {
        "type": "Point",
        "coordinates": [
          -73.36154125604489,
          5.536777581389173
        ]
      }
    },
    {
      "type": "Feature",
      "properties": {
        "_source": "Ruta20-Pirgua-Terminal-AvenidaNorte-Arboleda",
        "_segmentIndex": 0,
        "_position": 5
      },
      "geometry": {
        "type": "Point",
        "coordinates": [
          -73.36130074233655,
          5.53715551537001
        ]
      }
    },
    {
      "type": "Feature",
      "properties": {
        "_source": "Ruta20-Pirgua-Terminal-AvenidaNorte-Arboleda",
        "_segmentIndex": 0,
        "_position": 6
      },
      "geometry": {
        "type": "Point",
        "coordinates": [
          -73.3610568225617,
          5.537529834523905
        ]
      }
    },
    {
      "type": "Feature",
      "properties": {
        "_source": "Ruta20-Pirgua-Terminal-AvenidaNorte-Arboleda",
        "_segmentIndex": 0,
        "_position": 7
      },
      "geometry": {
        "type": "Point",
        "coordinates": [
          -73.36066104382964,
          5.537745243636757
        ]
      }
    },
    {
      "type": "Feature",
      "properties": {
        "_source": "Ruta20-Pirgua-Terminal-AvenidaNorte-Arboleda",
        "_segmentIndex": 0,
        "_position": 0
      },
      "geometry": {
        "type": "Point",
        "coordinates": [
          -73.360448,
          5.537898
        ]
      }
    },
    {
      "type": "Feature",
      "properties": {
        "_source": "Ruta20-Pirgua-Terminal-AvenidaNorte-Arboleda",
        "_segmentIndex": 0,
        "_position": 1
      },
      "geometry": {
        "type": "Point",
        "coordinates": [
          -73.36024145671344,
          5.538292105567974
        ]
      }
    },
    {
      "type": "Feature",
      "properties": {
        "_source": "Ruta20-Pirgua-Terminal-AvenidaNorte-Arboleda",
        "_segmentIndex": 0,
        "_position": 2
      },
      "geometry": {
        "type": "Point",
        "coordinates": [
          -73.36014790287189,
          5.5387319244566555
        ]
      }
    },
    {
      "type": "Feature",
      "properties": {
        "_source": "Ruta20-Pirgua-Terminal-AvenidaNorte-Arboleda",
        "_segmentIndex": 0,
        "_position": 3
      },
      "geometry": {
        "type": "Point",
        "coordinates": [
          -73.36004162818715,
          5.5391689565084565
        ]
      }
    },
    {
      "type": "Feature",
      "properties": {
        "_source": "Ruta20-Pirgua-Terminal-AvenidaNorte-Arboleda",
        "_segmentIndex": 0,
        "_position": 4
      },
      "geometry": {
        "type": "Point",
        "coordinates": [
          -73.35992983775479,
          5.539604621991582
        ]
      }
    },
    {
      "type": "Feature",
      "properties": {
        "_source": "Ruta20-Pirgua-Terminal-AvenidaNorte-Arboleda",
        "_segmentIndex": 0,
        "_position": 5
      },
      "geometry": {
        "type": "Point",
        "coordinates": [
          -73.35980454530957,
          5.540036597910601
        ]
      }
    },
    {
      "type": "Feature",
      "properties": {
        "_source": "Ruta20-Pirgua-Terminal-AvenidaNorte-Arboleda",
        "_segmentIndex": 0,
        "_position": 6
      },
      "geometry": {
        "type": "Point",
        "coordinates": [
          -73.35965475937323,
          5.540460770981562
        ]
      }
    },
    {
      "type": "Feature",
      "properties": {
        "_source": "Ruta20-Pirgua-Terminal-AvenidaNorte-Arboleda",
        "_segmentIndex": 0,
        "_position": 7
      },
      "geometry": {
        "type": "Point",
        "coordinates": [
          -73.35947664450104,
          5.540873314005647
        ]
      }
    },
    {
      "type": "Feature",
      "properties": {
        "_source": "Ruta20-Pirgua-Terminal-AvenidaNorte-Arboleda",
        "_segmentIndex": 0,
        "_position": 8
      },
      "geometry": {
        "type": "Point",
        "coordinates": [
          -73.35927989002815,
          5.541278089126893
        ]
      }
    },
    {
      "type": "Feature",
      "properties": {
        "_source": "Ruta20-Pirgua-Terminal-AvenidaNorte-Arboleda",
        "_segmentIndex": 0,
        "_position": 9
      },
      "geometry": {
        "type": "Point",
        "coordinates": [
          -73.35908315583582,
          5.541682874078627
        ]
      }
    },
    {
      "type": "Feature",
      "properties": {
        "_source": "Ruta20-Pirgua-Terminal-AvenidaNorte-Arboleda",
        "_segmentIndex": 0,
        "_position": 10
      },
      "geometry": {
        "type": "Point",
        "coordinates": [
          -73.35891306571065,
          5.542099067888648
        ]
      }
    },
    {
      "type": "Feature",
      "properties": {
        "_source": "Ruta20-Pirgua-Terminal-AvenidaNorte-Arboleda",
        "_segmentIndex": 0,
        "_position": 11
      },
      "geometry": {
        "type": "Point",
        "coordinates": [
          -73.35883790858945,
          5.542539664854311
        ]
      }
    },
    {
      "type": "Feature",
      "properties": {
        "_source": "Ruta20-Pirgua-Terminal-AvenidaNorte-Arboleda",
        "_segmentIndex": 0,
        "_position": 12
      },
      "geometry": {
        "type": "Point",
        "coordinates": [
          -73.35874772142604,
          5.542961099165981
        ]
      }
    },
    {
      "type": "Feature",
      "properties": {
        "_source": "Ruta20-Pirgua-Terminal-AvenidaNorte-Arboleda",
        "_segmentIndex": 0,
        "_position": 13
      },
      "geometry": {
        "type": "Point",
        "coordinates": [
          -73.3584808346927,
          5.543323895383797
        ]
      }
    },
    {
      "type": "Feature",
      "properties": {
        "_source": "Ruta20-Pirgua-Terminal-AvenidaNorte-Arboleda",
        "_segmentIndex": 0,
        "_position": 14
      },
      "geometry": {
        "type": "Point",
        "coordinates": [
          -73.3582192176131,
          5.543690465457959
        ]
      }
    },
    {
      "type": "Feature",
      "properties": {
        "_source": "Ruta20-Pirgua-Terminal-AvenidaNorte-Arboleda",
        "_segmentIndex": 0,
        "_position": 15
      },
      "geometry": {
        "type": "Point",
        "coordinates": [
          -73.35793675265967,
          5.544040997188108
        ]
      }
    },
    {
      "type": "Feature",
      "properties": {
        "_source": "Ruta20-Pirgua-Terminal-AvenidaNorte-Arboleda",
        "_segmentIndex": 0,
        "_position": 0
      },
      "geometry": {
        "type": "Point",
        "coordinates": [
          -73.357735,
          5.544234
        ]
      }
    },
    {
      "type": "Feature",
      "properties": {
        "_source": "Ruta20-Pirgua-Terminal-AvenidaNorte-Arboleda",
        "_segmentIndex": 0,
        "_position": 1
      },
      "geometry": {
        "type": "Point",
        "coordinates": [
          -73.35733710074987,
          5.54439196060148
        ]
      }
    },
    {
      "type": "Feature",
      "properties": {
        "_source": "Ruta20-Pirgua-Terminal-AvenidaNorte-Arboleda",
        "_segmentIndex": 0,
        "_position": 2
      },
      "geometry": {
        "type": "Point",
        "coordinates": [
          -73.35727346037714,
          5.544827529340134
        ]
      }
    },
    {
      "type": "Feature",
      "properties": {
        "_source": "Ruta20-Pirgua-Terminal-AvenidaNorte-Arboleda",
        "_segmentIndex": 0,
        "_position": 3
      },
      "geometry": {
        "type": "Point",
        "coordinates": [
          -73.3570508956212,
          5.5452153471941
        ]
      }
    },
    {
      "type": "Feature",
      "properties": {
        "_source": "Ruta20-Pirgua-Terminal-AvenidaNorte-Arboleda",
        "_segmentIndex": 0,
        "_position": 4
      },
      "geometry": {
        "type": "Point",
        "coordinates": [
          -73.35679192230623,
          5.54558375538782
        ]
      }
    },
    {
      "type": "Feature",
      "properties": {
        "_source": "Ruta20-Pirgua-Terminal-AvenidaNorte-Arboleda",
        "_segmentIndex": 0,
        "_position": 5
      },
      "geometry": {
        "type": "Point",
        "coordinates": [
          -73.35652161615694,
          5.54594404867783
        ]
      }
    },
    {
      "type": "Feature",
      "properties": {
        "_source": "Ruta20-Pirgua-Terminal-AvenidaNorte-Arboleda",
        "_segmentIndex": 0,
        "_position": 6
      },
      "geometry": {
        "type": "Point",
        "coordinates": [
          -73.35625130967757,
          5.546304341845175
        ]
      }
    },
    {
      "type": "Feature",
      "properties": {
        "_source": "Ruta20-Pirgua-Terminal-AvenidaNorte-Arboleda",
        "_segmentIndex": 0,
        "_position": 7
      },
      "geometry": {
        "type": "Point",
        "coordinates": [
          -73.35598183928256,
          5.546665250354678
        ]
      }
    },
    {
      "type": "Feature",
      "properties": {
        "_source": "Ruta20-Pirgua-Terminal-AvenidaNorte-Arboleda",
        "_segmentIndex": 0,
        "_position": 8
      },
      "geometry": {
        "type": "Point",
        "coordinates": [
          -73.35571501058428,
          5.547028102844046
        ]
      }
    },
    {
      "type": "Feature",
      "properties": {
        "_source": "Ruta20-Pirgua-Terminal-AvenidaNorte-Arboleda",
        "_segmentIndex": 0,
        "_position": 9
      },
      "geometry": {
        "type": "Point",
        "coordinates": [
          -73.35544818155778,
          5.547390955213863
        ]
      }
    },
    {
      "type": "Feature",
      "properties": {
        "_source": "Ruta20-Pirgua-Terminal-AvenidaNorte-Arboleda",
        "_segmentIndex": 0,
        "_position": 10
      },
      "geometry": {
        "type": "Point",
        "coordinates": [
          -73.35518135220303,
          5.547753807464116
        ]
      }
    },
    {
      "type": "Feature",
      "properties": {
        "_source": "Ruta20-Pirgua-Terminal-AvenidaNorte-Arboleda",
        "_segmentIndex": 0,
        "_position": 11
      },
      "geometry": {
        "type": "Point",
        "coordinates": [
          -73.35491452252002,
          5.5481166595948
        ]
      }
    },
    {
      "type": "Feature",
      "properties": {
        "_source": "Ruta20-Pirgua-Terminal-AvenidaNorte-Arboleda",
        "_segmentIndex": 0,
        "_position": 12
      },
      "geometry": {
        "type": "Point",
        "coordinates": [
          -73.35464147812218,
          5.54847487012152
        ]
      }
    },
    {
      "type": "Feature",
      "properties": {
        "_source": "Ruta20-Pirgua-Terminal-AvenidaNorte-Arboleda",
        "_segmentIndex": 0,
        "_position": 13
      },
      "geometry": {
        "type": "Point",
        "coordinates": [
          -73.35436602520699,
          5.548831281864319
        ]
      }
    },
    {
      "type": "Feature",
      "properties": {
        "_source": "Ruta20-Pirgua-Terminal-AvenidaNorte-Arboleda",
        "_segmentIndex": 0,
        "_position": 14
      },
      "geometry": {
        "type": "Point",
        "coordinates": [
          -73.35409057195889,
          5.549187693479671
        ]
      }
    },
    {
      "type": "Feature",
      "properties": {
        "_source": "Ruta20-Pirgua-Terminal-AvenidaNorte-Arboleda",
        "_segmentIndex": 0,
        "_position": 15
      },
      "geometry": {
        "type": "Point",
        "coordinates": [
          -73.35380751794709,
          5.5495380742286295
        ]
      }
    },
    {
      "type": "Feature",
      "properties": {
        "_source": "Ruta20-Pirgua-Terminal-AvenidaNorte-Arboleda",
        "_segmentIndex": 0,
        "_position": 16
      },
      "geometry": {
        "type": "Point",
        "coordinates": [
          -73.35351981246934,
          5.549884764294273
        ]
      }
    },
    {
      "type": "Feature",
      "properties": {
        "_source": "Ruta20-Pirgua-Terminal-AvenidaNorte-Arboleda",
        "_segmentIndex": 0,
        "_position": 17
      },
      "geometry": {
        "type": "Point",
        "coordinates": [
          -73.35323210665328,
          5.550231454220854
        ]
      }
    },
    {
      "type": "Feature",
      "properties": {
        "_source": "Ruta20-Pirgua-Terminal-AvenidaNorte-Arboleda",
        "_segmentIndex": 0,
        "_position": 18
      },
      "geometry": {
        "type": "Point",
        "coordinates": [
          -73.35294095878639,
          5.550575247550398
        ]
      }
    },
    {
      "type": "Feature",
      "properties": {
        "_source": "Ruta20-Pirgua-Terminal-AvenidaNorte-Arboleda",
        "_segmentIndex": 0,
        "_position": 19
      },
      "geometry": {
        "type": "Point",
        "coordinates": [
          -73.35264530521175,
          5.550915249132281
        ]
      }
    },
    {
      "type": "Feature",
      "properties": {
        "_source": "Ruta20-Pirgua-Terminal-AvenidaNorte-Arboleda",
        "_segmentIndex": 0,
        "_position": 20
      },
      "geometry": {
        "type": "Point",
        "coordinates": [
          -73.35238611257358,
          5.551282202704509
        ]
      }
    },
    {
      "type": "Feature",
      "properties": {
        "_source": "Ruta20-Pirgua-Terminal-AvenidaNorte-Arboleda",
        "_segmentIndex": 0,
        "_position": 0
      },
      "geometry": {
        "type": "Point",
        "coordinates": [
          -73.352254,
          5.55149
        ]
      }
    },
    {
      "type": "Feature",
      "properties": {
        "_source": "Ruta20-Pirgua-Terminal-AvenidaNorte-Arboleda",
        "_segmentIndex": 0,
        "_position": 1
      },
      "geometry": {
        "type": "Point",
        "coordinates": [
          -73.35210420167179,
          5.551913856249985
        ]
      }
    },
    {
      "type": "Feature",
      "properties": {
        "_source": "Ruta20-Pirgua-Terminal-AvenidaNorte-Arboleda",
        "_segmentIndex": 0,
        "_position": 2
      },
      "geometry": {
        "type": "Point",
        "coordinates": [
          -73.35197580908435,
          5.552344975644844
        ]
      }
    },
    {
      "type": "Feature",
      "properties": {
        "_source": "Ruta20-Pirgua-Terminal-AvenidaNorte-Arboleda",
        "_segmentIndex": 0,
        "_position": 3
      },
      "geometry": {
        "type": "Point",
        "coordinates": [
          -73.3518474163091,
          5.552776095011994
        ]
      }
    },
    {
      "type": "Feature",
      "properties": {
        "_source": "Ruta20-Pirgua-Terminal-AvenidaNorte-Arboleda",
        "_segmentIndex": 0,
        "_position": 4
      },
      "geometry": {
        "type": "Point",
        "coordinates": [
          -73.351719023346,
          5.553207214351437
        ]
      }
    },
    {
      "type": "Feature",
      "properties": {
        "_source": "Ruta20-Pirgua-Terminal-AvenidaNorte-Arboleda",
        "_segmentIndex": 0,
        "_position": 5
      },
      "geometry": {
        "type": "Point",
        "coordinates": [
          -73.35158228497906,
          5.553635506186537
        ]
      }
    },
    {
      "type": "Feature",
      "properties": {
        "_source": "Ruta20-Pirgua-Terminal-AvenidaNorte-Arboleda",
        "_segmentIndex": 0,
        "_position": 6
      },
      "geometry": {
        "type": "Point",
        "coordinates": [
          -73.3514197355458,
          5.554055052903845
        ]
      }
    },
    {
      "type": "Feature",
      "properties": {
        "_source": "Ruta20-Pirgua-Terminal-AvenidaNorte-Arboleda",
        "_segmentIndex": 0,
        "_position": 7
      },
      "geometry": {
        "type": "Point",
        "coordinates": [
          -73.35125546369424,
          5.554473921171564
        ]
      }
    },
    {
      "type": "Feature",
      "properties": {
        "_source": "Ruta20-Pirgua-Terminal-AvenidaNorte-Arboleda",
        "_segmentIndex": 0,
        "_position": 8
      },
      "geometry": {
        "type": "Point",
        "coordinates": [
          -73.35108551071005,
          5.554890551569448
        ]
      }
    },
    {
      "type": "Feature",
      "properties": {
        "_source": "Ruta20-Pirgua-Terminal-AvenidaNorte-Arboleda",
        "_segmentIndex": 0,
        "_position": 9
      },
      "geometry": {
        "type": "Point",
        "coordinates": [
          -73.35091555748548,
          5.555307181918762
        ]
      }
    },
    {
      "type": "Feature",
      "properties": {
        "_source": "Ruta20-Pirgua-Terminal-AvenidaNorte-Arboleda",
        "_segmentIndex": 0,
        "_position": 10
      },
      "geometry": {
        "type": "Point",
        "coordinates": [
          -73.3507245609757,
          5.555714676308711
        ]
      }
    },
    {
      "type": "Feature",
      "properties": {
        "_source": "Ruta20-Pirgua-Terminal-AvenidaNorte-Arboleda",
        "_segmentIndex": 0,
        "_position": 11
      },
      "geometry": {
        "type": "Point",
        "coordinates": [
          -73.35053336957542,
          5.556122086139632
        ]
      }
    },
    {
      "type": "Feature",
      "properties": {
        "_source": "Ruta20-Pirgua-Terminal-AvenidaNorte-Arboleda",
        "_segmentIndex": 0,
        "_position": 12
      },
      "geometry": {
        "type": "Point",
        "coordinates": [
          -73.35034535363258,
          5.556530945447444
        ]
      }
    },
    {
      "type": "Feature",
      "properties": {
        "_source": "Ruta20-Pirgua-Terminal-AvenidaNorte-Arboleda",
        "_segmentIndex": 0,
        "_position": 13
      },
      "geometry": {
        "type": "Point",
        "coordinates": [
          -73.35015989937364,
          5.556940974079685
        ]
      }
    },
    {
      "type": "Feature",
      "properties": {
        "_source": "Ruta20-Pirgua-Terminal-AvenidaNorte-Arboleda",
        "_segmentIndex": 0,
        "_position": 14
      },
      "geometry": {
        "type": "Point",
        "coordinates": [
          -73.34997444485647,
          5.557351002654071
        ]
      }
    },
    {
      "type": "Feature",
      "properties": {
        "_source": "Ruta20-Pirgua-Terminal-AvenidaNorte-Arboleda",
        "_segmentIndex": 0,
        "_position": 15
      },
      "geometry": {
        "type": "Point",
        "coordinates": [
          -73.34978899008102,
          5.5577610311706
        ]
      }
    },
    {
      "type": "Feature",
      "properties": {
        "_source": "Ruta20-Pirgua-Terminal-AvenidaNorte-Arboleda",
        "_segmentIndex": 0,
        "_position": 16
      },
      "geometry": {
        "type": "Point",
        "coordinates": [
          -73.34960353504731,
          5.558171059629263
        ]
      }
    },
    {
      "type": "Feature",
      "properties": {
        "_source": "Ruta20-Pirgua-Terminal-AvenidaNorte-Arboleda",
        "_segmentIndex": 0,
        "_position": 17
      },
      "geometry": {
        "type": "Point",
        "coordinates": [
          -73.34941718761486,
          5.558580686698399
        ]
      }
    },
    {
      "type": "Feature",
      "properties": {
        "_source": "Ruta20-Pirgua-Terminal-AvenidaNorte-Arboleda",
        "_segmentIndex": 0,
        "_position": 18
      },
      "geometry": {
        "type": "Point",
        "coordinates": [
          -73.34923049661013,
          5.558990159268861
        ]
      }
    },
    {
      "type": "Feature",
      "properties": {
        "_source": "Ruta20-Pirgua-Terminal-AvenidaNorte-Arboleda",
        "_segmentIndex": 0,
        "_position": 19
      },
      "geometry": {
        "type": "Point",
        "coordinates": [
          -73.34904106303053,
          5.559398370098741
        ]
      }
    },
    {
      "type": "Feature",
      "properties": {
        "_source": "Ruta20-Pirgua-Terminal-AvenidaNorte-Arboleda",
        "_segmentIndex": 0,
        "_position": 20
      },
      "geometry": {
        "type": "Point",
        "coordinates": [
          -73.34884863162333,
          5.559805201751011
        ]
      }
    },
    {
      "type": "Feature",
      "properties": {
        "_source": "Ruta20-Pirgua-Terminal-AvenidaNorte-Arboleda",
        "_segmentIndex": 0,
        "_position": 21
      },
      "geometry": {
        "type": "Point",
        "coordinates": [
          -73.3486561999501,
          5.560212033340962
        ]
      }
    },
    {
      "type": "Feature",
      "properties": {
        "_source": "Ruta20-Pirgua-Terminal-AvenidaNorte-Arboleda",
        "_segmentIndex": 0,
        "_position": 22
      },
      "geometry": {
        "type": "Point",
        "coordinates": [
          -73.34846376801086,
          5.560618864868585
        ]
      }
    },
    {
      "type": "Feature",
      "properties": {
        "_source": "Ruta20-Pirgua-Terminal-AvenidaNorte-Arboleda",
        "_segmentIndex": 0,
        "_position": 23
      },
      "geometry": {
        "type": "Point",
        "coordinates": [
          -73.34827835070728,
          5.561028900976402
        ]
      }
    },
    {
      "type": "Feature",
      "properties": {
        "_source": "Ruta20-Pirgua-Terminal-AvenidaNorte-Arboleda",
        "_segmentIndex": 0,
        "_position": 24
      },
      "geometry": {
        "type": "Point",
        "coordinates": [
          -73.34809387450808,
          5.56143936707251
        ]
      }
    },
    {
      "type": "Feature",
      "properties": {
        "_source": "Ruta20-Pirgua-Terminal-AvenidaNorte-Arboleda",
        "_segmentIndex": 0,
        "_position": 25
      },
      "geometry": {
        "type": "Point",
        "coordinates": [
          -73.34790939805153,
          5.561849833111326
        ]
      }
    },
    {
      "type": "Feature",
      "properties": {
        "_source": "Ruta20-Pirgua-Terminal-AvenidaNorte-Arboleda",
        "_segmentIndex": 0,
        "_position": 26
      },
      "geometry": {
        "type": "Point",
        "coordinates": [
          -73.34772492133759,
          5.562260299092845
        ]
      }
    },
    {
      "type": "Feature",
      "properties": {
        "_source": "Ruta20-Pirgua-Terminal-AvenidaNorte-Arboleda",
        "_segmentIndex": 0,
        "_position": 27
      },
      "geometry": {
        "type": "Point",
        "coordinates": [
          -73.34753763927098,
          5.562669502050765
        ]
      }
    },
    {
      "type": "Feature",
      "properties": {
        "_source": "Ruta20-Pirgua-Terminal-AvenidaNorte-Arboleda",
        "_segmentIndex": 0,
        "_position": 28
      },
      "geometry": {
        "type": "Point",
        "coordinates": [
          -73.34734970195147,
          5.563078410045762
        ]
      }
    },
    {
      "type": "Feature",
      "properties": {
        "_source": "Ruta20-Pirgua-Terminal-AvenidaNorte-Arboleda",
        "_segmentIndex": 0,
        "_position": 29
      },
      "geometry": {
        "type": "Point",
        "coordinates": [
          -73.34716176437067,
          5.563487317981279
        ]
      }
    },
    {
      "type": "Feature",
      "properties": {
        "_source": "Ruta20-Pirgua-Terminal-AvenidaNorte-Arboleda",
        "_segmentIndex": 0,
        "_position": 30
      },
      "geometry": {
        "type": "Point",
        "coordinates": [
          -73.34697382652857,
          5.563896225857312
        ]
      }
    },
    {
      "type": "Feature",
      "properties": {
        "_source": "Ruta20-Pirgua-Terminal-AvenidaNorte-Arboleda",
        "_segmentIndex": 0,
        "_position": 31
      },
      "geometry": {
        "type": "Point",
        "coordinates": [
          -73.34678500190698,
          5.564304728637035
        ]
      }
    },
    {
      "type": "Feature",
      "properties": {
        "_source": "Ruta20-Pirgua-Terminal-AvenidaNorte-Arboleda",
        "_segmentIndex": 0,
        "_position": 32
      },
      "geometry": {
        "type": "Point",
        "coordinates": [
          -73.34659597537676,
          5.564713139227509
        ]
      }
    },
    {
      "type": "Feature",
      "properties": {
        "_source": "Ruta20-Pirgua-Terminal-AvenidaNorte-Arboleda",
        "_segmentIndex": 0,
        "_position": 33
      },
      "geometry": {
        "type": "Point",
        "coordinates": [
          -73.34640717943748,
          5.565121655372693
        ]
      }
    },
    {
      "type": "Feature",
      "properties": {
        "_source": "Ruta20-Pirgua-Terminal-AvenidaNorte-Arboleda",
        "_segmentIndex": 0,
        "_position": 34
      },
      "geometry": {
        "type": "Point",
        "coordinates": [
          -73.34621882319846,
          5.56553037273961
        ]
      }
    },
    {
      "type": "Feature",
      "properties": {
        "_source": "Ruta20-Pirgua-Terminal-AvenidaNorte-Arboleda",
        "_segmentIndex": 0,
        "_position": 35
      },
      "geometry": {
        "type": "Point",
        "coordinates": [
          -73.34602528217583,
          5.565936632039636
        ]
      }
    },
    {
      "type": "Feature",
      "properties": {
        "_source": "Ruta20-Pirgua-Terminal-AvenidaNorte-Arboleda",
        "_segmentIndex": 0,
        "_position": 36
      },
      "geometry": {
        "type": "Point",
        "coordinates": [
          -73.34582509334675,
          5.566339739645236
        ]
      }
    },
    {
      "type": "Feature",
      "properties": {
        "_source": "Ruta20-Pirgua-Terminal-AvenidaNorte-Arboleda",
        "_segmentIndex": 0,
        "_position": 37
      },
      "geometry": {
        "type": "Point",
        "coordinates": [
          -73.34561281109946,
          5.566735901040966
        ]
      }
    },
    {
      "type": "Feature",
      "properties": {
        "_source": "Ruta20-Pirgua-Terminal-AvenidaNorte-Arboleda",
        "_segmentIndex": 0,
        "_position": 38
      },
      "geometry": {
        "type": "Point",
        "coordinates": [
          -73.3453622863418,
          5.567110096524996
        ]
      }
    },
    {
      "type": "Feature",
      "properties": {
        "_source": "Ruta20-Pirgua-Terminal-AvenidaNorte-Arboleda",
        "_segmentIndex": 0,
        "_position": 39
      },
      "geometry": {
        "type": "Point",
        "coordinates": [
          -73.34511176126517,
          5.567484291903261
        ]
      }
    },
    {
      "type": "Feature",
      "properties": {
        "_source": "Ruta20-Pirgua-Terminal-AvenidaNorte-Arboleda",
        "_segmentIndex": 0,
        "_position": 40
      },
      "geometry": {
        "type": "Point",
        "coordinates": [
          -73.34486123586959,
          5.5678584871757515
        ]
      }
    },
    {
      "type": "Feature",
      "properties": {
        "_source": "Ruta20-Pirgua-Terminal-AvenidaNorte-Arboleda",
        "_segmentIndex": 0,
        "_position": 41
      },
      "geometry": {
        "type": "Point",
        "coordinates": [
          -73.34460927324126,
          5.568231720974048
        ]
      }
    },
    {
      "type": "Feature",
      "properties": {
        "_source": "Ruta20-Pirgua-Terminal-AvenidaNorte-Arboleda",
        "_segmentIndex": 0,
        "_position": 42
      },
      "geometry": {
        "type": "Point",
        "coordinates": [
          -73.34435570396974,
          5.568603879953044
        ]
      }
    },
    {
      "type": "Feature",
      "properties": {
        "_source": "Ruta20-Pirgua-Terminal-AvenidaNorte-Arboleda",
        "_segmentIndex": 0,
        "_position": 43
      },
      "geometry": {
        "type": "Point",
        "coordinates": [
          -73.34410213437704,
          5.568976038823658
        ]
      }
    },
    {
      "type": "Feature",
      "properties": {
        "_source": "Ruta20-Pirgua-Terminal-AvenidaNorte-Arboleda",
        "_segmentIndex": 0,
        "_position": 44
      },
      "geometry": {
        "type": "Point",
        "coordinates": [
          -73.34384856446316,
          5.5693481975858825
        ]
      }
    },
    {
      "type": "Feature",
      "properties": {
        "_source": "Ruta20-Pirgua-Terminal-AvenidaNorte-Arboleda",
        "_segmentIndex": 0,
        "_position": 45
      },
      "geometry": {
        "type": "Point",
        "coordinates": [
          -73.34359499422808,
          5.56972035623971
        ]
      }
    },
    {
      "type": "Feature",
      "properties": {
        "_source": "Ruta20-Pirgua-Terminal-AvenidaNorte-Arboleda",
        "_segmentIndex": 0,
        "_position": 46
      },
      "geometry": {
        "type": "Point",
        "coordinates": [
          -73.34334142367176,
          5.5700925147851335
        ]
      }
    },
    {
      "type": "Feature",
      "properties": {
        "_source": "Ruta20-Pirgua-Terminal-AvenidaNorte-Arboleda",
        "_segmentIndex": 0,
        "_position": 47
      },
      "geometry": {
        "type": "Point",
        "coordinates": [
          -73.34308785279418,
          5.570464673222147
        ]
      }
    },
    {
      "type": "Feature",
      "properties": {
        "_source": "Ruta20-Pirgua-Terminal-AvenidaNorte-Arboleda",
        "_segmentIndex": 0,
        "_position": 48
      },
      "geometry": {
        "type": "Point",
        "coordinates": [
          -73.34283218224955,
          5.570835402349377
        ]
      }
    },
    {
      "type": "Feature",
      "properties": {
        "_source": "Ruta20-Pirgua-Terminal-AvenidaNorte-Arboleda",
        "_segmentIndex": 0,
        "_position": 0
      },
      "geometry": {
        "type": "Point",
        "coordinates": [
          -73.342594,
          5.571179
        ]
      }
    },
    {
      "type": "Feature",
      "properties": {
        "_source": "Ruta20-Pirgua-Terminal-AvenidaNorte-Arboleda",
        "_segmentIndex": 0,
        "_position": 1
      },
      "geometry": {
        "type": "Point",
        "coordinates": [
          -73.34218398940351,
          5.570990698708311
        ]
      }
    },
    {
      "type": "Feature",
      "properties": {
        "_source": "Ruta20-Pirgua-Terminal-AvenidaNorte-Arboleda",
        "_segmentIndex": 0,
        "_position": 2
      },
      "geometry": {
        "type": "Point",
        "coordinates": [
          -73.34181479225647,
          5.570733936515213
        ]
      }
    },
    {
      "type": "Feature",
      "properties": {
        "_source": "Ruta20-Pirgua-Terminal-AvenidaNorte-Arboleda",
        "_segmentIndex": 0,
        "_position": 3
      },
      "geometry": {
        "type": "Point",
        "coordinates": [
          -73.3414558716181,
          5.570460835944989
        ]
      }
    },
    {
      "type": "Feature",
      "properties": {
        "_source": "Ruta20-Pirgua-Terminal-AvenidaNorte-Arboleda",
        "_segmentIndex": 0,
        "_position": 4
      },
      "geometry": {
        "type": "Point",
        "coordinates": [
          -73.3410973287916,
          5.570187243990803
        ]
      }
    },
    {
      "type": "Feature",
      "properties": {
        "_source": "Ruta20-Pirgua-Terminal-AvenidaNorte-Arboleda",
        "_segmentIndex": 0,
        "_position": 5
      },
      "geometry": {
        "type": "Point",
        "coordinates": [
          -73.34082399151114,
          5.56983839422532
        ]
      }
    },
    {
      "type": "Feature",
      "properties": {
        "_source": "Ruta20-Pirgua-Terminal-AvenidaNorte-Arboleda",
        "_segmentIndex": 0,
        "_position": 6
      },
      "geometry": {
        "type": "Point",
        "coordinates": [
          -73.34062677040544,
          5.569440731580321
        ]
      }
    },
    {
      "type": "Feature",
      "properties": {
        "_source": "Ruta20-Pirgua-Terminal-AvenidaNorte-Arboleda",
        "_segmentIndex": 0,
        "_position": 7
      },
      "geometry": {
        "type": "Point",
        "coordinates": [
          -73.34029091393002,
          5.569143556546149
        ]
      }
    },
    {
      "type": "Feature",
      "properties": {
        "_source": "Ruta20-Pirgua-Terminal-AvenidaNorte-Arboleda",
        "_segmentIndex": 0,
        "_position": 8
      },
      "geometry": {
        "type": "Point",
        "coordinates": [
          -73.33992980444928,
          5.568873330189566
        ]
      }
    },
    {
      "type": "Feature",
      "properties": {
        "_source": "Ruta20-Pirgua-Terminal-AvenidaNorte-Arboleda",
        "_segmentIndex": 0,
        "_position": 9
      },
      "geometry": {
        "type": "Point",
        "coordinates": [
          -73.33956818312963,
          5.568603782980026
        ]
      }
    },
    {
      "type": "Feature",
      "properties": {
        "_source": "Ruta20-Pirgua-Terminal-AvenidaNorte-Arboleda",
        "_segmentIndex": 0,
        "_position": 10
      },
      "geometry": {
        "type": "Point",
        "coordinates": [
          -73.33920619558805,
          5.568334732857756
        ]
      }
    },
    {
      "type": "Feature",
      "properties": {
        "_source": "Ruta20-Pirgua-Terminal-AvenidaNorte-Arboleda",
        "_segmentIndex": 0,
        "_position": 0
      },
      "geometry": {
        "type": "Point",
        "coordinates": [
          -73.33888,
          5.568228
        ]
      }
    },
    {
      "type": "Feature",
      "properties": {
        "_source": "Ruta20-Pirgua-Terminal-AvenidaNorte-Arboleda",
        "_segmentIndex": 0,
        "_position": 1
      },
      "geometry": {
        "type": "Point",
        "coordinates": [
          -73.33847800496636,
          5.568423163091242
        ]
      }
    },
    {
      "type": "Feature",
      "properties": {
        "_source": "Ruta20-Pirgua-Terminal-AvenidaNorte-Arboleda",
        "_segmentIndex": 0,
        "_position": 2
      },
      "geometry": {
        "type": "Point",
        "coordinates": [
          -73.33816719497554,
          5.568725570219601
        ]
      }
    },
    {
      "type": "Feature",
      "properties": {
        "_source": "Ruta20-Pirgua-Terminal-AvenidaNorte-Arboleda",
        "_segmentIndex": 0,
        "_position": 3
      },
      "geometry": {
        "type": "Point",
        "coordinates": [
          -73.33799032994959,
          5.569138179729395
        ]
      }
    },
    {
      "type": "Feature",
      "properties": {
        "_source": "Ruta20-Pirgua-Terminal-AvenidaNorte-Arboleda",
        "_segmentIndex": 0,
        "_position": 4
      },
      "geometry": {
        "type": "Point",
        "coordinates": [
          -73.33778944313788,
          5.569530653844274
        ]
      }
    },
    {
      "type": "Feature",
      "properties": {
        "_source": "Ruta20-Pirgua-Terminal-AvenidaNorte-Arboleda",
        "_segmentIndex": 0,
        "_position": 5
      },
      "geometry": {
        "type": "Point",
        "coordinates": [
          -73.33737010140489,
          5.569683875042699
        ]
      }
    },
    {
      "type": "Feature",
      "properties": {
        "_source": "Ruta20-Pirgua-Terminal-AvenidaNorte-Arboleda",
        "_segmentIndex": 0,
        "_position": 0
      },
      "geometry": {
        "type": "Point",
        "coordinates": [
          -73.336981,
          5.569736
        ]
      }
    },
    {
      "type": "Feature",
      "properties": {
        "_source": "Ruta20-Pirgua-Terminal-AvenidaNorte-Arboleda",
        "_segmentIndex": 0,
        "_position": 1
      },
      "geometry": {
        "type": "Point",
        "coordinates": [
          -73.33659193590724,
          5.569964404862188
        ]
      }
    },
    {
      "type": "Feature",
      "properties": {
        "_source": "Ruta20-Pirgua-Terminal-AvenidaNorte-Arboleda",
        "_segmentIndex": 0,
        "_position": 2
      },
      "geometry": {
        "type": "Point",
        "coordinates": [
          -73.3362046401181,
          5.5701959063779
        ]
      }
    },
    {
      "type": "Feature",
      "properties": {
        "_source": "Ruta20-Pirgua-Terminal-AvenidaNorte-Arboleda",
        "_segmentIndex": 0,
        "_position": 3
      },
      "geometry": {
        "type": "Point",
        "coordinates": [
          -73.33581542741084,
          5.570424229775269
        ]
      }
    },
    {
      "type": "Feature",
      "properties": {
        "_source": "Ruta20-Pirgua-Terminal-AvenidaNorte-Arboleda",
        "_segmentIndex": 0,
        "_position": 4
      },
      "geometry": {
        "type": "Point",
        "coordinates": [
          -73.33541587314875,
          5.570632354265168
        ]
      }
    },
    {
      "type": "Feature",
      "properties": {
        "_source": "Ruta20-Pirgua-Terminal-AvenidaNorte-Arboleda",
        "_segmentIndex": 0,
        "_position": 5
      },
      "geometry": {
        "type": "Point",
        "coordinates": [
          -73.33498894354177,
          5.570777875922177
        ]
      }
    },
    {
      "type": "Feature",
      "properties": {
        "_source": "Ruta20-Pirgua-Terminal-AvenidaNorte-Arboleda",
        "_segmentIndex": 0,
        "_position": 6
      },
      "geometry": {
        "type": "Point",
        "coordinates": [
          -73.33458961332349,
          5.570981208736702
        ]
      }
    },
    {
      "type": "Feature",
      "properties": {
        "_source": "Ruta20-Pirgua-Terminal-AvenidaNorte-Arboleda",
        "_segmentIndex": 0,
        "_position": 7
      },
      "geometry": {
        "type": "Point",
        "coordinates": [
          -73.33426291021394,
          5.5712910091578784
        ]
      }
    },
    {
      "type": "Feature",
      "properties": {
        "_source": "Ruta20-Pirgua-Terminal-AvenidaNorte-Arboleda",
        "_segmentIndex": 0,
        "_position": 8
      },
      "geometry": {
        "type": "Point",
        "coordinates": [
          -73.33396615717436,
          5.571630034070273
        ]
      }
    },
    {
      "type": "Feature",
      "properties": {
        "_source": "Ruta20-Pirgua-Terminal-AvenidaNorte-Arboleda",
        "_segmentIndex": 0,
        "_position": 9
      },
      "geometry": {
        "type": "Point",
        "coordinates": [
          -73.33367644241801,
          5.571975071599831
        ]
      }
    },
    {
      "type": "Feature",
      "properties": {
        "_source": "Ruta20-Pirgua-Terminal-AvenidaNorte-Arboleda",
        "_segmentIndex": 0,
        "_position": 10
      },
      "geometry": {
        "type": "Point",
        "coordinates": [
          -73.33338672732123,
          5.572320108987823
        ]
      }
    },
    {
      "type": "Feature",
      "properties": {
        "_source": "Ruta20-Pirgua-Terminal-AvenidaNorte-Arboleda",
        "_segmentIndex": 0,
        "_position": 11
      },
      "geometry": {
        "type": "Point",
        "coordinates": [
          -73.333094289565,
          5.572662843199974
        ]
      }
    },
    {
      "type": "Feature",
      "properties": {
        "_source": "Ruta20-Pirgua-Terminal-AvenidaNorte-Arboleda",
        "_segmentIndex": 0,
        "_position": 12
      },
      "geometry": {
        "type": "Point",
        "coordinates": [
          -73.33279200064221,
          5.572996666070561
        ]
      }
    },
    {
      "type": "Feature",
      "properties": {
        "_source": "Ruta20-Pirgua-Terminal-AvenidaNorte-Arboleda",
        "_segmentIndex": 0,
        "_position": 13
      },
      "geometry": {
        "type": "Point",
        "coordinates": [
          -73.33244806057779,
          5.5732858377645424
        ]
      }
    }
  ]
}