{
  "type": "FeatureCollection",
  "features": [
    {
      "type": "Feature",
      "properties": {
        "_source": "Ruta4A-Arboleda-Uniboyaca-RamalFlorida-SanFrancisco",
        "_segmentIndex": 0,
        "_position": 0
      },
      "geometry": {
        "type": "Point",
        "coordinates": [
          -73.332258,
          5.573473
        ]
      }
    },
    {
      "type": "Feature",
      "properties": {
        "_source": "Ruta4A-Arboleda-Uniboyaca-RamalFlorida-SanFrancisco",
        "_segmentIndex": 0,
        "_position": 1
      },
      "geometry": {
        "type": "Point",
        "coordinates": [
          -73.3326309822554,
          5.573222333960962
        ]
      }
    },
    {
      "type": "Feature",
      "properties": {
        "_source": "Ruta4A-Arboleda-Uniboyaca-RamalFlorida-SanFrancisco",
        "_segmentIndex": 0,
        "_position": 2
      },
      "geometry": {
        "type": "Point",
        "coordinates": [
          -73.33295852663915,
          5.5729128752973
        ]
      }
    },
    {
      "type": "Feature",
      "properties": {
        "_source": "Ruta4A-Arboleda-Uniboyaca-RamalFlorida-SanFrancisco",
        "_segmentIndex": 0,
        "_position": 3
      },
      "geometry": {
        "type": "Point",
        "coordinates": [
          -73.33325892033854,
          5.572577192722496
        ]
      }
    },
    {
      "type": "Feature",
      "properties": {
        "_source": "Ruta4A-Arboleda-Uniboyaca-RamalFlorida-SanFrancisco",
        "_segmentIndex": 0,
        "_position": 4
      },
      "geometry": {
        "type": "Point",
        "coordinates": [
          -73.33354894259188,
          5.5722324109351975
        ]
      }
    },
    {
      "type": "Feature",
      "properties": {
        "_source": "Ruta4A-Arboleda-Uniboyaca-RamalFlorida-SanFrancisco",
        "_segmentIndex": 0,
        "_position": 5
      },
      "geometry": {
        "type": "Point",
        "coordinates": [
          -73.33383650612622,
          5.571885596516212
        ]
      }
    },
    {
      "type": "Feature",
      "properties": {
        "_source": "Ruta4A-Arboleda-Uniboyaca-RamalFlorida-SanFrancisco",
        "_segmentIndex": 0,
        "_position": 6
      },
      "geometry": {
        "type": "Point",
        "coordinates": [
          -73.33412917751784,
          5.57154312795154
        ]
      }
    },
    {
      "type": "Feature",
      "properties": {
        "_source": "Ruta4A-Arboleda-Uniboyaca-RamalFlorida-SanFrancisco",
        "_segmentIndex": 0,
        "_position": 7
      },
      "geometry": {
        "type": "Point",
        "coordinates": [
          -73.33443450959574,
          5.57121197363725
        ]
      }
    },
    {
      "type": "Feature",
      "properties": {
        "_source": "Ruta4A-Arboleda-Uniboyaca-RamalFlorida-SanFrancisco",
        "_segmentIndex": 0,
        "_position": 8
      },
      "geometry": {
        "type": "Point",
        "coordinates": [
          -73.33478224571043,
          5.570934160839422
        ]
      }
    },
    {
      "type": "Feature",
      "properties": {
        "_source": "Ruta4A-Arboleda-Uniboyaca-RamalFlorida-SanFrancisco",
        "_segmentIndex": 0,
        "_position": 9
      },
      "geometry": {
        "type": "Point",
        "coordinates": [
          -73.33520495942487,
          5.570777456142405
        ]
      }
    },
    {
      "type": "Feature",
      "properties": {
        "_source": "Ruta4A-Arboleda-Uniboyaca-RamalFlorida-SanFrancisco",
        "_segmentIndex": 0,
        "_position": 10
      },
      "geometry": {
        "type": "Point",
        "coordinates": [
          -73.33561847317657,
          5.5705987271112205
        ]
      }
    },
    {
      "type": "Feature",
      "properties": {
        "_source": "Ruta4A-Arboleda-Uniboyaca-RamalFlorida-SanFrancisco",
        "_segmentIndex": 0,
        "_position": 11
      },
      "geometry": {
        "type": "Point",
        "coordinates": [
          -73.33601425092823,
          5.570381862605984
        ]
      }
    },
    {
      "type": "Feature",
      "properties": {
        "_source": "Ruta4A-Arboleda-Uniboyaca-RamalFlorida-SanFrancisco",
        "_segmentIndex": 0,
        "_position": 12
      },
      "geometry": {
        "type": "Point",
        "coordinates": [
          -73.33639962409971,
          5.570147675415174
        ]
      }
    },
    {
      "type": "Feature",
      "properties": {
        "_source": "Ruta4A-Arboleda-Uniboyaca-RamalFlorida-SanFrancisco",
        "_segmentIndex": 0,
        "_position": 13
      },
      "geometry": {
        "type": "Point",
        "coordinates": [
          -73.33678768165417,
          5.569918020626768
        ]
      }
    },
    {
      "type": "Feature",
      "properties": {
        "_source": "Ruta4A-Arboleda-Uniboyaca-RamalFlorida-SanFrancisco",
        "_segmentIndex": 0,
        "_position": 14
      },
      "geometry": {
        "type": "Point",
        "coordinates": [
          -73.33716592388704,
          5.569676091782793
        ]
      }
    },
    {
      "type": "Feature",
      "properties": {
        "_source": "Ruta4A-Arboleda-Uniboyaca-RamalFlorida-SanFrancisco",
        "_segmentIndex": 0,
        "_position": 0
      },
      "geometry": {
        "type": "Point",
        "coordinates": [
          -73.337319,
          5.569504
        ]
      }
    },
    {
      "type": "Feature",
      "properties": {
        "_source": "Ruta4A-Arboleda-Uniboyaca-RamalFlorida-SanFrancisco",
        "_segmentIndex": 0,
        "_position": 1
      },
      "geometry": {
        "type": "Point",
        "coordinates": [
          -73.33749988140607,
          5.569092826165967
        ]
      }
    },
    {
      "type": "Feature",
      "properties": {
        "_source": "Ruta4A-Arboleda-Uniboyaca-RamalFlorida-SanFrancisco",
        "_segmentIndex": 0,
        "_position": 2
      },
      "geometry": {
        "type": "Point",
        "coordinates": [
          -73.33764550304043,
          5.568667188555098
        ]
      }
    },
    {
      "type": "Feature",
      "properties": {
        "_source": "Ruta4A-Arboleda-Uniboyaca-RamalFlorida-SanFrancisco",
        "_segmentIndex": 0,
        "_position": 3
      },
      "geometry": {
        "type": "Point",
        "coordinates": [
          -73.33784626293021,
          5.568264912734156
        ]
      }
    },
    {
      "type": "Feature",
      "properties": {
        "_source": "Ruta4A-Arboleda-Uniboyaca-RamalFlorida-SanFrancisco",
        "_segmentIndex": 0,
        "_position": 4
      },
      "geometry": {
        "type": "Point",
        "coordinates": [
          -73.33810900124999,
          5.567903973955095
        ]
      }
    },
    {
      "type": "Feature",
      "properties": {
        "_source": "Ruta4A-Arboleda-Uniboyaca-RamalFlorida-SanFrancisco",
        "_segmentIndex": 0,
        "_position": 5
      },
      "geometry": {
        "type": "Point",
        "coordinates": [
          -73.33843433206358,
          5.567592492506148
        ]
      }
    },
    {
      "type": "Feature",
      "properties": {
        "_source": "Ruta4A-Arboleda-Uniboyaca-RamalFlorida-SanFrancisco",
        "_segmentIndex": 0,
        "_position": 6
      },
      "geometry": {
        "type": "Point",
        "coordinates": [
          -73.33878061095098,
          5.567303677960345
        ]
      }
    },
    {
      "type": "Feature",
      "properties": {
        "_source": "Ruta4A-Arboleda-Uniboyaca-RamalFlorida-SanFrancisco",
        "_segmentIndex": 0,
        "_position": 7
      },
      "geometry": {
        "type": "Point",
        "coordinates": [
          -73.33914287666632,
          5.5670351006531344
        ]
      }
    },
    {
      "type": "Feature",
      "properties": {
        "_source": "Ruta4A-Arboleda-Uniboyaca-RamalFlorida-SanFrancisco",
        "_segmentIndex": 0,
        "_position": 8
      },
      "geometry": {
        "type": "Point",
        "coordinates": [
          -73.33950440020188,
          5.566765429792044
        ]
      }
    },
    {
      "type": "Feature",
      "properties": {
        "_source": "Ruta4A-Arboleda-Uniboyaca-RamalFlorida-SanFrancisco",
        "_segmentIndex": 0,
        "_position": 9
      },
      "geometry": {
        "type": "Point",
        "coordinates": [
          -73.33989685528596,
          5.566543652213207
        ]
      }
    },
    {
      "type": "Feature",
      "properties": {
        "_source": "Ruta4A-Arboleda-Uniboyaca-RamalFlorida-SanFrancisco",
        "_segmentIndex": 0,
        "_position": 10
      },
      "geometry": {
        "type": "Point",
        "coordinates": [
          -73.34029044130907,
          5.566324207759217
        ]
      }
    },
    {
      "type": "Feature",
      "properties": {
        "_source": "Ruta4A-Arboleda-Uniboyaca-RamalFlorida-SanFrancisco",
        "_segmentIndex": 0,
        "_position": 11
      },
      "geometry": {
        "type": "Point",
        "coordinates": [
          -73.34065232520692,
          5.566057437337775
        ]
      }
    },
    {
      "type": "Feature",
      "properties": {
        "_source": "Ruta4A-Arboleda-Uniboyaca-RamalFlorida-SanFrancisco",
        "_segmentIndex": 0,
        "_position": 12
      },
      "geometry": {
        "type": "Point",
        "coordinates": [
          -73.34098345896658,
          5.5657515362450125
        ]
      }
    },
    {
      "type": "Feature",
      "properties": {
        "_source": "Ruta4A-Arboleda-Uniboyaca-RamalFlorida-SanFrancisco",
        "_segmentIndex": 0,
        "_position": 13
      },
      "geometry": {
        "type": "Point",
        "coordinates": [
          -73.34131120067143,
          5.56544205396766
        ]
      }
    },
    {
      "type": "Feature",
      "properties": {
        "_source": "Ruta4A-Arboleda-Uniboyaca-RamalFlorida-SanFrancisco",
        "_segmentIndex": 0,
        "_position": 14
      },
      "geometry": {
        "type": "Point",
        "coordinates": [
          -73.34163700722394,
          5.565130537161994
        ]
      }
    },
    {
      "type": "Feature",
      "properties": {
        "_source": "Ruta4A-Arboleda-Uniboyaca-RamalFlorida-SanFrancisco",
        "_segmentIndex": 0,
        "_position": 15
      },
      "geometry": {
        "type": "Point",
        "coordinates": [
          -73.34196195951324,
          5.564818140510588
        ]
      }
    },
    {
      "type": "Feature",
      "properties": {
        "_source": "Ruta4A-Arboleda-Uniboyaca-RamalFlorida-SanFrancisco",
        "_segmentIndex": 0,
        "_position": 16
      },
      "geometry": {
        "type": "Point",
        "coordinates": [
          -73.34228803621336,
          5.564506944867684
        ]
      }
    },
    {
      "type": "Feature",
      "properties": {
        "_source": "Ruta4A-Arboleda-Uniboyaca-RamalFlorida-SanFrancisco",
        "_segmentIndex": 0,
        "_position": 17
      },
      "geometry": {
        "type": "Point",
        "coordinates": [
          -73.34261999034499,
          5.5642019255744595
        ]
      }
    },
    {
      "type": "Feature",
      "properties": {
        "_source": "Ruta4A-Arboleda-Uniboyaca-RamalFlorida-SanFrancisco",
        "_segmentIndex": 0,
        "_position": 18
      },
      "geometry": {
        "type": "Point",
        "coordinates": [
          -73.34295364003054,
          5.5638988050900675
        ]
      }
    },
    {
      "type": "Feature",
      "properties": {
        "_source": "Ruta4A-Arboleda-Uniboyaca-RamalFlorida-SanFrancisco",
        "_segmentIndex": 0,
        "_position": 19
      },
      "geometry": {
        "type": "Point",
        "coordinates": [
          -73.3433136304673,
          5.563628781383456
        ]
      }
    },
    {
      "type": "Feature",
      "properties": {
        "_source": "Ruta4A-Arboleda-Uniboyaca-RamalFlorida-SanFrancisco",
        "_segmentIndex": 0,
        "_position": 20
      },
      "geometry": {
        "type": "Point",
        "coordinates": [
          -73.34373181064184,
          5.5634592124378175
        ]
      }
    },
    {
      "type": "Feature",
      "properties": {
        "_source": "Ruta4A-Arboleda-Uniboyaca-RamalFlorida-SanFrancisco",
        "_segmentIndex": 0,
        "_position": 21
      },
      "geometry": {
        "type": "Point",
        "coordinates": [
          -73.34415127671915,
          5.563292190878681
        ]
      }
    },
    {
      "type": "Feature",
      "properties": {
        "_source": "Ruta4A-Arboleda-Uniboyaca-RamalFlorida-SanFrancisco",
        "_segmentIndex": 0,
        "_position": 22
      },
      "geometry": {
        "type": "Point",
        "coordinates": [
          -73.34457111207675,
          5.563126093183118
        ]
      }
    },
    {
      "type": "Feature",
      "properties": {
        "_source": "Ruta4A-Arboleda-Uniboyaca-RamalFlorida-SanFrancisco",
        "_segmentIndex": 0,
        "_position": 23
      },
      "geometry": {
        "type": "Point",
        "coordinates": [
          -73.34499118375884,
          5.562960586826334
        ]
      }
    },
    {
      "type": "Feature",
      "properties": {
        "_source": "Ruta4A-Arboleda-Uniboyaca-RamalFlorida-SanFrancisco",
        "_segmentIndex": 0,
        "_position": 24
      },
      "geometry": {
        "type": "Point",
        "coordinates": [
          -73.34541125520455,
          5.5627950801724
        ]
      }
    },
    {
      "type": "Feature",
      "properties": {
        "_source": "Ruta4A-Arboleda-Uniboyaca-RamalFlorida-SanFrancisco",
        "_segmentIndex": 0,
        "_position": 25
      },
      "geometry": {
        "type": "Point",
        "coordinates": [
          -73.3458313264139,
          5.562629573221327
        ]
      }
    },
    {
      "type": "Feature",
      "properties": {
        "_source": "Ruta4A-Arboleda-Uniboyaca-RamalFlorida-SanFrancisco",
        "_segmentIndex": 0,
        "_position": 26
      },
      "geometry": {
        "type": "Point",
        "coordinates": [
          -73.34625225509237,
          5.562466243011396
        ]
      }
    },
    {
      "type": "Feature",
      "properties": {
        "_source": "Ruta4A-Arboleda-Uniboyaca-RamalFlorida-SanFrancisco",
        "_segmentIndex": 0,
        "_position": 27
      },
      "geometry": {
        "type": "Point",
        "coordinates": [
          -73.34667339370375,
          5.56230344594964
        ]
      }
    },
    {
      "type": "Feature",
      "properties": {
        "_source": "Ruta4A-Arboleda-Uniboyaca-RamalFlorida-SanFrancisco",
        "_segmentIndex": 0,
        "_position": 28
      },
      "geometry": {
        "type": "Point",
        "coordinates": [
          -73.34708941233336,
          5.562128367829572
        ]
      }
    },
    {
      "type": "Feature",
      "properties": {
        "_source": "Ruta4A-Arboleda-Uniboyaca-RamalFlorida-SanFrancisco",
        "_segmentIndex": 0,
        "_position": 29
      },
      "geometry": {
        "type": "Point",
        "coordinates": [
          -73.34744879552511,
          5.561863102296725
        ]
      }
    },
    {
      "type": "Feature",
      "properties": {
        "_source": "Ruta4A-Arboleda-Uniboyaca-RamalFlorida-SanFrancisco",
        "_segmentIndex": 0,
        "_position": 30
      },
      "geometry": {
        "type": "Point",
        "coordinates": [
          -73.34766980891683,
          5.561473413929266
        ]
      }
    },
    {
      "type": "Feature",
      "properties": {
        "_source": "Ruta4A-Arboleda-Uniboyaca-RamalFlorida-SanFrancisco",
        "_segmentIndex": 0,
        "_position": 31
      },
      "geometry": {
        "type": "Point",
        "coordinates": [
          -73.34794701416777,
          5.561118474068207
        ]
      }
    },
    {
      "type": "Feature",
      "properties": {
        "_source": "Ruta4A-Arboleda-Uniboyaca-RamalFlorida-SanFrancisco",
        "_segmentIndex": 0,
        "_position": 32
      },
      "geometry": {
        "type": "Point",
        "coordinates": [
          -73.34822083623042,
          5.560760857736048
        ]
      }
    },
    {
      "type": "Feature",
      "properties": {
        "_source": "Ruta4A-Arboleda-Uniboyaca-RamalFlorida-SanFrancisco",
        "_segmentIndex": 0,
        "_position": 33
      },
      "geometry": {
        "type": "Point",
        "coordinates": [
          -73.34851719471986,
          5.560431816410776
        ]
      }
    },
    {
      "type": "Feature",
      "properties": {
        "_source": "Ruta4A-Arboleda-Uniboyaca-RamalFlorida-SanFrancisco",
        "_segmentIndex": 0,
        "_position": 0
      },
      "geometry": {
        "type": "Point",
        "coordinates": [
          -73.348534,
          5.560424
        ]
      }
    },
    {
      "type": "Feature",
      "properties": {
        "_source": "Ruta4A-Arboleda-Uniboyaca-RamalFlorida-SanFrancisco",
        "_segmentIndex": 0,
        "_position": 1
      },
      "geometry": {
        "type": "Point",
        "coordinates": [
          -73.34881376558145,
          5.560111008365246
        ]
      }
    },
    {
      "type": "Feature",
      "properties": {
        "_source": "Ruta4A-Arboleda-Uniboyaca-RamalFlorida-SanFrancisco",
        "_segmentIndex": 0,
        "_position": 2
      },
      "geometry": {
        "type": "Point",
        "coordinates": [
          -73.34901162580742,
          5.559706764505184
        ]
      }
    },
    {
      "type": "Feature",
      "properties": {
        "_source": "Ruta4A-Arboleda-Uniboyaca-RamalFlorida-SanFrancisco",
        "_segmentIndex": 0,
        "_position": 3
      },
      "geometry": {
        "type": "Point",
        "coordinates": [
          -73.34919181725972,
          5.559294418351337
        ]
      }
    },
    {
      "type": "Feature",
      "properties": {
        "_source": "Ruta4A-Arboleda-Uniboyaca-RamalFlorida-SanFrancisco",
        "_segmentIndex": 0,
        "_position": 4
      },
      "geometry": {
        "type": "Point",
        "coordinates": [
          -73.34938137209835,
          5.558886294432001
        ]
      }
    },
    {
      "type": "Feature",
      "properties": {
        "_source": "Ruta4A-Arboleda-Uniboyaca-RamalFlorida-SanFrancisco",
        "_segmentIndex": 0,
        "_position": 5
      },
      "geometry": {
        "type": "Point",
        "coordinates": [
          -73.34957407234566,
          5.5584795889962955
        ]
      }
    },
    {
      "type": "Feature",
      "properties": {
        "_source": "Ruta4A-Arboleda-Uniboyaca-RamalFlorida-SanFrancisco",
        "_segmentIndex": 0,
        "_position": 6
      },
      "geometry": {
        "type": "Point",
        "coordinates": [
          -73.34976677232675,
          5.5580728834981095
        ]
      }
    },
    {
      "type": "Feature",
      "properties": {
        "_source": "Ruta4A-Arboleda-Uniboyaca-RamalFlorida-SanFrancisco",
        "_segmentIndex": 0,
        "_position": 7
      },
      "geometry": {
        "type": "Point",
        "coordinates": [
          -73.34995602970864,
          5.5576645912338805
        ]
      }
    },
    {
      "type": "Feature",
      "properties": {
        "_source": "Ruta4A-Arboleda-Uniboyaca-RamalFlorida-SanFrancisco",
        "_segmentIndex": 0,
        "_position": 8
      },
      "geometry": {
        "type": "Point",
        "coordinates": [
          -73.35014303392083,
          5.557255260457984
        ]
      }
    },
    {
      "type": "Feature",
      "properties": {
        "_source": "Ruta4A-Arboleda-Uniboyaca-RamalFlorida-SanFrancisco",
        "_segmentIndex": 0,
        "_position": 9
      },
      "geometry": {
        "type": "Point",
        "coordinates": [
          -73.35033003787304,
          5.556845929623258
        ]
      }
    },
    {
      "type": "Feature",
      "properties": {
        "_source": "Ruta4A-Arboleda-Uniboyaca-RamalFlorida-SanFrancisco",
        "_segmentIndex": 0,
        "_position": 10
      },
      "geometry": {
        "type": "Point",
        "coordinates": [
          -73.3505170415653,
          5.556436598729706
        ]
      }
    },
    {
      "type": "Feature",
      "properties": {
        "_source": "Ruta4A-Arboleda-Uniboyaca-RamalFlorida-SanFrancisco",
        "_segmentIndex": 0,
        "_position": 11
      },
      "geometry": {
        "type": "Point",
        "coordinates": [
          -73.35070322905955,
          5.556026902059241
        ]
      }
    },
    {
      "type": "Feature",
      "properties": {
        "_source": "Ruta4A-Arboleda-Uniboyaca-RamalFlorida-SanFrancisco",
        "_segmentIndex": 0,
        "_position": 12
      },
      "geometry": {
        "type": "Point",
        "coordinates": [
          -73.35088724304514,
          5.555616231241071
        ]
      }
    },
    {
      "type": "Feature",
      "properties": {
        "_source": "Ruta4A-Arboleda-Uniboyaca-RamalFlorida-SanFrancisco",
        "_segmentIndex": 0,
        "_position": 13
      },
      "geometry": {
        "type": "Point",
        "coordinates": [
          -73.35107109981261,
          5.555205491001587
        ]
      }
    },
    {
      "type": "Feature",
      "properties": {
        "_source": "Ruta4A-Arboleda-Uniboyaca-RamalFlorida-SanFrancisco",
        "_segmentIndex": 0,
        "_position": 14
      },
      "geometry": {
        "type": "Point",
        "coordinates": [
          -73.3512537545162,
          5.554794219603158
        ]
      }
    },
    {
      "type": "Feature",
      "properties": {
        "_source": "Ruta4A-Arboleda-Uniboyaca-RamalFlorida-SanFrancisco",
        "_segmentIndex": 0,
        "_position": 15
      },
      "geometry": {
        "type": "Point",
        "coordinates": [
          -73.35142388402026,
          5.554377936212075
        ]
      }
    },
    {
      "type": "Feature",
      "properties": {
        "_source": "Ruta4A-Arboleda-Uniboyaca-RamalFlorida-SanFrancisco",
        "_segmentIndex": 0,
        "_position": 16
      },
      "geometry": {
        "type": "Point",
        "coordinates": [
          -73.35157764102897,
          5.553955137570724
        ]
      }
    },
    {
      "type": "Feature",
      "properties": {
        "_source": "Ruta4A-Arboleda-Uniboyaca-RamalFlorida-SanFrancisco",
        "_segmentIndex": 0,
        "_position": 17
      },
      "geometry": {
        "type": "Point",
        "coordinates": [
          -73.35169889314584,
          5.5535219748918205
        ]
      }
    },
    {
      "type": "Feature",
      "properties": {
        "_source": "Ruta4A-Arboleda-Uniboyaca-RamalFlorida-SanFrancisco",
        "_segmentIndex": 0,
        "_position": 18
      },
      "geometry": {
        "type": "Point",
        "coordinates": [
          -73.35184207039026,
          5.553095629981431
        ]
      }
    },
    {
      "type": "Feature",
      "properties": {
        "_source": "Ruta4A-Arboleda-Uniboyaca-RamalFlorida-SanFrancisco",
        "_segmentIndex": 0,
        "_position": 19
      },
      "geometry": {
        "type": "Point",
        "coordinates": [
          -73.35198381463469,
          5.552668760910685
        ]
      }
    },
    {
      "type": "Feature",
      "properties": {
        "_source": "Ruta4A-Arboleda-Uniboyaca-RamalFlorida-SanFrancisco",
        "_segmentIndex": 0,
        "_position": 20
      },
      "geometry": {
        "type": "Point",
        "coordinates": [
          -73.35211490395484,
          5.552238446202283
        ]
      }
    },
    {
      "type": "Feature",
      "properties": {
        "_source": "Ruta4A-Arboleda-Uniboyaca-RamalFlorida-SanFrancisco",
        "_segmentIndex": 0,
        "_position": 21
      },
      "geometry": {
        "type": "Point",
        "coordinates": [
          -73.35224599308359,
          5.551808131464997
        ]
      }
    },
    {
      "type": "Feature",
      "properties": {
        "_source": "Ruta4A-Arboleda-Uniboyaca-RamalFlorida-SanFrancisco",
        "_segmentIndex": 0,
        "_position": 22
      },
      "geometry": {
        "type": "Point",
        "coordinates": [
          -73.35244397623228,
          5.551404962247194
        ]
      }
    },
    {
      "type": "Feature",
      "properties": {
        "_source": "Ruta4A-Arboleda-Uniboyaca-RamalFlorida-SanFrancisco",
        "_segmentIndex": 0,
        "_position": 23
      },
      "geometry": {
        "type": "Point",
        "coordinates": [
          -73.35269117543902,
          5.551029470219677
        ]
      }
    },
    {
      "type": "Feature",
      "properties": {
        "_source": "Ruta4A-Arboleda-Uniboyaca-RamalFlorida-SanFrancisco",
        "_segmentIndex": 0,
        "_position": 24
      },
      "geometry": {
        "type": "Point",
        "coordinates": [
          -73.35298028246964,
          5.550683936645216
        ]
      }
    },
    {
      "type": "Feature",
      "properties": {
        "_source": "Ruta4A-Arboleda-Uniboyaca-RamalFlorida-SanFrancisco",
        "_segmentIndex": 0,
        "_position": 25
      },
      "geometry": {
        "type": "Point",
        "coordinates": [
          -73.35326876928384,
          5.550337890624939
        ]
      }
    },
    {
      "type": "Feature",
      "properties": {
        "_source": "Ruta4A-Arboleda-Uniboyaca-RamalFlorida-SanFrancisco",
        "_segmentIndex": 0,
        "_position": 26
      },
      "geometry": {
        "type": "Point",
        "coordinates": [
          -73.35355688216987,
          5.549991535707317
        ]
      }
    },
    {
      "type": "Feature",
      "properties": {
        "_source": "Ruta4A-Arboleda-Uniboyaca-RamalFlorida-SanFrancisco",
        "_segmentIndex": 0,
        "_position": 27
      },
      "geometry": {
        "type": "Point",
        "coordinates": [
          -73.3538449947174,
          5.549645180650235
        ]
      }
    },
    {
      "type": "Feature",
      "properties": {
        "_source": "Ruta4A-Arboleda-Uniboyaca-RamalFlorida-SanFrancisco",
        "_segmentIndex": 0,
        "_position": 28
      },
      "geometry": {
        "type": "Point",
        "coordinates": [
          -73.35413310692651,
          5.5492988254537
        ]
      }
    },
    {
      "type": "Feature",
      "properties": {
        "_source": "Ruta4A-Arboleda-Uniboyaca-RamalFlorida-SanFrancisco",
        "_segmentIndex": 0,
        "_position": 29
      },
      "geometry": {
        "type": "Point",
        "coordinates": [
          -73.35441957461443,
          5.5489511732961025
        ]
      }
    },
    {
      "type": "Feature",
      "properties": {
        "_source": "Ruta4A-Arboleda-Uniboyaca-RamalFlorida-SanFrancisco",
        "_segmentIndex": 0,
        "_position": 30
      },
      "geometry": {
        "type": "Point",
        "coordinates": [
          -73.35469251233326,
          5.548592849734326
        ]
      }
    },
    {
      "type": "Feature",
      "properties": {
        "_source": "Ruta4A-Arboleda-Uniboyaca-RamalFlorida-SanFrancisco",
        "_segmentIndex": 0,
        "_position": 31
      },
      "geometry": {
        "type": "Point",
        "coordinates": [
          -73.35496544972045,
          5.548234526047426
        ]
      }
    },
    {
      "type": "Feature",
      "properties": {
        "_source": "Ruta4A-Arboleda-Uniboyaca-RamalFlorida-SanFrancisco",
        "_segmentIndex": 0,
        "_position": 32
      },
      "geometry": {
        "type": "Point",
        "coordinates": [
          -73.35523466910699,
          5.547873466236855
        ]
      }
    },
    {
      "type": "Feature",
      "properties": {
        "_source": "Ruta4A-Arboleda-Uniboyaca-RamalFlorida-SanFrancisco",
        "_segmentIndex": 0,
        "_position": 33
      },
      "geometry": {
        "type": "Point",
        "coordinates": [
          -73.35549888758202,
          5.547508726154351
        ]
      }
    },
    {
      "type": "Feature",
      "properties": {
        "_source": "Ruta4A-Arboleda-Uniboyaca-RamalFlorida-SanFrancisco",
        "_segmentIndex": 0,
        "_position": 34
      },
      "geometry": {
        "type": "Point",
        "coordinates": [
          -73.35576310573032,
          5.547143985954612
        ]
      }
    },
    {
      "type": "Feature",
      "properties": {
        "_source": "Ruta4A-Arboleda-Uniboyaca-RamalFlorida-SanFrancisco",
        "_segmentIndex": 0,
        "_position": 35
      },
      "geometry": {
        "type": "Point",
        "coordinates": [
          -73.35602732355191,
          5.546779245637645
        ]
      }
    },
    {
      "type": "Feature",
      "properties": {
        "_source": "Ruta4A-Arboleda-Uniboyaca-RamalFlorida-SanFrancisco",
        "_segmentIndex": 0,
        "_position": 36
      },
      "geometry": {
        "type": "Point",
        "coordinates": [
          -73.35629154104682,
          5.546414505203457
        ]
      }
    },
    {
      "type": "Feature",
      "properties": {
        "_source": "Ruta4A-Arboleda-Uniboyaca-RamalFlorida-SanFrancisco",
        "_segmentIndex": 0,
        "_position": 37
      },
      "geometry": {
        "type": "Point",
        "coordinates": [
          -73.35655575821505,
          5.546049764652056
        ]
      }
    },
    {
      "type": "Feature",
      "properties": {
        "_source": "Ruta4A-Arboleda-Uniboyaca-RamalFlorida-SanFrancisco",
        "_segmentIndex": 0,
        "_position": 38
      },
      "geometry": {
        "type": "Point",
        "coordinates": [
          -73.35681997505665,
          5.545685023983454
        ]
      }
    },
    {
      "type": "Feature",
      "properties": {
        "_source": "Ruta4A-Arboleda-Uniboyaca-RamalFlorida-SanFrancisco",
        "_segmentIndex": 0,
        "_position": 39
      },
      "geometry": {
        "type": "Point",
        "coordinates": [
          -73.35708419157164,
          5.545320283197653
        ]
      }
    },
    {
      "type": "Feature",
      "properties": {
        "_source": "Ruta4A-Arboleda-Uniboyaca-RamalFlorida-SanFrancisco",
        "_segmentIndex": 0,
        "_position": 40
      },
      "geometry": {
        "type": "Point",
        "coordinates": [
          -73.35736329381061,
          5.544967320852666
        ]
      }
    },
    {
      "type": "Feature",
      "properties": {
        "_source": "Ruta4A-Arboleda-Uniboyaca-RamalFlorida-SanFrancisco",
        "_segmentIndex": 0,
        "_position": 0
      },
      "geometry": {
        "type": "Point",
        "coordinates": [
          -73.357404,
          5.544921
        ]
      }
    },
    {
      "type": "Feature",
      "properties": {
        "_source": "Ruta4A-Arboleda-Uniboyaca-RamalFlorida-SanFrancisco",
        "_segmentIndex": 0,
        "_position": 1
      },
      "geometry": {
        "type": "Point",
        "coordinates": [
          -73.35779794478026,
          5.544734315819932
        ]
      }
    },
    {
      "type": "Feature",
      "properties": {
        "_source": "Ruta4A-Arboleda-Uniboyaca-RamalFlorida-SanFrancisco",
        "_segmentIndex": 0,
        "_position": 0
      },
      "geometry": {
        "type": "Point",
        "coordinates": [
          -73.357843,
          5.544511
        ]
      }
    },
    {
      "type": "Feature",
      "properties": {
        "_source": "Ruta4A-Arboleda-Uniboyaca-RamalFlorida-SanFrancisco",
        "_segmentIndex": 0,
        "_position": 1
      },
      "geometry": {
        "type": "Point",
        "coordinates": [
          -73.3580287759409,
          5.54410437887638
        ]
      }
    },
    {
      "type": "Feature",
      "properties": {
        "_source": "Ruta4A-Arboleda-Uniboyaca-RamalFlorida-SanFrancisco",
        "_segmentIndex": 0,
        "_position": 2
      },
      "geometry": {
        "type": "Point",
        "coordinates": [
          -73.35829243596416,
          5.543739239878814
        ]
      }
    },
    {
      "type": "Feature",
      "properties": {
        "_source": "Ruta4A-Arboleda-Uniboyaca-RamalFlorida-SanFrancisco",
        "_segmentIndex": 0,
        "_position": 3
      },
      "geometry": {
        "type": "Point",
        "coordinates": [
          -73.35855609566126,
          5.543374100764587
        ]
      }
    },
    {
      "type": "Feature",
      "properties": {
        "_source": "Ruta4A-Arboleda-Uniboyaca-RamalFlorida-SanFrancisco",
        "_segmentIndex": 0,
        "_position": 4
      },
      "geometry": {
        "type": "Point",
        "coordinates": [
          -73.3588197550322,
          5.543008961533703
        ]
      }
    },
    {
      "type": "Feature",
      "properties": {
        "_source": "Ruta4A-Arboleda-Uniboyaca-RamalFlorida-SanFrancisco",
        "_segmentIndex": 0,
        "_position": 5
      },
      "geometry": {
        "type": "Point",
        "coordinates": [
          -73.3589559659451,
          5.542681265785333
        ]
      }
    },
    {
      "type": "Feature",
      "properties": {
        "_source": "Ruta4A-Arboleda-Uniboyaca-RamalFlorida-SanFrancisco",
        "_segmentIndex": 0,
        "_position": 6
      },
      "geometry": {
        "type": "Point",
        "coordinates": [
          -73.35895163116331,
          5.5422461801724054
        ]
      }
    },
    {
      "type": "Feature",
      "properties": {
        "_source": "Ruta4A-Arboleda-Uniboyaca-RamalFlorida-SanFrancisco",
        "_segmentIndex": 0,
        "_position": 7
      },
      "geometry": {
        "type": "Point",
        "coordinates": [
          -73.35912044547086,
          5.541829206410583
        ]
      }
    },
    {
      "type": "Feature",
      "properties": {
        "_source": "Ruta4A-Arboleda-Uniboyaca-RamalFlorida-SanFrancisco",
        "_segmentIndex": 0,
        "_position": 8
      },
      "geometry": {
        "type": "Point",
        "coordinates": [
          -73.35930664063577,
          5.5414195126912045
        ]
      }
    },
    {
      "type": "Feature",
      "properties": {
        "_source": "Ruta4A-Arboleda-Uniboyaca-RamalFlorida-SanFrancisco",
        "_segmentIndex": 0,
        "_position": 9
      },
      "geometry": {
        "type": "Point",
        "coordinates": [
          -73.35949283554233,
          5.54100981891367
        ]
      }
    },
    {
      "type": "Feature",
      "properties": {
        "_source": "Ruta4A-Arboleda-Uniboyaca-RamalFlorida-SanFrancisco",
        "_segmentIndex": 0,
        "_position": 10
      },
      "geometry": {
        "type": "Point",
        "coordinates": [
          -73.35967558728761,
          5.540598705073822
        ]
      }
    },
    {
      "type": "Feature",
      "properties": {
        "_source": "Ruta4A-Arboleda-Uniboyaca-RamalFlorida-SanFrancisco",
        "_segmentIndex": 0,
        "_position": 11
      },
      "geometry": {
        "type": "Point",
        "coordinates": [
          -73.359835104848,
          5.540178008487166
        ]
      }
    },
    {
      "type": "Feature",
      "properties": {
        "_source": "Ruta4A-Arboleda-Uniboyaca-RamalFlorida-SanFrancisco",
        "_segmentIndex": 0,
        "_position": 12
      },
      "geometry": {
        "type": "Point",
        "coordinates": [
          -73.35998649896337,
          5.539754356272412
        ]
      }
    },
    {
      "type": "Feature",
      "properties": {
        "_source": "Ruta4A-Arboleda-Uniboyaca-RamalFlorida-SanFrancisco",
        "_segmentIndex": 0,
        "_position": 13
      },
      "geometry": {
        "type": "Point",
        "coordinates": [
          -73.36008688522794,
          5.53931619313946
        ]
      }
    },
    {
      "type": "Feature",
      "properties": {
        "_source": "Ruta4A-Arboleda-Uniboyaca-RamalFlorida-SanFrancisco",
        "_segmentIndex": 0,
        "_position": 14
      },
      "geometry": {
        "type": "Point",
        "coordinates": [
          -73.36019677542917,
          5.538880354649692
        ]
      }
    },
    {
      "type": "Feature",
      "properties": {
        "_source": "Ruta4A-Arboleda-Uniboyaca-RamalFlorida-SanFrancisco",
        "_segmentIndex": 0,
        "_position": 0
      },
      "geometry": {
        "type": "Point",
        "coordinates": [
          -73.360234,
          5.538756
        ]
      }
    },
    {
      "type": "Feature",
      "properties": {
        "_source": "Ruta4A-Arboleda-Uniboyaca-RamalFlorida-SanFrancisco",
        "_segmentIndex": 0,
        "_position": 1
      },
      "geometry": {
        "type": "Point",
        "coordinates": [
          -73.36033662736148,
          5.538318145914182
        ]
      }
    },
    {
      "type": "Feature",
      "properties": {
        "_source": "Ruta4A-Arboleda-Uniboyaca-RamalFlorida-SanFrancisco",
        "_segmentIndex": 0,
        "_position": 2
      },
      "geometry": {
        "type": "Point",
        "coordinates": [
          -73.36050490707974,
          5.537902648302384
        ]
      }
    },
    {
      "type": "Feature",
      "properties": {
        "_source": "Ruta4A-Arboleda-Uniboyaca-RamalFlorida-SanFrancisco",
        "_segmentIndex": 0,
        "_position": 0
      },
      "geometry": {
        "type": "Point",
        "coordinates": [
          -73.360548,
          5.537814
        ]
      }
    },
    {
      "type": "Feature",
      "properties": {
        "_source": "Ruta4A-Arboleda-Uniboyaca-RamalFlorida-SanFrancisco",
        "_segmentIndex": 0,
        "_position": 1
      },
      "geometry": {
        "type": "Point",
        "coordinates": [
          -73.3606739282591,
          5.5373825817973055
        ]
      }
    },
    {
      "type": "Feature",
      "properties": {
        "_source": "Ruta4A-Arboleda-Uniboyaca-RamalFlorida-SanFrancisco",
        "_segmentIndex": 0,
        "_position": 2
      },
      "geometry": {
        "type": "Point",
        "coordinates": [
          -73.36078743784809,
          5.536947346909451
        ]
      }
    },
    {
      "type": "Feature",
      "properties": {
        "_source": "Ruta4A-Arboleda-Uniboyaca-RamalFlorida-SanFrancisco",
        "_segmentIndex": 0,
        "_position": 3
      },
      "geometry": {
        "type": "Point",
        "coordinates": [
          -73.36090552478458,
          5.536513350359671
        ]
      }
    },
    {
      "type": "Feature",
      "properties": {
        "_source": "Ruta4A-Arboleda-Uniboyaca-RamalFlorida-SanFrancisco",
        "_segmentIndex": 0,
        "_position": 4
      },
      "geometry": {
        "type": "Point",
        "coordinates": [
          -73.3610303901528,
          5.5360812103154196
        ]
      }
    },
    {
      "type": "Feature",
      "properties": {
        "_source": "Ruta4A-Arboleda-Uniboyaca-RamalFlorida-SanFrancisco",
        "_segmentIndex": 0,
        "_position": 5
      },
      "geometry": {
        "type": "Point",
        "coordinates": [
          -73.36115854799792,
          5.535650022774429
        ]
      }
    },
    {
      "type": "Feature",
      "properties": {
        "_source": "Ruta4A-Arboleda-Uniboyaca-RamalFlorida-SanFrancisco",
        "_segmentIndex": 0,
        "_position": 6
      },
      "geometry": {
        "type": "Point",
        "coordinates": [
          -73.3612867056561,
          5.535218835205915
        ]
      }
    },
    {
      "type": "Feature",
      "properties": {
        "_source": "Ruta4A-Arboleda-Uniboyaca-RamalFlorida-SanFrancisco",
        "_segmentIndex": 0,
        "_position": 7
      },
      "geometry": {
        "type": "Point",
        "coordinates": [
          -73.36141486312737,
          5.534787647609879
        ]
      }
    },
    {
      "type": "Feature",
      "properties": {
        "_source": "Ruta4A-Arboleda-Uniboyaca-RamalFlorida-SanFrancisco",
        "_segmentIndex": 0,
        "_position": 8
      },
      "geometry": {
        "type": "Point",
        "coordinates": [
          -73.36153891261634,
          5.534355272504317
        ]
      }
    },
    {
      "type": "Feature",
      "properties": {
        "_source": "Ruta4A-Arboleda-Uniboyaca-RamalFlorida-SanFrancisco",
        "_segmentIndex": 0,
        "_position": 0
      },
      "geometry": {
        "type": "Point",
        "coordinates": [
          -73.361604,
          5.534128
        ]
      }
    },
    {
      "type": "Feature",
      "properties": {
        "_source": "Ruta4A-Arboleda-Uniboyaca-RamalFlorida-SanFrancisco",
        "_segmentIndex": 0,
        "_position": 1
      },
      "geometry": {
        "type": "Point",
        "coordinates": [
          -73.36203353483846,
          5.534267320035419
        ]
      }
    },
    {
      "type": "Feature",
      "properties": {
        "_source": "Ruta4A-Arboleda-Uniboyaca-RamalFlorida-SanFrancisco",
        "_segmentIndex": 0,
        "_position": 2
      },
      "geometry": {
        "type": "Point",
        "coordinates": [
          -73.36246306987933,
          5.5344066397617295
        ]
      }
    },
    {
      "type": "Feature",
      "properties": {
        "_source": "Ruta4A-Arboleda-Uniboyaca-RamalFlorida-SanFrancisco",
        "_segmentIndex": 0,
        "_position": 0
      },
      "geometry": {
        "type": "Point",
        "coordinates": [
          -73.362644,
          5.534427
        ]
      }
    },
    {
      "type": "Feature",
      "properties": {
        "_source": "Ruta4A-Arboleda-Uniboyaca-RamalFlorida-SanFrancisco",
        "_segmentIndex": 0,
        "_position": 1
      },
      "geometry": {
        "type": "Point",
        "coordinates": [
          -73.36275650640903,
          5.533991506817194
        ]
      }
    },
    {
      "type": "Feature",
      "properties": {
        "_source": "Ruta4A-Arboleda-Uniboyaca-RamalFlorida-SanFrancisco",
        "_segmentIndex": 0,
        "_position": 2
      },
      "geometry": {
        "type": "Point",
        "coordinates": [
          -73.36286901265233,
          5.533556013613186
        ]
      }
    },
    {
      "type": "Feature",
      "properties": {
        "_source": "Ruta4A-Arboleda-Uniboyaca-RamalFlorida-SanFrancisco",
        "_segmentIndex": 0,
        "_position": 3
      },
      "geometry": {
        "type": "Point",
        "coordinates": [
          -73.36299874297634,
          5.533125348953586
        ]
      }
    },
    {
      "type": "Feature",
      "properties": {
        "_source": "Ruta4A-Arboleda-Uniboyaca-RamalFlorida-SanFrancisco",
        "_segmentIndex": 0,
        "_position": 4
      },
      "geometry": {
        "type": "Point",
        "coordinates": [
          -73.36313112024811,
          5.532695426351727
        ]
      }
    },
    {
      "type": "Feature",
      "properties": {
        "_source": "Ruta4A-Arboleda-Uniboyaca-RamalFlorida-SanFrancisco",
        "_segmentIndex": 0,
        "_position": 5
      },
      "geometry": {
        "type": "Point",
        "coordinates": [
          -73.36326418376954,
          5.53226571461712
        ]
      }
    },
    {
      "type": "Feature",
      "properties": {
        "_source": "Ruta4A-Arboleda-Uniboyaca-RamalFlorida-SanFrancisco",
        "_segmentIndex": 0,
        "_position": 6
      },
      "geometry": {
        "type": "Point",
        "coordinates": [
          -73.36339829158412,
          5.53183632375193
        ]
      }
    },
    {
      "type": "Feature",
      "properties": {
        "_source": "Ruta4A-Arboleda-Uniboyaca-RamalFlorida-SanFrancisco",
        "_segmentIndex": 0,
        "_position": 7
      },
      "geometry": {
        "type": "Point",
        "coordinates": [
          -73.36353239920399,
          5.5314069328566235
        ]
      }
    },
    {
      "type": "Feature",
      "properties": {
        "_source": "Ruta4A-Arboleda-Uniboyaca-RamalFlorida-SanFrancisco",
        "_segmentIndex": 0,
        "_position": 8
      },
      "geometry": {
        "type": "Point",
        "coordinates": [
          -73.36367067084318,
          5.530978853382399
        ]
      }
    },
    {
      "type": "Feature",
      "properties": {
        "_source": "Ruta4A-Arboleda-Uniboyaca-RamalFlorida-SanFrancisco",
        "_segmentIndex": 0,
        "_position": 9
      },
      "geometry": {
        "type": "Point",
        "coordinates": [
          -73.36380912377395,
          5.53055083103399
        ]
      }
    },
    {
      "type": "Feature",
      "properties": {
        "_source": "Ruta4A-Arboleda-Uniboyaca-RamalFlorida-SanFrancisco",
        "_segmentIndex": 0,
        "_position": 10
      },
      "geometry": {
        "type": "Point",
        "coordinates": [
          -73.36390057167957,
          5.530114352683385
        ]
      }
    },
    {
      "type": "Feature",
      "properties": {
        "_source": "Ruta4A-Arboleda-Uniboyaca-RamalFlorida-SanFrancisco",
        "_segmentIndex": 0,
        "_position": 11
      },
      "geometry": {
        "type": "Point",
        "coordinates": [
          -73.36402737710242,
          5.5296827695707185
        ]
      }
    },
    {
      "type": "Feature",
      "properties": {
        "_source": "Ruta4A-Arboleda-Uniboyaca-RamalFlorida-SanFrancisco",
        "_segmentIndex": 0,
        "_position": 12
      },
      "geometry": {
        "type": "Point",
        "coordinates": [
          -73.36415418234031,
          5.529251186431137
        ]
      }
    },
    {
      "type": "Feature",
      "properties": {
        "_source": "Ruta4A-Arboleda-Uniboyaca-RamalFlorida-SanFrancisco",
        "_segmentIndex": 0,
        "_position": 13
      },
      "geometry": {
        "type": "Point",
        "coordinates": [
          -73.36428769789485,
          5.52882161378633
        ]
      }
    },
    {
      "type": "Feature",
      "properties": {
        "_source": "Ruta4A-Arboleda-Uniboyaca-RamalFlorida-SanFrancisco",
        "_segmentIndex": 0,
        "_position": 14
      },
      "geometry": {
        "type": "Point",
        "coordinates": [
          -73.36442131084459,
          5.528392070350146
        ]
      }
    },
    {
      "type": "Feature",
      "properties": {
        "_source": "Ruta4A-Arboleda-Uniboyaca-RamalFlorida-SanFrancisco",
        "_segmentIndex": 0,
        "_position": 15
      },
      "geometry": {
        "type": "Point",
        "coordinates": [
          -73.36455359301875,
          5.527962153995722
        ]
      }
    },
    {
      "type": "Feature",
      "properties": {
        "_source": "Ruta4A-Arboleda-Uniboyaca-RamalFlorida-SanFrancisco",
        "_segmentIndex": 0,
        "_position": 16
      },
      "geometry": {
        "type": "Point",
        "coordinates": [
          -73.36466476850373,
          5.52752632262989
        ]
      }
    },
    {
      "type": "Feature",
      "properties": {
        "_source": "Ruta4A-Arboleda-Uniboyaca-RamalFlorida-SanFrancisco",
        "_segmentIndex": 0,
        "_position": 17
      },
      "geometry": {
        "type": "Point",
        "coordinates": [
          -73.36480592936395,
          5.52710120145535
        ]
      }
    },
    {
      "type": "Feature",
      "properties": {
        "_source": "Ruta4A-Arboleda-Uniboyaca-RamalFlorida-SanFrancisco",
        "_segmentIndex": 0,
        "_position": 18
      },
      "geometry": {
        "type": "Point",
        "coordinates": [
          -73.36506010325212,
          5.526734562268767
        ]
      }
    },
    {
      "type": "Feature",
      "properties": {
        "_source": "Ruta4A-Arboleda-Uniboyaca-RamalFlorida-SanFrancisco",
        "_segmentIndex": 0,
        "_position": 19
      },
      "geometry": {
        "type": "Point",
        "coordinates": [
          -73.3653542385078,
          5.526395829714339
        ]
      }
    },
    {
      "type": "Feature",
      "properties": {
        "_source": "Ruta4A-Arboleda-Uniboyaca-RamalFlorida-SanFrancisco",
        "_segmentIndex": 0,
        "_position": 20
      },
      "geometry": {
        "type": "Point",
        "coordinates": [
          -73.36554564890945,
          5.525988526250438
        ]
      }
    },
    {
      "type": "Feature",
      "properties": {
        "_source": "Ruta4A-Arboleda-Uniboyaca-RamalFlorida-SanFrancisco",
        "_segmentIndex": 0,
        "_position": 21
      },
      "geometry": {
        "type": "Point",
        "coordinates": [
          -73.3657230467326,
          5.525575093778994
        ]
      }
    },
    {
      "type": "Feature",
      "properties": {
        "_source": "Ruta4A-Arboleda-Uniboyaca-RamalFlorida-SanFrancisco",
        "_segmentIndex": 0,
        "_position": 22
      },
      "geometry": {
        "type": "Point",
        "coordinates": [
          -73.36589502944136,
          5.525159292807952
        ]
      }
    },
    {
      "type": "Feature",
      "properties": {
        "_source": "Ruta4A-Arboleda-Uniboyaca-RamalFlorida-SanFrancisco",
        "_segmentIndex": 0,
        "_position": 23
      },
      "geometry": {
        "type": "Point",
        "coordinates": [
          -73.36606161441748,
          5.52474139275606
        ]
      }
    },
    {
      "type": "Feature",
      "properties": {
        "_source": "Ruta4A-Arboleda-Uniboyaca-RamalFlorida-SanFrancisco",
        "_segmentIndex": 0,
        "_position": 24
      },
      "geometry": {
        "type": "Point",
        "coordinates": [
          -73.36621838202873,
          5.524319674872566
        ]
      }
    },
    {
      "type": "Feature",
      "properties": {
        "_source": "Ruta4A-Arboleda-Uniboyaca-RamalFlorida-SanFrancisco",
        "_segmentIndex": 0,
        "_position": 25
      },
      "geometry": {
        "type": "Point",
        "coordinates": [
          -73.36634481159726,
          5.5238882627379295
        ]
      }
    },
    {
      "type": "Feature",
      "properties": {
        "_source": "Ruta4A-Arboleda-Uniboyaca-RamalFlorida-SanFrancisco",
        "_segmentIndex": 0,
        "_position": 26
      },
      "geometry": {
        "type": "Point",
        "coordinates": [
          -73.36645068693825,
          5.523451125971394
        ]
      }
    },
    {
      "type": "Feature",
      "properties": {
        "_source": "Ruta4A-Arboleda-Uniboyaca-RamalFlorida-SanFrancisco",
        "_segmentIndex": 0,
        "_position": 27
      },
      "geometry": {
        "type": "Point",
        "coordinates": [
          -73.366553366373,
          5.523013237822892
        ]
      }
    },
    {
      "type": "Feature",
      "properties": {
        "_source": "Ruta4A-Arboleda-Uniboyaca-RamalFlorida-SanFrancisco",
        "_segmentIndex": 0,
        "_position": 28
      },
      "geometry": {
        "type": "Point",
        "coordinates": [
          -73.36664468300545,
          5.522572978313093
        ]
      }
    },
    {
      "type": "Feature",
      "properties": {
        "_source": "Ruta4A-Arboleda-Uniboyaca-RamalFlorida-SanFrancisco",
        "_segmentIndex": 0,
        "_position": 29
      },
      "geometry": {
        "type": "Point",
        "coordinates": [
          -73.36675529695103,
          5.522137853465938
        ]
      }
    },
    {
      "type": "Feature",
      "properties": {
        "_source": "Ruta4A-Arboleda-Uniboyaca-RamalFlorida-SanFrancisco",
        "_segmentIndex": 0,
        "_position": 30
      },
      "geometry": {
        "type": "Point",
        "coordinates": [
          -73.36688808867486,
          5.5217080902766495
        ]
      }
    },
    {
      "type": "Feature",
      "properties": {
        "_source": "Ruta4A-Arboleda-Uniboyaca-RamalFlorida-SanFrancisco",
        "_segmentIndex": 0,
        "_position": 31
      },
      "geometry": {
        "type": "Point",
        "coordinates": [
          -73.36700883814588,
          5.521274790343816
        ]
      }
    },
    {
      "type": "Feature",
      "properties": {
        "_source": "Ruta4A-Arboleda-Uniboyaca-RamalFlorida-SanFrancisco",
        "_segmentIndex": 0,
        "_position": 32
      },
      "geometry": {
        "type": "Point",
        "coordinates": [
          -73.36712958744033,
          5.520841490386612
        ]
      }
    },
    {
      "type": "Feature",
      "properties": {
        "_source": "Ruta4A-Arboleda-Uniboyaca-RamalFlorida-SanFrancisco",
        "_segmentIndex": 0,
        "_position": 33
      },
      "geometry": {
        "type": "Point",
        "coordinates": [
          -73.36724284628215,
          5.520406241717206
        ]
      }
    },
    {
      "type": "Feature",
      "properties": {
        "_source": "Ruta4A-Arboleda-Uniboyaca-RamalFlorida-SanFrancisco",
        "_segmentIndex": 0,
        "_position": 34
      },
      "geometry": {
        "type": "Point",
        "coordinates": [
          -73.36735055097968,
          5.519969548090388
        ]
      }
    },
    {
      "type": "Feature",
      "properties": {
        "_source": "Ruta4A-Arboleda-Uniboyaca-RamalFlorida-SanFrancisco",
        "_segmentIndex": 0,
        "_position": 35
      },
      "geometry": {
        "type": "Point",
        "coordinates": [
          -73.3674499456259,
          5.519530978816893
        ]
      }
    },
    {
      "type": "Feature",
      "properties": {
        "_source": "Ruta4A-Arboleda-Uniboyaca-RamalFlorida-SanFrancisco",
        "_segmentIndex": 0,
        "_position": 36
      },
      "geometry": {
        "type": "Point",
        "coordinates": [
          -73.36751545680765,
          5.519086911013851
        ]
      }
    },
    {
      "type": "Feature",
      "properties": {
        "_source": "Ruta4A-Arboleda-Uniboyaca-RamalFlorida-SanFrancisco",
        "_segmentIndex": 0,
        "_position": 37
      },
      "geometry": {
        "type": "Point",
        "coordinates": [
          -73.36755365500623,
          5.51863886479523
        ]
      }
    },
    {
      "type": "Feature",
      "properties": {
        "_source": "Ruta4A-Arboleda-Uniboyaca-RamalFlorida-SanFrancisco",
        "_segmentIndex": 0,
        "_position": 38
      },
      "geometry": {
        "type": "Point",
        "coordinates": [
          -73.36766374760681,
          5.518212446212533
        ]
      }
    },
    {
      "type": "Feature",
      "properties": {
        "_source": "Ruta4A-Arboleda-Uniboyaca-RamalFlorida-SanFrancisco",
        "_segmentIndex": 0,
        "_position": 39
      },
      "geometry": {
        "type": "Point",
        "coordinates": [
          -73.36789995513959,
          5.517829149746492
        ]
      }
    },
    {
      "type": "Feature",
      "properties": {
        "_source": "Ruta4A-Arboleda-Uniboyaca-RamalFlorida-SanFrancisco",
        "_segmentIndex": 0,
        "_position": 40
      },
      "geometry": {
        "type": "Point",
        "coordinates": [
          -73.36815332311852,
          5.517456924111863
        ]
      }
    },
    {
      "type": "Feature",
      "properties": {
        "_source": "Ruta4A-Arboleda-Uniboyaca-RamalFlorida-SanFrancisco",
        "_segmentIndex": 0,
        "_position": 41
      },
      "geometry": {
        "type": "Point",
        "coordinates": [
          -73.36837005139584,
          5.517062951128735
        ]
      }
    },
    {
      "type": "Feature",
      "properties": {
        "_source": "Ruta4A-Arboleda-Uniboyaca-RamalFlorida-SanFrancisco",
        "_segmentIndex": 0,
        "_position": 42
      },
      "geometry": {
        "type": "Point",
        "coordinates": [
          -73.3685772847718,
          5.516663395139598
        ]
      }
    },
    {
      "type": "Feature",
      "properties": {
        "_source": "Ruta4A-Arboleda-Uniboyaca-RamalFlorida-SanFrancisco",
        "_segmentIndex": 0,
        "_position": 0
      },
      "geometry": {
        "type": "Point",
        "coordinates": [
          -73.36871,
          5.516369
        ]
      }
    },
    {
      "type": "Feature",
      "properties": {
        "_source": "Ruta4A-Arboleda-Uniboyaca-RamalFlorida-SanFrancisco",
        "_segmentIndex": 0,
        "_position": 1
      },
      "geometry": {
        "type": "Point",
        "coordinates": [
          -73.36862450502451,
          5.515928884427385
        ]
      }
    },
    {
      "type": "Feature",
      "properties": {
        "_source": "Ruta4A-Arboleda-Uniboyaca-RamalFlorida-SanFrancisco",
        "_segmentIndex": 0,
        "_position": 0
      },
      "geometry": {
        "type": "Point",
        "coordinates": [
          -73.368608,
          5.515768
        ]
      }
    },
    {
      "type": "Feature",
      "properties": {
        "_source": "Ruta4A-Arboleda-Uniboyaca-RamalFlorida-SanFrancisco",
        "_segmentIndex": 0,
        "_position": 0
      },
      "geometry": {
        "type": "Point",
        "coordinates": [
          -73.368602,
          5.515348
        ]
      }
    },
    {
      "type": "Feature",
      "properties": {
        "_source": "Ruta4A-Arboleda-Uniboyaca-RamalFlorida-SanFrancisco",
        "_segmentIndex": 0,
        "_position": 1
      },
      "geometry": {
        "type": "Point",
        "coordinates": [
          -73.36815342660391,
          5.515308662098266
        ]
      }
    },
    {
      "type": "Feature",
      "properties": {
        "_source": "Ruta4A-Arboleda-Uniboyaca-RamalFlorida-SanFrancisco",
        "_segmentIndex": 0,
        "_position": 2
      },
      "geometry": {
        "type": "Point",
        "coordinates": [
          -73.36770627803769,
          5.515246177241705
        ]
      }
    },
    {
      "type": "Feature",
      "properties": {
        "_source": "Ruta4A-Arboleda-Uniboyaca-RamalFlorida-SanFrancisco",
        "_segmentIndex": 0,
        "_position": 3
      },
      "geometry": {
        "type": "Point",
        "coordinates": [
          -73.36726349768968,
          5.515158200662592
        ]
      }
    },
    {
      "type": "Feature",
      "properties": {
        "_source": "Ruta4A-Arboleda-Uniboyaca-RamalFlorida-SanFrancisco",
        "_segmentIndex": 0,
        "_position": 0
      },
      "geometry": {
        "type": "Point",
        "coordinates": [
          -73.367119,
          5.515124
        ]
      }
    },
    {
      "type": "Feature",
      "properties": {
        "_source": "Ruta4A-Arboleda-Uniboyaca-RamalFlorida-SanFrancisco",
        "_segmentIndex": 0,
        "_position": 0
      },
      "geometry": {
        "type": "Point",
        "coordinates": [
          -73.366907,
          5.515501
        ]
      }
    },
    {
      "type": "Feature",
      "properties": {
        "_source": "Ruta4A-Arboleda-Uniboyaca-RamalFlorida-SanFrancisco",
        "_segmentIndex": 0,
        "_position": 1
      },
      "geometry": {
        "type": "Point",
        "coordinates": [
          -73.36649289076392,
          5.515325311537601
        ]
      }
    },
    {
      "type": "Feature",
      "properties": {
        "_source": "Ruta4A-Arboleda-Uniboyaca-RamalFlorida-SanFrancisco",
        "_segmentIndex": 0,
        "_position": 0
      },
      "geometry": {
        "type": "Point",
        "coordinates": [
          -73.366133,
          5.515167
        ]
      }
    },
    {
      "type": "Feature",
      "properties": {
        "_source": "Ruta4A-Arboleda-Uniboyaca-RamalFlorida-SanFrancisco",
        "_segmentIndex": 0,
        "_position": 1
      },
      "geometry": {
        "type": "Point",
        "coordinates": [
          -73.36632395787707,
          5.5147595906695726
        ]
      }
    },
    {
      "type": "Feature",
      "properties": {
        "_source": "Ruta4A-Arboleda-Uniboyaca-RamalFlorida-SanFrancisco",
        "_segmentIndex": 0,
        "_position": 2
      },
      "geometry": {
        "type": "Point",
        "coordinates": [
          -73.36651374103835,
          5.514351535236548
        ]
      }
    },
    {
      "type": "Feature",
      "properties": {
        "_source": "Ruta4A-Arboleda-Uniboyaca-RamalFlorida-SanFrancisco",
        "_segmentIndex": 0,
        "_position": 3
      },
      "geometry": {
        "type": "Point",
        "coordinates": [
          -73.36665933554762,
          5.513927905436959
        ]
      }
    },
    {
      "type": "Feature",
      "properties": {
        "_source": "Ruta4A-Arboleda-Uniboyaca-RamalFlorida-SanFrancisco",
        "_segmentIndex": 0,
        "_position": 4
      },
      "geometry": {
        "type": "Point",
        "coordinates": [
          -73.36683849545011,
          5.513515169784202
        ]
      }
    },
    {
      "type": "Feature",
      "properties": {
        "_source": "Ruta4A-Arboleda-Uniboyaca-RamalFlorida-SanFrancisco",
        "_segmentIndex": 0,
        "_position": 0
      },
      "geometry": {
        "type": "Point",
        "coordinates": [
          -73.366895,
          5.513385
        ]
      }
    },
    {
      "type": "Feature",
      "properties": {
        "_source": "Ruta4A-Arboleda-Uniboyaca-RamalFlorida-SanFrancisco",
        "_segmentIndex": 0,
        "_position": 1
      },
      "geometry": {
        "type": "Point",
        "coordinates": [
          -73.36733965407988,
          5.513307753692559
        ]
      }
    },
    {
      "type": "Feature",
      "properties": {
        "_source": "Ruta4A-Arboleda-Uniboyaca-RamalFlorida-SanFrancisco",
        "_segmentIndex": 0,
        "_position": 2
      },
      "geometry": {
        "type": "Point",
        "coordinates": [
          -73.36769939869119,
          5.513086395125155
        ]
      }
    },
    {
      "type": "Feature",
      "properties": {
        "_source": "Ruta4A-Arboleda-Uniboyaca-RamalFlorida-SanFrancisco",
        "_segmentIndex": 0,
        "_position": 3
      },
      "geometry": {
        "type": "Point",
        "coordinates": [
          -73.36792740716027,
          5.512703592841196
        ]
      }
    },
    {
      "type": "Feature",
      "properties": {
        "_source": "Ruta4A-Arboleda-Uniboyaca-RamalFlorida-SanFrancisco",
        "_segmentIndex": 0,
        "_position": 0
      },
      "geometry": {
        "type": "Point",
        "coordinates": [
          -73.36799,
          5.512669
        ]
      }
    },
    {
      "type": "Feature",
      "properties": {
        "_source": "Ruta4A-Arboleda-Uniboyaca-RamalFlorida-SanFrancisco",
        "_segmentIndex": 0,
        "_position": 1
      },
      "geometry": {
        "type": "Point",
        "coordinates": [
          -73.36787730060962,
          5.512237502846479
        ]
      }
    },
    {
      "type": "Feature",
      "properties": {
        "_source": "Ruta4A-Arboleda-Uniboyaca-RamalFlorida-SanFrancisco",
        "_segmentIndex": 0,
        "_position": 2
      },
      "geometry": {
        "type": "Point",
        "coordinates": [
          -73.36787388760212,
          5.511787994439461
        ]
      }
    },
    {
      "type": "Feature",
      "properties": {
        "_source": "Ruta4A-Arboleda-Uniboyaca-RamalFlorida-SanFrancisco",
        "_segmentIndex": 0,
        "_position": 3
      },
      "geometry": {
        "type": "Point",
        "coordinates": [
          -73.36794342159519,
          5.511349338689082
        ]
      }
    },
    {
      "type": "Feature",
      "properties": {
        "_source": "Ruta4A-Arboleda-Uniboyaca-RamalFlorida-SanFrancisco",
        "_segmentIndex": 0,
        "_position": 4
      },
      "geometry": {
        "type": "Point",
        "coordinates": [
          -73.36829143781488,
          5.511069956348705
        ]
      }
    },
    {
      "type": "Feature",
      "properties": {
        "_source": "Ruta4A-Arboleda-Uniboyaca-RamalFlorida-SanFrancisco",
        "_segmentIndex": 0,
        "_position": 5
      },
      "geometry": {
        "type": "Point",
        "coordinates": [
          -73.36857861730259,
          5.510752061582855
        ]
      }
    },
    {
      "type": "Feature",
      "properties": {
        "_source": "Ruta4A-Arboleda-Uniboyaca-RamalFlorida-SanFrancisco",
        "_segmentIndex": 0,
        "_position": 6
      },
      "geometry": {
        "type": "Point",
        "coordinates": [
          -73.36841815046438,
          5.510350936316595
        ]
      }
    },
    {
      "type": "Feature",
      "properties": {
        "_source": "Ruta4A-Arboleda-Uniboyaca-RamalFlorida-SanFrancisco",
        "_segmentIndex": 0,
        "_position": 7
      },
      "geometry": {
        "type": "Point",
        "coordinates": [
          -73.36824092180504,
          5.509943491015144
        ]
      }
    },
    {
      "type": "Feature",
      "properties": {
        "_source": "Ruta4A-Arboleda-Uniboyaca-RamalFlorida-SanFrancisco",
        "_segmentIndex": 0,
        "_position": 8
      },
      "geometry": {
        "type": "Point",
        "coordinates": [
          -73.36821960412745,
          5.5094959881634455
        ]
      }
    },
    {
      "type": "Feature",
      "properties": {
        "_source": "Ruta4A-Arboleda-Uniboyaca-RamalFlorida-SanFrancisco",
        "_segmentIndex": 0,
        "_position": 9
      },
      "geometry": {
        "type": "Point",
        "coordinates": [
          -73.36808134120419,
          5.509115856260392
        ]
      }
    },
    {
      "type": "Feature",
      "properties": {
        "_source": "Ruta4A-Arboleda-Uniboyaca-RamalFlorida-SanFrancisco",
        "_segmentIndex": 0,
        "_position": 0
      },
      "geometry": {
        "type": "Point",
        "coordinates": [
          -73.368047,
          5.50908
        ]
      }
    },
    {
      "type": "Feature",
      "properties": {
        "_source": "Ruta4A-Arboleda-Uniboyaca-RamalFlorida-SanFrancisco",
        "_segmentIndex": 0,
        "_position": 1
      },
      "geometry": {
        "type": "Point",
        "coordinates": [
          -73.3676437332306,
          5.508879433018377
        ]
      }
    },
    {
      "type": "Feature",
      "properties": {
        "_source": "Ruta4A-Arboleda-Uniboyaca-RamalFlorida-SanFrancisco",
        "_segmentIndex": 0,
        "_position": 2
      },
      "geometry": {
        "type": "Point",
        "coordinates": [
          -73.36728355056906,
          5.508619892522255
        ]
      }
    },
    {
      "type": "Feature",
      "properties": {
        "_source": "Ruta4A-Arboleda-Uniboyaca-RamalFlorida-SanFrancisco",
        "_segmentIndex": 0,
        "_position": 0
      },
      "geometry": {
        "type": "Point",
        "coordinates": [
          -73.367212,
          5.508524
        ]
      }
    },
    {
      "type": "Feature",
      "properties": {
        "_source": "Ruta4A-Arboleda-Uniboyaca-RamalFlorida-SanFrancisco",
        "_segmentIndex": 0,
        "_position": 1
      },
      "geometry": {
        "type": "Point",
        "coordinates": [
          -73.36717592039088,
          5.508175782001858
        ]
      }
    }
  ]
}