{
  "type": "FeatureCollection",
  "features": [
    {
      "type": "Feature",
      "properties": {
        "_source": "Ruta14-EstanciaelRoble-Viaducto-Paraiso",
        "_segmentIndex": 0,
        "_position": 0
      },
      "geometry": {
        "type": "Point",
        "coordinates": [
          -73.355213,
          5.563942
        ]
      }
    },
    {
      "type": "Feature",
      "properties": {
        "_source": "Ruta14-EstanciaelRoble-Viaducto-Paraiso",
        "_segmentIndex": 0,
        "_position": 1
      },
      "geometry": {
        "type": "Point",
        "coordinates": [
          -73.35542195559832,
          5.563650091554758
        ]
      }
    },
    {
      "type": "Feature",
      "properties": {
        "_source": "Ruta14-EstanciaelRoble-Viaducto-Paraiso",
        "_segmentIndex": 0,
        "_position": 2
      },
      "geometry": {
        "type": "Point",
        "coordinates": [
          -73.3555081183558,
          5.5632099197727625
        ]
      }
    },
    {
      "type": "Feature",
      "properties": {
        "_source": "Ruta14-EstanciaelRoble-Viaducto-Paraiso",
        "_segmentIndex": 0,
        "_position": 3
      },
      "geometry": {
        "type": "Point",
        "coordinates": [
          -73.35553671902801,
          5.562761162015523
        ]
      }
    },
    {
      "type": "Feature",
      "properties": {
        "_source": "Ruta14-EstanciaelRoble-Viaducto-Paraiso",
        "_segmentIndex": 0,
        "_position": 4
      },
      "geometry": {
        "type": "Point",
        "coordinates": [
          -73.35556425034513,
          5.562312337520283
        ]
      }
    },
    {
      "type": "Feature",
      "properties": {
        "_source": "Ruta14-EstanciaelRoble-Viaducto-Paraiso",
        "_segmentIndex": 0,
        "_position": 5
      },
      "geometry": {
        "type": "Point",
        "coordinates": [
          -73.3555870946623,
          5.561863262060005
        ]
      }
    },
    {
      "type": "Feature",
      "properties": {
        "_source": "Ruta14-EstanciaelRoble-Viaducto-Paraiso",
        "_segmentIndex": 0,
        "_position": 6
      },
      "geometry": {
        "type": "Point",
        "coordinates": [
          -73.35560810278301,
          5.561414088281326
        ]
      }
    },
    {
      "type": "Feature",
      "properties": {
        "_source": "Ruta14-EstanciaelRoble-Viaducto-Paraiso",
        "_segmentIndex": 0,
        "_position": 7
      },
      "geometry": {
        "type": "Point",
        "coordinates": [
          -73.35562559567548,
          5.560964770613636
        ]
      }
    },
    {
      "type": "Feature",
      "properties": {
        "_source": "Ruta14-EstanciaelRoble-Viaducto-Paraiso",
        "_segmentIndex": 0,
        "_position": 8
      },
      "geometry": {
        "type": "Point",
        "coordinates": [
          -73.3555737445274,
          5.5605219269141495
        ]
      }
    },
    {
      "type": "Feature",
      "properties": {
        "_source": "Ruta14-EstanciaelRoble-Viaducto-Paraiso",
        "_segmentIndex": 0,
        "_position": 9
      },
      "geometry": {
        "type": "Point",
        "coordinates": [
          -73.35539398299142,
          5.560109986090819
        ]
      }
    },
    {
      "type": "Feature",
      "properties": {
        "_source": "Ruta14-EstanciaelRoble-Viaducto-Paraiso",
        "_segmentIndex": 0,
        "_position": 10
      },
      "geometry": {
        "type": "Point",
        "coordinates": [
          -73.35524785048746,
          5.559686962733146
        ]
      }
    },
    {
      "type": "Feature",
      "properties": {
        "_source": "Ruta14-EstanciaelRoble-Viaducto-Paraiso",
        "_segmentIndex": 0,
        "_position": 0
      },
      "geometry": {
        "type": "Point",
        "coordinates": [
          -73.355183,
          5.559539
        ]
      }
    },
    {
      "type": "Feature",
      "properties": {
        "_source": "Ruta14-EstanciaelRoble-Viaducto-Paraiso",
        "_segmentIndex": 0,
        "_position": 1
      },
      "geometry": {
        "type": "Point",
        "coordinates": [
          -73.35492466098798,
          5.559881904978933
        ]
      }
    },
    {
      "type": "Feature",
      "properties": {
        "_source": "Ruta14-EstanciaelRoble-Viaducto-Paraiso",
        "_segmentIndex": 0,
        "_position": 2
      },
      "geometry": {
        "type": "Point",
        "coordinates": [
          -73.35473036351466,
          5.560259000000462
        ]
      }
    },
    {
      "type": "Feature",
      "properties": {
        "_source": "Ruta14-EstanciaelRoble-Viaducto-Paraiso",
        "_segmentIndex": 0,
        "_position": 3
      },
      "geometry": {
        "type": "Point",
        "coordinates": [
          -73.35430385675515,
          5.560114571291951
        ]
      }
    },
    {
      "type": "Feature",
      "properties": {
        "_source": "Ruta14-EstanciaelRoble-Viaducto-Paraiso",
        "_segmentIndex": 0,
        "_position": 4
      },
      "geometry": {
        "type": "Point",
        "coordinates": [
          -73.35388190513044,
          5.5599539325114185
        ]
      }
    },
    {
      "type": "Feature",
      "properties": {
        "_source": "Ruta14-EstanciaelRoble-Viaducto-Paraiso",
        "_segmentIndex": 0,
        "_position": 5
      },
      "geometry": {
        "type": "Point",
        "coordinates": [
          -73.35345551659668,
          5.559805529288823
        ]
      }
    },
    {
      "type": "Feature",
      "properties": {
        "_source": "Ruta14-EstanciaelRoble-Viaducto-Paraiso",
        "_segmentIndex": 0,
        "_position": 6
      },
      "geometry": {
        "type": "Point",
        "coordinates": [
          -73.35302808575041,
          5.559660035661177
        ]
      }
    },
    {
      "type": "Feature",
      "properties": {
        "_source": "Ruta14-EstanciaelRoble-Viaducto-Paraiso",
        "_segmentIndex": 0,
        "_position": 7
      },
      "geometry": {
        "type": "Point",
        "coordinates": [
          -73.35262329976754,
          5.5594817095312585
        ]
      }
    },
    {
      "type": "Feature",
      "properties": {
        "_source": "Ruta14-EstanciaelRoble-Viaducto-Paraiso",
        "_segmentIndex": 0,
        "_position": 8
      },
      "geometry": {
        "type": "Point",
        "coordinates": [
          -73.35279262922579,
          5.55906816521644
        ]
      }
    },
    {
      "type": "Feature",
      "properties": {
        "_source": "Ruta14-EstanciaelRoble-Viaducto-Paraiso",
        "_segmentIndex": 0,
        "_position": 9
      },
      "geometry": {
        "type": "Point",
        "coordinates": [
          -73.3530032253451,
          5.558672530853687
        ]
      }
    },
    {
      "type": "Feature",
      "properties": {
        "_source": "Ruta14-EstanciaelRoble-Viaducto-Paraiso",
        "_segmentIndex": 0,
        "_position": 10
      },
      "geometry": {
        "type": "Point",
        "coordinates": [
          -73.35288189505445,
          5.558353298353512
        ]
      }
    },
    {
      "type": "Feature",
      "properties": {
        "_source": "Ruta14-EstanciaelRoble-Viaducto-Paraiso",
        "_segmentIndex": 0,
        "_position": 11
      },
      "geometry": {
        "type": "Point",
        "coordinates": [
          -73.35245501829888,
          5.558206065554464
        ]
      }
    },
    {
      "type": "Feature",
      "properties": {
        "_source": "Ruta14-EstanciaelRoble-Viaducto-Paraiso",
        "_segmentIndex": 0,
        "_position": 0
      },
      "geometry": {
        "type": "Point",
        "coordinates": [
          -73.352179,
          5.5581
        ]
      }
    },
    {
      "type": "Feature",
      "properties": {
        "_source": "Ruta14-EstanciaelRoble-Viaducto-Paraiso",
        "_segmentIndex": 0,
        "_position": 1
      },
      "geometry": {
        "type": "Point",
        "coordinates": [
          -73.3523346326173,
          5.557677877244812
        ]
      }
    },
    {
      "type": "Feature",
      "properties": {
        "_source": "Ruta14-EstanciaelRoble-Viaducto-Paraiso",
        "_segmentIndex": 0,
        "_position": 0
      },
      "geometry": {
        "type": "Point",
        "coordinates": [
          -73.352414,
          5.557395
        ]
      }
    },
    {
      "type": "Feature",
      "properties": {
        "_source": "Ruta14-EstanciaelRoble-Viaducto-Paraiso",
        "_segmentIndex": 0,
        "_position": 1
      },
      "geometry": {
        "type": "Point",
        "coordinates": [
          -73.35200966154171,
          5.557194686136027
        ]
      }
    },
    {
      "type": "Feature",
      "properties": {
        "_source": "Ruta14-EstanciaelRoble-Viaducto-Paraiso",
        "_segmentIndex": 0,
        "_position": 2
      },
      "geometry": {
        "type": "Point",
        "coordinates": [
          -73.3515980775715,
          5.557009296564943
        ]
      }
    },
    {
      "type": "Feature",
      "properties": {
        "_source": "Ruta14-EstanciaelRoble-Viaducto-Paraiso",
        "_segmentIndex": 0,
        "_position": 3
      },
      "geometry": {
        "type": "Point",
        "coordinates": [
          -73.3511898661512,
          5.556816673323885
        ]
      }
    },
    {
      "type": "Feature",
      "properties": {
        "_source": "Ruta14-EstanciaelRoble-Viaducto-Paraiso",
        "_segmentIndex": 0,
        "_position": 4
      },
      "geometry": {
        "type": "Point",
        "coordinates": [
          -73.35078429137536,
          5.556618570074116
        ]
      }
    },
    {
      "type": "Feature",
      "properties": {
        "_source": "Ruta14-EstanciaelRoble-Viaducto-Paraiso",
        "_segmentIndex": 0,
        "_position": 0
      },
      "geometry": {
        "type": "Point",
        "coordinates": [
          -73.350511,
          5.556485
        ]
      }
    },
    {
      "type": "Feature",
      "properties": {
        "_source": "Ruta14-EstanciaelRoble-Viaducto-Paraiso",
        "_segmentIndex": 0,
        "_position": 1
      },
      "geometry": {
        "type": "Point",
        "coordinates": [
          -73.3502097985311,
          5.556751822549221
        ]
      }
    },
    {
      "type": "Feature",
      "properties": {
        "_source": "Ruta14-EstanciaelRoble-Viaducto-Paraiso",
        "_segmentIndex": 0,
        "_position": 2
      },
      "geometry": {
        "type": "Point",
        "coordinates": [
          -73.35002474942888,
          5.5571620325066124
        ]
      }
    },
    {
      "type": "Feature",
      "properties": {
        "_source": "Ruta14-EstanciaelRoble-Viaducto-Paraiso",
        "_segmentIndex": 0,
        "_position": 0
      },
      "geometry": {
        "type": "Point",
        "coordinates": [
          -73.349958,
          5.55731
        ]
      }
    },
    {
      "type": "Feature",
      "properties": {
        "_source": "Ruta14-EstanciaelRoble-Viaducto-Paraiso",
        "_segmentIndex": 0,
        "_position": 1
      },
      "geometry": {
        "type": "Point",
        "coordinates": [
          -73.34960135578945,
          5.5570364209753915
        ]
      }
    },
    {
      "type": "Feature",
      "properties": {
        "_source": "Ruta14-EstanciaelRoble-Viaducto-Paraiso",
        "_segmentIndex": 0,
        "_position": 2
      },
      "geometry": {
        "type": "Point",
        "coordinates": [
          -73.34926255098839,
          5.556738961836159
        ]
      }
    },
    {
      "type": "Feature",
      "properties": {
        "_source": "Ruta14-EstanciaelRoble-Viaducto-Paraiso",
        "_segmentIndex": 0,
        "_position": 3
      },
      "geometry": {
        "type": "Point",
        "coordinates": [
          -73.34892087409638,
          5.556444792864089
        ]
      }
    },
    {
      "type": "Feature",
      "properties": {
        "_source": "Ruta14-EstanciaelRoble-Viaducto-Paraiso",
        "_segmentIndex": 0,
        "_position": 4
      },
      "geometry": {
        "type": "Point",
        "coordinates": [
          -73.34857763131225,
          5.556152417808284
        ]
      }
    },
    {
      "type": "Feature",
      "properties": {
        "_source": "Ruta14-EstanciaelRoble-Viaducto-Paraiso",
        "_segmentIndex": 0,
        "_position": 5
      },
      "geometry": {
        "type": "Point",
        "coordinates": [
          -73.34852804871494,
          5.555835176246944
        ]
      }
    },
    {
      "type": "Feature",
      "properties": {
        "_source": "Ruta14-EstanciaelRoble-Viaducto-Paraiso",
        "_segmentIndex": 0,
        "_position": 6
      },
      "geometry": {
        "type": "Point",
        "coordinates": [
          -73.34882467272882,
          5.555496010889931
        ]
      }
    },
    {
      "type": "Feature",
      "properties": {
        "_source": "Ruta14-EstanciaelRoble-Viaducto-Paraiso",
        "_segmentIndex": 0,
        "_position": 0
      },
      "geometry": {
        "type": "Point",
        "coordinates": [
          -73.348941,
          5.555363
        ]
      }
    },
    {
      "type": "Feature",
      "properties": {
        "_source": "Ruta14-EstanciaelRoble-Viaducto-Paraiso",
        "_segmentIndex": 0,
        "_position": 1
      },
      "geometry": {
        "type": "Point",
        "coordinates": [
          -73.34922596151506,
          5.555014384658997
        ]
      }
    },
    {
      "type": "Feature",
      "properties": {
        "_source": "Ruta14-EstanciaelRoble-Viaducto-Paraiso",
        "_segmentIndex": 0,
        "_position": 2
      },
      "geometry": {
        "type": "Point",
        "coordinates": [
          -73.34956916694591,
          5.554723380121896
        ]
      }
    },
    {
      "type": "Feature",
      "properties": {
        "_source": "Ruta14-EstanciaelRoble-Viaducto-Paraiso",
        "_segmentIndex": 0,
        "_position": 3
      },
      "geometry": {
        "type": "Point",
        "coordinates": [
          -73.34963349033292,
          5.5543009930737535
        ]
      }
    },
    {
      "type": "Feature",
      "properties": {
        "_source": "Ruta14-EstanciaelRoble-Viaducto-Paraiso",
        "_segmentIndex": 0,
        "_position": 4
      },
      "geometry": {
        "type": "Point",
        "coordinates": [
          -73.34962502878906,
          5.553851414910852
        ]
      }
    },
    {
      "type": "Feature",
      "properties": {
        "_source": "Ruta14-EstanciaelRoble-Viaducto-Paraiso",
        "_segmentIndex": 0,
        "_position": 5
      },
      "geometry": {
        "type": "Point",
        "coordinates": [
          -73.34966919845428,
          5.553404508764127
        ]
      }
    },
    {
      "type": "Feature",
      "properties": {
        "_source": "Ruta14-EstanciaelRoble-Viaducto-Paraiso",
        "_segmentIndex": 0,
        "_position": 0
      },
      "geometry": {
        "type": "Point",
        "coordinates": [
          -73.349742,
          5.553055
        ]
      }
    },
    {
      "type": "Feature",
      "properties": {
        "_source": "Ruta14-EstanciaelRoble-Viaducto-Paraiso",
        "_segmentIndex": 0,
        "_position": 1
      },
      "geometry": {
        "type": "Point",
        "coordinates": [
          -73.34939566633052,
          5.552766260694669
        ]
      }
    },
    {
      "type": "Feature",
      "properties": {
        "_source": "Ruta14-EstanciaelRoble-Viaducto-Paraiso",
        "_segmentIndex": 0,
        "_position": 2
      },
      "geometry": {
        "type": "Point",
        "coordinates": [
          -73.34898159630878,
          5.552625876555424
        ]
      }
    },
    {
      "type": "Feature",
      "properties": {
        "_source": "Ruta14-EstanciaelRoble-Viaducto-Paraiso",
        "_segmentIndex": 0,
        "_position": 3
      },
      "geometry": {
        "type": "Point",
        "coordinates": [
          -73.34854597074812,
          5.55250897007547
        ]
      }
    },
    {
      "type": "Feature",
      "properties": {
        "_source": "Ruta14-EstanciaelRoble-Viaducto-Paraiso",
        "_segmentIndex": 0,
        "_position": 4
      },
      "geometry": {
        "type": "Point",
        "coordinates": [
          -73.3481139812402,
          5.552377340251088
        ]
      }
    },
    {
      "type": "Feature",
      "properties": {
        "_source": "Ruta14-EstanciaelRoble-Viaducto-Paraiso",
        "_segmentIndex": 0,
        "_position": 5
      },
      "geometry": {
        "type": "Point",
        "coordinates": [
          -73.34768311651426,
          5.552242127112666
        ]
      }
    },
    {
      "type": "Feature",
      "properties": {
        "_source": "Ruta14-EstanciaelRoble-Viaducto-Paraiso",
        "_segmentIndex": 0,
        "_position": 0
      },
      "geometry": {
        "type": "Point",
        "coordinates": [
          -73.347276,
          5.552113
        ]
      }
    },
    {
      "type": "Feature",
      "properties": {
        "_source": "Ruta14-EstanciaelRoble-Viaducto-Paraiso",
        "_segmentIndex": 0,
        "_position": 1
      },
      "geometry": {
        "type": "Point",
        "coordinates": [
          -73.34710859914468,
          5.55252153766453
        ]
      }
    },
    {
      "type": "Feature",
      "properties": {
        "_source": "Ruta14-EstanciaelRoble-Viaducto-Paraiso",
        "_segmentIndex": 0,
        "_position": 2
      },
      "geometry": {
        "type": "Point",
        "coordinates": [
          -73.3469736224336,
          5.552950652424125
        ]
      }
    },
    {
      "type": "Feature",
      "properties": {
        "_source": "Ruta14-EstanciaelRoble-Viaducto-Paraiso",
        "_segmentIndex": 0,
        "_position": 3
      },
      "geometry": {
        "type": "Point",
        "coordinates": [
          -73.34683557526904,
          5.553378806269437
        ]
      }
    },
    {
      "type": "Feature",
      "properties": {
        "_source": "Ruta14-EstanciaelRoble-Viaducto-Paraiso",
        "_segmentIndex": 0,
        "_position": 4
      },
      "geometry": {
        "type": "Point",
        "coordinates": [
          -73.34669965382676,
          5.553807626806229
        ]
      }
    },
    {
      "type": "Feature",
      "properties": {
        "_source": "Ruta14-EstanciaelRoble-Viaducto-Paraiso",
        "_segmentIndex": 0,
        "_position": 5
      },
      "geometry": {
        "type": "Point",
        "coordinates": [
          -73.34656495346755,
          5.554236835197219
        ]
      }
    },
    {
      "type": "Feature",
      "properties": {
        "_source": "Ruta14-EstanciaelRoble-Viaducto-Paraiso",
        "_segmentIndex": 0,
        "_position": 6
      },
      "geometry": {
        "type": "Point",
        "coordinates": [
          -73.34643120285956,
          5.554666334291472
        ]
      }
    },
    {
      "type": "Feature",
      "properties": {
        "_source": "Ruta14-EstanciaelRoble-Viaducto-Paraiso",
        "_segmentIndex": 0,
        "_position": 7
      },
      "geometry": {
        "type": "Point",
        "coordinates": [
          -73.34628736180288,
          5.555090647551206
        ]
      }
    },
    {
      "type": "Feature",
      "properties": {
        "_source": "Ruta14-EstanciaelRoble-Viaducto-Paraiso",
        "_segmentIndex": 0,
        "_position": 0
      },
      "geometry": {
        "type": "Point",
        "coordinates": [
          -73.346271,
          5.555115
        ]
      }
    },
    {
      "type": "Feature",
      "properties": {
        "_source": "Ruta14-EstanciaelRoble-Viaducto-Paraiso",
        "_segmentIndex": 0,
        "_position": 1
      },
      "geometry": {
        "type": "Point",
        "coordinates": [
          -73.34589624894414,
          5.554864913525509
        ]
      }
    },
    {
      "type": "Feature",
      "properties": {
        "_source": "Ruta14-EstanciaelRoble-Viaducto-Paraiso",
        "_segmentIndex": 0,
        "_position": 0
      },
      "geometry": {
        "type": "Point",
        "coordinates": [
          -73.345724,
          5.554787
        ]
      }
    },
    {
      "type": "Feature",
      "properties": {
        "_source": "Ruta14-EstanciaelRoble-Viaducto-Paraiso",
        "_segmentIndex": 0,
        "_position": 1
      },
      "geometry": {
        "type": "Point",
        "coordinates": [
          -73.34574352329037,
          5.554341004349833
        ]
      }
    },
    {
      "type": "Feature",
      "properties": {
        "_source": "Ruta14-EstanciaelRoble-Viaducto-Paraiso",
        "_segmentIndex": 0,
        "_position": 2
      },
      "geometry": {
        "type": "Point",
        "coordinates": [
          -73.34578447388576,
          5.553893195203206
        ]
      }
    },
    {
      "type": "Feature",
      "properties": {
        "_source": "Ruta14-EstanciaelRoble-Viaducto-Paraiso",
        "_segmentIndex": 0,
        "_position": 3
      },
      "geometry": {
        "type": "Point",
        "coordinates": [
          -73.34582541087737,
          5.553445384821722
        ]
      }
    },
    {
      "type": "Feature",
      "properties": {
        "_source": "Ruta14-EstanciaelRoble-Viaducto-Paraiso",
        "_segmentIndex": 0,
        "_position": 4
      },
      "geometry": {
        "type": "Point",
        "coordinates": [
          -73.34586634780676,
          5.552997574437422
        ]
      }
    },
    {
      "type": "Feature",
      "properties": {
        "_source": "Ruta14-EstanciaelRoble-Viaducto-Paraiso",
        "_segmentIndex": 0,
        "_position": 5
      },
      "geometry": {
        "type": "Point",
        "coordinates": [
          -73.34590728467396,
          5.552549764050305
        ]
      }
    },
    {
      "type": "Feature",
      "properties": {
        "_source": "Ruta14-EstanciaelRoble-Viaducto-Paraiso",
        "_segmentIndex": 0,
        "_position": 6
      },
      "geometry": {
        "type": "Point",
        "coordinates": [
          -73.34594696661077,
          5.552101841852383
        ]
      }
    },
    {
      "type": "Feature",
      "properties": {
        "_source": "Ruta14-EstanciaelRoble-Viaducto-Paraiso",
        "_segmentIndex": 0,
        "_position": 7
      },
      "geometry": {
        "type": "Point",
        "coordinates": [
          -73.34599521441635,
          5.551654822787706
        ]
      }
    },
    {
      "type": "Feature",
      "properties": {
        "_source": "Ruta14-EstanciaelRoble-Viaducto-Paraiso",
        "_segmentIndex": 0,
        "_position": 0
      },
      "geometry": {
        "type": "Point",
        "coordinates": [
          -73.346027,
          5.551399
        ]
      }
    },
    {
      "type": "Feature",
      "properties": {
        "_source": "Ruta14-EstanciaelRoble-Viaducto-Paraiso",
        "_segmentIndex": 0,
        "_position": 1
      },
      "geometry": {
        "type": "Point",
        "coordinates": [
          -73.34606713185018,
          5.550951402692979
        ]
      }
    },
    {
      "type": "Feature",
      "properties": {
        "_source": "Ruta14-EstanciaelRoble-Viaducto-Paraiso",
        "_segmentIndex": 0,
        "_position": 2
      },
      "geometry": {
        "type": "Point",
        "coordinates": [
          -73.3461350988951,
          5.550506996264951
        ]
      }
    },
    {
      "type": "Feature",
      "properties": {
        "_source": "Ruta14-EstanciaelRoble-Viaducto-Paraiso",
        "_segmentIndex": 0,
        "_position": 3
      },
      "geometry": {
        "type": "Point",
        "coordinates": [
          -73.3462259545354,
          5.550066642771235
        ]
      }
    },
    {
      "type": "Feature",
      "properties": {
        "_source": "Ruta14-EstanciaelRoble-Viaducto-Paraiso",
        "_segmentIndex": 0,
        "_position": 4
      },
      "geometry": {
        "type": "Point",
        "coordinates": [
          -73.34633111549977,
          5.549629334086568
        ]
      }
    },
    {
      "type": "Feature",
      "properties": {
        "_source": "Ruta14-EstanciaelRoble-Viaducto-Paraiso",
        "_segmentIndex": 0,
        "_position": 5
      },
      "geometry": {
        "type": "Point",
        "coordinates": [
          -73.34643790886864,
          5.549192419696058
        ]
      }
    },
    {
      "type": "Feature",
      "properties": {
        "_source": "Ruta14-EstanciaelRoble-Viaducto-Paraiso",
        "_segmentIndex": 0,
        "_position": 6
      },
      "geometry": {
        "type": "Point",
        "coordinates": [
          -73.34654582628592,
          5.548755776816284
        ]
      }
    },
    {
      "type": "Feature",
      "properties": {
        "_source": "Ruta14-EstanciaelRoble-Viaducto-Paraiso",
        "_segmentIndex": 0,
        "_position": 7
      },
      "geometry": {
        "type": "Point",
        "coordinates": [
          -73.34665672505643,
          5.5483198823631845
        ]
      }
    },
    {
      "type": "Feature",
      "properties": {
        "_source": "Ruta14-EstanciaelRoble-Viaducto-Paraiso",
        "_segmentIndex": 0,
        "_position": 8
      },
      "geometry": {
        "type": "Point",
        "coordinates": [
          -73.34676977027156,
          5.547884526750379
        ]
      }
    },
    {
      "type": "Feature",
      "properties": {
        "_source": "Ruta14-EstanciaelRoble-Viaducto-Paraiso",
        "_segmentIndex": 0,
        "_position": 9
      },
      "geometry": {
        "type": "Point",
        "coordinates": [
          -73.3469439789843,
          5.547472441705691
        ]
      }
    },
    {
      "type": "Feature",
      "properties": {
        "_source": "Ruta14-EstanciaelRoble-Viaducto-Paraiso",
        "_segmentIndex": 0,
        "_position": 10
      },
      "geometry": {
        "type": "Point",
        "coordinates": [
          -73.34718931769727,
          5.547095068895763
        ]
      }
    },
    {
      "type": "Feature",
      "properties": {
        "_source": "Ruta14-EstanciaelRoble-Viaducto-Paraiso",
        "_segmentIndex": 0,
        "_position": 11
      },
      "geometry": {
        "type": "Point",
        "coordinates": [
          -73.34746772834264,
          5.546740941778368
        ]
      }
    },
    {
      "type": "Feature",
      "properties": {
        "_source": "Ruta14-EstanciaelRoble-Viaducto-Paraiso",
        "_segmentIndex": 0,
        "_position": 12
      },
      "geometry": {
        "type": "Point",
        "coordinates": [
          -73.34774613865379,
          5.54638681453082
        ]
      }
    },
    {
      "type": "Feature",
      "properties": {
        "_source": "Ruta14-EstanciaelRoble-Viaducto-Paraiso",
        "_segmentIndex": 0,
        "_position": 13
      },
      "geometry": {
        "type": "Point",
        "coordinates": [
          -73.34802236680544,
          5.5460310880018175
        ]
      }
    },
    {
      "type": "Feature",
      "properties": {
        "_source": "Ruta14-EstanciaelRoble-Viaducto-Paraiso",
        "_segmentIndex": 0,
        "_position": 14
      },
      "geometry": {
        "type": "Point",
        "coordinates": [
          -73.34827949902076,
          5.545661365380428
        ]
      }
    },
    {
      "type": "Feature",
      "properties": {
        "_source": "Ruta14-EstanciaelRoble-Viaducto-Paraiso",
        "_segmentIndex": 0,
        "_position": 15
      },
      "geometry": {
        "type": "Point",
        "coordinates": [
          -73.34854023623241,
          5.545294159601094
        ]
      }
    },
    {
      "type": "Feature",
      "properties": {
        "_source": "Ruta14-EstanciaelRoble-Viaducto-Paraiso",
        "_segmentIndex": 0,
        "_position": 16
      },
      "geometry": {
        "type": "Point",
        "coordinates": [
          -73.3488019428295,
          5.544927630683478
        ]
      }
    },
    {
      "type": "Feature",
      "properties": {
        "_source": "Ruta14-EstanciaelRoble-Viaducto-Paraiso",
        "_segmentIndex": 0,
        "_position": 17
      },
      "geometry": {
        "type": "Point",
        "coordinates": [
          -73.34906364910152,
          5.5445611016508956
        ]
      }
    },
    {
      "type": "Feature",
      "properties": {
        "_source": "Ruta14-EstanciaelRoble-Viaducto-Paraiso",
        "_segmentIndex": 0,
        "_position": 18
      },
      "geometry": {
        "type": "Point",
        "coordinates": [
          -73.34929214256344,
          5.54417335279866
        ]
      }
    },
    {
      "type": "Feature",
      "properties": {
        "_source": "Ruta14-EstanciaelRoble-Viaducto-Paraiso",
        "_segmentIndex": 0,
        "_position": 19
      },
      "geometry": {
        "type": "Point",
        "coordinates": [
          -73.34951624825914,
          5.543782933612698
        ]
      }
    },
    {
      "type": "Feature",
      "properties": {
        "_source": "Ruta14-EstanciaelRoble-Viaducto-Paraiso",
        "_segmentIndex": 0,
        "_position": 20
      },
      "geometry": {
        "type": "Point",
        "coordinates": [
          -73.34973482835736,
          5.543389407395837
        ]
      }
    },
    {
      "type": "Feature",
      "properties": {
        "_source": "Ruta14-EstanciaelRoble-Viaducto-Paraiso",
        "_segmentIndex": 0,
        "_position": 21
      },
      "geometry": {
        "type": "Point",
        "coordinates": [
          -73.34995340816417,
          5.542995881098801
        ]
      }
    },
    {
      "type": "Feature",
      "properties": {
        "_source": "Ruta14-EstanciaelRoble-Viaducto-Paraiso",
        "_segmentIndex": 0,
        "_position": 22
      },
      "geometry": {
        "type": "Point",
        "coordinates": [
          -73.35016404196304,
          5.542599033776394
        ]
      }
    },
    {
      "type": "Feature",
      "properties": {
        "_source": "Ruta14-EstanciaelRoble-Viaducto-Paraiso",
        "_segmentIndex": 0,
        "_position": 23
      },
      "geometry": {
        "type": "Point",
        "coordinates": [
          -73.35041530018691,
          5.542225333060104
        ]
      }
    },
    {
      "type": "Feature",
      "properties": {
        "_source": "Ruta14-EstanciaelRoble-Viaducto-Paraiso",
        "_segmentIndex": 0,
        "_position": 0
      },
      "geometry": {
        "type": "Point",
        "coordinates": [
          -73.350427,
          5.542208
        ]
      }
    },
    {
      "type": "Feature",
      "properties": {
        "_source": "Ruta14-EstanciaelRoble-Viaducto-Paraiso",
        "_segmentIndex": 0,
        "_position": 1
      },
      "geometry": {
        "type": "Point",
        "coordinates": [
          -73.35062085088211,
          5.541812243542266
        ]
      }
    },
    {
      "type": "Feature",
      "properties": {
        "_source": "Ruta14-EstanciaelRoble-Viaducto-Paraiso",
        "_segmentIndex": 0,
        "_position": 2
      },
      "geometry": {
        "type": "Point",
        "coordinates": [
          -73.35074186659634,
          5.5413994951358285
        ]
      }
    },
    {
      "type": "Feature",
      "properties": {
        "_source": "Ruta14-EstanciaelRoble-Viaducto-Paraiso",
        "_segmentIndex": 0,
        "_position": 3
      },
      "geometry": {
        "type": "Point",
        "coordinates": [
          -73.35087957922607,
          5.5409712658133525
        ]
      }
    },
    {
      "type": "Feature",
      "properties": {
        "_source": "Ruta14-EstanciaelRoble-Viaducto-Paraiso",
        "_segmentIndex": 0,
        "_position": 4
      },
      "geometry": {
        "type": "Point",
        "coordinates": [
          -73.35101936146215,
          5.54054367095683
        ]
      }
    },
    {
      "type": "Feature",
      "properties": {
        "_source": "Ruta14-EstanciaelRoble-Viaducto-Paraiso",
        "_segmentIndex": 0,
        "_position": 5
      },
      "geometry": {
        "type": "Point",
        "coordinates": [
          -73.3511954648218,
          5.540132455620219
        ]
      }
    },
    {
      "type": "Feature",
      "properties": {
        "_source": "Ruta14-EstanciaelRoble-Viaducto-Paraiso",
        "_segmentIndex": 0,
        "_position": 6
      },
      "geometry": {
        "type": "Point",
        "coordinates": [
          -73.35145115021862,
          5.539761742058798
        ]
      }
    },
    {
      "type": "Feature",
      "properties": {
        "_source": "Ruta14-EstanciaelRoble-Viaducto-Paraiso",
        "_segmentIndex": 0,
        "_position": 7
      },
      "geometry": {
        "type": "Point",
        "coordinates": [
          -73.35168692502893,
          5.539378802194197
        ]
      }
    },
    {
      "type": "Feature",
      "properties": {
        "_source": "Ruta14-EstanciaelRoble-Viaducto-Paraiso",
        "_segmentIndex": 0,
        "_position": 8
      },
      "geometry": {
        "type": "Point",
        "coordinates": [
          -73.35190511270666,
          5.538985061191692
        ]
      }
    },
    {
      "type": "Feature",
      "properties": {
        "_source": "Ruta14-EstanciaelRoble-Viaducto-Paraiso",
        "_segmentIndex": 0,
        "_position": 9
      },
      "geometry": {
        "type": "Point",
        "coordinates": [
          -73.35213005848753,
          5.538595172245341
        ]
      }
    },
    {
      "type": "Feature",
      "properties": {
        "_source": "Ruta14-EstanciaelRoble-Viaducto-Paraiso",
        "_segmentIndex": 0,
        "_position": 10
      },
      "geometry": {
        "type": "Point",
        "coordinates": [
          -73.35237020793866,
          5.538215026851152
        ]
      }
    },
    {
      "type": "Feature",
      "properties": {
        "_source": "Ruta14-EstanciaelRoble-Viaducto-Paraiso",
        "_segmentIndex": 0,
        "_position": 11
      },
      "geometry": {
        "type": "Point",
        "coordinates": [
          -73.35264952095869,
          5.537861609735783
        ]
      }
    },
    {
      "type": "Feature",
      "properties": {
        "_source": "Ruta14-EstanciaelRoble-Viaducto-Paraiso",
        "_segmentIndex": 0,
        "_position": 12
      },
      "geometry": {
        "type": "Point",
        "coordinates": [
          -73.35290263409085,
          5.537489852390836
        ]
      }
    },
    {
      "type": "Feature",
      "properties": {
        "_source": "Ruta14-EstanciaelRoble-Viaducto-Paraiso",
        "_segmentIndex": 0,
        "_position": 13
      },
      "geometry": {
        "type": "Point",
        "coordinates": [
          -73.3531417331014,
          5.537108331436038
        ]
      }
    },
    {
      "type": "Feature",
      "properties": {
        "_source": "Ruta14-EstanciaelRoble-Viaducto-Paraiso",
        "_segmentIndex": 0,
        "_position": 14
      },
      "geometry": {
        "type": "Point",
        "coordinates": [
          -73.35337746866804,
          5.536724761005572
        ]
      }
    },
    {
      "type": "Feature",
      "properties": {
        "_source": "Ruta14-EstanciaelRoble-Viaducto-Paraiso",
        "_segmentIndex": 0,
        "_position": 15
      },
      "geometry": {
        "type": "Point",
        "coordinates": [
          -73.35361017621224,
          5.536339344972192
        ]
      }
    },
    {
      "type": "Feature",
      "properties": {
        "_source": "Ruta14-EstanciaelRoble-Viaducto-Paraiso",
        "_segmentIndex": 0,
        "_position": 16
      },
      "geometry": {
        "type": "Point",
        "coordinates": [
          -73.35384345043154,
          5.535954268505629
        ]
      }
    },
    {
      "type": "Feature",
      "properties": {
        "_source": "Ruta14-EstanciaelRoble-Viaducto-Paraiso",
        "_segmentIndex": 0,
        "_position": 17
      },
      "geometry": {
        "type": "Point",
        "coordinates": [
          -73.35409286768474,
          5.5355796176140935
        ]
      }
    },
    {
      "type": "Feature",
      "properties": {
        "_source": "Ruta14-EstanciaelRoble-Viaducto-Paraiso",
        "_segmentIndex": 0,
        "_position": 18
      },
      "geometry": {
        "type": "Point",
        "coordinates": [
          -73.35440623147063,
          5.535259666154381
        ]
      }
    },
    {
      "type": "Feature",
      "properties": {
        "_source": "Ruta14-EstanciaelRoble-Viaducto-Paraiso",
        "_segmentIndex": 0,
        "_position": 19
      },
      "geometry": {
        "type": "Point",
        "coordinates": [
          -73.35480843193876,
          5.535063811854669
        ]
      }
    },
    {
      "type": "Feature",
      "properties": {
        "_source": "Ruta14-EstanciaelRoble-Viaducto-Paraiso",
        "_segmentIndex": 0,
        "_position": 20
      },
      "geometry": {
        "type": "Point",
        "coordinates": [
          -73.35525681926342,
          5.535072913060971
        ]
      }
    },
    {
      "type": "Feature",
      "properties": {
        "_source": "Ruta14-EstanciaelRoble-Viaducto-Paraiso",
        "_segmentIndex": 0,
        "_position": 21
      },
      "geometry": {
        "type": "Point",
        "coordinates": [
          -73.35568646489894,
          5.5352082604372415
        ]
      }
    },
    {
      "type": "Feature",
      "properties": {
        "_source": "Ruta14-EstanciaelRoble-Viaducto-Paraiso",
        "_segmentIndex": 0,
        "_position": 22
      },
      "geometry": {
        "type": "Point",
        "coordinates": [
          -73.35611078095896,
          5.535362615038775
        ]
      }
    },
    {
      "type": "Feature",
      "properties": {
        "_source": "Ruta14-EstanciaelRoble-Viaducto-Paraiso",
        "_segmentIndex": 0,
        "_position": 0
      },
      "geometry": {
        "type": "Point",
        "coordinates": [
          -73.356377,
          5.535448
        ]
      }
    },
    {
      "type": "Feature",
      "properties": {
        "_source": "Ruta14-EstanciaelRoble-Viaducto-Paraiso",
        "_segmentIndex": 0,
        "_position": 1
      },
      "geometry": {
        "type": "Point",
        "coordinates": [
          -73.35628135360427,
          5.535887462505065
        ]
      }
    },
    {
      "type": "Feature",
      "properties": {
        "_source": "Ruta14-EstanciaelRoble-Viaducto-Paraiso",
        "_segmentIndex": 0,
        "_position": 0
      },
      "geometry": {
        "type": "Point",
        "coordinates": [
          -73.356186,
          5.53632
        ]
      }
    },
    {
      "type": "Feature",
      "properties": {
        "_source": "Ruta14-EstanciaelRoble-Viaducto-Paraiso",
        "_segmentIndex": 0,
        "_position": 1
      },
      "geometry": {
        "type": "Point",
        "coordinates": [
          -73.35661789389137,
          5.536451902178372
        ]
      }
    },
    {
      "type": "Feature",
      "properties": {
        "_source": "Ruta14-EstanciaelRoble-Viaducto-Paraiso",
        "_segmentIndex": 0,
        "_position": 2
      },
      "geometry": {
        "type": "Point",
        "coordinates": [
          -73.35704978797548,
          5.53658380404411
        ]
      }
    },
    {
      "type": "Feature",
      "properties": {
        "_source": "Ruta14-EstanciaelRoble-Viaducto-Paraiso",
        "_segmentIndex": 0,
        "_position": 3
      },
      "geometry": {
        "type": "Point",
        "coordinates": [
          -73.35748154809562,
          5.536716123891308
        ]
      }
    },
    {
      "type": "Feature",
      "properties": {
        "_source": "Ruta14-EstanciaelRoble-Viaducto-Paraiso",
        "_segmentIndex": 0,
        "_position": 4
      },
      "geometry": {
        "type": "Point",
        "coordinates": [
          -73.35791034115093,
          5.536857695213679
        ]
      }
    },
    {
      "type": "Feature",
      "properties": {
        "_source": "Ruta14-EstanciaelRoble-Viaducto-Paraiso",
        "_segmentIndex": 0,
        "_position": 5
      },
      "geometry": {
        "type": "Point",
        "coordinates": [
          -73.35833913441165,
          5.536999266227868
        ]
      }
    },
    {
      "type": "Feature",
      "properties": {
        "_source": "Ruta14-EstanciaelRoble-Viaducto-Paraiso",
        "_segmentIndex": 0,
        "_position": 6
      },
      "geometry": {
        "type": "Point",
        "coordinates": [
          -73.35876820048482,
          5.537140014466774
        ]
      }
    },
    {
      "type": "Feature",
      "properties": {
        "_source": "Ruta14-EstanciaelRoble-Viaducto-Paraiso",
        "_segmentIndex": 0,
        "_position": 7
      },
      "geometry": {
        "type": "Point",
        "coordinates": [
          -73.35919745449087,
          5.537280196010827
        ]
      }
    },
    {
      "type": "Feature",
      "properties": {
        "_source": "Ruta14-EstanciaelRoble-Viaducto-Paraiso",
        "_segmentIndex": 0,
        "_position": 0
      },
      "geometry": {
        "type": "Point",
        "coordinates": [
          -73.359549,
          5.537395
        ]
      }
    },
    {
      "type": "Feature",
      "properties": {
        "_source": "Ruta14-EstanciaelRoble-Viaducto-Paraiso",
        "_segmentIndex": 0,
        "_position": 1
      },
      "geometry": {
        "type": "Point",
        "coordinates": [
          -73.35968818858062,
          5.536967240102776
        ]
      }
    },
    {
      "type": "Feature",
      "properties": {
        "_source": "Ruta14-EstanciaelRoble-Viaducto-Paraiso",
        "_segmentIndex": 0,
        "_position": 2
      },
      "geometry": {
        "type": "Point",
        "coordinates": [
          -73.35980372264906,
          5.536532532823697
        ]
      }
    },
    {
      "type": "Feature",
      "properties": {
        "_source": "Ruta14-EstanciaelRoble-Viaducto-Paraiso",
        "_segmentIndex": 0,
        "_position": 3
      },
      "geometry": {
        "type": "Point",
        "coordinates": [
          -73.35992581403664,
          5.536099647240682
        ]
      }
    },
    {
      "type": "Feature",
      "properties": {
        "_source": "Ruta14-EstanciaelRoble-Viaducto-Paraiso",
        "_segmentIndex": 0,
        "_position": 4
      },
      "geometry": {
        "type": "Point",
        "coordinates": [
          -73.3600553360765,
          5.5356688637191835
        ]
      }
    },
    {
      "type": "Feature",
      "properties": {
        "_source": "Ruta14-EstanciaelRoble-Viaducto-Paraiso",
        "_segmentIndex": 0,
        "_position": 5
      },
      "geometry": {
        "type": "Point",
        "coordinates": [
          -73.36018485792759,
          5.535238080169573
        ]
      }
    },
    {
      "type": "Feature",
      "properties": {
        "_source": "Ruta14-EstanciaelRoble-Viaducto-Paraiso",
        "_segmentIndex": 0,
        "_position": 6
      },
      "geometry": {
        "type": "Point",
        "coordinates": [
          -73.3603113369206,
          5.534806406445752
        ]
      }
    },
    {
      "type": "Feature",
      "properties": {
        "_source": "Ruta14-EstanciaelRoble-Viaducto-Paraiso",
        "_segmentIndex": 0,
        "_position": 7
      },
      "geometry": {
        "type": "Point",
        "coordinates": [
          -73.36042954857518,
          5.5343724130479
        ]
      }
    },
    {
      "type": "Feature",
      "properties": {
        "_source": "Ruta14-EstanciaelRoble-Viaducto-Paraiso",
        "_segmentIndex": 0,
        "_position": 8
      },
      "geometry": {
        "type": "Point",
        "coordinates": [
          -73.36054776005624,
          5.533938419626635
        ]
      }
    },
    {
      "type": "Feature",
      "properties": {
        "_source": "Ruta14-EstanciaelRoble-Viaducto-Paraiso",
        "_segmentIndex": 0,
        "_position": 0
      },
      "geometry": {
        "type": "Point",
        "coordinates": [
          -73.360592,
          5.533776
        ]
      }
    },
    {
      "type": "Feature",
      "properties": {
        "_source": "Ruta14-EstanciaelRoble-Viaducto-Paraiso",
        "_segmentIndex": 0,
        "_position": 1
      },
      "geometry": {
        "type": "Point",
        "coordinates": [
          -73.36101813140559,
          5.533925299295124
        ]
      }
    },
    {
      "type": "Feature",
      "properties": {
        "_source": "Ruta14-EstanciaelRoble-Viaducto-Paraiso",
        "_segmentIndex": 0,
        "_position": 2
      },
      "geometry": {
        "type": "Point",
        "coordinates": [
          -73.36144316202416,
          5.534077691239365
        ]
      }
    },
    {
      "type": "Feature",
      "properties": {
        "_source": "Ruta14-EstanciaelRoble-Viaducto-Paraiso",
        "_segmentIndex": 0,
        "_position": 3
      },
      "geometry": {
        "type": "Point",
        "coordinates": [
          -73.36187204951607,
          5.534218663179232
        ]
      }
    },
    {
      "type": "Feature",
      "properties": {
        "_source": "Ruta14-EstanciaelRoble-Viaducto-Paraiso",
        "_segmentIndex": 0,
        "_position": 4
      },
      "geometry": {
        "type": "Point",
        "coordinates": [
          -73.36230326170477,
          5.534352751884615
        ]
      }
    },
    {
      "type": "Feature",
      "properties": {
        "_source": "Ruta14-EstanciaelRoble-Viaducto-Paraiso",
        "_segmentIndex": 0,
        "_position": 5
      },
      "geometry": {
        "type": "Point",
        "coordinates": [
          -73.362734741006,
          5.534485978859282
        ]
      }
    },
    {
      "type": "Feature",
      "properties": {
        "_source": "Ruta14-EstanciaelRoble-Viaducto-Paraiso",
        "_segmentIndex": 0,
        "_position": 6
      },
      "geometry": {
        "type": "Point",
        "coordinates": [
          -73.36316692508598,
          5.534616931616464
        ]
      }
    },
    {
      "type": "Feature",
      "properties": {
        "_source": "Ruta14-EstanciaelRoble-Viaducto-Paraiso",
        "_segmentIndex": 0,
        "_position": 7
      },
      "geometry": {
        "type": "Point",
        "coordinates": [
          -73.3635991093574,
          5.534747884060694
        ]
      }
    },
    {
      "type": "Feature",
      "properties": {
        "_source": "Ruta14-EstanciaelRoble-Viaducto-Paraiso",
        "_segmentIndex": 0,
        "_position": 8
      },
      "geometry": {
        "type": "Point",
        "coordinates": [
          -73.3640294538179,
          5.534884675385391
        ]
      }
    },
    {
      "type": "Feature",
      "properties": {
        "_source": "Ruta14-EstanciaelRoble-Viaducto-Paraiso",
        "_segmentIndex": 0,
        "_position": 9
      },
      "geometry": {
        "type": "Point",
        "coordinates": [
          -73.36445936182885,
          5.535022852094812
        ]
      }
    },
    {
      "type": "Feature",
      "properties": {
        "_source": "Ruta14-EstanciaelRoble-Viaducto-Paraiso",
        "_segmentIndex": 0,
        "_position": 10
      },
      "geometry": {
        "type": "Point",
        "coordinates": [
          -73.36488927004073,
          5.535161028494549
        ]
      }
    },
    {
      "type": "Feature",
      "properties": {
        "_source": "Ruta14-EstanciaelRoble-Viaducto-Paraiso",
        "_segmentIndex": 0,
        "_position": 11
      },
      "geometry": {
        "type": "Point",
        "coordinates": [
          -73.36531917845356,
          5.535299204584595
        ]
      }
    },
    {
      "type": "Feature",
      "properties": {
        "_source": "Ruta14-EstanciaelRoble-Viaducto-Paraiso",
        "_segmentIndex": 0,
        "_position": 0
      },
      "geometry": {
        "type": "Point",
        "coordinates": [
          -73.365527,
          5.535366
        ]
      }
    },
    {
      "type": "Feature",
      "properties": {
        "_source": "Ruta14-EstanciaelRoble-Viaducto-Paraiso",
        "_segmentIndex": 0,
        "_position": 1
      },
      "geometry": {
        "type": "Point",
        "coordinates": [
          -73.36572986530734,
          5.534968699538619
        ]
      }
    },
    {
      "type": "Feature",
      "properties": {
        "_source": "Ruta14-EstanciaelRoble-Viaducto-Paraiso",
        "_segmentIndex": 0,
        "_position": 2
      },
      "geometry": {
        "type": "Point",
        "coordinates": [
          -73.36589863316561,
          5.534551594456787
        ]
      }
    },
    {
      "type": "Feature",
      "properties": {
        "_source": "Ruta14-EstanciaelRoble-Viaducto-Paraiso",
        "_segmentIndex": 0,
        "_position": 3
      },
      "geometry": {
        "type": "Point",
        "coordinates": [
          -73.3660727727482,
          5.534136698011773
        ]
      }
    },
    {
      "type": "Feature",
      "properties": {
        "_source": "Ruta14-EstanciaelRoble-Viaducto-Paraiso",
        "_segmentIndex": 0,
        "_position": 4
      },
      "geometry": {
        "type": "Point",
        "coordinates": [
          -73.36626556704381,
          5.533730198286765
        ]
      }
    },
    {
      "type": "Feature",
      "properties": {
        "_source": "Ruta14-EstanciaelRoble-Viaducto-Paraiso",
        "_segmentIndex": 0,
        "_position": 0
      },
      "geometry": {
        "type": "Point",
        "coordinates": [
          -73.366396,
          5.533466
        ]
      }
    },
    {
      "type": "Feature",
      "properties": {
        "_source": "Ruta14-EstanciaelRoble-Viaducto-Paraiso",
        "_segmentIndex": 0,
        "_position": 1
      },
      "geometry": {
        "type": "Point",
        "coordinates": [
          -73.36682613331512,
          5.533603434582854
        ]
      }
    },
    {
      "type": "Feature",
      "properties": {
        "_source": "Ruta14-EstanciaelRoble-Viaducto-Paraiso",
        "_segmentIndex": 0,
        "_position": 2
      },
      "geometry": {
        "type": "Point",
        "coordinates": [
          -73.36725444731852,
          5.53374642864707
        ]
      }
    },
    {
      "type": "Feature",
      "properties": {
        "_source": "Ruta14-EstanciaelRoble-Viaducto-Paraiso",
        "_segmentIndex": 0,
        "_position": 0
      },
      "geometry": {
        "type": "Point",
        "coordinates": [
          -73.367358,
          5.533781
        ]
      }
    },
    {
      "type": "Feature",
      "properties": {
        "_source": "Ruta14-EstanciaelRoble-Viaducto-Paraiso",
        "_segmentIndex": 0,
        "_position": 1
      },
      "geometry": {
        "type": "Point",
        "coordinates": [
          -73.36759151941071,
          5.533416033169211
        ]
      }
    },
    {
      "type": "Feature",
      "properties": {
        "_source": "Ruta14-EstanciaelRoble-Viaducto-Paraiso",
        "_segmentIndex": 0,
        "_position": 2
      },
      "geometry": {
        "type": "Point",
        "coordinates": [
          -73.36778551017953,
          5.533010020570412
        ]
      }
    },
    {
      "type": "Feature",
      "properties": {
        "_source": "Ruta14-EstanciaelRoble-Viaducto-Paraiso",
        "_segmentIndex": 0,
        "_position": 3
      },
      "geometry": {
        "type": "Point",
        "coordinates": [
          -73.3679855128206,
          5.532606864213961
        ]
      }
    },
    {
      "type": "Feature",
      "properties": {
        "_source": "Ruta14-EstanciaelRoble-Viaducto-Paraiso",
        "_segmentIndex": 0,
        "_position": 4
      },
      "geometry": {
        "type": "Point",
        "coordinates": [
          -73.36817069635283,
          5.5321968041056016
        ]
      }
    },
    {
      "type": "Feature",
      "properties": {
        "_source": "Ruta14-EstanciaelRoble-Viaducto-Paraiso",
        "_segmentIndex": 0,
        "_position": 5
      },
      "geometry": {
        "type": "Point",
        "coordinates": [
          -73.36833768924286,
          5.531779037273483
        ]
      }
    },
    {
      "type": "Feature",
      "properties": {
        "_source": "Ruta14-EstanciaelRoble-Viaducto-Paraiso",
        "_segmentIndex": 0,
        "_position": 0
      },
      "geometry": {
        "type": "Point",
        "coordinates": [
          -73.36845,
          5.531463
        ]
      }
    },
    {
      "type": "Feature",
      "properties": {
        "_source": "Ruta14-EstanciaelRoble-Viaducto-Paraiso",
        "_segmentIndex": 0,
        "_position": 1
      },
      "geometry": {
        "type": "Point",
        "coordinates": [
          -73.368512,
          5.5310245845058965
        ]
      }
    },
    {
      "type": "Feature",
      "properties": {
        "_source": "Ruta14-EstanciaelRoble-Viaducto-Paraiso",
        "_segmentIndex": 0,
        "_position": 2
      },
      "geometry": {
        "type": "Point",
        "coordinates": [
          -73.36858145320564,
          5.530581874928717
        ]
      }
    },
    {
      "type": "Feature",
      "properties": {
        "_source": "Ruta14-EstanciaelRoble-Viaducto-Paraiso",
        "_segmentIndex": 0,
        "_position": 3
      },
      "geometry": {
        "type": "Point",
        "coordinates": [
          -73.36865988574061,
          5.530139043412258
        ]
      }
    },
    {
      "type": "Feature",
      "properties": {
        "_source": "Ruta14-EstanciaelRoble-Viaducto-Paraiso",
        "_segmentIndex": 0,
        "_position": 4
      },
      "geometry": {
        "type": "Point",
        "coordinates": [
          -73.36874242645385,
          5.529696956193829
        ]
      }
    },
    {
      "type": "Feature",
      "properties": {
        "_source": "Ruta14-EstanciaelRoble-Viaducto-Paraiso",
        "_segmentIndex": 0,
        "_position": 5
      },
      "geometry": {
        "type": "Point",
        "coordinates": [
          -73.36881931422843,
          5.529253907448287
        ]
      }
    },
    {
      "type": "Feature",
      "properties": {
        "_source": "Ruta14-EstanciaelRoble-Viaducto-Paraiso",
        "_segmentIndex": 0,
        "_position": 6
      },
      "geometry": {
        "type": "Point",
        "coordinates": [
          -73.36889162917761,
          5.528810051426172
        ]
      }
    },
    {
      "type": "Feature",
      "properties": {
        "_source": "Ruta14-EstanciaelRoble-Viaducto-Paraiso",
        "_segmentIndex": 0,
        "_position": 7
      },
      "geometry": {
        "type": "Point",
        "coordinates": [
          -73.36896504545618,
          5.528367121762574
        ]
      }
    },
    {
      "type": "Feature",
      "properties": {
        "_source": "Ruta14-EstanciaelRoble-Viaducto-Paraiso",
        "_segmentIndex": 0,
        "_position": 8
      },
      "geometry": {
        "type": "Point",
        "coordinates": [
          -73.36904739469875,
          5.527925039244297
        ]
      }
    },
    {
      "type": "Feature",
      "properties": {
        "_source": "Ruta14-EstanciaelRoble-Viaducto-Paraiso",
        "_segmentIndex": 0,
        "_position": 9
      },
      "geometry": {
        "type": "Point",
        "coordinates": [
          -73.36912758909482,
          5.52748252053069
        ]
      }
    },
    {
      "type": "Feature",
      "properties": {
        "_source": "Ruta14-EstanciaelRoble-Viaducto-Paraiso",
        "_segmentIndex": 0,
        "_position": 10
      },
      "geometry": {
        "type": "Point",
        "coordinates": [
          -73.36920705770997,
          5.527039899721308
        ]
      }
    },
    {
      "type": "Feature",
      "properties": {
        "_source": "Ruta14-EstanciaelRoble-Viaducto-Paraiso",
        "_segmentIndex": 0,
        "_position": 11
      },
      "geometry": {
        "type": "Point",
        "coordinates": [
          -73.36934647512764,
          5.526612511974623
        ]
      }
    },
    {
      "type": "Feature",
      "properties": {
        "_source": "Ruta14-EstanciaelRoble-Viaducto-Paraiso",
        "_segmentIndex": 0,
        "_position": 12
      },
      "geometry": {
        "type": "Point",
        "coordinates": [
          -73.36949468769384,
          5.526187741061946
        ]
      }
    },
    {
      "type": "Feature",
      "properties": {
        "_source": "Ruta14-EstanciaelRoble-Viaducto-Paraiso",
        "_segmentIndex": 0,
        "_position": 13
      },
      "geometry": {
        "type": "Point",
        "coordinates": [
          -73.36964315780617,
          5.525763058456195
        ]
      }
    },
    {
      "type": "Feature",
      "properties": {
        "_source": "Ruta14-EstanciaelRoble-Viaducto-Paraiso",
        "_segmentIndex": 0,
        "_position": 14
      },
      "geometry": {
        "type": "Point",
        "coordinates": [
          -73.3697907399808,
          5.525338069577225
        ]
      }
    },
    {
      "type": "Feature",
      "properties": {
        "_source": "Ruta14-EstanciaelRoble-Viaducto-Paraiso",
        "_segmentIndex": 0,
        "_position": 15
      },
      "geometry": {
        "type": "Point",
        "coordinates": [
          -73.36993814356128,
          5.524913019125681
        ]
      }
    },
    {
      "type": "Feature",
      "properties": {
        "_source": "Ruta14-EstanciaelRoble-Viaducto-Paraiso",
        "_segmentIndex": 0,
        "_position": 16
      },
      "geometry": {
        "type": "Point",
        "coordinates": [
          -73.37007201038055,
          5.5244856366943935
        ]
      }
    }
  ]
}