{
  "type": "FeatureCollection",
  "features": [
    {
      "type": "Feature",
      "properties": {
        "_source": "Ruta10-Triunfo-AvenidaNorte-Muiscas",
        "_segmentIndex": 0,
        "_position": 0
      },
      "geometry": {
        "type": "Point",
        "coordinates": [
          -73.374455,
          5.511871
        ]
      }
    },
    {
      "type": "Feature",
      "properties": {
        "_source": "Ruta10-Triunfo-AvenidaNorte-Muiscas",
        "_segmentIndex": 0,
        "_position": 1
      },
      "geometry": {
        "type": "Point",
        "coordinates": [
          -73.3743699137089,
          5.512312439984507
        ]
      }
    },
    {
      "type": "Feature",
      "properties": {
        "_source": "Ruta10-Triunfo-AvenidaNorte-Muiscas",
        "_segmentIndex": 0,
        "_position": 2
      },
      "geometry": {
        "type": "Point",
        "coordinates": [
          -73.37419779883534,
          5.512611402690715
        ]
      }
    },
    {
      "type": "Feature",
      "properties": {
        "_source": "Ruta10-Triunfo-AvenidaNorte-Muiscas",
        "_segmentIndex": 0,
        "_position": 3
      },
      "geometry": {
        "type": "Point",
        "coordinates": [
          -73.37374873085308,
          5.512562481947042
        ]
      }
    },
    {
      "type": "Feature",
      "properties": {
        "_source": "Ruta10-Triunfo-AvenidaNorte-Muiscas",
        "_segmentIndex": 0,
        "_position": 0
      },
      "geometry": {
        "type": "Point",
        "coordinates": [
          -73.373524,
          5.512538
        ]
      }
    },
    {
      "type": "Feature",
      "properties": {
        "_source": "Ruta10-Triunfo-AvenidaNorte-Muiscas",
        "_segmentIndex": 0,
        "_position": 1
      },
      "geometry": {
        "type": "Point",
        "coordinates": [
          -73.37331239746825,
          5.51293500829002
        ]
      }
    },
    {
      "type": "Feature",
      "properties": {
        "_source": "Ruta10-Triunfo-AvenidaNorte-Muiscas",
        "_segmentIndex": 0,
        "_position": 2
      },
      "geometry": {
        "type": "Point",
        "coordinates": [
          -73.37312631022048,
          5.513344374725487
        ]
      }
    },
    {
      "type": "Feature",
      "properties": {
        "_source": "Ruta10-Triunfo-AvenidaNorte-Muiscas",
        "_segmentIndex": 0,
        "_position": 0
      },
      "geometry": {
        "type": "Point",
        "coordinates": [
          -73.373087,
          5.513439
        ]
      }
    },
    {
      "type": "Feature",
      "properties": {
        "_source": "Ruta10-Triunfo-AvenidaNorte-Muiscas",
        "_segmentIndex": 0,
        "_position": 1
      },
      "geometry": {
        "type": "Point",
        "coordinates": [
          -73.3726357282825,
          5.513420360346913
        ]
      }
    },
    {
      "type": "Feature",
      "properties": {
        "_source": "Ruta10-Triunfo-AvenidaNorte-Muiscas",
        "_segmentIndex": 0,
        "_position": 0
      },
      "geometry": {
        "type": "Point",
        "coordinates": [
          -73.372216,
          5.513399
        ]
      }
    },
    {
      "type": "Feature",
      "properties": {
        "_source": "Ruta10-Triunfo-AvenidaNorte-Muiscas",
        "_segmentIndex": 0,
        "_position": 1
      },
      "geometry": {
        "type": "Point",
        "coordinates": [
          -73.37214758996576,
          5.513843305753033
        ]
      }
    },
    {
      "type": "Feature",
      "properties": {
        "_source": "Ruta10-Triunfo-AvenidaNorte-Muiscas",
        "_segmentIndex": 0,
        "_position": 2
      },
      "geometry": {
        "type": "Point",
        "coordinates": [
          -73.3720739483253,
          5.51428661940974
        ]
      }
    },
    {
      "type": "Feature",
      "properties": {
        "_source": "Ruta10-Triunfo-AvenidaNorte-Muiscas",
        "_segmentIndex": 0,
        "_position": 3
      },
      "geometry": {
        "type": "Point",
        "coordinates": [
          -73.371967504738,
          5.514723520167131
        ]
      }
    },
    {
      "type": "Feature",
      "properties": {
        "_source": "Ruta10-Triunfo-AvenidaNorte-Muiscas",
        "_segmentIndex": 0,
        "_position": 4
      },
      "geometry": {
        "type": "Point",
        "coordinates": [
          -73.3718621441177,
          5.515160436665343
        ]
      }
    },
    {
      "type": "Feature",
      "properties": {
        "_source": "Ruta10-Triunfo-AvenidaNorte-Muiscas",
        "_segmentIndex": 0,
        "_position": 5
      },
      "geometry": {
        "type": "Point",
        "coordinates": [
          -73.3717823239507,
          5.515602978882974
        ]
      }
    },
    {
      "type": "Feature",
      "properties": {
        "_source": "Ruta10-Triunfo-AvenidaNorte-Muiscas",
        "_segmentIndex": 0,
        "_position": 6
      },
      "geometry": {
        "type": "Point",
        "coordinates": [
          -73.37171112944303,
          5.516046873824335
        ]
      }
    },
    {
      "type": "Feature",
      "properties": {
        "_source": "Ruta10-Triunfo-AvenidaNorte-Muiscas",
        "_segmentIndex": 0,
        "_position": 0
      },
      "geometry": {
        "type": "Point",
        "coordinates": [
          -73.371629,
          5.516256
        ]
      }
    },
    {
      "type": "Feature",
      "properties": {
        "_source": "Ruta10-Triunfo-AvenidaNorte-Muiscas",
        "_segmentIndex": 0,
        "_position": 1
      },
      "geometry": {
        "type": "Point",
        "coordinates": [
          -73.37117952847034,
          5.516294440162081
        ]
      }
    },
    {
      "type": "Feature",
      "properties": {
        "_source": "Ruta10-Triunfo-AvenidaNorte-Muiscas",
        "_segmentIndex": 0,
        "_position": 2
      },
      "geometry": {
        "type": "Point",
        "coordinates": [
          -73.37072895274608,
          5.5163268724043375
        ]
      }
    },
    {
      "type": "Feature",
      "properties": {
        "_source": "Ruta10-Triunfo-AvenidaNorte-Muiscas",
        "_segmentIndex": 0,
        "_position": 0
      },
      "geometry": {
        "type": "Point",
        "coordinates": [
          -73.370491,
          5.516344
        ]
      }
    },
    {
      "type": "Feature",
      "properties": {
        "_source": "Ruta10-Triunfo-AvenidaNorte-Muiscas",
        "_segmentIndex": 0,
        "_position": 1
      },
      "geometry": {
        "type": "Point",
        "coordinates": [
          -73.37040066562518,
          5.5167845784771625
        ]
      }
    },
    {
      "type": "Feature",
      "properties": {
        "_source": "Ruta10-Triunfo-AvenidaNorte-Muiscas",
        "_segmentIndex": 0,
        "_position": 2
      },
      "geometry": {
        "type": "Point",
        "coordinates": [
          -73.3703074762186,
          5.517224486610269
        ]
      }
    },
    {
      "type": "Feature",
      "properties": {
        "_source": "Ruta10-Triunfo-AvenidaNorte-Muiscas",
        "_segmentIndex": 0,
        "_position": 3
      },
      "geometry": {
        "type": "Point",
        "coordinates": [
          -73.37018159514749,
          5.517655386120193
        ]
      }
    },
    {
      "type": "Feature",
      "properties": {
        "_source": "Ruta10-Triunfo-AvenidaNorte-Muiscas",
        "_segmentIndex": 0,
        "_position": 0
      },
      "geometry": {
        "type": "Point",
        "coordinates": [
          -73.370033,
          5.51783
        ]
      }
    },
    {
      "type": "Feature",
      "properties": {
        "_source": "Ruta10-Triunfo-AvenidaNorte-Muiscas",
        "_segmentIndex": 0,
        "_position": 1
      },
      "geometry": {
        "type": "Point",
        "coordinates": [
          -73.36958543977444,
          5.517885216403788
        ]
      }
    },
    {
      "type": "Feature",
      "properties": {
        "_source": "Ruta10-Triunfo-AvenidaNorte-Muiscas",
        "_segmentIndex": 0,
        "_position": 2
      },
      "geometry": {
        "type": "Point",
        "coordinates": [
          -73.36913654200065,
          5.5179355596904145
        ]
      }
    },
    {
      "type": "Feature",
      "properties": {
        "_source": "Ruta10-Triunfo-AvenidaNorte-Muiscas",
        "_segmentIndex": 0,
        "_position": 3
      },
      "geometry": {
        "type": "Point",
        "coordinates": [
          -73.3686966432627,
          5.51803672991907
        ]
      }
    },
    {
      "type": "Feature",
      "properties": {
        "_source": "Ruta10-Triunfo-AvenidaNorte-Muiscas",
        "_segmentIndex": 0,
        "_position": 4
      },
      "geometry": {
        "type": "Point",
        "coordinates": [
          -73.36825667283537,
          5.518138719237675
        ]
      }
    },
    {
      "type": "Feature",
      "properties": {
        "_source": "Ruta10-Triunfo-AvenidaNorte-Muiscas",
        "_segmentIndex": 0,
        "_position": 5
      },
      "geometry": {
        "type": "Point",
        "coordinates": [
          -73.3678169226544,
          5.5182416393798315
        ]
      }
    },
    {
      "type": "Feature",
      "properties": {
        "_source": "Ruta10-Triunfo-AvenidaNorte-Muiscas",
        "_segmentIndex": 0,
        "_position": 0
      },
      "geometry": {
        "type": "Point",
        "coordinates": [
          -73.36752,
          5.518269
        ]
      }
    },
    {
      "type": "Feature",
      "properties": {
        "_source": "Ruta10-Triunfo-AvenidaNorte-Muiscas",
        "_segmentIndex": 0,
        "_position": 1
      },
      "geometry": {
        "type": "Point",
        "coordinates": [
          -73.36743400254576,
          5.518708347516157
        ]
      }
    },
    {
      "type": "Feature",
      "properties": {
        "_source": "Ruta10-Triunfo-AvenidaNorte-Muiscas",
        "_segmentIndex": 0,
        "_position": 2
      },
      "geometry": {
        "type": "Point",
        "coordinates": [
          -73.3673855969926,
          5.519155418935736
        ]
      }
    },
    {
      "type": "Feature",
      "properties": {
        "_source": "Ruta10-Triunfo-AvenidaNorte-Muiscas",
        "_segmentIndex": 0,
        "_position": 3
      },
      "geometry": {
        "type": "Point",
        "coordinates": [
          -73.36733209496909,
          5.519601903097724
        ]
      }
    },
    {
      "type": "Feature",
      "properties": {
        "_source": "Ruta10-Triunfo-AvenidaNorte-Muiscas",
        "_segmentIndex": 0,
        "_position": 4
      },
      "geometry": {
        "type": "Point",
        "coordinates": [
          -73.36724763806801,
          5.520042289259754
        ]
      }
    },
    {
      "type": "Feature",
      "properties": {
        "_source": "Ruta10-Triunfo-AvenidaNorte-Muiscas",
        "_segmentIndex": 0,
        "_position": 5
      },
      "geometry": {
        "type": "Point",
        "coordinates": [
          -73.36712345093277,
          5.520474625418134
        ]
      }
    },
    {
      "type": "Feature",
      "properties": {
        "_source": "Ruta10-Triunfo-AvenidaNorte-Muiscas",
        "_segmentIndex": 0,
        "_position": 6
      },
      "geometry": {
        "type": "Point",
        "coordinates": [
          -73.36700496754153,
          5.520908501620963
        ]
      }
    },
    {
      "type": "Feature",
      "properties": {
        "_source": "Ruta10-Triunfo-AvenidaNorte-Muiscas",
        "_segmentIndex": 0,
        "_position": 7
      },
      "geometry": {
        "type": "Point",
        "coordinates": [
          -73.36689263807915,
          5.521344039419227
        ]
      }
    },
    {
      "type": "Feature",
      "properties": {
        "_source": "Ruta10-Triunfo-AvenidaNorte-Muiscas",
        "_segmentIndex": 0,
        "_position": 8
      },
      "geometry": {
        "type": "Point",
        "coordinates": [
          -73.36677759147132,
          5.521778777114835
        ]
      }
    },
    {
      "type": "Feature",
      "properties": {
        "_source": "Ruta10-Triunfo-AvenidaNorte-Muiscas",
        "_segmentIndex": 0,
        "_position": 9
      },
      "geometry": {
        "type": "Point",
        "coordinates": [
          -73.36663377054751,
          5.522205041533702
        ]
      }
    },
    {
      "type": "Feature",
      "properties": {
        "_source": "Ruta10-Triunfo-AvenidaNorte-Muiscas",
        "_segmentIndex": 0,
        "_position": 10
      },
      "geometry": {
        "type": "Point",
        "coordinates": [
          -73.36652833917462,
          5.522642153018986
        ]
      }
    },
    {
      "type": "Feature",
      "properties": {
        "_source": "Ruta10-Triunfo-AvenidaNorte-Muiscas",
        "_segmentIndex": 0,
        "_position": 11
      },
      "geometry": {
        "type": "Point",
        "coordinates": [
          -73.36642938930908,
          5.523080876178914
        ]
      }
    },
    {
      "type": "Feature",
      "properties": {
        "_source": "Ruta10-Triunfo-AvenidaNorte-Muiscas",
        "_segmentIndex": 0,
        "_position": 12
      },
      "geometry": {
        "type": "Point",
        "coordinates": [
          -73.36633458391225,
          5.523520523176866
        ]
      }
    },
    {
      "type": "Feature",
      "properties": {
        "_source": "Ruta10-Triunfo-AvenidaNorte-Muiscas",
        "_segmentIndex": 0,
        "_position": 13
      },
      "geometry": {
        "type": "Point",
        "coordinates": [
          -73.36623647688788,
          5.52395944143084
        ]
      }
    },
    {
      "type": "Feature",
      "properties": {
        "_source": "Ruta10-Triunfo-AvenidaNorte-Muiscas",
        "_segmentIndex": 0,
        "_position": 14
      },
      "geometry": {
        "type": "Point",
        "coordinates": [
          -73.36610651370894,
          5.524388680371495
        ]
      }
    },
    {
      "type": "Feature",
      "properties": {
        "_source": "Ruta10-Triunfo-AvenidaNorte-Muiscas",
        "_segmentIndex": 0,
        "_position": 15
      },
      "geometry": {
        "type": "Point",
        "coordinates": [
          -73.36594364938553,
          5.524807914952959
        ]
      }
    },
    {
      "type": "Feature",
      "properties": {
        "_source": "Ruta10-Triunfo-AvenidaNorte-Muiscas",
        "_segmentIndex": 0,
        "_position": 16
      },
      "geometry": {
        "type": "Point",
        "coordinates": [
          -73.36578870419369,
          5.525230299634163
        ]
      }
    },
    {
      "type": "Feature",
      "properties": {
        "_source": "Ruta10-Triunfo-AvenidaNorte-Muiscas",
        "_segmentIndex": 0,
        "_position": 17
      },
      "geometry": {
        "type": "Point",
        "coordinates": [
          -73.36562989127889,
          5.525651253796072
        ]
      }
    },
    {
      "type": "Feature",
      "properties": {
        "_source": "Ruta10-Triunfo-AvenidaNorte-Muiscas",
        "_segmentIndex": 0,
        "_position": 0
      },
      "geometry": {
        "type": "Point",
        "coordinates": [
          -73.365475,
          5.525987
        ]
      }
    },
    {
      "type": "Feature",
      "properties": {
        "_source": "Ruta10-Triunfo-AvenidaNorte-Muiscas",
        "_segmentIndex": 0,
        "_position": 1
      },
      "geometry": {
        "type": "Point",
        "coordinates": [
          -73.3650574922813,
          5.52581526901682
        ]
      }
    },
    {
      "type": "Feature",
      "properties": {
        "_source": "Ruta10-Triunfo-AvenidaNorte-Muiscas",
        "_segmentIndex": 0,
        "_position": 2
      },
      "geometry": {
        "type": "Point",
        "coordinates": [
          -73.36464016426565,
          5.525643090894338
        ]
      }
    },
    {
      "type": "Feature",
      "properties": {
        "_source": "Ruta10-Triunfo-AvenidaNorte-Muiscas",
        "_segmentIndex": 0,
        "_position": 3
      },
      "geometry": {
        "type": "Point",
        "coordinates": [
          -73.36422083562104,
          5.525475803868845
        ]
      }
    },
    {
      "type": "Feature",
      "properties": {
        "_source": "Ruta10-Triunfo-AvenidaNorte-Muiscas",
        "_segmentIndex": 0,
        "_position": 4
      },
      "geometry": {
        "type": "Point",
        "coordinates": [
          -73.363801217947,
          5.5253092273276625
        ]
      }
    },
    {
      "type": "Feature",
      "properties": {
        "_source": "Ruta10-Triunfo-AvenidaNorte-Muiscas",
        "_segmentIndex": 0,
        "_position": 5
      },
      "geometry": {
        "type": "Point",
        "coordinates": [
          -73.36338168624611,
          5.5251455464186385
        ]
      }
    },
    {
      "type": "Feature",
      "properties": {
        "_source": "Ruta10-Triunfo-AvenidaNorte-Muiscas",
        "_segmentIndex": 0,
        "_position": 0
      },
      "geometry": {
        "type": "Point",
        "coordinates": [
          -73.36334,
          5.525165
        ]
      }
    },
    {
      "type": "Feature",
      "properties": {
        "_source": "Ruta10-Triunfo-AvenidaNorte-Muiscas",
        "_segmentIndex": 0,
        "_position": 1
      },
      "geometry": {
        "type": "Point",
        "coordinates": [
          -73.36318907828327,
          5.525587811314224
        ]
      }
    },
    {
      "type": "Feature",
      "properties": {
        "_source": "Ruta10-Triunfo-AvenidaNorte-Muiscas",
        "_segmentIndex": 0,
        "_position": 2
      },
      "geometry": {
        "type": "Point",
        "coordinates": [
          -73.36304535162506,
          5.5260140999763685
        ]
      }
    },
    {
      "type": "Feature",
      "properties": {
        "_source": "Ruta10-Triunfo-AvenidaNorte-Muiscas",
        "_segmentIndex": 0,
        "_position": 3
      },
      "geometry": {
        "type": "Point",
        "coordinates": [
          -73.36289490280093,
          5.526438092128415
        ]
      }
    },
    {
      "type": "Feature",
      "properties": {
        "_source": "Ruta10-Triunfo-AvenidaNorte-Muiscas",
        "_segmentIndex": 0,
        "_position": 4
      },
      "geometry": {
        "type": "Point",
        "coordinates": [
          -73.36270695833419,
          5.526841263165019
        ]
      }
    },
    {
      "type": "Feature",
      "properties": {
        "_source": "Ruta10-Triunfo-AvenidaNorte-Muiscas",
        "_segmentIndex": 0,
        "_position": 5
      },
      "geometry": {
        "type": "Point",
        "coordinates": [
          -73.36256640942311,
          5.5272684122354505
        ]
      }
    },
    {
      "type": "Feature",
      "properties": {
        "_source": "Ruta10-Triunfo-AvenidaNorte-Muiscas",
        "_segmentIndex": 0,
        "_position": 6
      },
      "geometry": {
        "type": "Point",
        "coordinates": [
          -73.36242289612979,
          5.527694695638992
        ]
      }
    },
    {
      "type": "Feature",
      "properties": {
        "_source": "Ruta10-Triunfo-AvenidaNorte-Muiscas",
        "_segmentIndex": 0,
        "_position": 7
      },
      "geometry": {
        "type": "Point",
        "coordinates": [
          -73.3622829329924,
          5.52812216144766
        ]
      }
    },
    {
      "type": "Feature",
      "properties": {
        "_source": "Ruta10-Triunfo-AvenidaNorte-Muiscas",
        "_segmentIndex": 0,
        "_position": 8
      },
      "geometry": {
        "type": "Point",
        "coordinates": [
          -73.36215660970774,
          5.528553658134906
        ]
      }
    },
    {
      "type": "Feature",
      "properties": {
        "_source": "Ruta10-Triunfo-AvenidaNorte-Muiscas",
        "_segmentIndex": 0,
        "_position": 0
      },
      "geometry": {
        "type": "Point",
        "coordinates": [
          -73.362121,
          5.528637
        ]
      }
    },
    {
      "type": "Feature",
      "properties": {
        "_source": "Ruta10-Triunfo-AvenidaNorte-Muiscas",
        "_segmentIndex": 0,
        "_position": 1
      },
      "geometry": {
        "type": "Point",
        "coordinates": [
          -73.36168200090296,
          5.528541947864994
        ]
      }
    },
    {
      "type": "Feature",
      "properties": {
        "_source": "Ruta10-Triunfo-AvenidaNorte-Muiscas",
        "_segmentIndex": 0,
        "_position": 2
      },
      "geometry": {
        "type": "Point",
        "coordinates": [
          -73.36124498918116,
          5.528427984667153
        ]
      }
    },
    {
      "type": "Feature",
      "properties": {
        "_source": "Ruta10-Triunfo-AvenidaNorte-Muiscas",
        "_segmentIndex": 0,
        "_position": 0
      },
      "geometry": {
        "type": "Point",
        "coordinates": [
          -73.361107,
          5.528392
        ]
      }
    },
    {
      "type": "Feature",
      "properties": {
        "_source": "Ruta10-Triunfo-AvenidaNorte-Muiscas",
        "_segmentIndex": 0,
        "_position": 1
      },
      "geometry": {
        "type": "Point",
        "coordinates": [
          -73.3609546175965,
          5.528804645653095
        ]
      }
    },
    {
      "type": "Feature",
      "properties": {
        "_source": "Ruta10-Triunfo-AvenidaNorte-Muiscas",
        "_segmentIndex": 0,
        "_position": 2
      },
      "geometry": {
        "type": "Point",
        "coordinates": [
          -73.36083318294457,
          5.529237756232835
        ]
      }
    },
    {
      "type": "Feature",
      "properties": {
        "_source": "Ruta10-Triunfo-AvenidaNorte-Muiscas",
        "_segmentIndex": 0,
        "_position": 3
      },
      "geometry": {
        "type": "Point",
        "coordinates": [
          -73.36071211880319,
          5.529670969615733
        ]
      }
    },
    {
      "type": "Feature",
      "properties": {
        "_source": "Ruta10-Triunfo-AvenidaNorte-Muiscas",
        "_segmentIndex": 0,
        "_position": 4
      },
      "geometry": {
        "type": "Point",
        "coordinates": [
          -73.36058911621923,
          5.530103638851821
        ]
      }
    },
    {
      "type": "Feature",
      "properties": {
        "_source": "Ruta10-Triunfo-AvenidaNorte-Muiscas",
        "_segmentIndex": 0,
        "_position": 5
      },
      "geometry": {
        "type": "Point",
        "coordinates": [
          -73.36046552122667,
          5.530536140692062
        ]
      }
    },
    {
      "type": "Feature",
      "properties": {
        "_source": "Ruta10-Triunfo-AvenidaNorte-Muiscas",
        "_segmentIndex": 0,
        "_position": 6
      },
      "geometry": {
        "type": "Point",
        "coordinates": [
          -73.36034596387121,
          5.530969768523308
        ]
      }
    },
    {
      "type": "Feature",
      "properties": {
        "_source": "Ruta10-Triunfo-AvenidaNorte-Muiscas",
        "_segmentIndex": 0,
        "_position": 7
      },
      "geometry": {
        "type": "Point",
        "coordinates": [
          -73.36022577424747,
          5.531403222719045
        ]
      }
    },
    {
      "type": "Feature",
      "properties": {
        "_source": "Ruta10-Triunfo-AvenidaNorte-Muiscas",
        "_segmentIndex": 0,
        "_position": 8
      },
      "geometry": {
        "type": "Point",
        "coordinates": [
          -73.36010498960371,
          5.531836513509921
        ]
      }
    },
    {
      "type": "Feature",
      "properties": {
        "_source": "Ruta10-Triunfo-AvenidaNorte-Muiscas",
        "_segmentIndex": 0,
        "_position": 9
      },
      "geometry": {
        "type": "Point",
        "coordinates": [
          -73.35997615133464,
          5.532267495660071
        ]
      }
    },
    {
      "type": "Feature",
      "properties": {
        "_source": "Ruta10-Triunfo-AvenidaNorte-Muiscas",
        "_segmentIndex": 0,
        "_position": 10
      },
      "geometry": {
        "type": "Point",
        "coordinates": [
          -73.35984958437065,
          5.532699143426881
        ]
      }
    },
    {
      "type": "Feature",
      "properties": {
        "_source": "Ruta10-Triunfo-AvenidaNorte-Muiscas",
        "_segmentIndex": 0,
        "_position": 11
      },
      "geometry": {
        "type": "Point",
        "coordinates": [
          -73.35972446220579,
          5.533131213169531
        ]
      }
    },
    {
      "type": "Feature",
      "properties": {
        "_source": "Ruta10-Triunfo-AvenidaNorte-Muiscas",
        "_segmentIndex": 0,
        "_position": 12
      },
      "geometry": {
        "type": "Point",
        "coordinates": [
          -73.35959936356443,
          5.53356328968584
        ]
      }
    },
    {
      "type": "Feature",
      "properties": {
        "_source": "Ruta10-Triunfo-AvenidaNorte-Muiscas",
        "_segmentIndex": 0,
        "_position": 13
      },
      "geometry": {
        "type": "Point",
        "coordinates": [
          -73.35947428690751,
          5.53399537253436
        ]
      }
    },
    {
      "type": "Feature",
      "properties": {
        "_source": "Ruta10-Triunfo-AvenidaNorte-Muiscas",
        "_segmentIndex": 0,
        "_position": 14
      },
      "geometry": {
        "type": "Point",
        "coordinates": [
          -73.35934640945014,
          5.534426641739817
        ]
      }
    },
    {
      "type": "Feature",
      "properties": {
        "_source": "Ruta10-Triunfo-AvenidaNorte-Muiscas",
        "_segmentIndex": 0,
        "_position": 15
      },
      "geometry": {
        "type": "Point",
        "coordinates": [
          -73.35921928312582,
          5.5348581297764055
        ]
      }
    },
    {
      "type": "Feature",
      "properties": {
        "_source": "Ruta10-Triunfo-AvenidaNorte-Muiscas",
        "_segmentIndex": 0,
        "_position": 16
      },
      "geometry": {
        "type": "Point",
        "coordinates": [
          -73.35909370679083,
          5.535290069095392
        ]
      }
    },
    {
      "type": "Feature",
      "properties": {
        "_source": "Ruta10-Triunfo-AvenidaNorte-Muiscas",
        "_segmentIndex": 0,
        "_position": 0
      },
      "geometry": {
        "type": "Point",
        "coordinates": [
          -73.359035,
          5.535492
        ]
      }
    },
    {
      "type": "Feature",
      "properties": {
        "_source": "Ruta10-Triunfo-AvenidaNorte-Muiscas",
        "_segmentIndex": 0,
        "_position": 1
      },
      "geometry": {
        "type": "Point",
        "coordinates": [
          -73.35945499482439,
          5.535653737219436
        ]
      }
    },
    {
      "type": "Feature",
      "properties": {
        "_source": "Ruta10-Triunfo-AvenidaNorte-Muiscas",
        "_segmentIndex": 0,
        "_position": 0
      },
      "geometry": {
        "type": "Point",
        "coordinates": [
          -73.35988,
          5.535801
        ]
      }
    },
    {
      "type": "Feature",
      "properties": {
        "_source": "Ruta10-Triunfo-AvenidaNorte-Muiscas",
        "_segmentIndex": 0,
        "_position": 1
      },
      "geometry": {
        "type": "Point",
        "coordinates": [
          -73.35974141581111,
          5.536228980657228
        ]
      }
    },
    {
      "type": "Feature",
      "properties": {
        "_source": "Ruta10-Triunfo-AvenidaNorte-Muiscas",
        "_segmentIndex": 0,
        "_position": 0
      },
      "geometry": {
        "type": "Point",
        "coordinates": [
          -73.35971,
          5.536326
        ]
      }
    },
    {
      "type": "Feature",
      "properties": {
        "_source": "Ruta10-Triunfo-AvenidaNorte-Muiscas",
        "_segmentIndex": 0,
        "_position": 1
      },
      "geometry": {
        "type": "Point",
        "coordinates": [
          -73.35927349348034,
          5.536213283995873
        ]
      }
    },
    {
      "type": "Feature",
      "properties": {
        "_source": "Ruta10-Triunfo-AvenidaNorte-Muiscas",
        "_segmentIndex": 0,
        "_position": 0
      },
      "geometry": {
        "type": "Point",
        "coordinates": [
          -73.35887,
          5.536098
        ]
      }
    },
    {
      "type": "Feature",
      "properties": {
        "_source": "Ruta10-Triunfo-AvenidaNorte-Muiscas",
        "_segmentIndex": 0,
        "_position": 1
      },
      "geometry": {
        "type": "Point",
        "coordinates": [
          -73.35871616171136,
          5.536514726393842
        ]
      }
    },
    {
      "type": "Feature",
      "properties": {
        "_source": "Ruta10-Triunfo-AvenidaNorte-Muiscas",
        "_segmentIndex": 0,
        "_position": 2
      },
      "geometry": {
        "type": "Point",
        "coordinates": [
          -73.35860633970368,
          5.536950853592984
        ]
      }
    },
    {
      "type": "Feature",
      "properties": {
        "_source": "Ruta10-Triunfo-AvenidaNorte-Muiscas",
        "_segmentIndex": 0,
        "_position": 0
      },
      "geometry": {
        "type": "Point",
        "coordinates": [
          -73.358583,
          5.537049
        ]
      }
    },
    {
      "type": "Feature",
      "properties": {
        "_source": "Ruta10-Triunfo-AvenidaNorte-Muiscas",
        "_segmentIndex": 0,
        "_position": 1
      },
      "geometry": {
        "type": "Point",
        "coordinates": [
          -73.35898679248541,
          5.537232281452191
        ]
      }
    },
    {
      "type": "Feature",
      "properties": {
        "_source": "Ruta10-Triunfo-AvenidaNorte-Muiscas",
        "_segmentIndex": 0,
        "_position": 2
      },
      "geometry": {
        "type": "Point",
        "coordinates": [
          -73.35941325089516,
          5.537380675781967
        ]
      }
    },
    {
      "type": "Feature",
      "properties": {
        "_source": "Ruta10-Triunfo-AvenidaNorte-Muiscas",
        "_segmentIndex": 0,
        "_position": 3
      },
      "geometry": {
        "type": "Point",
        "coordinates": [
          -73.35983385195956,
          5.5375443904930695
        ]
      }
    },
    {
      "type": "Feature",
      "properties": {
        "_source": "Ruta10-Triunfo-AvenidaNorte-Muiscas",
        "_segmentIndex": 0,
        "_position": 4
      },
      "geometry": {
        "type": "Point",
        "coordinates": [
          -73.36025083105494,
          5.537717167684988
        ]
      }
    },
    {
      "type": "Feature",
      "properties": {
        "_source": "Ruta10-Triunfo-AvenidaNorte-Muiscas",
        "_segmentIndex": 0,
        "_position": 0
      },
      "geometry": {
        "type": "Point",
        "coordinates": [
          -73.360353,
          5.537918
        ]
      }
    },
    {
      "type": "Feature",
      "properties": {
        "_source": "Ruta10-Triunfo-AvenidaNorte-Muiscas",
        "_segmentIndex": 0,
        "_position": 1
      },
      "geometry": {
        "type": "Point",
        "coordinates": [
          -73.36022968775919,
          5.5383500470893186
        ]
      }
    },
    {
      "type": "Feature",
      "properties": {
        "_source": "Ruta10-Triunfo-AvenidaNorte-Muiscas",
        "_segmentIndex": 0,
        "_position": 0
      },
      "geometry": {
        "type": "Point",
        "coordinates": [
          -73.360146,
          5.53872
        ]
      }
    },
    {
      "type": "Feature",
      "properties": {
        "_source": "Ruta10-Triunfo-AvenidaNorte-Muiscas",
        "_segmentIndex": 0,
        "_position": 1
      },
      "geometry": {
        "type": "Point",
        "coordinates": [
          -73.3600385857634,
          5.539156765329931
        ]
      }
    },
    {
      "type": "Feature",
      "properties": {
        "_source": "Ruta10-Triunfo-AvenidaNorte-Muiscas",
        "_segmentIndex": 0,
        "_position": 2
      },
      "geometry": {
        "type": "Point",
        "coordinates": [
          -73.35993056629813,
          5.539593382621321
        ]
      }
    },
    {
      "type": "Feature",
      "properties": {
        "_source": "Ruta10-Triunfo-AvenidaNorte-Muiscas",
        "_segmentIndex": 0,
        "_position": 3
      },
      "geometry": {
        "type": "Point",
        "coordinates": [
          -73.35980021257859,
          5.540023848182805
        ]
      }
    },
    {
      "type": "Feature",
      "properties": {
        "_source": "Ruta10-Triunfo-AvenidaNorte-Muiscas",
        "_segmentIndex": 0,
        "_position": 4
      },
      "geometry": {
        "type": "Point",
        "coordinates": [
          -73.35966313273573,
          5.540452308850411
        ]
      }
    },
    {
      "type": "Feature",
      "properties": {
        "_source": "Ruta10-Triunfo-AvenidaNorte-Muiscas",
        "_segmentIndex": 0,
        "_position": 5
      },
      "geometry": {
        "type": "Point",
        "coordinates": [
          -73.3594863784323,
          5.5408651566496685
        ]
      }
    },
    {
      "type": "Feature",
      "properties": {
        "_source": "Ruta10-Triunfo-AvenidaNorte-Muiscas",
        "_segmentIndex": 0,
        "_position": 6
      },
      "geometry": {
        "type": "Point",
        "coordinates": [
          -73.35929233790978,
          5.541271227453088
        ]
      }
    },
    {
      "type": "Feature",
      "properties": {
        "_source": "Ruta10-Triunfo-AvenidaNorte-Muiscas",
        "_segmentIndex": 0,
        "_position": 7
      },
      "geometry": {
        "type": "Point",
        "coordinates": [
          -73.35909858057703,
          5.541677432395204
        ]
      }
    },
    {
      "type": "Feature",
      "properties": {
        "_source": "Ruta10-Triunfo-AvenidaNorte-Muiscas",
        "_segmentIndex": 0,
        "_position": 8
      },
      "geometry": {
        "type": "Point",
        "coordinates": [
          -73.35891800779548,
          5.542089591287723
        ]
      }
    },
    {
      "type": "Feature",
      "properties": {
        "_source": "Ruta10-Triunfo-AvenidaNorte-Muiscas",
        "_segmentIndex": 0,
        "_position": 9
      },
      "geometry": {
        "type": "Point",
        "coordinates": [
          -73.358846,
          5.542528941766425
        ]
      }
    },
    {
      "type": "Feature",
      "properties": {
        "_source": "Ruta10-Triunfo-AvenidaNorte-Muiscas",
        "_segmentIndex": 0,
        "_position": 10
      },
      "geometry": {
        "type": "Point",
        "coordinates": [
          -73.35876687813969,
          5.542945084723056
        ]
      }
    },
    {
      "type": "Feature",
      "properties": {
        "_source": "Ruta10-Triunfo-AvenidaNorte-Muiscas",
        "_segmentIndex": 0,
        "_position": 11
      },
      "geometry": {
        "type": "Point",
        "coordinates": [
          -73.35849856040286,
          5.543306846552376
        ]
      }
    },
    {
      "type": "Feature",
      "properties": {
        "_source": "Ruta10-Triunfo-AvenidaNorte-Muiscas",
        "_segmentIndex": 0,
        "_position": 12
      },
      "geometry": {
        "type": "Point",
        "coordinates": [
          -73.35822304429422,
          5.5436631202737825
        ]
      }
    },
    {
      "type": "Feature",
      "properties": {
        "_source": "Ruta10-Triunfo-AvenidaNorte-Muiscas",
        "_segmentIndex": 0,
        "_position": 13
      },
      "geometry": {
        "type": "Point",
        "coordinates": [
          -73.35794199925247,
          5.544015178708151
        ]
      }
    },
    {
      "type": "Feature",
      "properties": {
        "_source": "Ruta10-Triunfo-AvenidaNorte-Muiscas",
        "_segmentIndex": 0,
        "_position": 0
      },
      "geometry": {
        "type": "Point",
        "coordinates": [
          -73.35773,
          5.544236
        ]
      }
    },
    {
      "type": "Feature",
      "properties": {
        "_source": "Ruta10-Triunfo-AvenidaNorte-Muiscas",
        "_segmentIndex": 0,
        "_position": 1
      },
      "geometry": {
        "type": "Point",
        "coordinates": [
          -73.35733931198497,
          5.544393229058019
        ]
      }
    },
    {
      "type": "Feature",
      "properties": {
        "_source": "Ruta10-Triunfo-AvenidaNorte-Muiscas",
        "_segmentIndex": 0,
        "_position": 2
      },
      "geometry": {
        "type": "Point",
        "coordinates": [
          -73.35726742995304,
          5.544816135536454
        ]
      }
    },
    {
      "type": "Feature",
      "properties": {
        "_source": "Ruta10-Triunfo-AvenidaNorte-Muiscas",
        "_segmentIndex": 0,
        "_position": 0
      },
      "geometry": {
        "type": "Point",
        "coordinates": [
          -73.357246,
          5.54487
        ]
      }
    },
    {
      "type": "Feature",
      "properties": {
        "_source": "Ruta10-Triunfo-AvenidaNorte-Muiscas",
        "_segmentIndex": 0,
        "_position": 1
      },
      "geometry": {
        "type": "Point",
        "coordinates": [
          -73.35701122575351,
          5.5452518747514725
        ]
      }
    },
    {
      "type": "Feature",
      "properties": {
        "_source": "Ruta10-Triunfo-AvenidaNorte-Muiscas",
        "_segmentIndex": 0,
        "_position": 2
      },
      "geometry": {
        "type": "Point",
        "coordinates": [
          -73.35674676535447,
          5.545616440373748
        ]
      }
    },
    {
      "type": "Feature",
      "properties": {
        "_source": "Ruta10-Triunfo-AvenidaNorte-Muiscas",
        "_segmentIndex": 0,
        "_position": 3
      },
      "geometry": {
        "type": "Point",
        "coordinates": [
          -73.35648230462867,
          5.545981005878611
        ]
      }
    },
    {
      "type": "Feature",
      "properties": {
        "_source": "Ruta10-Triunfo-AvenidaNorte-Muiscas",
        "_segmentIndex": 0,
        "_position": 4
      },
      "geometry": {
        "type": "Point",
        "coordinates": [
          -73.35621749686591,
          5.546345319914504
        ]
      }
    },
    {
      "type": "Feature",
      "properties": {
        "_source": "Ruta10-Triunfo-AvenidaNorte-Muiscas",
        "_segmentIndex": 0,
        "_position": 5
      },
      "geometry": {
        "type": "Point",
        "coordinates": [
          -73.35594999495959,
          5.546707680918613
        ]
      }
    },
    {
      "type": "Feature",
      "properties": {
        "_source": "Ruta10-Triunfo-AvenidaNorte-Muiscas",
        "_segmentIndex": 0,
        "_position": 6
      },
      "geometry": {
        "type": "Point",
        "coordinates": [
          -73.35568249272471,
          5.54707004180257
        ]
      }
    },
    {
      "type": "Feature",
      "properties": {
        "_source": "Ruta10-Triunfo-AvenidaNorte-Muiscas",
        "_segmentIndex": 0,
        "_position": 7
      },
      "geometry": {
        "type": "Point",
        "coordinates": [
          -73.3554149901612,
          5.547432402566369
        ]
      }
    },
    {
      "type": "Feature",
      "properties": {
        "_source": "Ruta10-Triunfo-AvenidaNorte-Muiscas",
        "_segmentIndex": 0,
        "_position": 8
      },
      "geometry": {
        "type": "Point",
        "coordinates": [
          -73.35514748726906,
          5.547794763210001
        ]
      }
    },
    {
      "type": "Feature",
      "properties": {
        "_source": "Ruta10-Triunfo-AvenidaNorte-Muiscas",
        "_segmentIndex": 0,
        "_position": 9
      },
      "geometry": {
        "type": "Point",
        "coordinates": [
          -73.35487998404827,
          5.548157123733458
        ]
      }
    },
    {
      "type": "Feature",
      "properties": {
        "_source": "Ruta10-Triunfo-AvenidaNorte-Muiscas",
        "_segmentIndex": 0,
        "_position": 10
      },
      "geometry": {
        "type": "Point",
        "coordinates": [
          -73.35461248049883,
          5.5485194841367305
        ]
      }
    },
    {
      "type": "Feature",
      "properties": {
        "_source": "Ruta10-Triunfo-AvenidaNorte-Muiscas",
        "_segmentIndex": 0,
        "_position": 11
      },
      "geometry": {
        "type": "Point",
        "coordinates": [
          -73.35432978773785,
          5.548870180368275
        ]
      }
    },
    {
      "type": "Feature",
      "properties": {
        "_source": "Ruta10-Triunfo-AvenidaNorte-Muiscas",
        "_segmentIndex": 0,
        "_position": 12
      },
      "geometry": {
        "type": "Point",
        "coordinates": [
          -73.35404549553638,
          5.549219648459326
        ]
      }
    },
    {
      "type": "Feature",
      "properties": {
        "_source": "Ruta10-Triunfo-AvenidaNorte-Muiscas",
        "_segmentIndex": 0,
        "_position": 13
      },
      "geometry": {
        "type": "Point",
        "coordinates": [
          -73.35376120299797,
          5.549569116414608
        ]
      }
    },
    {
      "type": "Feature",
      "properties": {
        "_source": "Ruta10-Triunfo-AvenidaNorte-Muiscas",
        "_segmentIndex": 0,
        "_position": 14
      },
      "geometry": {
        "type": "Point",
        "coordinates": [
          -73.35347691012264,
          5.549918584234112
        ]
      }
    },
    {
      "type": "Feature",
      "properties": {
        "_source": "Ruta10-Triunfo-AvenidaNorte-Muiscas",
        "_segmentIndex": 0,
        "_position": 15
      },
      "geometry": {
        "type": "Point",
        "coordinates": [
          -73.35319261691028,
          5.550268051917832
        ]
      }
    },
    {
      "type": "Feature",
      "properties": {
        "_source": "Ruta10-Triunfo-AvenidaNorte-Muiscas",
        "_segmentIndex": 0,
        "_position": 16
      },
      "geometry": {
        "type": "Point",
        "coordinates": [
          -73.35291683721643,
          5.550624196297197
        ]
      }
    },
    {
      "type": "Feature",
      "properties": {
        "_source": "Ruta10-Triunfo-AvenidaNorte-Muiscas",
        "_segmentIndex": 0,
        "_position": 17
      },
      "geometry": {
        "type": "Point",
        "coordinates": [
          -73.35264197323137,
          5.550981058937766
        ]
      }
    },
    {
      "type": "Feature",
      "properties": {
        "_source": "Ruta10-Triunfo-AvenidaNorte-Muiscas",
        "_segmentIndex": 0,
        "_position": 18
      },
      "geometry": {
        "type": "Point",
        "coordinates": [
          -73.35236710891357,
          5.551337921451382
        ]
      }
    },
    {
      "type": "Feature",
      "properties": {
        "_source": "Ruta10-Triunfo-AvenidaNorte-Muiscas",
        "_segmentIndex": 0,
        "_position": 19
      },
      "geometry": {
        "type": "Point",
        "coordinates": [
          -73.35218013353021,
          5.551740698692785
        ]
      }
    },
    {
      "type": "Feature",
      "properties": {
        "_source": "Ruta10-Triunfo-AvenidaNorte-Muiscas",
        "_segmentIndex": 0,
        "_position": 20
      },
      "geometry": {
        "type": "Point",
        "coordinates": [
          -73.35204117232963,
          5.552168559431901
        ]
      }
    },
    {
      "type": "Feature",
      "properties": {
        "_source": "Ruta10-Triunfo-AvenidaNorte-Muiscas",
        "_segmentIndex": 0,
        "_position": 21
      },
      "geometry": {
        "type": "Point",
        "coordinates": [
          -73.35190221092732,
          5.552596420138562
        ]
      }
    },
    {
      "type": "Feature",
      "properties": {
        "_source": "Ruta10-Triunfo-AvenidaNorte-Muiscas",
        "_segmentIndex": 0,
        "_position": 22
      },
      "geometry": {
        "type": "Point",
        "coordinates": [
          -73.35176324932323,
          5.553024280812767
        ]
      }
    },
    {
      "type": "Feature",
      "properties": {
        "_source": "Ruta10-Triunfo-AvenidaNorte-Muiscas",
        "_segmentIndex": 0,
        "_position": 23
      },
      "geometry": {
        "type": "Point",
        "coordinates": [
          -73.35162362306116,
          5.553451921466205
        ]
      }
    },
    {
      "type": "Feature",
      "properties": {
        "_source": "Ruta10-Triunfo-AvenidaNorte-Muiscas",
        "_segmentIndex": 0,
        "_position": 24
      },
      "geometry": {
        "type": "Point",
        "coordinates": [
          -73.35147739778608,
          5.553877377351115
        ]
      }
    },
    {
      "type": "Feature",
      "properties": {
        "_source": "Ruta10-Triunfo-AvenidaNorte-Muiscas",
        "_segmentIndex": 0,
        "_position": 25
      },
      "geometry": {
        "type": "Point",
        "coordinates": [
          -73.35133117229984,
          5.554302833200079
        ]
      }
    },
    {
      "type": "Feature",
      "properties": {
        "_source": "Ruta10-Triunfo-AvenidaNorte-Muiscas",
        "_segmentIndex": 0,
        "_position": 26
      },
      "geometry": {
        "type": "Point",
        "coordinates": [
          -73.35116445929314,
          5.554720369041302
        ]
      }
    },
    {
      "type": "Feature",
      "properties": {
        "_source": "Ruta10-Triunfo-AvenidaNorte-Muiscas",
        "_segmentIndex": 0,
        "_position": 27
      },
      "geometry": {
        "type": "Point",
        "coordinates": [
          -73.35098382031246,
          5.555132521431214
        ]
      }
    },
    {
      "type": "Feature",
      "properties": {
        "_source": "Ruta10-Triunfo-AvenidaNorte-Muiscas",
        "_segmentIndex": 0,
        "_position": 28
      },
      "geometry": {
        "type": "Point",
        "coordinates": [
          -73.35080318107902,
          5.555544673766255
        ]
      }
    },
    {
      "type": "Feature",
      "properties": {
        "_source": "Ruta10-Triunfo-AvenidaNorte-Muiscas",
        "_segmentIndex": 0,
        "_position": 29
      },
      "geometry": {
        "type": "Point",
        "coordinates": [
          -73.35062254159278,
          5.555956826046419
        ]
      }
    },
    {
      "type": "Feature",
      "properties": {
        "_source": "Ruta10-Triunfo-AvenidaNorte-Muiscas",
        "_segmentIndex": 0,
        "_position": 30
      },
      "geometry": {
        "type": "Point",
        "coordinates": [
          -73.35043949934125,
          5.5563679193998174
        ]
      }
    },
    {
      "type": "Feature",
      "properties": {
        "_source": "Ruta10-Triunfo-AvenidaNorte-Muiscas",
        "_segmentIndex": 0,
        "_position": 31
      },
      "geometry": {
        "type": "Point",
        "coordinates": [
          -73.350254295751,
          5.556778060231234
        ]
      }
    },
    {
      "type": "Feature",
      "properties": {
        "_source": "Ruta10-Triunfo-AvenidaNorte-Muiscas",
        "_segmentIndex": 0,
        "_position": 32
      },
      "geometry": {
        "type": "Point",
        "coordinates": [
          -73.35006909190281,
          5.557188201004954
        ]
      }
    },
    {
      "type": "Feature",
      "properties": {
        "_source": "Ruta10-Triunfo-AvenidaNorte-Muiscas",
        "_segmentIndex": 0,
        "_position": 33
      },
      "geometry": {
        "type": "Point",
        "coordinates": [
          -73.34988388779662,
          5.557598341720972
        ]
      }
    },
    {
      "type": "Feature",
      "properties": {
        "_source": "Ruta10-Triunfo-AvenidaNorte-Muiscas",
        "_segmentIndex": 0,
        "_position": 34
      },
      "geometry": {
        "type": "Point",
        "coordinates": [
          -73.34969868343245,
          5.558008482379285
        ]
      }
    },
    {
      "type": "Feature",
      "properties": {
        "_source": "Ruta10-Triunfo-AvenidaNorte-Muiscas",
        "_segmentIndex": 0,
        "_position": 35
      },
      "geometry": {
        "type": "Point",
        "coordinates": [
          -73.34951347881024,
          5.558418622979889
        ]
      }
    },
    {
      "type": "Feature",
      "properties": {
        "_source": "Ruta10-Triunfo-AvenidaNorte-Muiscas",
        "_segmentIndex": 0,
        "_position": 36
      },
      "geometry": {
        "type": "Point",
        "coordinates": [
          -73.34932827393001,
          5.558828763522779
        ]
      }
    },
    {
      "type": "Feature",
      "properties": {
        "_source": "Ruta10-Triunfo-AvenidaNorte-Muiscas",
        "_segmentIndex": 0,
        "_position": 37
      },
      "geometry": {
        "type": "Point",
        "coordinates": [
          -73.3491430687917,
          5.559238904007949
        ]
      }
    },
    {
      "type": "Feature",
      "properties": {
        "_source": "Ruta10-Triunfo-AvenidaNorte-Muiscas",
        "_segmentIndex": 0,
        "_position": 38
      },
      "geometry": {
        "type": "Point",
        "coordinates": [
          -73.34895329357384,
          5.559646953128654
        ]
      }
    },
    {
      "type": "Feature",
      "properties": {
        "_source": "Ruta10-Triunfo-AvenidaNorte-Muiscas",
        "_segmentIndex": 0,
        "_position": 39
      },
      "geometry": {
        "type": "Point",
        "coordinates": [
          -73.3487610429677,
          5.560053869486571
        ]
      }
    },
    {
      "type": "Feature",
      "properties": {
        "_source": "Ruta10-Triunfo-AvenidaNorte-Muiscas",
        "_segmentIndex": 0,
        "_position": 40
      },
      "geometry": {
        "type": "Point",
        "coordinates": [
          -73.34856879209573,
          5.560460785782278
        ]
      }
    },
    {
      "type": "Feature",
      "properties": {
        "_source": "Ruta10-Triunfo-AvenidaNorte-Muiscas",
        "_segmentIndex": 0,
        "_position": 41
      },
      "geometry": {
        "type": "Point",
        "coordinates": [
          -73.34837654095791,
          5.560867702015777
        ]
      }
    },
    {
      "type": "Feature",
      "properties": {
        "_source": "Ruta10-Triunfo-AvenidaNorte-Muiscas",
        "_segmentIndex": 0,
        "_position": 42
      },
      "geometry": {
        "type": "Point",
        "coordinates": [
          -73.34818428955424,
          5.561274618187058
        ]
      }
    },
    {
      "type": "Feature",
      "properties": {
        "_source": "Ruta10-Triunfo-AvenidaNorte-Muiscas",
        "_segmentIndex": 0,
        "_position": 43
      },
      "geometry": {
        "type": "Point",
        "coordinates": [
          -73.34799203788467,
          5.561681534296117
        ]
      }
    },
    {
      "type": "Feature",
      "properties": {
        "_source": "Ruta10-Triunfo-AvenidaNorte-Muiscas",
        "_segmentIndex": 0,
        "_position": 44
      },
      "geometry": {
        "type": "Point",
        "coordinates": [
          -73.34779978594916,
          5.5620884503429515
        ]
      }
    },
    {
      "type": "Feature",
      "properties": {
        "_source": "Ruta10-Triunfo-AvenidaNorte-Muiscas",
        "_segmentIndex": 0,
        "_position": 45
      },
      "geometry": {
        "type": "Point",
        "coordinates": [
          -73.34760753374778,
          5.562495366327555
        ]
      }
    },
    {
      "type": "Feature",
      "properties": {
        "_source": "Ruta10-Triunfo-AvenidaNorte-Muiscas",
        "_segmentIndex": 0,
        "_position": 46
      },
      "geometry": {
        "type": "Point",
        "coordinates": [
          -73.34741625202751,
          5.562902732012517
        ]
      }
    },
    {
      "type": "Feature",
      "properties": {
        "_source": "Ruta10-Triunfo-AvenidaNorte-Muiscas",
        "_segmentIndex": 0,
        "_position": 47
      },
      "geometry": {
        "type": "Point",
        "coordinates": [
          -73.34722717764602,
          5.563311120453946
        ]
      }
    },
    {
      "type": "Feature",
      "properties": {
        "_source": "Ruta10-Triunfo-AvenidaNorte-Muiscas",
        "_segmentIndex": 0,
        "_position": 48
      },
      "geometry": {
        "type": "Point",
        "coordinates": [
          -73.34703810300195,
          5.563719508835171
        ]
      }
    },
    {
      "type": "Feature",
      "properties": {
        "_source": "Ruta10-Triunfo-AvenidaNorte-Muiscas",
        "_segmentIndex": 0,
        "_position": 49
      },
      "geometry": {
        "type": "Point",
        "coordinates": [
          -73.34684902809535,
          5.5641278971561885
        ]
      }
    },
    {
      "type": "Feature",
      "properties": {
        "_source": "Ruta10-Triunfo-AvenidaNorte-Muiscas",
        "_segmentIndex": 0,
        "_position": 50
      },
      "geometry": {
        "type": "Point",
        "coordinates": [
          -73.34665995292616,
          5.564536285416993
        ]
      }
    },
    {
      "type": "Feature",
      "properties": {
        "_source": "Ruta10-Triunfo-AvenidaNorte-Muiscas",
        "_segmentIndex": 0,
        "_position": 51
      },
      "geometry": {
        "type": "Point",
        "coordinates": [
          -73.34647087749438,
          5.56494467361758
        ]
      }
    },
    {
      "type": "Feature",
      "properties": {
        "_source": "Ruta10-Triunfo-AvenidaNorte-Muiscas",
        "_segmentIndex": 0,
        "_position": 52
      },
      "geometry": {
        "type": "Point",
        "coordinates": [
          -73.34628180179998,
          5.565353061757947
        ]
      }
    },
    {
      "type": "Feature",
      "properties": {
        "_source": "Ruta10-Triunfo-AvenidaNorte-Muiscas",
        "_segmentIndex": 0,
        "_position": 53
      },
      "geometry": {
        "type": "Point",
        "coordinates": [
          -73.34609272584295,
          5.565761449838088
        ]
      }
    },
    {
      "type": "Feature",
      "properties": {
        "_source": "Ruta10-Triunfo-AvenidaNorte-Muiscas",
        "_segmentIndex": 0,
        "_position": 54
      },
      "geometry": {
        "type": "Point",
        "coordinates": [
          -73.34590364962325,
          5.5661698378579985
        ]
      }
    },
    {
      "type": "Feature",
      "properties": {
        "_source": "Ruta10-Triunfo-AvenidaNorte-Muiscas",
        "_segmentIndex": 0,
        "_position": 55
      },
      "geometry": {
        "type": "Point",
        "coordinates": [
          -73.34569460619487,
          5.566568427929427
        ]
      }
    },
    {
      "type": "Feature",
      "properties": {
        "_source": "Ruta10-Triunfo-AvenidaNorte-Muiscas",
        "_segmentIndex": 0,
        "_position": 56
      },
      "geometry": {
        "type": "Point",
        "coordinates": [
          -73.34545964813519,
          5.566951964906601
        ]
      }
    },
    {
      "type": "Feature",
      "properties": {
        "_source": "Ruta10-Triunfo-AvenidaNorte-Muiscas",
        "_segmentIndex": 0,
        "_position": 57
      },
      "geometry": {
        "type": "Point",
        "coordinates": [
          -73.34521225922474,
          5.567328221458272
        ]
      }
    },
    {
      "type": "Feature",
      "properties": {
        "_source": "Ruta10-Triunfo-AvenidaNorte-Muiscas",
        "_segmentIndex": 0,
        "_position": 58
      },
      "geometry": {
        "type": "Point",
        "coordinates": [
          -73.34496486999757,
          5.567704477906801
        ]
      }
    },
    {
      "type": "Feature",
      "properties": {
        "_source": "Ruta10-Triunfo-AvenidaNorte-Muiscas",
        "_segmentIndex": 0,
        "_position": 59
      },
      "geometry": {
        "type": "Point",
        "coordinates": [
          -73.34471748045367,
          5.568080734252184
        ]
      }
    },
    {
      "type": "Feature",
      "properties": {
        "_source": "Ruta10-Triunfo-AvenidaNorte-Muiscas",
        "_segmentIndex": 0,
        "_position": 60
      },
      "geometry": {
        "type": "Point",
        "coordinates": [
          -73.344470090593,
          5.568456990494412
        ]
      }
    },
    {
      "type": "Feature",
      "properties": {
        "_source": "Ruta10-Triunfo-AvenidaNorte-Muiscas",
        "_segmentIndex": 0,
        "_position": 61
      },
      "geometry": {
        "type": "Point",
        "coordinates": [
          -73.34422270041556,
          5.5688332466334804
        ]
      }
    },
    {
      "type": "Feature",
      "properties": {
        "_source": "Ruta10-Triunfo-AvenidaNorte-Muiscas",
        "_segmentIndex": 0,
        "_position": 62
      },
      "geometry": {
        "type": "Point",
        "coordinates": [
          -73.34396599529924,
          5.569203263211225
        ]
      }
    },
    {
      "type": "Feature",
      "properties": {
        "_source": "Ruta10-Triunfo-AvenidaNorte-Muiscas",
        "_segmentIndex": 0,
        "_position": 63
      },
      "geometry": {
        "type": "Point",
        "coordinates": [
          -73.34370890971842,
          5.569573025037817
        ]
      }
    },
    {
      "type": "Feature",
      "properties": {
        "_source": "Ruta10-Triunfo-AvenidaNorte-Muiscas",
        "_segmentIndex": 0,
        "_position": 64
      },
      "geometry": {
        "type": "Point",
        "coordinates": [
          -73.34345182381401,
          5.569942786752981
        ]
      }
    },
    {
      "type": "Feature",
      "properties": {
        "_source": "Ruta10-Triunfo-AvenidaNorte-Muiscas",
        "_segmentIndex": 0,
        "_position": 65
      },
      "geometry": {
        "type": "Point",
        "coordinates": [
          -73.343194737586,
          5.570312548356709
        ]
      }
    },
    {
      "type": "Feature",
      "properties": {
        "_source": "Ruta10-Triunfo-AvenidaNorte-Muiscas",
        "_segmentIndex": 0,
        "_position": 66
      },
      "geometry": {
        "type": "Point",
        "coordinates": [
          -73.34293765103438,
          5.570682309848994
        ]
      }
    },
    {
      "type": "Feature",
      "properties": {
        "_source": "Ruta10-Triunfo-AvenidaNorte-Muiscas",
        "_segmentIndex": 0,
        "_position": 67
      },
      "geometry": {
        "type": "Point",
        "coordinates": [
          -73.3426805641591,
          5.571052071229829
        ]
      }
    },
    {
      "type": "Feature",
      "properties": {
        "_source": "Ruta10-Triunfo-AvenidaNorte-Muiscas",
        "_segmentIndex": 0,
        "_position": 0
      },
      "geometry": {
        "type": "Point",
        "coordinates": [
          -73.342609,
          5.571155
        ]
      }
    },
    {
      "type": "Feature",
      "properties": {
        "_source": "Ruta10-Triunfo-AvenidaNorte-Muiscas",
        "_segmentIndex": 0,
        "_position": 1
      },
      "geometry": {
        "type": "Point",
        "coordinates": [
          -73.34219400011013,
          5.5710050406192515
        ]
      }
    },
    {
      "type": "Feature",
      "properties": {
        "_source": "Ruta10-Triunfo-AvenidaNorte-Muiscas",
        "_segmentIndex": 0,
        "_position": 2
      },
      "geometry": {
        "type": "Point",
        "coordinates": [
          -73.34183192730082,
          5.570736966688501
        ]
      }
    },
    {
      "type": "Feature",
      "properties": {
        "_source": "Ruta10-Triunfo-AvenidaNorte-Muiscas",
        "_segmentIndex": 0,
        "_position": 3
      },
      "geometry": {
        "type": "Point",
        "coordinates": [
          -73.3414744437863,
          5.570462004827938
        ]
      }
    },
    {
      "type": "Feature",
      "properties": {
        "_source": "Ruta10-Triunfo-AvenidaNorte-Muiscas",
        "_segmentIndex": 0,
        "_position": 4
      },
      "geometry": {
        "type": "Point",
        "coordinates": [
          -73.34111696060641,
          5.570187042751891
        ]
      }
    },
    {
      "type": "Feature",
      "properties": {
        "_source": "Ruta10-Triunfo-AvenidaNorte-Muiscas",
        "_segmentIndex": 0,
        "_position": 5
      },
      "geometry": {
        "type": "Point",
        "coordinates": [
          -73.34083288078544,
          5.569845848208614
        ]
      }
    },
    {
      "type": "Feature",
      "properties": {
        "_source": "Ruta10-Triunfo-AvenidaNorte-Muiscas",
        "_segmentIndex": 0,
        "_position": 6
      },
      "geometry": {
        "type": "Point",
        "coordinates": [
          -73.34063739556161,
          5.569445322943819
        ]
      }
    },
    {
      "type": "Feature",
      "properties": {
        "_source": "Ruta10-Triunfo-AvenidaNorte-Muiscas",
        "_segmentIndex": 0,
        "_position": 7
      },
      "geometry": {
        "type": "Point",
        "coordinates": [
          -73.3403066154473,
          5.5691396402578
        ]
      }
    },
    {
      "type": "Feature",
      "properties": {
        "_source": "Ruta10-Triunfo-AvenidaNorte-Muiscas",
        "_segmentIndex": 0,
        "_position": 8
      },
      "geometry": {
        "type": "Point",
        "coordinates": [
          -73.33994519242555,
          5.568869829449871
        ]
      }
    },
    {
      "type": "Feature",
      "properties": {
        "_source": "Ruta10-Triunfo-AvenidaNorte-Muiscas",
        "_segmentIndex": 0,
        "_position": 9
      },
      "geometry": {
        "type": "Point",
        "coordinates": [
          -73.33958376973567,
          5.568600018421744
        ]
      }
    },
    {
      "type": "Feature",
      "properties": {
        "_source": "Ruta10-Triunfo-AvenidaNorte-Muiscas",
        "_segmentIndex": 0,
        "_position": 10
      },
      "geometry": {
        "type": "Point",
        "coordinates": [
          -73.33922234737766,
          5.568330207173429
        ]
      }
    },
    {
      "type": "Feature",
      "properties": {
        "_source": "Ruta10-Triunfo-AvenidaNorte-Muiscas",
        "_segmentIndex": 0,
        "_position": 11
      },
      "geometry": {
        "type": "Point",
        "coordinates": [
          -73.33881150901026,
          5.568277986247847
        ]
      }
    },
    {
      "type": "Feature",
      "properties": {
        "_source": "Ruta10-Triunfo-AvenidaNorte-Muiscas",
        "_segmentIndex": 0,
        "_position": 12
      },
      "geometry": {
        "type": "Point",
        "coordinates": [
          -73.3384258766302,
          5.568491293050654
        ]
      }
    },
    {
      "type": "Feature",
      "properties": {
        "_source": "Ruta10-Triunfo-AvenidaNorte-Muiscas",
        "_segmentIndex": 0,
        "_position": 13
      },
      "geometry": {
        "type": "Point",
        "coordinates": [
          -73.33812868601167,
          5.568802036777996
        ]
      }
    },
    {
      "type": "Feature",
      "properties": {
        "_source": "Ruta10-Triunfo-AvenidaNorte-Muiscas",
        "_segmentIndex": 0,
        "_position": 14
      },
      "geometry": {
        "type": "Point",
        "coordinates": [
          -73.33795807005652,
          5.56921699225591
        ]
      }
    },
    {
      "type": "Feature",
      "properties": {
        "_source": "Ruta10-Triunfo-AvenidaNorte-Muiscas",
        "_segmentIndex": 0,
        "_position": 15
      },
      "geometry": {
        "type": "Point",
        "coordinates": [
          -73.33770893585634,
          5.569576744798935
        ]
      }
    },
    {
      "type": "Feature",
      "properties": {
        "_source": "Ruta10-Triunfo-AvenidaNorte-Muiscas",
        "_segmentIndex": 0,
        "_position": 16
      },
      "geometry": {
        "type": "Point",
        "coordinates": [
          -73.3372751549065,
          5.569690000006523
        ]
      }
    },
    {
      "type": "Feature",
      "properties": {
        "_source": "Ruta10-Triunfo-AvenidaNorte-Muiscas",
        "_segmentIndex": 0,
        "_position": 0
      },
      "geometry": {
        "type": "Point",
        "coordinates": [
          -73.337005,
          5.569722
        ]
      }
    },
    {
      "type": "Feature",
      "properties": {
        "_source": "Ruta10-Triunfo-AvenidaNorte-Muiscas",
        "_segmentIndex": 0,
        "_position": 1
      },
      "geometry": {
        "type": "Point",
        "coordinates": [
          -73.33661265796586,
          5.569944954372459
        ]
      }
    },
    {
      "type": "Feature",
      "properties": {
        "_source": "Ruta10-Triunfo-AvenidaNorte-Muiscas",
        "_segmentIndex": 0,
        "_position": 2
      },
      "geometry": {
        "type": "Point",
        "coordinates": [
          -73.33622206445116,
          5.570170937364228
        ]
      }
    },
    {
      "type": "Feature",
      "properties": {
        "_source": "Ruta10-Triunfo-AvenidaNorte-Muiscas",
        "_segmentIndex": 0,
        "_position": 3
      },
      "geometry": {
        "type": "Point",
        "coordinates": [
          -73.33583142505155,
          5.570396841900054
        ]
      }
    },
    {
      "type": "Feature",
      "properties": {
        "_source": "Ruta10-Triunfo-AvenidaNorte-Muiscas",
        "_segmentIndex": 0,
        "_position": 4
      },
      "geometry": {
        "type": "Point",
        "coordinates": [
          -73.33543589313417,
          5.57061266825197
        ]
      }
    },
    {
      "type": "Feature",
      "properties": {
        "_source": "Ruta10-Triunfo-AvenidaNorte-Muiscas",
        "_segmentIndex": 0,
        "_position": 5
      },
      "geometry": {
        "type": "Point",
        "coordinates": [
          -73.33501225181921,
          5.57076874558797
        ]
      }
    },
    {
      "type": "Feature",
      "properties": {
        "_source": "Ruta10-Triunfo-AvenidaNorte-Muiscas",
        "_segmentIndex": 0,
        "_position": 6
      },
      "geometry": {
        "type": "Point",
        "coordinates": [
          -73.33461224201596,
          5.570965639234084
        ]
      }
    },
    {
      "type": "Feature",
      "properties": {
        "_source": "Ruta10-Triunfo-AvenidaNorte-Muiscas",
        "_segmentIndex": 0,
        "_position": 7
      },
      "geometry": {
        "type": "Point",
        "coordinates": [
          -73.33428151241564,
          5.571268616330573
        ]
      }
    },
    {
      "type": "Feature",
      "properties": {
        "_source": "Ruta10-Triunfo-AvenidaNorte-Muiscas",
        "_segmentIndex": 0,
        "_position": 8
      },
      "geometry": {
        "type": "Point",
        "coordinates": [
          -73.33395041072954,
          5.57151922234463
        ]
      }
    },
    {
      "type": "Feature",
      "properties": {
        "_source": "Ruta10-Triunfo-AvenidaNorte-Muiscas",
        "_segmentIndex": 0,
        "_position": 9
      },
      "geometry": {
        "type": "Point",
        "coordinates": [
          -73.33366221709183,
          5.571179318831862
        ]
      }
    },
    {
      "type": "Feature",
      "properties": {
        "_source": "Ruta10-Triunfo-AvenidaNorte-Muiscas",
        "_segmentIndex": 0,
        "_position": 10
      },
      "geometry": {
        "type": "Point",
        "coordinates": [
          -73.33336958896774,
          5.57083682632511
        ]
      }
    },
    {
      "type": "Feature",
      "properties": {
        "_source": "Ruta10-Triunfo-AvenidaNorte-Muiscas",
        "_segmentIndex": 0,
        "_position": 11
      },
      "geometry": {
        "type": "Point",
        "coordinates": [
          -73.33312532081119,
          5.570458606171246
        ]
      }
    },
    {
      "type": "Feature",
      "properties": {
        "_source": "Ruta10-Triunfo-AvenidaNorte-Muiscas",
        "_segmentIndex": 0,
        "_position": 12
      },
      "geometry": {
        "type": "Point",
        "coordinates": [
          -73.33289092490433,
          5.5700741968969805
        ]
      }
    },
    {
      "type": "Feature",
      "properties": {
        "_source": "Ruta10-Triunfo-AvenidaNorte-Muiscas",
        "_segmentIndex": 0,
        "_position": 13
      },
      "geometry": {
        "type": "Point",
        "coordinates": [
          -73.33265304400096,
          5.5696919184093705
        ]
      }
    }
  ]
}