{
  "type": "FeatureCollection",
  "features": [
    {
      "type": "Feature",
      "properties": {
        "_source": "Ruta21-Runta-Estadio-Terminal-Pirgua",
        "_segmentIndex": 0,
        "_position": 0
      },
      "geometry": {
        "type": "Point",
        "coordinates": [
          -73.373406,
          5.509265
        ]
      }
    },
    {
      "type": "Feature",
      "properties": {
        "_source": "Ruta21-Runta-Estadio-Terminal-Pirgua",
        "_segmentIndex": 0,
        "_position": 1
      },
      "geometry": {
        "type": "Point",
        "coordinates": [
          -73.37321961555013,
          5.509674603882579
        ]
      }
    },
    {
      "type": "Feature",
      "properties": {
        "_source": "Ruta21-Runta-Estadio-Terminal-Pirgua",
        "_segmentIndex": 0,
        "_position": 2
      },
      "geometry": {
        "type": "Point",
        "coordinates": [
          -73.37303681151404,
          5.5100857931160725
        ]
      }
    },
    {
      "type": "Feature",
      "properties": {
        "_source": "Ruta21-Runta-Estadio-Terminal-Pirgua",
        "_segmentIndex": 0,
        "_position": 3
      },
      "geometry": {
        "type": "Point",
        "coordinates": [
          -73.37285599879479,
          5.510497864098711
        ]
      }
    },
    {
      "type": "Feature",
      "properties": {
        "_source": "Ruta21-Runta-Estadio-Terminal-Pirgua",
        "_segmentIndex": 0,
        "_position": 4
      },
      "geometry": {
        "type": "Point",
        "coordinates": [
          -73.37267518582465,
          5.510909935026808
        ]
      }
    },
    {
      "type": "Feature",
      "properties": {
        "_source": "Ruta21-Runta-Estadio-Terminal-Pirgua",
        "_segmentIndex": 0,
        "_position": 5
      },
      "geometry": {
        "type": "Point",
        "coordinates": [
          -73.3724908859624,
          5.5113204401177045
        ]
      }
    },
    {
      "type": "Feature",
      "properties": {
        "_source": "Ruta21-Runta-Estadio-Terminal-Pirgua",
        "_segmentIndex": 0,
        "_position": 6
      },
      "geometry": {
        "type": "Point",
        "coordinates": [
          -73.37230016431234,
          5.511728061366042
        ]
      }
    },
    {
      "type": "Feature",
      "properties": {
        "_source": "Ruta21-Runta-Estadio-Terminal-Pirgua",
        "_segmentIndex": 0,
        "_position": 7
      },
      "geometry": {
        "type": "Point",
        "coordinates": [
          -73.37210944240043,
          5.51213568255368
        ]
      }
    },
    {
      "type": "Feature",
      "properties": {
        "_source": "Ruta21-Runta-Estadio-Terminal-Pirgua",
        "_segmentIndex": 0,
        "_position": 8
      },
      "geometry": {
        "type": "Point",
        "coordinates": [
          -73.3719168834496,
          5.512542416788655
        ]
      }
    },
    {
      "type": "Feature",
      "properties": {
        "_source": "Ruta21-Runta-Estadio-Terminal-Pirgua",
        "_segmentIndex": 0,
        "_position": 9
      },
      "geometry": {
        "type": "Point",
        "coordinates": [
          -73.37171081648411,
          5.51294247009084
        ]
      }
    },
    {
      "type": "Feature",
      "properties": {
        "_source": "Ruta21-Runta-Estadio-Terminal-Pirgua",
        "_segmentIndex": 0,
        "_position": 10
      },
      "geometry": {
        "type": "Point",
        "coordinates": [
          -73.37145662921955,
          5.513312096403878
        ]
      }
    },
    {
      "type": "Feature",
      "properties": {
        "_source": "Ruta21-Runta-Estadio-Terminal-Pirgua",
        "_segmentIndex": 0,
        "_position": 11
      },
      "geometry": {
        "type": "Point",
        "coordinates": [
          -73.37113939577367,
          5.513621962874101
        ]
      }
    },
    {
      "type": "Feature",
      "properties": {
        "_source": "Ruta21-Runta-Estadio-Terminal-Pirgua",
        "_segmentIndex": 0,
        "_position": 0
      },
      "geometry": {
        "type": "Point",
        "coordinates": [
          -73.371142,
          5.513727
        ]
      }
    },
    {
      "type": "Feature",
      "properties": {
        "_source": "Ruta21-Runta-Estadio-Terminal-Pirgua",
        "_segmentIndex": 0,
        "_position": 1
      },
      "geometry": {
        "type": "Point",
        "coordinates": [
          -73.37118379659937,
          5.514136558421514
        ]
      }
    },
    {
      "type": "Feature",
      "properties": {
        "_source": "Ruta21-Runta-Estadio-Terminal-Pirgua",
        "_segmentIndex": 0,
        "_position": 2
      },
      "geometry": {
        "type": "Point",
        "coordinates": [
          -73.37097593470457,
          5.514535117183813
        ]
      }
    },
    {
      "type": "Feature",
      "properties": {
        "_source": "Ruta21-Runta-Estadio-Terminal-Pirgua",
        "_segmentIndex": 0,
        "_position": 3
      },
      "geometry": {
        "type": "Point",
        "coordinates": [
          -73.37081065993732,
          5.514951918907972
        ]
      }
    },
    {
      "type": "Feature",
      "properties": {
        "_source": "Ruta21-Runta-Estadio-Terminal-Pirgua",
        "_segmentIndex": 0,
        "_position": 4
      },
      "geometry": {
        "type": "Point",
        "coordinates": [
          -73.37070113962267,
          5.515388164681395
        ]
      }
    },
    {
      "type": "Feature",
      "properties": {
        "_source": "Ruta21-Runta-Estadio-Terminal-Pirgua",
        "_segmentIndex": 0,
        "_position": 5
      },
      "geometry": {
        "type": "Point",
        "coordinates": [
          -73.37060260465283,
          5.515826905024049
        ]
      }
    },
    {
      "type": "Feature",
      "properties": {
        "_source": "Ruta21-Runta-Estadio-Terminal-Pirgua",
        "_segmentIndex": 0,
        "_position": 6
      },
      "geometry": {
        "type": "Point",
        "coordinates": [
          -73.37051025714453,
          5.516267064263882
        ]
      }
    },
    {
      "type": "Feature",
      "properties": {
        "_source": "Ruta21-Runta-Estadio-Terminal-Pirgua",
        "_segmentIndex": 0,
        "_position": 7
      },
      "geometry": {
        "type": "Point",
        "coordinates": [
          -73.37041298072627,
          5.516706175896792
        ]
      }
    },
    {
      "type": "Feature",
      "properties": {
        "_source": "Ruta21-Runta-Estadio-Terminal-Pirgua",
        "_segmentIndex": 0,
        "_position": 8
      },
      "geometry": {
        "type": "Point",
        "coordinates": [
          -73.370315704164,
          5.517145287513897
        ]
      }
    },
    {
      "type": "Feature",
      "properties": {
        "_source": "Ruta21-Runta-Estadio-Terminal-Pirgua",
        "_segmentIndex": 0,
        "_position": 9
      },
      "geometry": {
        "type": "Point",
        "coordinates": [
          -73.37021225388307,
          5.517582968844624
        ]
      }
    },
    {
      "type": "Feature",
      "properties": {
        "_source": "Ruta21-Runta-Estadio-Terminal-Pirgua",
        "_segmentIndex": 0,
        "_position": 10
      },
      "geometry": {
        "type": "Point",
        "coordinates": [
          -73.36989749537881,
          5.517872387435461
        ]
      }
    },
    {
      "type": "Feature",
      "properties": {
        "_source": "Ruta21-Runta-Estadio-Terminal-Pirgua",
        "_segmentIndex": 0,
        "_position": 11
      },
      "geometry": {
        "type": "Point",
        "coordinates": [
          -73.36944964280342,
          5.517916609099406
        ]
      }
    },
    {
      "type": "Feature",
      "properties": {
        "_source": "Ruta21-Runta-Estadio-Terminal-Pirgua",
        "_segmentIndex": 0,
        "_position": 12
      },
      "geometry": {
        "type": "Point",
        "coordinates": [
          -73.36900324444555,
          5.517977299154099
        ]
      }
    },
    {
      "type": "Feature",
      "properties": {
        "_source": "Ruta21-Runta-Estadio-Terminal-Pirgua",
        "_segmentIndex": 0,
        "_position": 13
      },
      "geometry": {
        "type": "Point",
        "coordinates": [
          -73.3685640349742,
          5.518082477046325
        ]
      }
    },
    {
      "type": "Feature",
      "properties": {
        "_source": "Ruta21-Runta-Estadio-Terminal-Pirgua",
        "_segmentIndex": 0,
        "_position": 14
      },
      "geometry": {
        "type": "Point",
        "coordinates": [
          -73.3681247484628,
          5.518187334792926
        ]
      }
    },
    {
      "type": "Feature",
      "properties": {
        "_source": "Ruta21-Runta-Estadio-Terminal-Pirgua",
        "_segmentIndex": 0,
        "_position": 15
      },
      "geometry": {
        "type": "Point",
        "coordinates": [
          -73.36768552276206,
          5.51829244400692
        ]
      }
    },
    {
      "type": "Feature",
      "properties": {
        "_source": "Ruta21-Runta-Estadio-Terminal-Pirgua",
        "_segmentIndex": 0,
        "_position": 0
      },
      "geometry": {
        "type": "Point",
        "coordinates": [
          -73.367522,
          5.51834
        ]
      }
    },
    {
      "type": "Feature",
      "properties": {
        "_source": "Ruta21-Runta-Estadio-Terminal-Pirgua",
        "_segmentIndex": 0,
        "_position": 1
      },
      "geometry": {
        "type": "Point",
        "coordinates": [
          -73.36743883741543,
          5.518775691237132
        ]
      }
    },
    {
      "type": "Feature",
      "properties": {
        "_source": "Ruta21-Runta-Estadio-Terminal-Pirgua",
        "_segmentIndex": 0,
        "_position": 2
      },
      "geometry": {
        "type": "Point",
        "coordinates": [
          -73.36739001430297,
          5.519222681487525
        ]
      }
    },
    {
      "type": "Feature",
      "properties": {
        "_source": "Ruta21-Runta-Estadio-Terminal-Pirgua",
        "_segmentIndex": 0,
        "_position": 3
      },
      "geometry": {
        "type": "Point",
        "coordinates": [
          -73.36732482515158,
          5.519667635381946
        ]
      }
    },
    {
      "type": "Feature",
      "properties": {
        "_source": "Ruta21-Runta-Estadio-Terminal-Pirgua",
        "_segmentIndex": 0,
        "_position": 4
      },
      "geometry": {
        "type": "Point",
        "coordinates": [
          -73.36723091071153,
          5.520107212617563
        ]
      }
    },
    {
      "type": "Feature",
      "properties": {
        "_source": "Ruta21-Runta-Estadio-Terminal-Pirgua",
        "_segmentIndex": 0,
        "_position": 5
      },
      "geometry": {
        "type": "Point",
        "coordinates": [
          -73.36711885911721,
          5.520542588276494
        ]
      }
    },
    {
      "type": "Feature",
      "properties": {
        "_source": "Ruta21-Runta-Estadio-Terminal-Pirgua",
        "_segmentIndex": 0,
        "_position": 6
      },
      "geometry": {
        "type": "Point",
        "coordinates": [
          -73.36698842138573,
          5.520973096991009
        ]
      }
    },
    {
      "type": "Feature",
      "properties": {
        "_source": "Ruta21-Runta-Estadio-Terminal-Pirgua",
        "_segmentIndex": 0,
        "_position": 7
      },
      "geometry": {
        "type": "Point",
        "coordinates": [
          -73.36687268640165,
          5.521407686235741
        ]
      }
    },
    {
      "type": "Feature",
      "properties": {
        "_source": "Ruta21-Runta-Estadio-Terminal-Pirgua",
        "_segmentIndex": 0,
        "_position": 8
      },
      "geometry": {
        "type": "Point",
        "coordinates": [
          -73.36676051039741,
          5.521843263241553
        ]
      }
    },
    {
      "type": "Feature",
      "properties": {
        "_source": "Ruta21-Runta-Estadio-Terminal-Pirgua",
        "_segmentIndex": 0,
        "_position": 9
      },
      "geometry": {
        "type": "Point",
        "coordinates": [
          -73.36663712217248,
          5.522275443020834
        ]
      }
    },
    {
      "type": "Feature",
      "properties": {
        "_source": "Ruta21-Runta-Estadio-Terminal-Pirgua",
        "_segmentIndex": 0,
        "_position": 10
      },
      "geometry": {
        "type": "Point",
        "coordinates": [
          -73.36650679482571,
          5.522704767147636
        ]
      }
    },
    {
      "type": "Feature",
      "properties": {
        "_source": "Ruta21-Runta-Estadio-Terminal-Pirgua",
        "_segmentIndex": 0,
        "_position": 11
      },
      "geometry": {
        "type": "Point",
        "coordinates": [
          -73.36642493974125,
          5.52314698438858
        ]
      }
    },
    {
      "type": "Feature",
      "properties": {
        "_source": "Ruta21-Runta-Estadio-Terminal-Pirgua",
        "_segmentIndex": 0,
        "_position": 12
      },
      "geometry": {
        "type": "Point",
        "coordinates": [
          -73.36633482744855,
          5.5235874135997145
        ]
      }
    },
    {
      "type": "Feature",
      "properties": {
        "_source": "Ruta21-Runta-Estadio-Terminal-Pirgua",
        "_segmentIndex": 0,
        "_position": 13
      },
      "geometry": {
        "type": "Point",
        "coordinates": [
          -73.36621915889282,
          5.524021864434318
        ]
      }
    },
    {
      "type": "Feature",
      "properties": {
        "_source": "Ruta21-Runta-Estadio-Terminal-Pirgua",
        "_segmentIndex": 0,
        "_position": 0
      },
      "geometry": {
        "type": "Point",
        "coordinates": [
          -73.366126,
          5.52429
        ]
      }
    },
    {
      "type": "Feature",
      "properties": {
        "_source": "Ruta21-Runta-Estadio-Terminal-Pirgua",
        "_segmentIndex": 0,
        "_position": 1
      },
      "geometry": {
        "type": "Point",
        "coordinates": [
          -73.36639765165532,
          5.5246460575309
        ]
      }
    },
    {
      "type": "Feature",
      "properties": {
        "_source": "Ruta21-Runta-Estadio-Terminal-Pirgua",
        "_segmentIndex": 0,
        "_position": 2
      },
      "geometry": {
        "type": "Point",
        "coordinates": [
          -73.36657841586552,
          5.525049066458757
        ]
      }
    },
    {
      "type": "Feature",
      "properties": {
        "_source": "Ruta21-Runta-Estadio-Terminal-Pirgua",
        "_segmentIndex": 0,
        "_position": 3
      },
      "geometry": {
        "type": "Point",
        "coordinates": [
          -73.36648794611885,
          5.525489154525562
        ]
      }
    },
    {
      "type": "Feature",
      "properties": {
        "_source": "Ruta21-Runta-Estadio-Terminal-Pirgua",
        "_segmentIndex": 0,
        "_position": 4
      },
      "geometry": {
        "type": "Point",
        "coordinates": [
          -73.36637684610206,
          5.525924957841381
        ]
      }
    },
    {
      "type": "Feature",
      "properties": {
        "_source": "Ruta21-Runta-Estadio-Terminal-Pirgua",
        "_segmentIndex": 0,
        "_position": 5
      },
      "geometry": {
        "type": "Point",
        "coordinates": [
          -73.36634847170141,
          5.526372226088549
        ]
      }
    },
    {
      "type": "Feature",
      "properties": {
        "_source": "Ruta21-Runta-Estadio-Terminal-Pirgua",
        "_segmentIndex": 0,
        "_position": 6
      },
      "geometry": {
        "type": "Point",
        "coordinates": [
          -73.36635762947952,
          5.526821681249665
        ]
      }
    },
    {
      "type": "Feature",
      "properties": {
        "_source": "Ruta21-Runta-Estadio-Terminal-Pirgua",
        "_segmentIndex": 0,
        "_position": 7
      },
      "geometry": {
        "type": "Point",
        "coordinates": [
          -73.36635613708535,
          5.5272699279259765
        ]
      }
    },
    {
      "type": "Feature",
      "properties": {
        "_source": "Ruta21-Runta-Estadio-Terminal-Pirgua",
        "_segmentIndex": 0,
        "_position": 8
      },
      "geometry": {
        "type": "Point",
        "coordinates": [
          -73.36631912732066,
          5.52771805383193
        ]
      }
    },
    {
      "type": "Feature",
      "properties": {
        "_source": "Ruta21-Runta-Estadio-Terminal-Pirgua",
        "_segmentIndex": 0,
        "_position": 9
      },
      "geometry": {
        "type": "Point",
        "coordinates": [
          -73.36641830677596,
          5.528150624179225
        ]
      }
    },
    {
      "type": "Feature",
      "properties": {
        "_source": "Ruta21-Runta-Estadio-Terminal-Pirgua",
        "_segmentIndex": 0,
        "_position": 0
      },
      "geometry": {
        "type": "Point",
        "coordinates": [
          -73.366425,
          5.528171
        ]
      }
    },
    {
      "type": "Feature",
      "properties": {
        "_source": "Ruta21-Runta-Estadio-Terminal-Pirgua",
        "_segmentIndex": 0,
        "_position": 1
      },
      "geometry": {
        "type": "Point",
        "coordinates": [
          -73.3660138260615,
          5.5283507095249895
        ]
      }
    },
    {
      "type": "Feature",
      "properties": {
        "_source": "Ruta21-Runta-Estadio-Terminal-Pirgua",
        "_segmentIndex": 0,
        "_position": 2
      },
      "geometry": {
        "type": "Point",
        "coordinates": [
          -73.36569869410633,
          5.5286697082062695
        ]
      }
    },
    {
      "type": "Feature",
      "properties": {
        "_source": "Ruta21-Runta-Estadio-Terminal-Pirgua",
        "_segmentIndex": 0,
        "_position": 3
      },
      "geometry": {
        "type": "Point",
        "coordinates": [
          -73.3653990831002,
          5.529006224785071
        ]
      }
    },
    {
      "type": "Feature",
      "properties": {
        "_source": "Ruta21-Runta-Estadio-Terminal-Pirgua",
        "_segmentIndex": 0,
        "_position": 4
      },
      "geometry": {
        "type": "Point",
        "coordinates": [
          -73.36522860188123,
          5.529417744287873
        ]
      }
    },
    {
      "type": "Feature",
      "properties": {
        "_source": "Ruta21-Runta-Estadio-Terminal-Pirgua",
        "_segmentIndex": 0,
        "_position": 5
      },
      "geometry": {
        "type": "Point",
        "coordinates": [
          -73.36510131905234,
          5.529848994750383
        ]
      }
    },
    {
      "type": "Feature",
      "properties": {
        "_source": "Ruta21-Runta-Estadio-Terminal-Pirgua",
        "_segmentIndex": 0,
        "_position": 6
      },
      "geometry": {
        "type": "Point",
        "coordinates": [
          -73.36497944401141,
          5.530281970466118
        ]
      }
    },
    {
      "type": "Feature",
      "properties": {
        "_source": "Ruta21-Runta-Estadio-Terminal-Pirgua",
        "_segmentIndex": 0,
        "_position": 7
      },
      "geometry": {
        "type": "Point",
        "coordinates": [
          -73.36485418788263,
          5.530714001605793
        ]
      }
    },
    {
      "type": "Feature",
      "properties": {
        "_source": "Ruta21-Runta-Estadio-Terminal-Pirgua",
        "_segmentIndex": 0,
        "_position": 8
      },
      "geometry": {
        "type": "Point",
        "coordinates": [
          -73.36472879001208,
          5.531145991290588
        ]
      }
    },
    {
      "type": "Feature",
      "properties": {
        "_source": "Ruta21-Runta-Estadio-Terminal-Pirgua",
        "_segmentIndex": 0,
        "_position": 9
      },
      "geometry": {
        "type": "Point",
        "coordinates": [
          -73.36459917528408,
          5.531576746896981
        ]
      }
    },
    {
      "type": "Feature",
      "properties": {
        "_source": "Ruta21-Runta-Estadio-Terminal-Pirgua",
        "_segmentIndex": 0,
        "_position": 10
      },
      "geometry": {
        "type": "Point",
        "coordinates": [
          -73.36447905834656,
          5.532010183233815
        ]
      }
    },
    {
      "type": "Feature",
      "properties": {
        "_source": "Ruta21-Runta-Estadio-Terminal-Pirgua",
        "_segmentIndex": 0,
        "_position": 11
      },
      "geometry": {
        "type": "Point",
        "coordinates": [
          -73.36434695753353,
          5.532439900595848
        ]
      }
    },
    {
      "type": "Feature",
      "properties": {
        "_source": "Ruta21-Runta-Estadio-Terminal-Pirgua",
        "_segmentIndex": 0,
        "_position": 12
      },
      "geometry": {
        "type": "Point",
        "coordinates": [
          -73.36420142666482,
          5.532865572176351
        ]
      }
    },
    {
      "type": "Feature",
      "properties": {
        "_source": "Ruta21-Runta-Estadio-Terminal-Pirgua",
        "_segmentIndex": 0,
        "_position": 13
      },
      "geometry": {
        "type": "Point",
        "coordinates": [
          -73.36406460838336,
          5.5332941151356
        ]
      }
    },
    {
      "type": "Feature",
      "properties": {
        "_source": "Ruta21-Runta-Estadio-Terminal-Pirgua",
        "_segmentIndex": 0,
        "_position": 14
      },
      "geometry": {
        "type": "Point",
        "coordinates": [
          -73.3639278406967,
          5.53372267203871
        ]
      }
    },
    {
      "type": "Feature",
      "properties": {
        "_source": "Ruta21-Runta-Estadio-Terminal-Pirgua",
        "_segmentIndex": 0,
        "_position": 15
      },
      "geometry": {
        "type": "Point",
        "coordinates": [
          -73.36382409941288,
          5.5341603158571795
        ]
      }
    },
    {
      "type": "Feature",
      "properties": {
        "_source": "Ruta21-Runta-Estadio-Terminal-Pirgua",
        "_segmentIndex": 0,
        "_position": 16
      },
      "geometry": {
        "type": "Point",
        "coordinates": [
          -73.3637203579755,
          5.53459795965762
        ]
      }
    },
    {
      "type": "Feature",
      "properties": {
        "_source": "Ruta21-Runta-Estadio-Terminal-Pirgua",
        "_segmentIndex": 0,
        "_position": 17
      },
      "geometry": {
        "type": "Point",
        "coordinates": [
          -73.36359449477824,
          5.535029739691944
        ]
      }
    },
    {
      "type": "Feature",
      "properties": {
        "_source": "Ruta21-Runta-Estadio-Terminal-Pirgua",
        "_segmentIndex": 0,
        "_position": 18
      },
      "geometry": {
        "type": "Point",
        "coordinates": [
          -73.36346251748274,
          5.535459784262224
        ]
      }
    },
    {
      "type": "Feature",
      "properties": {
        "_source": "Ruta21-Runta-Estadio-Terminal-Pirgua",
        "_segmentIndex": 0,
        "_position": 19
      },
      "geometry": {
        "type": "Point",
        "coordinates": [
          -73.3633331046289,
          5.535886266825767
        ]
      }
    },
    {
      "type": "Feature",
      "properties": {
        "_source": "Ruta21-Runta-Estadio-Terminal-Pirgua",
        "_segmentIndex": 0,
        "_position": 0
      },
      "geometry": {
        "type": "Point",
        "coordinates": [
          -73.363244,
          5.536322
        ]
      }
    },
    {
      "type": "Feature",
      "properties": {
        "_source": "Ruta21-Runta-Estadio-Terminal-Pirgua",
        "_segmentIndex": 0,
        "_position": 1
      },
      "geometry": {
        "type": "Point",
        "coordinates": [
          -73.36279764645414,
          5.536383986629334
        ]
      }
    },
    {
      "type": "Feature",
      "properties": {
        "_source": "Ruta21-Runta-Estadio-Terminal-Pirgua",
        "_segmentIndex": 0,
        "_position": 2
      },
      "geometry": {
        "type": "Point",
        "coordinates": [
          -73.36234872448816,
          5.536433702361769
        ]
      }
    },
    {
      "type": "Feature",
      "properties": {
        "_source": "Ruta21-Runta-Estadio-Terminal-Pirgua",
        "_segmentIndex": 0,
        "_position": 3
      },
      "geometry": {
        "type": "Point",
        "coordinates": [
          -73.36190423408205,
          5.536507153001569
        ]
      }
    },
    {
      "type": "Feature",
      "properties": {
        "_source": "Ruta21-Runta-Estadio-Terminal-Pirgua",
        "_segmentIndex": 0,
        "_position": 4
      },
      "geometry": {
        "type": "Point",
        "coordinates": [
          -73.36155082218937,
          5.536779457784486
        ]
      }
    },
    {
      "type": "Feature",
      "properties": {
        "_source": "Ruta21-Runta-Estadio-Terminal-Pirgua",
        "_segmentIndex": 0,
        "_position": 5
      },
      "geometry": {
        "type": "Point",
        "coordinates": [
          -73.361295182242,
          5.537145577990298
        ]
      }
    },
    {
      "type": "Feature",
      "properties": {
        "_source": "Ruta21-Runta-Estadio-Terminal-Pirgua",
        "_segmentIndex": 0,
        "_position": 6
      },
      "geometry": {
        "type": "Point",
        "coordinates": [
          -73.36105034005108,
          5.537519512316617
        ]
      }
    },
    {
      "type": "Feature",
      "properties": {
        "_source": "Ruta21-Runta-Estadio-Terminal-Pirgua",
        "_segmentIndex": 0,
        "_position": 7
      },
      "geometry": {
        "type": "Point",
        "coordinates": [
          -73.36065186543804,
          5.537730702131665
        ]
      }
    },
    {
      "type": "Feature",
      "properties": {
        "_source": "Ruta21-Runta-Estadio-Terminal-Pirgua",
        "_segmentIndex": 0,
        "_position": 0
      },
      "geometry": {
        "type": "Point",
        "coordinates": [
          -73.360408,
          5.537935
        ]
      }
    },
    {
      "type": "Feature",
      "properties": {
        "_source": "Ruta21-Runta-Estadio-Terminal-Pirgua",
        "_segmentIndex": 0,
        "_position": 1
      },
      "geometry": {
        "type": "Point",
        "coordinates": [
          -73.36023044512562,
          5.538342287552127
        ]
      }
    },
    {
      "type": "Feature",
      "properties": {
        "_source": "Ruta21-Runta-Estadio-Terminal-Pirgua",
        "_segmentIndex": 0,
        "_position": 2
      },
      "geometry": {
        "type": "Point",
        "coordinates": [
          -73.36012962225274,
          5.5387806019205135
        ]
      }
    },
    {
      "type": "Feature",
      "properties": {
        "_source": "Ruta21-Runta-Estadio-Terminal-Pirgua",
        "_segmentIndex": 0,
        "_position": 3
      },
      "geometry": {
        "type": "Point",
        "coordinates": [
          -73.36002392049738,
          5.539217780960158
        ]
      }
    },
    {
      "type": "Feature",
      "properties": {
        "_source": "Ruta21-Runta-Estadio-Terminal-Pirgua",
        "_segmentIndex": 0,
        "_position": 4
      },
      "geometry": {
        "type": "Point",
        "coordinates": [
          -73.35991821858556,
          5.539654959981066
        ]
      }
    },
    {
      "type": "Feature",
      "properties": {
        "_source": "Ruta21-Runta-Estadio-Terminal-Pirgua",
        "_segmentIndex": 0,
        "_position": 5
      },
      "geometry": {
        "type": "Point",
        "coordinates": [
          -73.35980164156435,
          5.540089389812957
        ]
      }
    },
    {
      "type": "Feature",
      "properties": {
        "_source": "Ruta21-Runta-Estadio-Terminal-Pirgua",
        "_segmentIndex": 0,
        "_position": 6
      },
      "geometry": {
        "type": "Point",
        "coordinates": [
          -73.35963954080198,
          5.540508221173604
        ]
      }
    },
    {
      "type": "Feature",
      "properties": {
        "_source": "Ruta21-Runta-Estadio-Terminal-Pirgua",
        "_segmentIndex": 0,
        "_position": 7
      },
      "geometry": {
        "type": "Point",
        "coordinates": [
          -73.35947013185182,
          5.540924998933768
        ]
      }
    },
    {
      "type": "Feature",
      "properties": {
        "_source": "Ruta21-Runta-Estadio-Terminal-Pirgua",
        "_segmentIndex": 0,
        "_position": 8
      },
      "geometry": {
        "type": "Point",
        "coordinates": [
          -73.35928129530373,
          5.541332252904038
        ]
      }
    },
    {
      "type": "Feature",
      "properties": {
        "_source": "Ruta21-Runta-Estadio-Terminal-Pirgua",
        "_segmentIndex": 0,
        "_position": 9
      },
      "geometry": {
        "type": "Point",
        "coordinates": [
          -73.35906806854165,
          5.541728300843996
        ]
      }
    },
    {
      "type": "Feature",
      "properties": {
        "_source": "Ruta21-Runta-Estadio-Terminal-Pirgua",
        "_segmentIndex": 0,
        "_position": 10
      },
      "geometry": {
        "type": "Point",
        "coordinates": [
          -73.35890186174362,
          5.542145889232513
        ]
      }
    },
    {
      "type": "Feature",
      "properties": {
        "_source": "Ruta21-Runta-Estadio-Terminal-Pirgua",
        "_segmentIndex": 0,
        "_position": 11
      },
      "geometry": {
        "type": "Point",
        "coordinates": [
          -73.3588355810299,
          5.542587244155486
        ]
      }
    },
    {
      "type": "Feature",
      "properties": {
        "_source": "Ruta21-Runta-Estadio-Terminal-Pirgua",
        "_segmentIndex": 0,
        "_position": 12
      },
      "geometry": {
        "type": "Point",
        "coordinates": [
          -73.35871719779044,
          5.542989133350901
        ]
      }
    },
    {
      "type": "Feature",
      "properties": {
        "_source": "Ruta21-Runta-Estadio-Terminal-Pirgua",
        "_segmentIndex": 0,
        "_position": 13
      },
      "geometry": {
        "type": "Point",
        "coordinates": [
          -73.35844807245778,
          5.543350257844336
        ]
      }
    },
    {
      "type": "Feature",
      "properties": {
        "_source": "Ruta21-Runta-Estadio-Terminal-Pirgua",
        "_segmentIndex": 0,
        "_position": 14
      },
      "geometry": {
        "type": "Point",
        "coordinates": [
          -73.35817729505948,
          5.543710177770277
        ]
      }
    },
    {
      "type": "Feature",
      "properties": {
        "_source": "Ruta21-Runta-Estadio-Terminal-Pirgua",
        "_segmentIndex": 0,
        "_position": 15
      },
      "geometry": {
        "type": "Point",
        "coordinates": [
          -73.35789866154134,
          5.544063740243838
        ]
      }
    },
    {
      "type": "Feature",
      "properties": {
        "_source": "Ruta21-Runta-Estadio-Terminal-Pirgua",
        "_segmentIndex": 0,
        "_position": 0
      },
      "geometry": {
        "type": "Point",
        "coordinates": [
          -73.35768,
          5.544246
        ]
      }
    },
    {
      "type": "Feature",
      "properties": {
        "_source": "Ruta21-Runta-Estadio-Terminal-Pirgua",
        "_segmentIndex": 0,
        "_position": 1
      },
      "geometry": {
        "type": "Point",
        "coordinates": [
          -73.35731529110804,
          5.544439886172411
        ]
      }
    },
    {
      "type": "Feature",
      "properties": {
        "_source": "Ruta21-Runta-Estadio-Terminal-Pirgua",
        "_segmentIndex": 0,
        "_position": 0
      },
      "geometry": {
        "type": "Point",
        "coordinates": [
          -73.357259,
          5.544822
        ]
      }
    },
    {
      "type": "Feature",
      "properties": {
        "_source": "Ruta21-Runta-Estadio-Terminal-Pirgua",
        "_segmentIndex": 0,
        "_position": 1
      },
      "geometry": {
        "type": "Point",
        "coordinates": [
          -73.35704597433603,
          5.545216841090692
        ]
      }
    },
    {
      "type": "Feature",
      "properties": {
        "_source": "Ruta21-Runta-Estadio-Terminal-Pirgua",
        "_segmentIndex": 0,
        "_position": 2
      },
      "geometry": {
        "type": "Point",
        "coordinates": [
          -73.35677752770867,
          5.545578179329946
        ]
      }
    },
    {
      "type": "Feature",
      "properties": {
        "_source": "Ruta21-Runta-Estadio-Terminal-Pirgua",
        "_segmentIndex": 0,
        "_position": 3
      },
      "geometry": {
        "type": "Point",
        "coordinates": [
          -73.356502405514,
          5.545934841688841
        ]
      }
    },
    {
      "type": "Feature",
      "properties": {
        "_source": "Ruta21-Runta-Estadio-Terminal-Pirgua",
        "_segmentIndex": 0,
        "_position": 4
      },
      "geometry": {
        "type": "Point",
        "coordinates": [
          -73.3562387570199,
          5.546299922428166
        ]
      }
    },
    {
      "type": "Feature",
      "properties": {
        "_source": "Ruta21-Runta-Estadio-Terminal-Pirgua",
        "_segmentIndex": 0,
        "_position": 5
      },
      "geometry": {
        "type": "Point",
        "coordinates": [
          -73.35597778694148,
          5.546666971645536
        ]
      }
    },
    {
      "type": "Feature",
      "properties": {
        "_source": "Ruta21-Runta-Estadio-Terminal-Pirgua",
        "_segmentIndex": 0,
        "_position": 6
      },
      "geometry": {
        "type": "Point",
        "coordinates": [
          -73.35571301655679,
          5.547031203485077
        ]
      }
    },
    {
      "type": "Feature",
      "properties": {
        "_source": "Ruta21-Runta-Estadio-Terminal-Pirgua",
        "_segmentIndex": 0,
        "_position": 7
      },
      "geometry": {
        "type": "Point",
        "coordinates": [
          -73.35544515164139,
          5.547393065737441
        ]
      }
    },
    {
      "type": "Feature",
      "properties": {
        "_source": "Ruta21-Runta-Estadio-Terminal-Pirgua",
        "_segmentIndex": 0,
        "_position": 8
      },
      "geometry": {
        "type": "Point",
        "coordinates": [
          -73.35518754606649,
          5.547762462302474
        ]
      }
    },
    {
      "type": "Feature",
      "properties": {
        "_source": "Ruta21-Runta-Estadio-Terminal-Pirgua",
        "_segmentIndex": 0,
        "_position": 9
      },
      "geometry": {
        "type": "Point",
        "coordinates": [
          -73.3549134293447,
          5.548119802870568
        ]
      }
    },
    {
      "type": "Feature",
      "properties": {
        "_source": "Ruta21-Runta-Estadio-Terminal-Pirgua",
        "_segmentIndex": 0,
        "_position": 10
      },
      "geometry": {
        "type": "Point",
        "coordinates": [
          -73.35463626840439,
          5.548474900098279
        ]
      }
    },
    {
      "type": "Feature",
      "properties": {
        "_source": "Ruta21-Runta-Estadio-Terminal-Pirgua",
        "_segmentIndex": 0,
        "_position": 11
      },
      "geometry": {
        "type": "Point",
        "coordinates": [
          -73.35435892133074,
          5.548829853656996
        ]
      }
    },
    {
      "type": "Feature",
      "properties": {
        "_source": "Ruta21-Runta-Estadio-Terminal-Pirgua",
        "_segmentIndex": 0,
        "_position": 12
      },
      "geometry": {
        "type": "Point",
        "coordinates": [
          -73.35408157392324,
          5.549184807086505
        ]
      }
    },
    {
      "type": "Feature",
      "properties": {
        "_source": "Ruta21-Runta-Estadio-Terminal-Pirgua",
        "_segmentIndex": 0,
        "_position": 13
      },
      "geometry": {
        "type": "Point",
        "coordinates": [
          -73.35380227561407,
          5.549538235727882
        ]
      }
    },
    {
      "type": "Feature",
      "properties": {
        "_source": "Ruta21-Runta-Estadio-Terminal-Pirgua",
        "_segmentIndex": 0,
        "_position": 14
      },
      "geometry": {
        "type": "Point",
        "coordinates": [
          -73.35351419630308,
          5.5498846008018905
        ]
      }
    },
    {
      "type": "Feature",
      "properties": {
        "_source": "Ruta21-Runta-Estadio-Terminal-Pirgua",
        "_segmentIndex": 0,
        "_position": 15
      },
      "geometry": {
        "type": "Point",
        "coordinates": [
          -73.35322512601934,
          5.550230164506661
        ]
      }
    },
    {
      "type": "Feature",
      "properties": {
        "_source": "Ruta21-Runta-Estadio-Terminal-Pirgua",
        "_segmentIndex": 0,
        "_position": 16
      },
      "geometry": {
        "type": "Point",
        "coordinates": [
          -73.35293641911352,
          5.550576027427348
        ]
      }
    },
    {
      "type": "Feature",
      "properties": {
        "_source": "Ruta21-Runta-Estadio-Terminal-Pirgua",
        "_segmentIndex": 0,
        "_position": 17
      },
      "geometry": {
        "type": "Point",
        "coordinates": [
          -73.3526508429991,
          5.550924446305526
        ]
      }
    },
    {
      "type": "Feature",
      "properties": {
        "_source": "Ruta21-Runta-Estadio-Terminal-Pirgua",
        "_segmentIndex": 0,
        "_position": 18
      },
      "geometry": {
        "type": "Point",
        "coordinates": [
          -73.3523734559218,
          5.551279044328505
        ]
      }
    },
    {
      "type": "Feature",
      "properties": {
        "_source": "Ruta21-Runta-Estadio-Terminal-Pirgua",
        "_segmentIndex": 0,
        "_position": 0
      },
      "geometry": {
        "type": "Point",
        "coordinates": [
          -73.352224,
          5.551518
        ]
      }
    },
    {
      "type": "Feature",
      "properties": {
        "_source": "Ruta21-Runta-Estadio-Terminal-Pirgua",
        "_segmentIndex": 0,
        "_position": 1
      },
      "geometry": {
        "type": "Point",
        "coordinates": [
          -73.3519611332403,
          5.55120868143184
        ]
      }
    },
    {
      "type": "Feature",
      "properties": {
        "_source": "Ruta21-Runta-Estadio-Terminal-Pirgua",
        "_segmentIndex": 0,
        "_position": 2
      },
      "geometry": {
        "type": "Point",
        "coordinates": [
          -73.35212289659977,
          5.550791041856831
        ]
      }
    },
    {
      "type": "Feature",
      "properties": {
        "_source": "Ruta21-Runta-Estadio-Terminal-Pirgua",
        "_segmentIndex": 0,
        "_position": 3
      },
      "geometry": {
        "type": "Point",
        "coordinates": [
          -73.35232562434999,
          5.550389195814115
        ]
      }
    },
    {
      "type": "Feature",
      "properties": {
        "_source": "Ruta21-Runta-Estadio-Terminal-Pirgua",
        "_segmentIndex": 0,
        "_position": 4
      },
      "geometry": {
        "type": "Point",
        "coordinates": [
          -73.35232755473086,
          5.550014489135325
        ]
      }
    },
    {
      "type": "Feature",
      "properties": {
        "_source": "Ruta21-Runta-Estadio-Terminal-Pirgua",
        "_segmentIndex": 0,
        "_position": 5
      },
      "geometry": {
        "type": "Point",
        "coordinates": [
          -73.35198031339758,
          5.549726833931712
        ]
      }
    },
    {
      "type": "Feature",
      "properties": {
        "_source": "Ruta21-Runta-Estadio-Terminal-Pirgua",
        "_segmentIndex": 0,
        "_position": 6
      },
      "geometry": {
        "type": "Point",
        "coordinates": [
          -73.35163307240308,
          5.549439178525532
        ]
      }
    },
    {
      "type": "Feature",
      "properties": {
        "_source": "Ruta21-Runta-Estadio-Terminal-Pirgua",
        "_segmentIndex": 0,
        "_position": 7
      },
      "geometry": {
        "type": "Point",
        "coordinates": [
          -73.3512769139299,
          5.549162802338388
        ]
      }
    },
    {
      "type": "Feature",
      "properties": {
        "_source": "Ruta21-Runta-Estadio-Terminal-Pirgua",
        "_segmentIndex": 0,
        "_position": 8
      },
      "geometry": {
        "type": "Point",
        "coordinates": [
          -73.35091435652173,
          5.5488945198460105
        ]
      }
    },
    {
      "type": "Feature",
      "properties": {
        "_source": "Ruta21-Runta-Estadio-Terminal-Pirgua",
        "_segmentIndex": 0,
        "_position": 9
      },
      "geometry": {
        "type": "Point",
        "coordinates": [
          -73.3505523643825,
          5.548625483614336
        ]
      }
    },
    {
      "type": "Feature",
      "properties": {
        "_source": "Ruta21-Runta-Estadio-Terminal-Pirgua",
        "_segmentIndex": 0,
        "_position": 10
      },
      "geometry": {
        "type": "Point",
        "coordinates": [
          -73.35019076833859,
          5.548355919289636
        ]
      }
    },
    {
      "type": "Feature",
      "properties": {
        "_source": "Ruta21-Runta-Estadio-Terminal-Pirgua",
        "_segmentIndex": 0,
        "_position": 11
      },
      "geometry": {
        "type": "Point",
        "coordinates": [
          -73.34983312749296,
          5.548081185877075
        ]
      }
    },
    {
      "type": "Feature",
      "properties": {
        "_source": "Ruta21-Runta-Estadio-Terminal-Pirgua",
        "_segmentIndex": 0,
        "_position": 12
      },
      "geometry": {
        "type": "Point",
        "coordinates": [
          -73.3494796517563,
          5.547801389313692
        ]
      }
    },
    {
      "type": "Feature",
      "properties": {
        "_source": "Ruta21-Runta-Estadio-Terminal-Pirgua",
        "_segmentIndex": 0,
        "_position": 0
      },
      "geometry": {
        "type": "Point",
        "coordinates": [
          -73.349236,
          5.547588
        ]
      }
    },
    {
      "type": "Feature",
      "properties": {
        "_source": "Ruta21-Runta-Estadio-Terminal-Pirgua",
        "_segmentIndex": 0,
        "_position": 1
      },
      "geometry": {
        "type": "Point",
        "coordinates": [
          -73.34949915499583,
          5.547222634232351
        ]
      }
    },
    {
      "type": "Feature",
      "properties": {
        "_source": "Ruta21-Runta-Estadio-Terminal-Pirgua",
        "_segmentIndex": 0,
        "_position": 2
      },
      "geometry": {
        "type": "Point",
        "coordinates": [
          -73.3497555467624,
          5.546852405720623
        ]
      }
    },
    {
      "type": "Feature",
      "properties": {
        "_source": "Ruta21-Runta-Estadio-Terminal-Pirgua",
        "_segmentIndex": 0,
        "_position": 3
      },
      "geometry": {
        "type": "Point",
        "coordinates": [
          -73.35000965949304,
          5.546480623185656
        ]
      }
    },
    {
      "type": "Feature",
      "properties": {
        "_source": "Ruta21-Runta-Estadio-Terminal-Pirgua",
        "_segmentIndex": 0,
        "_position": 4
      },
      "geometry": {
        "type": "Point",
        "coordinates": [
          -73.35026552628857,
          5.54611003175075
        ]
      }
    },
    {
      "type": "Feature",
      "properties": {
        "_source": "Ruta21-Runta-Estadio-Terminal-Pirgua",
        "_segmentIndex": 0,
        "_position": 5
      },
      "geometry": {
        "type": "Point",
        "coordinates": [
          -73.35052139276272,
          5.545739440205928
        ]
      }
    },
    {
      "type": "Feature",
      "properties": {
        "_source": "Ruta21-Runta-Estadio-Terminal-Pirgua",
        "_segmentIndex": 0,
        "_position": 0
      },
      "geometry": {
        "type": "Point",
        "coordinates": [
          -73.350608,
          5.545614
        ]
      }
    },
    {
      "type": "Feature",
      "properties": {
        "_source": "Ruta21-Runta-Estadio-Terminal-Pirgua",
        "_segmentIndex": 0,
        "_position": 1
      },
      "geometry": {
        "type": "Point",
        "coordinates": [
          -73.35026611015986,
          5.54532230946089
        ]
      }
    },
    {
      "type": "Feature",
      "properties": {
        "_source": "Ruta21-Runta-Estadio-Terminal-Pirgua",
        "_segmentIndex": 0,
        "_position": 2
      },
      "geometry": {
        "type": "Point",
        "coordinates": [
          -73.34989933767356,
          5.545059767417936
        ]
      }
    },
    {
      "type": "Feature",
      "properties": {
        "_source": "Ruta21-Runta-Estadio-Terminal-Pirgua",
        "_segmentIndex": 0,
        "_position": 3
      },
      "geometry": {
        "type": "Point",
        "coordinates": [
          -73.3495323635647,
          5.544797508230836
        ]
      }
    },
    {
      "type": "Feature",
      "properties": {
        "_source": "Ruta21-Runta-Estadio-Terminal-Pirgua",
        "_segmentIndex": 0,
        "_position": 4
      },
      "geometry": {
        "type": "Point",
        "coordinates": [
          -73.3491624310375,
          5.544539396231577
        ]
      }
    },
    {
      "type": "Feature",
      "properties": {
        "_source": "Ruta21-Runta-Estadio-Terminal-Pirgua",
        "_segmentIndex": 0,
        "_position": 0
      },
      "geometry": {
        "type": "Point",
        "coordinates": [
          -73.349111,
          5.544489
        ]
      }
    },
    {
      "type": "Feature",
      "properties": {
        "_source": "Ruta21-Runta-Estadio-Terminal-Pirgua",
        "_segmentIndex": 0,
        "_position": 1
      },
      "geometry": {
        "type": "Point",
        "coordinates": [
          -73.34933723879425,
          5.544099898955055
        ]
      }
    },
    {
      "type": "Feature",
      "properties": {
        "_source": "Ruta21-Runta-Estadio-Terminal-Pirgua",
        "_segmentIndex": 0,
        "_position": 2
      },
      "geometry": {
        "type": "Point",
        "coordinates": [
          -73.34955239776963,
          5.543704509325198
        ]
      }
    },
    {
      "type": "Feature",
      "properties": {
        "_source": "Ruta21-Runta-Estadio-Terminal-Pirgua",
        "_segmentIndex": 0,
        "_position": 3
      },
      "geometry": {
        "type": "Point",
        "coordinates": [
          -73.34976765078127,
          5.543309170482697
        ]
      }
    },
    {
      "type": "Feature",
      "properties": {
        "_source": "Ruta21-Runta-Estadio-Terminal-Pirgua",
        "_segmentIndex": 0,
        "_position": 4
      },
      "geometry": {
        "type": "Point",
        "coordinates": [
          -73.3499829113915,
          5.542913835815498
        ]
      }
    },
    {
      "type": "Feature",
      "properties": {
        "_source": "Ruta21-Runta-Estadio-Terminal-Pirgua",
        "_segmentIndex": 0,
        "_position": 5
      },
      "geometry": {
        "type": "Point",
        "coordinates": [
          -73.35021301509643,
          5.542527560902431
        ]
      }
    },
    {
      "type": "Feature",
      "properties": {
        "_source": "Ruta21-Runta-Estadio-Terminal-Pirgua",
        "_segmentIndex": 0,
        "_position": 6
      },
      "geometry": {
        "type": "Point",
        "coordinates": [
          -73.35045808277636,
          5.542149979902568
        ]
      }
    },
    {
      "type": "Feature",
      "properties": {
        "_source": "Ruta21-Runta-Estadio-Terminal-Pirgua",
        "_segmentIndex": 0,
        "_position": 7
      },
      "geometry": {
        "type": "Point",
        "coordinates": [
          -73.35061576988846,
          5.541740920447807
        ]
      }
    },
    {
      "type": "Feature",
      "properties": {
        "_source": "Ruta21-Runta-Estadio-Terminal-Pirgua",
        "_segmentIndex": 0,
        "_position": 0
      },
      "geometry": {
        "type": "Point",
        "coordinates": [
          -73.350637,
          5.541656
        ]
      }
    },
    {
      "type": "Feature",
      "properties": {
        "_source": "Ruta21-Runta-Estadio-Terminal-Pirgua",
        "_segmentIndex": 0,
        "_position": 1
      },
      "geometry": {
        "type": "Point",
        "coordinates": [
          -73.35079171816142,
          5.541233531317772
        ]
      }
    },
    {
      "type": "Feature",
      "properties": {
        "_source": "Ruta21-Runta-Estadio-Terminal-Pirgua",
        "_segmentIndex": 0,
        "_position": 2
      },
      "geometry": {
        "type": "Point",
        "coordinates": [
          -73.35092660413648,
          5.540804546908673
        ]
      }
    },
    {
      "type": "Feature",
      "properties": {
        "_source": "Ruta21-Runta-Estadio-Terminal-Pirgua",
        "_segmentIndex": 0,
        "_position": 3
      },
      "geometry": {
        "type": "Point",
        "coordinates": [
          -73.35106994244235,
          5.540379250372087
        ]
      }
    },
    {
      "type": "Feature",
      "properties": {
        "_source": "Ruta21-Runta-Estadio-Terminal-Pirgua",
        "_segmentIndex": 0,
        "_position": 4
      },
      "geometry": {
        "type": "Point",
        "coordinates": [
          -73.35128555609982,
          5.539985508480097
        ]
      }
    },
    {
      "type": "Feature",
      "properties": {
        "_source": "Ruta21-Runta-Estadio-Terminal-Pirgua",
        "_segmentIndex": 0,
        "_position": 5
      },
      "geometry": {
        "type": "Point",
        "coordinates": [
          -73.35153593157196,
          5.539612053143575
        ]
      }
    },
    {
      "type": "Feature",
      "properties": {
        "_source": "Ruta21-Runta-Estadio-Terminal-Pirgua",
        "_segmentIndex": 0,
        "_position": 6
      },
      "geometry": {
        "type": "Point",
        "coordinates": [
          -73.35175920510986,
          5.5392211468559625
        ]
      }
    },
    {
      "type": "Feature",
      "properties": {
        "_source": "Ruta21-Runta-Estadio-Terminal-Pirgua",
        "_segmentIndex": 0,
        "_position": 7
      },
      "geometry": {
        "type": "Point",
        "coordinates": [
          -73.35198247835227,
          5.538830240484755
        ]
      }
    },
    {
      "type": "Feature",
      "properties": {
        "_source": "Ruta21-Runta-Estadio-Terminal-Pirgua",
        "_segmentIndex": 0,
        "_position": 8
      },
      "geometry": {
        "type": "Point",
        "coordinates": [
          -73.35220575129927,
          5.538439334029964
        ]
      }
    },
    {
      "type": "Feature",
      "properties": {
        "_source": "Ruta21-Runta-Estadio-Terminal-Pirgua",
        "_segmentIndex": 0,
        "_position": 9
      },
      "geometry": {
        "type": "Point",
        "coordinates": [
          -73.35242599353647,
          5.5380468009439126
        ]
      }
    },
    {
      "type": "Feature",
      "properties": {
        "_source": "Ruta21-Runta-Estadio-Terminal-Pirgua",
        "_segmentIndex": 0,
        "_position": 10
      },
      "geometry": {
        "type": "Point",
        "coordinates": [
          -73.35264171611097,
          5.537651884923136
        ]
      }
    },
    {
      "type": "Feature",
      "properties": {
        "_source": "Ruta21-Runta-Estadio-Terminal-Pirgua",
        "_segmentIndex": 0,
        "_position": 11
      },
      "geometry": {
        "type": "Point",
        "coordinates": [
          -73.35286753779654,
          5.537262431854089
        ]
      }
    },
    {
      "type": "Feature",
      "properties": {
        "_source": "Ruta21-Runta-Estadio-Terminal-Pirgua",
        "_segmentIndex": 0,
        "_position": 12
      },
      "geometry": {
        "type": "Point",
        "coordinates": [
          -73.35309335918451,
          5.536872978699559
        ]
      }
    },
    {
      "type": "Feature",
      "properties": {
        "_source": "Ruta21-Runta-Estadio-Terminal-Pirgua",
        "_segmentIndex": 0,
        "_position": 13
      },
      "geometry": {
        "type": "Point",
        "coordinates": [
          -73.35331918027488,
          5.5364835254595555
        ]
      }
    },
    {
      "type": "Feature",
      "properties": {
        "_source": "Ruta21-Runta-Estadio-Terminal-Pirgua",
        "_segmentIndex": 0,
        "_position": 14
      },
      "geometry": {
        "type": "Point",
        "coordinates": [
          -73.35354545979978,
          5.536094336952496
        ]
      }
    },
    {
      "type": "Feature",
      "properties": {
        "_source": "Ruta21-Runta-Estadio-Terminal-Pirgua",
        "_segmentIndex": 0,
        "_position": 15
      },
      "geometry": {
        "type": "Point",
        "coordinates": [
          -73.35377295109106,
          5.535705848064072
        ]
      }
    },
    {
      "type": "Feature",
      "properties": {
        "_source": "Ruta21-Runta-Estadio-Terminal-Pirgua",
        "_segmentIndex": 0,
        "_position": 16
      },
      "geometry": {
        "type": "Point",
        "coordinates": [
          -73.35400044208336,
          5.53531735908892
        ]
      }
    },
    {
      "type": "Feature",
      "properties": {
        "_source": "Ruta21-Runta-Estadio-Terminal-Pirgua",
        "_segmentIndex": 0,
        "_position": 17
      },
      "geometry": {
        "type": "Point",
        "coordinates": [
          -73.3542279327767,
          5.5349288700270485
        ]
      }
    },
    {
      "type": "Feature",
      "properties": {
        "_source": "Ruta21-Runta-Estadio-Terminal-Pirgua",
        "_segmentIndex": 0,
        "_position": 18
      },
      "geometry": {
        "type": "Point",
        "coordinates": [
          -73.35444947039072,
          5.534537008294641
        ]
      }
    },
    {
      "type": "Feature",
      "properties": {
        "_source": "Ruta21-Runta-Estadio-Terminal-Pirgua",
        "_segmentIndex": 0,
        "_position": 19
      },
      "geometry": {
        "type": "Point",
        "coordinates": [
          -73.35465891277775,
          5.534150864583216
        ]
      }
    },
    {
      "type": "Feature",
      "properties": {
        "_source": "Ruta21-Runta-Estadio-Terminal-Pirgua",
        "_segmentIndex": 0,
        "_position": 20
      },
      "geometry": {
        "type": "Point",
        "coordinates": [
          -73.35475788040729,
          5.533712191875542
        ]
      }
    },
    {
      "type": "Feature",
      "properties": {
        "_source": "Ruta21-Runta-Estadio-Terminal-Pirgua",
        "_segmentIndex": 0,
        "_position": 0
      },
      "geometry": {
        "type": "Point",
        "coordinates": [
          -73.354767,
          5.53367
        ]
      }
    },
    {
      "type": "Feature",
      "properties": {
        "_source": "Ruta21-Runta-Estadio-Terminal-Pirgua",
        "_segmentIndex": 0,
        "_position": 1
      },
      "geometry": {
        "type": "Point",
        "coordinates": [
          -73.35431611788785,
          5.533656952447319
        ]
      }
    },
    {
      "type": "Feature",
      "properties": {
        "_source": "Ruta21-Runta-Estadio-Terminal-Pirgua",
        "_segmentIndex": 0,
        "_position": 2
      },
      "geometry": {
        "type": "Point",
        "coordinates": [
          -73.35386450354724,
          5.533657860396439
        ]
      }
    },
    {
      "type": "Feature",
      "properties": {
        "_source": "Ruta21-Runta-Estadio-Terminal-Pirgua",
        "_segmentIndex": 0,
        "_position": 3
      },
      "geometry": {
        "type": "Point",
        "coordinates": [
          -73.35341276124424,
          5.533656649155442
        ]
      }
    },
    {
      "type": "Feature",
      "properties": {
        "_source": "Ruta21-Runta-Estadio-Terminal-Pirgua",
        "_segmentIndex": 0,
        "_position": 4
      },
      "geometry": {
        "type": "Point",
        "coordinates": [
          -73.35296101648375,
          5.533660000148119
        ]
      }
    },
    {
      "type": "Feature",
      "properties": {
        "_source": "Ruta21-Runta-Estadio-Terminal-Pirgua",
        "_segmentIndex": 0,
        "_position": 5
      },
      "geometry": {
        "type": "Point",
        "coordinates": [
          -73.3525092509477,
          5.533660000283307
        ]
      }
    },
    {
      "type": "Feature",
      "properties": {
        "_source": "Ruta21-Runta-Estadio-Terminal-Pirgua",
        "_segmentIndex": 0,
        "_position": 6
      },
      "geometry": {
        "type": "Point",
        "coordinates": [
          -73.35205748541165,
          5.533660000076603
        ]
      }
    },
    {
      "type": "Feature",
      "properties": {
        "_source": "Ruta21-Runta-Estadio-Terminal-Pirgua",
        "_segmentIndex": 0,
        "_position": 7
      },
      "geometry": {
        "type": "Point",
        "coordinates": [
          -73.35160576396494,
          5.533665664315721
        ]
      }
    },
    {
      "type": "Feature",
      "properties": {
        "_source": "Ruta21-Runta-Estadio-Terminal-Pirgua",
        "_segmentIndex": 0,
        "_position": 8
      },
      "geometry": {
        "type": "Point",
        "coordinates": [
          -73.35119923373274,
          5.533805918884059
        ]
      }
    },
    {
      "type": "Feature",
      "properties": {
        "_source": "Ruta21-Runta-Estadio-Terminal-Pirgua",
        "_segmentIndex": 0,
        "_position": 9
      },
      "geometry": {
        "type": "Point",
        "coordinates": [
          -73.35115987649031,
          5.534244136439713
        ]
      }
    },
    {
      "type": "Feature",
      "properties": {
        "_source": "Ruta21-Runta-Estadio-Terminal-Pirgua",
        "_segmentIndex": 0,
        "_position": 10
      },
      "geometry": {
        "type": "Point",
        "coordinates": [
          -73.35117524518097,
          5.5346920885559205
        ]
      }
    },
    {
      "type": "Feature",
      "properties": {
        "_source": "Ruta21-Runta-Estadio-Terminal-Pirgua",
        "_segmentIndex": 0,
        "_position": 11
      },
      "geometry": {
        "type": "Point",
        "coordinates": [
          -73.35102133623825,
          5.535113033754839
        ]
      }
    },
    {
      "type": "Feature",
      "properties": {
        "_source": "Ruta21-Runta-Estadio-Terminal-Pirgua",
        "_segmentIndex": 0,
        "_position": 12
      },
      "geometry": {
        "type": "Point",
        "coordinates": [
          -73.35077420695596,
          5.5354876994078355
        ]
      }
    },
    {
      "type": "Feature",
      "properties": {
        "_source": "Ruta21-Runta-Estadio-Terminal-Pirgua",
        "_segmentIndex": 0,
        "_position": 13
      },
      "geometry": {
        "type": "Point",
        "coordinates": [
          -73.35048063162311,
          5.535829473916573
        ]
      }
    },
    {
      "type": "Feature",
      "properties": {
        "_source": "Ruta21-Runta-Estadio-Terminal-Pirgua",
        "_segmentIndex": 0,
        "_position": 14
      },
      "geometry": {
        "type": "Point",
        "coordinates": [
          -73.35018622112172,
          5.536170467576333
        ]
      }
    },
    {
      "type": "Feature",
      "properties": {
        "_source": "Ruta21-Runta-Estadio-Terminal-Pirgua",
        "_segmentIndex": 0,
        "_position": 15
      },
      "geometry": {
        "type": "Point",
        "coordinates": [
          -73.3498578016268,
          5.536478928911756
        ]
      }
    },
    {
      "type": "Feature",
      "properties": {
        "_source": "Ruta21-Runta-Estadio-Terminal-Pirgua",
        "_segmentIndex": 0,
        "_position": 16
      },
      "geometry": {
        "type": "Point",
        "coordinates": [
          -73.34941944499495,
          5.53655338885113
        ]
      }
    },
    {
      "type": "Feature",
      "properties": {
        "_source": "Ruta21-Runta-Estadio-Terminal-Pirgua",
        "_segmentIndex": 0,
        "_position": 17
      },
      "geometry": {
        "type": "Point",
        "coordinates": [
          -73.34897513597726,
          5.536508830890057
        ]
      }
    },
    {
      "type": "Feature",
      "properties": {
        "_source": "Ruta21-Runta-Estadio-Terminal-Pirgua",
        "_segmentIndex": 0,
        "_position": 18
      },
      "geometry": {
        "type": "Point",
        "coordinates": [
          -73.34860916727635,
          5.53625260856846
        ]
      }
    },
    {
      "type": "Feature",
      "properties": {
        "_source": "Ruta21-Runta-Estadio-Terminal-Pirgua",
        "_segmentIndex": 0,
        "_position": 19
      },
      "geometry": {
        "type": "Point",
        "coordinates": [
          -73.34837607842199,
          5.535873806963795
        ]
      }
    },
    {
      "type": "Feature",
      "properties": {
        "_source": "Ruta21-Runta-Estadio-Terminal-Pirgua",
        "_segmentIndex": 0,
        "_position": 20
      },
      "geometry": {
        "type": "Point",
        "coordinates": [
          -73.34830689960901,
          5.535429774374832
        ]
      }
    },
    {
      "type": "Feature",
      "properties": {
        "_source": "Ruta21-Runta-Estadio-Terminal-Pirgua",
        "_segmentIndex": 0,
        "_position": 21
      },
      "geometry": {
        "type": "Point",
        "coordinates": [
          -73.34823482470487,
          5.53498587368792
        ]
      }
    },
    {
      "type": "Feature",
      "properties": {
        "_source": "Ruta21-Runta-Estadio-Terminal-Pirgua",
        "_segmentIndex": 0,
        "_position": 22
      },
      "geometry": {
        "type": "Point",
        "coordinates": [
          -73.34813418165562,
          5.534549674117645
        ]
      }
    },
    {
      "type": "Feature",
      "properties": {
        "_source": "Ruta21-Runta-Estadio-Terminal-Pirgua",
        "_segmentIndex": 0,
        "_position": 23
      },
      "geometry": {
        "type": "Point",
        "coordinates": [
          -73.34789410317708,
          5.534175414925951
        ]
      }
    },
    {
      "type": "Feature",
      "properties": {
        "_source": "Ruta21-Runta-Estadio-Terminal-Pirgua",
        "_segmentIndex": 0,
        "_position": 24
      },
      "geometry": {
        "type": "Point",
        "coordinates": [
          -73.34751698093484,
          5.5339346827440865
        ]
      }
    },
    {
      "type": "Feature",
      "properties": {
        "_source": "Ruta21-Runta-Estadio-Terminal-Pirgua",
        "_segmentIndex": 0,
        "_position": 0
      },
      "geometry": {
        "type": "Point",
        "coordinates": [
          -73.347166,
          5.533875
        ]
      }
    },
    {
      "type": "Feature",
      "properties": {
        "_source": "Ruta21-Runta-Estadio-Terminal-Pirgua",
        "_segmentIndex": 0,
        "_position": 1
      },
      "geometry": {
        "type": "Point",
        "coordinates": [
          -73.34672046897907,
          5.533891878584826
        ]
      }
    },
    {
      "type": "Feature",
      "properties": {
        "_source": "Ruta21-Runta-Estadio-Terminal-Pirgua",
        "_segmentIndex": 0,
        "_position": 2
      },
      "geometry": {
        "type": "Point",
        "coordinates": [
          -73.34633187205532,
          5.534108391628407
        ]
      }
    },
    {
      "type": "Feature",
      "properties": {
        "_source": "Ruta21-Runta-Estadio-Terminal-Pirgua",
        "_segmentIndex": 0,
        "_position": 3
      },
      "geometry": {
        "type": "Point",
        "coordinates": [
          -73.34603157074135,
          5.534443686933065
        ]
      }
    },
    {
      "type": "Feature",
      "properties": {
        "_source": "Ruta21-Runta-Estadio-Terminal-Pirgua",
        "_segmentIndex": 0,
        "_position": 4
      },
      "geometry": {
        "type": "Point",
        "coordinates": [
          -73.34572795563587,
          5.534776653748409
        ]
      }
    },
    {
      "type": "Feature",
      "properties": {
        "_source": "Ruta21-Runta-Estadio-Terminal-Pirgua",
        "_segmentIndex": 0,
        "_position": 5
      },
      "geometry": {
        "type": "Point",
        "coordinates": [
          -73.34531778140081,
          5.534912026178012
        ]
      }
    },
    {
      "type": "Feature",
      "properties": {
        "_source": "Ruta21-Runta-Estadio-Terminal-Pirgua",
        "_segmentIndex": 0,
        "_position": 6
      },
      "geometry": {
        "type": "Point",
        "coordinates": [
          -73.34508905564516,
          5.534537982572047
        ]
      }
    },
    {
      "type": "Feature",
      "properties": {
        "_source": "Ruta21-Runta-Estadio-Terminal-Pirgua",
        "_segmentIndex": 0,
        "_position": 7
      },
      "geometry": {
        "type": "Point",
        "coordinates": [
          -73.34489733857014,
          5.534130938290403
        ]
      }
    },
    {
      "type": "Feature",
      "properties": {
        "_source": "Ruta21-Runta-Estadio-Terminal-Pirgua",
        "_segmentIndex": 0,
        "_position": 8
      },
      "geometry": {
        "type": "Point",
        "coordinates": [
          -73.34470557464549,
          5.533723824626358
        ]
      }
    },
    {
      "type": "Feature",
      "properties": {
        "_source": "Ruta21-Runta-Estadio-Terminal-Pirgua",
        "_segmentIndex": 0,
        "_position": 9
      },
      "geometry": {
        "type": "Point",
        "coordinates": [
          -73.34450740599887,
          5.533319734758156
        ]
      }
    },
    {
      "type": "Feature",
      "properties": {
        "_source": "Ruta21-Runta-Estadio-Terminal-Pirgua",
        "_segmentIndex": 0,
        "_position": 10
      },
      "geometry": {
        "type": "Point",
        "coordinates": [
          -73.34430923762304,
          5.532915644824173
        ]
      }
    },
    {
      "type": "Feature",
      "properties": {
        "_source": "Ruta21-Runta-Estadio-Terminal-Pirgua",
        "_segmentIndex": 0,
        "_position": 11
      },
      "geometry": {
        "type": "Point",
        "coordinates": [
          -73.34411380545609,
          5.5325103704046565
        ]
      }
    },
    {
      "type": "Feature",
      "properties": {
        "_source": "Ruta21-Runta-Estadio-Terminal-Pirgua",
        "_segmentIndex": 0,
        "_position": 0
      },
      "geometry": {
        "type": "Point",
        "coordinates": [
          -73.344075,
          5.532355
        ]
      }
    },
    {
      "type": "Feature",
      "properties": {
        "_source": "Ruta21-Runta-Estadio-Terminal-Pirgua",
        "_segmentIndex": 0,
        "_position": 1
      },
      "geometry": {
        "type": "Point",
        "coordinates": [
          -73.3442718664616,
          5.531966933651902
        ]
      }
    },
    {
      "type": "Feature",
      "properties": {
        "_source": "Ruta21-Runta-Estadio-Terminal-Pirgua",
        "_segmentIndex": 0,
        "_position": 2
      },
      "geometry": {
        "type": "Point",
        "coordinates": [
          -73.34452355574588,
          5.531593704995383
        ]
      }
    },
    {
      "type": "Feature",
      "properties": {
        "_source": "Ruta21-Runta-Estadio-Terminal-Pirgua",
        "_segmentIndex": 0,
        "_position": 3
      },
      "geometry": {
        "type": "Point",
        "coordinates": [
          -73.34474356985885,
          5.531200974284837
        ]
      }
    },
    {
      "type": "Feature",
      "properties": {
        "_source": "Ruta21-Runta-Estadio-Terminal-Pirgua",
        "_segmentIndex": 0,
        "_position": 4
      },
      "geometry": {
        "type": "Point",
        "coordinates": [
          -73.3449594855037,
          5.53080602773214
        ]
      }
    },
    {
      "type": "Feature",
      "properties": {
        "_source": "Ruta21-Runta-Estadio-Terminal-Pirgua",
        "_segmentIndex": 0,
        "_position": 5
      },
      "geometry": {
        "type": "Point",
        "coordinates": [
          -73.34497301680528,
          5.530397028008825
        ]
      }
    },
    {
      "type": "Feature",
      "properties": {
        "_source": "Ruta21-Runta-Estadio-Terminal-Pirgua",
        "_segmentIndex": 0,
        "_position": 6
      },
      "geometry": {
        "type": "Point",
        "coordinates": [
          -73.34461593428779,
          5.5304872908278115
        ]
      }
    },
    {
      "type": "Feature",
      "properties": {
        "_source": "Ruta21-Runta-Estadio-Terminal-Pirgua",
        "_segmentIndex": 0,
        "_position": 7
      },
      "geometry": {
        "type": "Point",
        "coordinates": [
          -73.34458094942046,
          5.530932963123651
        ]
      }
    },
    {
      "type": "Feature",
      "properties": {
        "_source": "Ruta21-Runta-Estadio-Terminal-Pirgua",
        "_segmentIndex": 0,
        "_position": 8
      },
      "geometry": {
        "type": "Point",
        "coordinates": [
          -73.34457636713458,
          5.531382600173818
        ]
      }
    },
    {
      "type": "Feature",
      "properties": {
        "_source": "Ruta21-Runta-Estadio-Terminal-Pirgua",
        "_segmentIndex": 0,
        "_position": 9
      },
      "geometry": {
        "type": "Point",
        "coordinates": [
          -73.34456810015855,
          5.531832143581936
        ]
      }
    },
    {
      "type": "Feature",
      "properties": {
        "_source": "Ruta21-Runta-Estadio-Terminal-Pirgua",
        "_segmentIndex": 0,
        "_position": 10
      },
      "geometry": {
        "type": "Point",
        "coordinates": [
          -73.34454186664921,
          5.532280829791054
        ]
      }
    },
    {
      "type": "Feature",
      "properties": {
        "_source": "Ruta21-Runta-Estadio-Terminal-Pirgua",
        "_segmentIndex": 0,
        "_position": 11
      },
      "geometry": {
        "type": "Point",
        "coordinates": [
          -73.34423325961282,
          5.5324644977816755
        ]
      }
    },
    {
      "type": "Feature",
      "properties": {
        "_source": "Ruta21-Runta-Estadio-Terminal-Pirgua",
        "_segmentIndex": 0,
        "_position": 12
      },
      "geometry": {
        "type": "Point",
        "coordinates": [
          -73.34415393740251,
          5.5320533516085275
        ]
      }
    },
    {
      "type": "Feature",
      "properties": {
        "_source": "Ruta21-Runta-Estadio-Terminal-Pirgua",
        "_segmentIndex": 0,
        "_position": 0
      },
      "geometry": {
        "type": "Point",
        "coordinates": [
          -73.344159,
          5.531971
        ]
      }
    },
    {
      "type": "Feature",
      "properties": {
        "_source": "Ruta21-Runta-Estadio-Terminal-Pirgua",
        "_segmentIndex": 0,
        "_position": 1
      },
      "geometry": {
        "type": "Point",
        "coordinates": [
          -73.34379605541014,
          5.531902590461973
        ]
      }
    },
    {
      "type": "Feature",
      "properties": {
        "_source": "Ruta21-Runta-Estadio-Terminal-Pirgua",
        "_segmentIndex": 0,
        "_position": 2
      },
      "geometry": {
        "type": "Point",
        "coordinates": [
          -73.34338928662778,
          5.531773924247965
        ]
      }
    },
    {
      "type": "Feature",
      "properties": {
        "_source": "Ruta21-Runta-Estadio-Terminal-Pirgua",
        "_segmentIndex": 0,
        "_position": 3
      },
      "geometry": {
        "type": "Point",
        "coordinates": [
          -73.34305896780656,
          5.531467229819636
        ]
      }
    },
    {
      "type": "Feature",
      "properties": {
        "_source": "Ruta21-Runta-Estadio-Terminal-Pirgua",
        "_segmentIndex": 0,
        "_position": 4
      },
      "geometry": {
        "type": "Point",
        "coordinates": [
          -73.3427274847226,
          5.531161744315581
        ]
      }
    },
    {
      "type": "Feature",
      "properties": {
        "_source": "Ruta21-Runta-Estadio-Terminal-Pirgua",
        "_segmentIndex": 0,
        "_position": 5
      },
      "geometry": {
        "type": "Point",
        "coordinates": [
          -73.34263913492721,
          5.530779444229414
        ]
      }
    },
    {
      "type": "Feature",
      "properties": {
        "_source": "Ruta21-Runta-Estadio-Terminal-Pirgua",
        "_segmentIndex": 0,
        "_position": 6
      },
      "geometry": {
        "type": "Point",
        "coordinates": [
          -73.34249719142382,
          5.530475353516831
        ]
      }
    },
    {
      "type": "Feature",
      "properties": {
        "_source": "Ruta21-Runta-Estadio-Terminal-Pirgua",
        "_segmentIndex": 0,
        "_position": 7
      },
      "geometry": {
        "type": "Point",
        "coordinates": [
          -73.34208134015442,
          5.530540635714403
        ]
      }
    },
    {
      "type": "Feature",
      "properties": {
        "_source": "Ruta21-Runta-Estadio-Terminal-Pirgua",
        "_segmentIndex": 0,
        "_position": 8
      },
      "geometry": {
        "type": "Point",
        "coordinates": [
          -73.34174028885705,
          5.530246298951188
        ]
      }
    },
    {
      "type": "Feature",
      "properties": {
        "_source": "Ruta21-Runta-Estadio-Terminal-Pirgua",
        "_segmentIndex": 0,
        "_position": 9
      },
      "geometry": {
        "type": "Point",
        "coordinates": [
          -73.34136249421887,
          5.530003258648701
        ]
      }
    },
    {
      "type": "Feature",
      "properties": {
        "_source": "Ruta21-Runta-Estadio-Terminal-Pirgua",
        "_segmentIndex": 0,
        "_position": 10
      },
      "geometry": {
        "type": "Point",
        "coordinates": [
          -73.34092140213524,
          5.52996464054273
        ]
      }
    },
    {
      "type": "Feature",
      "properties": {
        "_source": "Ruta21-Runta-Estadio-Terminal-Pirgua",
        "_segmentIndex": 0,
        "_position": 11
      },
      "geometry": {
        "type": "Point",
        "coordinates": [
          -73.34052049445751,
          5.530168201153474
        ]
      }
    },
    {
      "type": "Feature",
      "properties": {
        "_source": "Ruta21-Runta-Estadio-Terminal-Pirgua",
        "_segmentIndex": 0,
        "_position": 12
      },
      "geometry": {
        "type": "Point",
        "coordinates": [
          -73.34013525891419,
          5.530403056940956
        ]
      }
    },
    {
      "type": "Feature",
      "properties": {
        "_source": "Ruta21-Runta-Estadio-Terminal-Pirgua",
        "_segmentIndex": 0,
        "_position": 13
      },
      "geometry": {
        "type": "Point",
        "coordinates": [
          -73.33975482100496,
          5.5306455556125975
        ]
      }
    },
    {
      "type": "Feature",
      "properties": {
        "_source": "Ruta21-Runta-Estadio-Terminal-Pirgua",
        "_segmentIndex": 0,
        "_position": 14
      },
      "geometry": {
        "type": "Point",
        "coordinates": [
          -73.33937410016605,
          5.530887605470293
        ]
      }
    },
    {
      "type": "Feature",
      "properties": {
        "_source": "Ruta21-Runta-Estadio-Terminal-Pirgua",
        "_segmentIndex": 0,
        "_position": 15
      },
      "geometry": {
        "type": "Point",
        "coordinates": [
          -73.33898910908151,
          5.531122877829812
        ]
      }
    },
    {
      "type": "Feature",
      "properties": {
        "_source": "Ruta21-Runta-Estadio-Terminal-Pirgua",
        "_segmentIndex": 0,
        "_position": 16
      },
      "geometry": {
        "type": "Point",
        "coordinates": [
          -73.33858901877578,
          5.531315792644881
        ]
      }
    },
    {
      "type": "Feature",
      "properties": {
        "_source": "Ruta21-Runta-Estadio-Terminal-Pirgua",
        "_segmentIndex": 0,
        "_position": 17
      },
      "geometry": {
        "type": "Point",
        "coordinates": [
          -73.33826980726802,
          5.531047285974949
        ]
      }
    },
    {
      "type": "Feature",
      "properties": {
        "_source": "Ruta21-Runta-Estadio-Terminal-Pirgua",
        "_segmentIndex": 0,
        "_position": 18
      },
      "geometry": {
        "type": "Point",
        "coordinates": [
          -73.33809512999825,
          5.530638476923213
        ]
      }
    },
    {
      "type": "Feature",
      "properties": {
        "_source": "Ruta21-Runta-Estadio-Terminal-Pirgua",
        "_segmentIndex": 0,
        "_position": 19
      },
      "geometry": {
        "type": "Point",
        "coordinates": [
          -73.3376967063511,
          5.530476442249168
        ]
      }
    },
    {
      "type": "Feature",
      "properties": {
        "_source": "Ruta21-Runta-Estadio-Terminal-Pirgua",
        "_segmentIndex": 0,
        "_position": 20
      },
      "geometry": {
        "type": "Point",
        "coordinates": [
          -73.33724503923807,
          5.530484759317256
        ]
      }
    },
    {
      "type": "Feature",
      "properties": {
        "_source": "Ruta21-Runta-Estadio-Terminal-Pirgua",
        "_segmentIndex": 0,
        "_position": 21
      },
      "geometry": {
        "type": "Point",
        "coordinates": [
          -73.33679337767408,
          5.530494293015871
        ]
      }
    },
    {
      "type": "Feature",
      "properties": {
        "_source": "Ruta21-Runta-Estadio-Terminal-Pirgua",
        "_segmentIndex": 0,
        "_position": 22
      },
      "geometry": {
        "type": "Point",
        "coordinates": [
          -73.33634168242287,
          5.53049840485494
        ]
      }
    },
    {
      "type": "Feature",
      "properties": {
        "_source": "Ruta21-Runta-Estadio-Terminal-Pirgua",
        "_segmentIndex": 0,
        "_position": 23
      },
      "geometry": {
        "type": "Point",
        "coordinates": [
          -73.33589029802853,
          5.530484609004585
        ]
      }
    },
    {
      "type": "Feature",
      "properties": {
        "_source": "Ruta21-Runta-Estadio-Terminal-Pirgua",
        "_segmentIndex": 0,
        "_position": 24
      },
      "geometry": {
        "type": "Point",
        "coordinates": [
          -73.33544848348721,
          5.530397187561998
        ]
      }
    },
    {
      "type": "Feature",
      "properties": {
        "_source": "Ruta21-Runta-Estadio-Terminal-Pirgua",
        "_segmentIndex": 0,
        "_position": 25
      },
      "geometry": {
        "type": "Point",
        "coordinates": [
          -73.33501915489772,
          5.530257268350097
        ]
      }
    },
    {
      "type": "Feature",
      "properties": {
        "_source": "Ruta21-Runta-Estadio-Terminal-Pirgua",
        "_segmentIndex": 0,
        "_position": 26
      },
      "geometry": {
        "type": "Point",
        "coordinates": [
          -73.33459036953407,
          5.530115688307632
        ]
      }
    },
    {
      "type": "Feature",
      "properties": {
        "_source": "Ruta21-Runta-Estadio-Terminal-Pirgua",
        "_segmentIndex": 0,
        "_position": 27
      },
      "geometry": {
        "type": "Point",
        "coordinates": [
          -73.33416127796384,
          5.529975046118627
        ]
      }
    },
    {
      "type": "Feature",
      "properties": {
        "_source": "Ruta21-Runta-Estadio-Terminal-Pirgua",
        "_segmentIndex": 0,
        "_position": 28
      },
      "geometry": {
        "type": "Point",
        "coordinates": [
          -73.33373081751428,
          5.529838595425883
        ]
      }
    },
    {
      "type": "Feature",
      "properties": {
        "_source": "Ruta21-Runta-Estadio-Terminal-Pirgua",
        "_segmentIndex": 0,
        "_position": 29
      },
      "geometry": {
        "type": "Point",
        "coordinates": [
          -73.3333066023855,
          5.529685101862552
        ]
      }
    },
    {
      "type": "Feature",
      "properties": {
        "_source": "Ruta21-Runta-Estadio-Terminal-Pirgua",
        "_segmentIndex": 0,
        "_position": 30
      },
      "geometry": {
        "type": "Point",
        "coordinates": [
          -73.33289009273014,
          5.529510969451962
        ]
      }
    },
    {
      "type": "Feature",
      "properties": {
        "_source": "Ruta21-Runta-Estadio-Terminal-Pirgua",
        "_segmentIndex": 0,
        "_position": 31
      },
      "geometry": {
        "type": "Point",
        "coordinates": [
          -73.33247510431084,
          5.529333343582021
        ]
      }
    },
    {
      "type": "Feature",
      "properties": {
        "_source": "Ruta21-Runta-Estadio-Terminal-Pirgua",
        "_segmentIndex": 0,
        "_position": 32
      },
      "geometry": {
        "type": "Point",
        "coordinates": [
          -73.33206207106277,
          5.5291511852968425
        ]
      }
    },
    {
      "type": "Feature",
      "properties": {
        "_source": "Ruta21-Runta-Estadio-Terminal-Pirgua",
        "_segmentIndex": 0,
        "_position": 33
      },
      "geometry": {
        "type": "Point",
        "coordinates": [
          -73.33163504674499,
          5.529009439561479
        ]
      }
    },
    {
      "type": "Feature",
      "properties": {
        "_source": "Ruta21-Runta-Estadio-Terminal-Pirgua",
        "_segmentIndex": 0,
        "_position": 34
      },
      "geometry": {
        "type": "Point",
        "coordinates": [
          -73.33118544373464,
          5.5290001546000225
        ]
      }
    },
    {
      "type": "Feature",
      "properties": {
        "_source": "Ruta21-Runta-Estadio-Terminal-Pirgua",
        "_segmentIndex": 0,
        "_position": 35
      },
      "geometry": {
        "type": "Point",
        "coordinates": [
          -73.33073474664931,
          5.529025388308169
        ]
      }
    },
    {
      "type": "Feature",
      "properties": {
        "_source": "Ruta21-Runta-Estadio-Terminal-Pirgua",
        "_segmentIndex": 0,
        "_position": 36
      },
      "geometry": {
        "type": "Point",
        "coordinates": [
          -73.33030409759789,
          5.529152214228584
        ]
      }
    },
    {
      "type": "Feature",
      "properties": {
        "_source": "Ruta21-Runta-Estadio-Terminal-Pirgua",
        "_segmentIndex": 0,
        "_position": 37
      },
      "geometry": {
        "type": "Point",
        "coordinates": [
          -73.32989529198862,
          5.529343495653417
        ]
      }
    }
  ]
}