{
  "type": "FeatureCollection",
  "features": [
    {
      "type": "Feature",
      "properties": {
        "_source": "Ruta11-Muiscas-Viaducto-Cooservicios-BrSantaMarta",
        "_segmentIndex": 0,
        "_position": 0
      },
      "geometry": {
        "type": "Point",
        "coordinates": [
          -73.338467,
          5.568429
        ]
      }
    },
    {
      "type": "Feature",
      "properties": {
        "_source": "Ruta11-Muiscas-Viaducto-Cooservicios-BrSantaMarta",
        "_segmentIndex": 0,
        "_position": 0
      },
      "geometry": {
        "type": "Point",
        "coordinates": [
          -73.338277,
          5.5686
        ]
      }
    },
    {
      "type": "Feature",
      "properties": {
        "_source": "Ruta11-Muiscas-Viaducto-Cooservicios-BrSantaMarta",
        "_segmentIndex": 0,
        "_position": 1
      },
      "geometry": {
        "type": "Point",
        "coordinates": [
          -73.33806825161899,
          5.568992854135436
        ]
      }
    },
    {
      "type": "Feature",
      "properties": {
        "_source": "Ruta11-Muiscas-Viaducto-Cooservicios-BrSantaMarta",
        "_segmentIndex": 0,
        "_position": 2
      },
      "geometry": {
        "type": "Point",
        "coordinates": [
          -73.33790532509862,
          5.56941134982456
        ]
      }
    },
    {
      "type": "Feature",
      "properties": {
        "_source": "Ruta11-Muiscas-Viaducto-Cooservicios-BrSantaMarta",
        "_segmentIndex": 0,
        "_position": 3
      },
      "geometry": {
        "type": "Point",
        "coordinates": [
          -73.33754634520834,
          5.569646931644024
        ]
      }
    },
    {
      "type": "Feature",
      "properties": {
        "_source": "Ruta11-Muiscas-Viaducto-Cooservicios-BrSantaMarta",
        "_segmentIndex": 0,
        "_position": 4
      },
      "geometry": {
        "type": "Point",
        "coordinates": [
          -73.33710455480399,
          5.569719089039918
        ]
      }
    },
    {
      "type": "Feature",
      "properties": {
        "_source": "Ruta11-Muiscas-Viaducto-Cooservicios-BrSantaMarta",
        "_segmentIndex": 0,
        "_position": 0
      },
      "geometry": {
        "type": "Point",
        "coordinates": [
          -73.33696,
          5.569748
        ]
      }
    },
    {
      "type": "Feature",
      "properties": {
        "_source": "Ruta11-Muiscas-Viaducto-Cooservicios-BrSantaMarta",
        "_segmentIndex": 0,
        "_position": 1
      },
      "geometry": {
        "type": "Point",
        "coordinates": [
          -73.33657483226736,
          5.569983022202549
        ]
      }
    },
    {
      "type": "Feature",
      "properties": {
        "_source": "Ruta11-Muiscas-Viaducto-Cooservicios-BrSantaMarta",
        "_segmentIndex": 0,
        "_position": 2
      },
      "geometry": {
        "type": "Point",
        "coordinates": [
          -73.33618764052866,
          5.570214731627086
        ]
      }
    },
    {
      "type": "Feature",
      "properties": {
        "_source": "Ruta11-Muiscas-Viaducto-Cooservicios-BrSantaMarta",
        "_segmentIndex": 0,
        "_position": 3
      },
      "geometry": {
        "type": "Point",
        "coordinates": [
          -73.33579903341732,
          5.57044398188938
        ]
      }
    },
    {
      "type": "Feature",
      "properties": {
        "_source": "Ruta11-Muiscas-Viaducto-Cooservicios-BrSantaMarta",
        "_segmentIndex": 0,
        "_position": 4
      },
      "geometry": {
        "type": "Point",
        "coordinates": [
          -73.33539319464792,
          5.570640706595833
        ]
      }
    },
    {
      "type": "Feature",
      "properties": {
        "_source": "Ruta11-Muiscas-Viaducto-Cooservicios-BrSantaMarta",
        "_segmentIndex": 0,
        "_position": 5
      },
      "geometry": {
        "type": "Point",
        "coordinates": [
          -73.33496529051344,
          5.570783099518253
        ]
      }
    },
    {
      "type": "Feature",
      "properties": {
        "_source": "Ruta11-Muiscas-Viaducto-Cooservicios-BrSantaMarta",
        "_segmentIndex": 0,
        "_position": 6
      },
      "geometry": {
        "type": "Point",
        "coordinates": [
          -73.33456785036444,
          5.570992425224165
        ]
      }
    },
    {
      "type": "Feature",
      "properties": {
        "_source": "Ruta11-Muiscas-Viaducto-Cooservicios-BrSantaMarta",
        "_segmentIndex": 0,
        "_position": 7
      },
      "geometry": {
        "type": "Point",
        "coordinates": [
          -73.33424988888034,
          5.571310841906073
        ]
      }
    },
    {
      "type": "Feature",
      "properties": {
        "_source": "Ruta11-Muiscas-Viaducto-Cooservicios-BrSantaMarta",
        "_segmentIndex": 0,
        "_position": 0
      },
      "geometry": {
        "type": "Point",
        "coordinates": [
          -73.333937,
          5.571522
        ]
      }
    },
    {
      "type": "Feature",
      "properties": {
        "_source": "Ruta11-Muiscas-Viaducto-Cooservicios-BrSantaMarta",
        "_segmentIndex": 0,
        "_position": 1
      },
      "geometry": {
        "type": "Point",
        "coordinates": [
          -73.33364385284206,
          5.571179846511511
        ]
      }
    },
    {
      "type": "Feature",
      "properties": {
        "_source": "Ruta11-Muiscas-Viaducto-Cooservicios-BrSantaMarta",
        "_segmentIndex": 0,
        "_position": 2
      },
      "geometry": {
        "type": "Point",
        "coordinates": [
          -73.33334494701232,
          5.570842676576126
        ]
      }
    },
    {
      "type": "Feature",
      "properties": {
        "_source": "Ruta11-Muiscas-Viaducto-Cooservicios-BrSantaMarta",
        "_segmentIndex": 0,
        "_position": 3
      },
      "geometry": {
        "type": "Point",
        "coordinates": [
          -73.33309746700125,
          5.5704695621860685
        ]
      }
    },
    {
      "type": "Feature",
      "properties": {
        "_source": "Ruta11-Muiscas-Viaducto-Cooservicios-BrSantaMarta",
        "_segmentIndex": 0,
        "_position": 4
      },
      "geometry": {
        "type": "Point",
        "coordinates": [
          -73.3328703849336,
          5.57008082851523
        ]
      }
    },
    {
      "type": "Feature",
      "properties": {
        "_source": "Ruta11-Muiscas-Viaducto-Cooservicios-BrSantaMarta",
        "_segmentIndex": 0,
        "_position": 5
      },
      "geometry": {
        "type": "Point",
        "coordinates": [
          -73.33262779153722,
          5.569701608129671
        ]
      }
    },
    {
      "type": "Feature",
      "properties": {
        "_source": "Ruta11-Muiscas-Viaducto-Cooservicios-BrSantaMarta",
        "_segmentIndex": 0,
        "_position": 6
      },
      "geometry": {
        "type": "Point",
        "coordinates": [
          -73.33237763699462,
          5.569327190972534
        ]
      }
    },
    {
      "type": "Feature",
      "properties": {
        "_source": "Ruta11-Muiscas-Viaducto-Cooservicios-BrSantaMarta",
        "_segmentIndex": 0,
        "_position": 7
      },
      "geometry": {
        "type": "Point",
        "coordinates": [
          -73.33225036680176,
          5.5689112008109705
        ]
      }
    },
    {
      "type": "Feature",
      "properties": {
        "_source": "Ruta11-Muiscas-Viaducto-Cooservicios-BrSantaMarta",
        "_segmentIndex": 0,
        "_position": 8
      },
      "geometry": {
        "type": "Point",
        "coordinates": [
          -73.33244470165803,
          5.56851535696844
        ]
      }
    },
    {
      "type": "Feature",
      "properties": {
        "_source": "Ruta11-Muiscas-Viaducto-Cooservicios-BrSantaMarta",
        "_segmentIndex": 0,
        "_position": 9
      },
      "geometry": {
        "type": "Point",
        "coordinates": [
          -73.33278384459805,
          5.568218403409788
        ]
      }
    },
    {
      "type": "Feature",
      "properties": {
        "_source": "Ruta11-Muiscas-Viaducto-Cooservicios-BrSantaMarta",
        "_segmentIndex": 0,
        "_position": 10
      },
      "geometry": {
        "type": "Point",
        "coordinates": [
          -73.33312582419381,
          5.567924557769934
        ]
      }
    },
    {
      "type": "Feature",
      "properties": {
        "_source": "Ruta11-Muiscas-Viaducto-Cooservicios-BrSantaMarta",
        "_segmentIndex": 0,
        "_position": 11
      },
      "geometry": {
        "type": "Point",
        "coordinates": [
          -73.33346780344762,
          5.56763071193297
        ]
      }
    },
    {
      "type": "Feature",
      "properties": {
        "_source": "Ruta11-Muiscas-Viaducto-Cooservicios-BrSantaMarta",
        "_segmentIndex": 0,
        "_position": 12
      },
      "geometry": {
        "type": "Point",
        "coordinates": [
          -73.3338097823595,
          5.567336865898905
        ]
      }
    },
    {
      "type": "Feature",
      "properties": {
        "_source": "Ruta11-Muiscas-Viaducto-Cooservicios-BrSantaMarta",
        "_segmentIndex": 0,
        "_position": 13
      },
      "geometry": {
        "type": "Point",
        "coordinates": [
          -73.33415176092944,
          5.567043019667751
        ]
      }
    },
    {
      "type": "Feature",
      "properties": {
        "_source": "Ruta11-Muiscas-Viaducto-Cooservicios-BrSantaMarta",
        "_segmentIndex": 0,
        "_position": 14
      },
      "geometry": {
        "type": "Point",
        "coordinates": [
          -73.33449151614973,
          5.56674663949103
        ]
      }
    },
    {
      "type": "Feature",
      "properties": {
        "_source": "Ruta11-Muiscas-Viaducto-Cooservicios-BrSantaMarta",
        "_segmentIndex": 0,
        "_position": 15
      },
      "geometry": {
        "type": "Point",
        "coordinates": [
          -73.33483014119494,
          5.5664489713557765
        ]
      }
    },
    {
      "type": "Feature",
      "properties": {
        "_source": "Ruta11-Muiscas-Viaducto-Cooservicios-BrSantaMarta",
        "_segmentIndex": 0,
        "_position": 16
      },
      "geometry": {
        "type": "Point",
        "coordinates": [
          -73.33516876589724,
          5.566151303027312
        ]
      }
    },
    {
      "type": "Feature",
      "properties": {
        "_source": "Ruta11-Muiscas-Viaducto-Cooservicios-BrSantaMarta",
        "_segmentIndex": 0,
        "_position": 17
      },
      "geometry": {
        "type": "Point",
        "coordinates": [
          -73.33554719637092,
          5.565906360935805
        ]
      }
    },
    {
      "type": "Feature",
      "properties": {
        "_source": "Ruta11-Muiscas-Viaducto-Cooservicios-BrSantaMarta",
        "_segmentIndex": 0,
        "_position": 18
      },
      "geometry": {
        "type": "Point",
        "coordinates": [
          -73.33592869489884,
          5.565665482903365
        ]
      }
    },
    {
      "type": "Feature",
      "properties": {
        "_source": "Ruta11-Muiscas-Viaducto-Cooservicios-BrSantaMarta",
        "_segmentIndex": 0,
        "_position": 19
      },
      "geometry": {
        "type": "Point",
        "coordinates": [
          -73.33630598378022,
          5.56541819558778
        ]
      }
    },
    {
      "type": "Feature",
      "properties": {
        "_source": "Ruta11-Muiscas-Viaducto-Cooservicios-BrSantaMarta",
        "_segmentIndex": 0,
        "_position": 20
      },
      "geometry": {
        "type": "Point",
        "coordinates": [
          -73.33668073986509,
          5.565167052139748
        ]
      }
    },
    {
      "type": "Feature",
      "properties": {
        "_source": "Ruta11-Muiscas-Viaducto-Cooservicios-BrSantaMarta",
        "_segmentIndex": 0,
        "_position": 21
      },
      "geometry": {
        "type": "Point",
        "coordinates": [
          -73.33705549562984,
          5.564915908455126
        ]
      }
    },
    {
      "type": "Feature",
      "properties": {
        "_source": "Ruta11-Muiscas-Viaducto-Cooservicios-BrSantaMarta",
        "_segmentIndex": 0,
        "_position": 22
      },
      "geometry": {
        "type": "Point",
        "coordinates": [
          -73.33741799146063,
          5.564647713835548
        ]
      }
    },
    {
      "type": "Feature",
      "properties": {
        "_source": "Ruta11-Muiscas-Viaducto-Cooservicios-BrSantaMarta",
        "_segmentIndex": 0,
        "_position": 23
      },
      "geometry": {
        "type": "Point",
        "coordinates": [
          -73.33777543966906,
          5.564372723525914
        ]
      }
    },
    {
      "type": "Feature",
      "properties": {
        "_source": "Ruta11-Muiscas-Viaducto-Cooservicios-BrSantaMarta",
        "_segmentIndex": 0,
        "_position": 24
      },
      "geometry": {
        "type": "Point",
        "coordinates": [
          -73.33813179050624,
          5.564096314000846
        ]
      }
    },
    {
      "type": "Feature",
      "properties": {
        "_source": "Ruta11-Muiscas-Viaducto-Cooservicios-BrSantaMarta",
        "_segmentIndex": 0,
        "_position": 25
      },
      "geometry": {
        "type": "Point",
        "coordinates": [
          -73.33848814100847,
          5.563819904261896
        ]
      }
    },
    {
      "type": "Feature",
      "properties": {
        "_source": "Ruta11-Muiscas-Viaducto-Cooservicios-BrSantaMarta",
        "_segmentIndex": 0,
        "_position": 26
      },
      "geometry": {
        "type": "Point",
        "coordinates": [
          -73.33884449117578,
          5.5635434943090765
        ]
      }
    },
    {
      "type": "Feature",
      "properties": {
        "_source": "Ruta11-Muiscas-Viaducto-Cooservicios-BrSantaMarta",
        "_segmentIndex": 0,
        "_position": 27
      },
      "geometry": {
        "type": "Point",
        "coordinates": [
          -73.33920084100815,
          5.5632670841423995
        ]
      }
    },
    {
      "type": "Feature",
      "properties": {
        "_source": "Ruta11-Muiscas-Viaducto-Cooservicios-BrSantaMarta",
        "_segmentIndex": 0,
        "_position": 28
      },
      "geometry": {
        "type": "Point",
        "coordinates": [
          -73.33955719050566,
          5.562990673761875
        ]
      }
    },
    {
      "type": "Feature",
      "properties": {
        "_source": "Ruta11-Muiscas-Viaducto-Cooservicios-BrSantaMarta",
        "_segmentIndex": 0,
        "_position": 29
      },
      "geometry": {
        "type": "Point",
        "coordinates": [
          -73.33990933995442,
          5.562708989704131
        ]
      }
    },
    {
      "type": "Feature",
      "properties": {
        "_source": "Ruta11-Muiscas-Viaducto-Cooservicios-BrSantaMarta",
        "_segmentIndex": 0,
        "_position": 30
      },
      "geometry": {
        "type": "Point",
        "coordinates": [
          -73.34026107743446,
          5.562426788563786
        ]
      }
    },
    {
      "type": "Feature",
      "properties": {
        "_source": "Ruta11-Muiscas-Viaducto-Cooservicios-BrSantaMarta",
        "_segmentIndex": 0,
        "_position": 31
      },
      "geometry": {
        "type": "Point",
        "coordinates": [
          -73.34061281457707,
          5.562144587215126
        ]
      }
    },
    {
      "type": "Feature",
      "properties": {
        "_source": "Ruta11-Muiscas-Viaducto-Cooservicios-BrSantaMarta",
        "_segmentIndex": 0,
        "_position": 32
      },
      "geometry": {
        "type": "Point",
        "coordinates": [
          -73.34096455138226,
          5.561862385658161
        ]
      }
    },
    {
      "type": "Feature",
      "properties": {
        "_source": "Ruta11-Muiscas-Viaducto-Cooservicios-BrSantaMarta",
        "_segmentIndex": 0,
        "_position": 33
      },
      "geometry": {
        "type": "Point",
        "coordinates": [
          -73.34131628785003,
          5.561580183892899
        ]
      }
    },
    {
      "type": "Feature",
      "properties": {
        "_source": "Ruta11-Muiscas-Viaducto-Cooservicios-BrSantaMarta",
        "_segmentIndex": 0,
        "_position": 34
      },
      "geometry": {
        "type": "Point",
        "coordinates": [
          -73.34165956316404,
          5.561288676458407
        ]
      }
    },
    {
      "type": "Feature",
      "properties": {
        "_source": "Ruta11-Muiscas-Viaducto-Cooservicios-BrSantaMarta",
        "_segmentIndex": 0,
        "_position": 35
      },
      "geometry": {
        "type": "Point",
        "coordinates": [
          -73.34197344929856,
          5.560965344516117
        ]
      }
    },
    {
      "type": "Feature",
      "properties": {
        "_source": "Ruta11-Muiscas-Viaducto-Cooservicios-BrSantaMarta",
        "_segmentIndex": 0,
        "_position": 36
      },
      "geometry": {
        "type": "Point",
        "coordinates": [
          -73.34227895272801,
          5.560634076763882
        ]
      }
    },
    {
      "type": "Feature",
      "properties": {
        "_source": "Ruta11-Muiscas-Viaducto-Cooservicios-BrSantaMarta",
        "_segmentIndex": 0,
        "_position": 37
      },
      "geometry": {
        "type": "Point",
        "coordinates": [
          -73.34258445581352,
          5.560302808854544
        ]
      }
    },
    {
      "type": "Feature",
      "properties": {
        "_source": "Ruta11-Muiscas-Viaducto-Cooservicios-BrSantaMarta",
        "_segmentIndex": 0,
        "_position": 38
      },
      "geometry": {
        "type": "Point",
        "coordinates": [
          -73.34288995855515,
          5.559971540788115
        ]
      }
    },
    {
      "type": "Feature",
      "properties": {
        "_source": "Ruta11-Muiscas-Viaducto-Cooservicios-BrSantaMarta",
        "_segmentIndex": 0,
        "_position": 39
      },
      "geometry": {
        "type": "Point",
        "coordinates": [
          -73.34319546095286,
          5.559640272564604
        ]
      }
    },
    {
      "type": "Feature",
      "properties": {
        "_source": "Ruta11-Muiscas-Viaducto-Cooservicios-BrSantaMarta",
        "_segmentIndex": 0,
        "_position": 40
      },
      "geometry": {
        "type": "Point",
        "coordinates": [
          -73.3435009630067,
          5.559309004184019
        ]
      }
    },
    {
      "type": "Feature",
      "properties": {
        "_source": "Ruta11-Muiscas-Viaducto-Cooservicios-BrSantaMarta",
        "_segmentIndex": 0,
        "_position": 41
      },
      "geometry": {
        "type": "Point",
        "coordinates": [
          -73.34378980184304,
          5.558963371830349
        ]
      }
    },
    {
      "type": "Feature",
      "properties": {
        "_source": "Ruta11-Muiscas-Viaducto-Cooservicios-BrSantaMarta",
        "_segmentIndex": 0,
        "_position": 42
      },
      "geometry": {
        "type": "Point",
        "coordinates": [
          -73.34407560793065,
          5.558615125323917
        ]
      }
    },
    {
      "type": "Feature",
      "properties": {
        "_source": "Ruta11-Muiscas-Viaducto-Cooservicios-BrSantaMarta",
        "_segmentIndex": 0,
        "_position": 43
      },
      "geometry": {
        "type": "Point",
        "coordinates": [
          -73.34436141368012,
          5.558266878680039
        ]
      }
    },
    {
      "type": "Feature",
      "properties": {
        "_source": "Ruta11-Muiscas-Viaducto-Cooservicios-BrSantaMarta",
        "_segmentIndex": 0,
        "_position": 44
      },
      "geometry": {
        "type": "Point",
        "coordinates": [
          -73.3446472190915,
          5.557918631898721
        ]
      }
    },
    {
      "type": "Feature",
      "properties": {
        "_source": "Ruta11-Muiscas-Viaducto-Cooservicios-BrSantaMarta",
        "_segmentIndex": 0,
        "_position": 45
      },
      "geometry": {
        "type": "Point",
        "coordinates": [
          -73.34481390509627,
          5.55750319647437
        ]
      }
    },
    {
      "type": "Feature",
      "properties": {
        "_source": "Ruta11-Muiscas-Viaducto-Cooservicios-BrSantaMarta",
        "_segmentIndex": 0,
        "_position": 46
      },
      "geometry": {
        "type": "Point",
        "coordinates": [
          -73.34495157635368,
          5.557074922435777
        ]
      }
    },
    {
      "type": "Feature",
      "properties": {
        "_source": "Ruta11-Muiscas-Viaducto-Cooservicios-BrSantaMarta",
        "_segmentIndex": 0,
        "_position": 47
      },
      "geometry": {
        "type": "Point",
        "coordinates": [
          -73.34508924741081,
          5.556646648365301
        ]
      }
    },
    {
      "type": "Feature",
      "properties": {
        "_source": "Ruta11-Muiscas-Viaducto-Cooservicios-BrSantaMarta",
        "_segmentIndex": 0,
        "_position": 48
      },
      "geometry": {
        "type": "Point",
        "coordinates": [
          -73.34522563492952,
          5.556217973842928
        ]
      }
    },
    {
      "type": "Feature",
      "properties": {
        "_source": "Ruta11-Muiscas-Viaducto-Cooservicios-BrSantaMarta",
        "_segmentIndex": 0,
        "_position": 49
      },
      "geometry": {
        "type": "Point",
        "coordinates": [
          -73.34535824582694,
          5.555788120991034
        ]
      }
    },
    {
      "type": "Feature",
      "properties": {
        "_source": "Ruta11-Muiscas-Viaducto-Cooservicios-BrSantaMarta",
        "_segmentIndex": 0,
        "_position": 50
      },
      "geometry": {
        "type": "Point",
        "coordinates": [
          -73.34549085653082,
          5.555358268109563
        ]
      }
    },
    {
      "type": "Feature",
      "properties": {
        "_source": "Ruta11-Muiscas-Viaducto-Cooservicios-BrSantaMarta",
        "_segmentIndex": 0,
        "_position": 51
      },
      "geometry": {
        "type": "Point",
        "coordinates": [
          -73.3456261850736,
          5.554929304124011
        ]
      }
    },
    {
      "type": "Feature",
      "properties": {
        "_source": "Ruta11-Muiscas-Viaducto-Cooservicios-BrSantaMarta",
        "_segmentIndex": 0,
        "_position": 52
      },
      "geometry": {
        "type": "Point",
        "coordinates": [
          -73.34571314265224,
          5.554492074368509
        ]
      }
    },
    {
      "type": "Feature",
      "properties": {
        "_source": "Ruta11-Muiscas-Viaducto-Cooservicios-BrSantaMarta",
        "_segmentIndex": 0,
        "_position": 53
      },
      "geometry": {
        "type": "Point",
        "coordinates": [
          -73.34574922925712,
          5.554043865498317
        ]
      }
    },
    {
      "type": "Feature",
      "properties": {
        "_source": "Ruta11-Muiscas-Viaducto-Cooservicios-BrSantaMarta",
        "_segmentIndex": 0,
        "_position": 54
      },
      "geometry": {
        "type": "Point",
        "coordinates": [
          -73.34578866576221,
          5.55359592174251
        ]
      }
    },
    {
      "type": "Feature",
      "properties": {
        "_source": "Ruta11-Muiscas-Viaducto-Cooservicios-BrSantaMarta",
        "_segmentIndex": 0,
        "_position": 55
      },
      "geometry": {
        "type": "Point",
        "coordinates": [
          -73.34582810220736,
          5.553147977984089
        ]
      }
    },
    {
      "type": "Feature",
      "properties": {
        "_source": "Ruta11-Muiscas-Viaducto-Cooservicios-BrSantaMarta",
        "_segmentIndex": 0,
        "_position": 56
      },
      "geometry": {
        "type": "Point",
        "coordinates": [
          -73.34586753859256,
          5.5527000342230535
        ]
      }
    },
    {
      "type": "Feature",
      "properties": {
        "_source": "Ruta11-Muiscas-Viaducto-Cooservicios-BrSantaMarta",
        "_segmentIndex": 0,
        "_position": 57
      },
      "geometry": {
        "type": "Point",
        "coordinates": [
          -73.34591064706906,
          5.5522524281792025
        ]
      }
    },
    {
      "type": "Feature",
      "properties": {
        "_source": "Ruta11-Muiscas-Viaducto-Cooservicios-BrSantaMarta",
        "_segmentIndex": 0,
        "_position": 58
      },
      "geometry": {
        "type": "Point",
        "coordinates": [
          -73.34595434577099,
          5.551804876419997
        ]
      }
    },
    {
      "type": "Feature",
      "properties": {
        "_source": "Ruta11-Muiscas-Viaducto-Cooservicios-BrSantaMarta",
        "_segmentIndex": 0,
        "_position": 59
      },
      "geometry": {
        "type": "Point",
        "coordinates": [
          -73.34599871015172,
          5.551357389687794
        ]
      }
    },
    {
      "type": "Feature",
      "properties": {
        "_source": "Ruta11-Muiscas-Viaducto-Cooservicios-BrSantaMarta",
        "_segmentIndex": 0,
        "_position": 60
      },
      "geometry": {
        "type": "Point",
        "coordinates": [
          -73.34604326325518,
          5.550909921393362
        ]
      }
    },
    {
      "type": "Feature",
      "properties": {
        "_source": "Ruta11-Muiscas-Viaducto-Cooservicios-BrSantaMarta",
        "_segmentIndex": 0,
        "_position": 61
      },
      "geometry": {
        "type": "Point",
        "coordinates": [
          -73.34611237273761,
          5.5504659591228185
        ]
      }
    },
    {
      "type": "Feature",
      "properties": {
        "_source": "Ruta11-Muiscas-Viaducto-Cooservicios-BrSantaMarta",
        "_segmentIndex": 0,
        "_position": 62
      },
      "geometry": {
        "type": "Point",
        "coordinates": [
          -73.34621708239223,
          5.550028543152428
        ]
      }
    },
    {
      "type": "Feature",
      "properties": {
        "_source": "Ruta11-Muiscas-Viaducto-Cooservicios-BrSantaMarta",
        "_segmentIndex": 0,
        "_position": 63
      },
      "geometry": {
        "type": "Point",
        "coordinates": [
          -73.34632383309311,
          5.549591625077854
        ]
      }
    },
    {
      "type": "Feature",
      "properties": {
        "_source": "Ruta11-Muiscas-Viaducto-Cooservicios-BrSantaMarta",
        "_segmentIndex": 0,
        "_position": 64
      },
      "geometry": {
        "type": "Point",
        "coordinates": [
          -73.34643419795965,
          5.54915558863304
        ]
      }
    },
    {
      "type": "Feature",
      "properties": {
        "_source": "Ruta11-Muiscas-Viaducto-Cooservicios-BrSantaMarta",
        "_segmentIndex": 0,
        "_position": 65
      },
      "geometry": {
        "type": "Point",
        "coordinates": [
          -73.34654456266298,
          5.548719552167767
        ]
      }
    },
    {
      "type": "Feature",
      "properties": {
        "_source": "Ruta11-Muiscas-Viaducto-Cooservicios-BrSantaMarta",
        "_segmentIndex": 0,
        "_position": 66
      },
      "geometry": {
        "type": "Point",
        "coordinates": [
          -73.34665341989282,
          5.548283149842034
        ]
      }
    },
    {
      "type": "Feature",
      "properties": {
        "_source": "Ruta11-Muiscas-Viaducto-Cooservicios-BrSantaMarta",
        "_segmentIndex": 0,
        "_position": 67
      },
      "geometry": {
        "type": "Point",
        "coordinates": [
          -73.34677498954495,
          5.547850497697465
        ]
      }
    },
    {
      "type": "Feature",
      "properties": {
        "_source": "Ruta11-Muiscas-Viaducto-Cooservicios-BrSantaMarta",
        "_segmentIndex": 0,
        "_position": 68
      },
      "geometry": {
        "type": "Point",
        "coordinates": [
          -73.34694351289541,
          5.5474355219467935
        ]
      }
    },
    {
      "type": "Feature",
      "properties": {
        "_source": "Ruta11-Muiscas-Viaducto-Cooservicios-BrSantaMarta",
        "_segmentIndex": 0,
        "_position": 69
      },
      "geometry": {
        "type": "Point",
        "coordinates": [
          -73.34721077708213,
          5.547072986971042
        ]
      }
    },
    {
      "type": "Feature",
      "properties": {
        "_source": "Ruta11-Muiscas-Viaducto-Cooservicios-BrSantaMarta",
        "_segmentIndex": 0,
        "_position": 70
      },
      "geometry": {
        "type": "Point",
        "coordinates": [
          -73.34747950081879,
          5.5467115234409174
        ]
      }
    },
    {
      "type": "Feature",
      "properties": {
        "_source": "Ruta11-Muiscas-Viaducto-Cooservicios-BrSantaMarta",
        "_segmentIndex": 0,
        "_position": 71
      },
      "geometry": {
        "type": "Point",
        "coordinates": [
          -73.34774851367986,
          5.546350272251424
        ]
      }
    },
    {
      "type": "Feature",
      "properties": {
        "_source": "Ruta11-Muiscas-Viaducto-Cooservicios-BrSantaMarta",
        "_segmentIndex": 0,
        "_position": 72
      },
      "geometry": {
        "type": "Point",
        "coordinates": [
          -73.34801752621154,
          5.545989020940429
        ]
      }
    },
    {
      "type": "Feature",
      "properties": {
        "_source": "Ruta11-Muiscas-Viaducto-Cooservicios-BrSantaMarta",
        "_segmentIndex": 0,
        "_position": 73
      },
      "geometry": {
        "type": "Point",
        "coordinates": [
          -73.34828653841383,
          5.545627769507936
        ]
      }
    },
    {
      "type": "Feature",
      "properties": {
        "_source": "Ruta11-Muiscas-Viaducto-Cooservicios-BrSantaMarta",
        "_segmentIndex": 0,
        "_position": 74
      },
      "geometry": {
        "type": "Point",
        "coordinates": [
          -73.34855516192987,
          5.545266241297668
        ]
      }
    },
    {
      "type": "Feature",
      "properties": {
        "_source": "Ruta11-Muiscas-Viaducto-Cooservicios-BrSantaMarta",
        "_segmentIndex": 0,
        "_position": 75
      },
      "geometry": {
        "type": "Point",
        "coordinates": [
          -73.34881195487536,
          5.544896285383745
        ]
      }
    },
    {
      "type": "Feature",
      "properties": {
        "_source": "Ruta11-Muiscas-Viaducto-Cooservicios-BrSantaMarta",
        "_segmentIndex": 0,
        "_position": 76
      },
      "geometry": {
        "type": "Point",
        "coordinates": [
          -73.34904749092632,
          5.544512682740186
        ]
      }
    },
    {
      "type": "Feature",
      "properties": {
        "_source": "Ruta11-Muiscas-Viaducto-Cooservicios-BrSantaMarta",
        "_segmentIndex": 0,
        "_position": 77
      },
      "geometry": {
        "type": "Point",
        "coordinates": [
          -73.34928021007687,
          5.544127271763632
        ]
      }
    },
    {
      "type": "Feature",
      "properties": {
        "_source": "Ruta11-Muiscas-Viaducto-Cooservicios-BrSantaMarta",
        "_segmentIndex": 0,
        "_position": 78
      },
      "geometry": {
        "type": "Point",
        "coordinates": [
          -73.34951292892353,
          5.5437418606961835
        ]
      }
    },
    {
      "type": "Feature",
      "properties": {
        "_source": "Ruta11-Muiscas-Viaducto-Cooservicios-BrSantaMarta",
        "_segmentIndex": 0,
        "_position": 79
      },
      "geometry": {
        "type": "Point",
        "coordinates": [
          -73.34974106634539,
          5.543353757108014
        ]
      }
    },
    {
      "type": "Feature",
      "properties": {
        "_source": "Ruta11-Muiscas-Viaducto-Cooservicios-BrSantaMarta",
        "_segmentIndex": 0,
        "_position": 80
      },
      "geometry": {
        "type": "Point",
        "coordinates": [
          -73.34995120086718,
          5.542956038318537
        ]
      }
    },
    {
      "type": "Feature",
      "properties": {
        "_source": "Ruta11-Muiscas-Viaducto-Cooservicios-BrSantaMarta",
        "_segmentIndex": 0,
        "_position": 81
      },
      "geometry": {
        "type": "Point",
        "coordinates": [
          -73.35016755919874,
          5.542562029049394
        ]
      }
    },
    {
      "type": "Feature",
      "properties": {
        "_source": "Ruta11-Muiscas-Viaducto-Cooservicios-BrSantaMarta",
        "_segmentIndex": 0,
        "_position": 82
      },
      "geometry": {
        "type": "Point",
        "coordinates": [
          -73.35041274053434,
          5.542188967216457
        ]
      }
    },
    {
      "type": "Feature",
      "properties": {
        "_source": "Ruta11-Muiscas-Viaducto-Cooservicios-BrSantaMarta",
        "_segmentIndex": 0,
        "_position": 0
      },
      "geometry": {
        "type": "Point",
        "coordinates": [
          -73.350457,
          5.542122
        ]
      }
    },
    {
      "type": "Feature",
      "properties": {
        "_source": "Ruta11-Muiscas-Viaducto-Cooservicios-BrSantaMarta",
        "_segmentIndex": 0,
        "_position": 1
      },
      "geometry": {
        "type": "Point",
        "coordinates": [
          -73.35060740826387,
          5.541728861166193
        ]
      }
    },
    {
      "type": "Feature",
      "properties": {
        "_source": "Ruta11-Muiscas-Viaducto-Cooservicios-BrSantaMarta",
        "_segmentIndex": 0,
        "_position": 2
      },
      "geometry": {
        "type": "Point",
        "coordinates": [
          -73.35078032052982,
          5.541321405618079
        ]
      }
    },
    {
      "type": "Feature",
      "properties": {
        "_source": "Ruta11-Muiscas-Viaducto-Cooservicios-BrSantaMarta",
        "_segmentIndex": 0,
        "_position": 3
      },
      "geometry": {
        "type": "Point",
        "coordinates": [
          -73.35091391491456,
          5.540891859470418
        ]
      }
    },
    {
      "type": "Feature",
      "properties": {
        "_source": "Ruta11-Muiscas-Viaducto-Cooservicios-BrSantaMarta",
        "_segmentIndex": 0,
        "_position": 4
      },
      "geometry": {
        "type": "Point",
        "coordinates": [
          -73.35104676300881,
          5.540462089519262
        ]
      }
    },
    {
      "type": "Feature",
      "properties": {
        "_source": "Ruta11-Muiscas-Viaducto-Cooservicios-BrSantaMarta",
        "_segmentIndex": 0,
        "_position": 5
      },
      "geometry": {
        "type": "Point",
        "coordinates": [
          -73.35123625655713,
          5.540059572747672
        ]
      }
    },
    {
      "type": "Feature",
      "properties": {
        "_source": "Ruta11-Muiscas-Viaducto-Cooservicios-BrSantaMarta",
        "_segmentIndex": 0,
        "_position": 6
      },
      "geometry": {
        "type": "Point",
        "coordinates": [
          -73.35149854522986,
          5.539694189714744
        ]
      }
    },
    {
      "type": "Feature",
      "properties": {
        "_source": "Ruta11-Muiscas-Viaducto-Cooservicios-BrSantaMarta",
        "_segmentIndex": 0,
        "_position": 7
      },
      "geometry": {
        "type": "Point",
        "coordinates": [
          -73.35171854529355,
          5.539301449008254
        ]
      }
    },
    {
      "type": "Feature",
      "properties": {
        "_source": "Ruta11-Muiscas-Viaducto-Cooservicios-BrSantaMarta",
        "_segmentIndex": 0,
        "_position": 8
      },
      "geometry": {
        "type": "Point",
        "coordinates": [
          -73.35194030790323,
          5.538909701986456
        ]
      }
    },
    {
      "type": "Feature",
      "properties": {
        "_source": "Ruta11-Muiscas-Viaducto-Cooservicios-BrSantaMarta",
        "_segmentIndex": 0,
        "_position": 9
      },
      "geometry": {
        "type": "Point",
        "coordinates": [
          -73.35216558066112,
          5.538519933825226
        ]
      }
    },
    {
      "type": "Feature",
      "properties": {
        "_source": "Ruta11-Muiscas-Viaducto-Cooservicios-BrSantaMarta",
        "_segmentIndex": 0,
        "_position": 10
      },
      "geometry": {
        "type": "Point",
        "coordinates": [
          -73.35243517140684,
          5.538159972224832
        ]
      }
    },
    {
      "type": "Feature",
      "properties": {
        "_source": "Ruta11-Muiscas-Viaducto-Cooservicios-BrSantaMarta",
        "_segmentIndex": 0,
        "_position": 11
      },
      "geometry": {
        "type": "Point",
        "coordinates": [
          -73.35270395595627,
          5.537799033346634
        ]
      }
    },
    {
      "type": "Feature",
      "properties": {
        "_source": "Ruta11-Muiscas-Viaducto-Cooservicios-BrSantaMarta",
        "_segmentIndex": 0,
        "_position": 12
      },
      "geometry": {
        "type": "Point",
        "coordinates": [
          -73.35294759818943,
          5.537420403474942
        ]
      }
    },
    {
      "type": "Feature",
      "properties": {
        "_source": "Ruta11-Muiscas-Viaducto-Cooservicios-BrSantaMarta",
        "_segmentIndex": 0,
        "_position": 13
      },
      "geometry": {
        "type": "Point",
        "coordinates": [
          -73.35318569125856,
          5.537038259806403
        ]
      }
    },
    {
      "type": "Feature",
      "properties": {
        "_source": "Ruta11-Muiscas-Viaducto-Cooservicios-BrSantaMarta",
        "_segmentIndex": 0,
        "_position": 14
      },
      "geometry": {
        "type": "Point",
        "coordinates": [
          -73.35342378401982,
          5.536656116042843
        ]
      }
    },
    {
      "type": "Feature",
      "properties": {
        "_source": "Ruta11-Muiscas-Viaducto-Cooservicios-BrSantaMarta",
        "_segmentIndex": 0,
        "_position": 15
      },
      "geometry": {
        "type": "Point",
        "coordinates": [
          -73.35365901930899,
          5.536272284527579
        ]
      }
    },
    {
      "type": "Feature",
      "properties": {
        "_source": "Ruta11-Muiscas-Viaducto-Cooservicios-BrSantaMarta",
        "_segmentIndex": 0,
        "_position": 16
      },
      "geometry": {
        "type": "Point",
        "coordinates": [
          -73.35388195276465,
          5.53588118671088
        ]
      }
    },
    {
      "type": "Feature",
      "properties": {
        "_source": "Ruta11-Muiscas-Viaducto-Cooservicios-BrSantaMarta",
        "_segmentIndex": 0,
        "_position": 17
      },
      "geometry": {
        "type": "Point",
        "coordinates": [
          -73.35413919889815,
          5.535512186786194
        ]
      }
    },
    {
      "type": "Feature",
      "properties": {
        "_source": "Ruta11-Muiscas-Viaducto-Cooservicios-BrSantaMarta",
        "_segmentIndex": 0,
        "_position": 18
      },
      "geometry": {
        "type": "Point",
        "coordinates": [
          -73.35447166587801,
          5.535214419829292
        ]
      }
    },
    {
      "type": "Feature",
      "properties": {
        "_source": "Ruta11-Muiscas-Viaducto-Cooservicios-BrSantaMarta",
        "_segmentIndex": 0,
        "_position": 19
      },
      "geometry": {
        "type": "Point",
        "coordinates": [
          -73.35488653824257,
          5.535055268077538
        ]
      }
    },
    {
      "type": "Feature",
      "properties": {
        "_source": "Ruta11-Muiscas-Viaducto-Cooservicios-BrSantaMarta",
        "_segmentIndex": 0,
        "_position": 20
      },
      "geometry": {
        "type": "Point",
        "coordinates": [
          -73.35533554237357,
          5.535088603740422
        ]
      }
    },
    {
      "type": "Feature",
      "properties": {
        "_source": "Ruta11-Muiscas-Viaducto-Cooservicios-BrSantaMarta",
        "_segmentIndex": 0,
        "_position": 21
      },
      "geometry": {
        "type": "Point",
        "coordinates": [
          -73.35575962649085,
          5.535243588321661
        ]
      }
    },
    {
      "type": "Feature",
      "properties": {
        "_source": "Ruta11-Muiscas-Viaducto-Cooservicios-BrSantaMarta",
        "_segmentIndex": 0,
        "_position": 22
      },
      "geometry": {
        "type": "Point",
        "coordinates": [
          -73.35618260757519,
          5.535401391184707
        ]
      }
    },
    {
      "type": "Feature",
      "properties": {
        "_source": "Ruta11-Muiscas-Viaducto-Cooservicios-BrSantaMarta",
        "_segmentIndex": 0,
        "_position": 0
      },
      "geometry": {
        "type": "Point",
        "coordinates": [
          -73.356379,
          5.535482
        ]
      }
    },
    {
      "type": "Feature",
      "properties": {
        "_source": "Ruta11-Muiscas-Viaducto-Cooservicios-BrSantaMarta",
        "_segmentIndex": 0,
        "_position": 1
      },
      "geometry": {
        "type": "Point",
        "coordinates": [
          -73.3562697290154,
          5.535918291964855
        ]
      }
    },
    {
      "type": "Feature",
      "properties": {
        "_source": "Ruta11-Muiscas-Viaducto-Cooservicios-BrSantaMarta",
        "_segmentIndex": 0,
        "_position": 0
      },
      "geometry": {
        "type": "Point",
        "coordinates": [
          -73.356172,
          5.53632
        ]
      }
    },
    {
      "type": "Feature",
      "properties": {
        "_source": "Ruta11-Muiscas-Viaducto-Cooservicios-BrSantaMarta",
        "_segmentIndex": 0,
        "_position": 1
      },
      "geometry": {
        "type": "Point",
        "coordinates": [
          -73.3566026103767,
          5.536455610318164
        ]
      }
    },
    {
      "type": "Feature",
      "properties": {
        "_source": "Ruta11-Muiscas-Viaducto-Cooservicios-BrSantaMarta",
        "_segmentIndex": 0,
        "_position": 2
      },
      "geometry": {
        "type": "Point",
        "coordinates": [
          -73.35703514745664,
          5.536585408053391
        ]
      }
    },
    {
      "type": "Feature",
      "properties": {
        "_source": "Ruta11-Muiscas-Viaducto-Cooservicios-BrSantaMarta",
        "_segmentIndex": 0,
        "_position": 3
      },
      "geometry": {
        "type": "Point",
        "coordinates": [
          -73.35746767770328,
          5.5367152273755655
        ]
      }
    },
    {
      "type": "Feature",
      "properties": {
        "_source": "Ruta11-Muiscas-Viaducto-Cooservicios-BrSantaMarta",
        "_segmentIndex": 0,
        "_position": 4
      },
      "geometry": {
        "type": "Point",
        "coordinates": [
          -73.35789577860992,
          5.536858858904392
        ]
      }
    },
    {
      "type": "Feature",
      "properties": {
        "_source": "Ruta11-Muiscas-Viaducto-Cooservicios-BrSantaMarta",
        "_segmentIndex": 0,
        "_position": 5
      },
      "geometry": {
        "type": "Point",
        "coordinates": [
          -73.35832387972461,
          5.537002490126034
        ]
      }
    },
    {
      "type": "Feature",
      "properties": {
        "_source": "Ruta11-Muiscas-Viaducto-Cooservicios-BrSantaMarta",
        "_segmentIndex": 0,
        "_position": 6
      },
      "geometry": {
        "type": "Point",
        "coordinates": [
          -73.35875418848184,
          5.537139235654021
        ]
      }
    },
    {
      "type": "Feature",
      "properties": {
        "_source": "Ruta11-Muiscas-Viaducto-Cooservicios-BrSantaMarta",
        "_segmentIndex": 0,
        "_position": 7
      },
      "geometry": {
        "type": "Point",
        "coordinates": [
          -73.35918674797182,
          5.537268961034982
        ]
      }
    },
    {
      "type": "Feature",
      "properties": {
        "_source": "Ruta11-Muiscas-Viaducto-Cooservicios-BrSantaMarta",
        "_segmentIndex": 0,
        "_position": 0
      },
      "geometry": {
        "type": "Point",
        "coordinates": [
          -73.359557,
          5.53738
        ]
      }
    },
    {
      "type": "Feature",
      "properties": {
        "_source": "Ruta11-Muiscas-Viaducto-Cooservicios-BrSantaMarta",
        "_segmentIndex": 0,
        "_position": 1
      },
      "geometry": {
        "type": "Point",
        "coordinates": [
          -73.35969238005615,
          5.536951149316733
        ]
      }
    },
    {
      "type": "Feature",
      "properties": {
        "_source": "Ruta11-Muiscas-Viaducto-Cooservicios-BrSantaMarta",
        "_segmentIndex": 0,
        "_position": 2
      },
      "geometry": {
        "type": "Point",
        "coordinates": [
          -73.35980997886769,
          5.536516990890208
        ]
      }
    },
    {
      "type": "Feature",
      "properties": {
        "_source": "Ruta11-Muiscas-Viaducto-Cooservicios-BrSantaMarta",
        "_segmentIndex": 0,
        "_position": 3
      },
      "geometry": {
        "type": "Point",
        "coordinates": [
          -73.35993382220583,
          5.536084568232326
        ]
      }
    },
    {
      "type": "Feature",
      "properties": {
        "_source": "Ruta11-Muiscas-Viaducto-Cooservicios-BrSantaMarta",
        "_segmentIndex": 0,
        "_position": 4
      },
      "geometry": {
        "type": "Point",
        "coordinates": [
          -73.3600591444186,
          5.535652556768863
        ]
      }
    },
    {
      "type": "Feature",
      "properties": {
        "_source": "Ruta11-Muiscas-Viaducto-Cooservicios-BrSantaMarta",
        "_segmentIndex": 0,
        "_position": 5
      },
      "geometry": {
        "type": "Point",
        "coordinates": [
          -73.3601856600784,
          5.535220889070824
        ]
      }
    },
    {
      "type": "Feature",
      "properties": {
        "_source": "Ruta11-Muiscas-Viaducto-Cooservicios-BrSantaMarta",
        "_segmentIndex": 0,
        "_position": 6
      },
      "geometry": {
        "type": "Point",
        "coordinates": [
          -73.36031275333067,
          5.534789392585337
        ]
      }
    },
    {
      "type": "Feature",
      "properties": {
        "_source": "Ruta11-Muiscas-Viaducto-Cooservicios-BrSantaMarta",
        "_segmentIndex": 0,
        "_position": 7
      },
      "geometry": {
        "type": "Point",
        "coordinates": [
          -73.36044408542453,
          5.534359152419073
        ]
      }
    },
    {
      "type": "Feature",
      "properties": {
        "_source": "Ruta11-Muiscas-Viaducto-Cooservicios-BrSantaMarta",
        "_segmentIndex": 0,
        "_position": 8
      },
      "geometry": {
        "type": "Point",
        "coordinates": [
          -73.36057541732727,
          5.533928912223911
        ]
      }
    },
    {
      "type": "Feature",
      "properties": {
        "_source": "Ruta11-Muiscas-Viaducto-Cooservicios-BrSantaMarta",
        "_segmentIndex": 0,
        "_position": 9
      },
      "geometry": {
        "type": "Point",
        "coordinates": [
          -73.36067438338888,
          5.533491329719049
        ]
      }
    },
    {
      "type": "Feature",
      "properties": {
        "_source": "Ruta11-Muiscas-Viaducto-Cooservicios-BrSantaMarta",
        "_segmentIndex": 0,
        "_position": 10
      },
      "geometry": {
        "type": "Point",
        "coordinates": [
          -73.36083211983022,
          5.533070003598316
        ]
      }
    },
    {
      "type": "Feature",
      "properties": {
        "_source": "Ruta11-Muiscas-Viaducto-Cooservicios-BrSantaMarta",
        "_segmentIndex": 0,
        "_position": 11
      },
      "geometry": {
        "type": "Point",
        "coordinates": [
          -73.36099653672174,
          5.532652033681029
        ]
      }
    },
    {
      "type": "Feature",
      "properties": {
        "_source": "Ruta11-Muiscas-Viaducto-Cooservicios-BrSantaMarta",
        "_segmentIndex": 0,
        "_position": 12
      },
      "geometry": {
        "type": "Point",
        "coordinates": [
          -73.36115981403951,
          5.532233308296886
        ]
      }
    },
    {
      "type": "Feature",
      "properties": {
        "_source": "Ruta11-Muiscas-Viaducto-Cooservicios-BrSantaMarta",
        "_segmentIndex": 0,
        "_position": 13
      },
      "geometry": {
        "type": "Point",
        "coordinates": [
          -73.36124776475594,
          5.531805496127252
        ]
      }
    },
    {
      "type": "Feature",
      "properties": {
        "_source": "Ruta11-Muiscas-Viaducto-Cooservicios-BrSantaMarta",
        "_segmentIndex": 0,
        "_position": 14
      },
      "geometry": {
        "type": "Point",
        "coordinates": [
          -73.36132626380687,
          5.53138240950393
        ]
      }
    },
    {
      "type": "Feature",
      "properties": {
        "_source": "Ruta11-Muiscas-Viaducto-Cooservicios-BrSantaMarta",
        "_segmentIndex": 0,
        "_position": 15
      },
      "geometry": {
        "type": "Point",
        "coordinates": [
          -73.36145662600792,
          5.530951877436428
        ]
      }
    },
    {
      "type": "Feature",
      "properties": {
        "_source": "Ruta11-Muiscas-Viaducto-Cooservicios-BrSantaMarta",
        "_segmentIndex": 0,
        "_position": 0
      },
      "geometry": {
        "type": "Point",
        "coordinates": [
          -73.361493,
          5.530758
        ]
      }
    },
    {
      "type": "Feature",
      "properties": {
        "_source": "Ruta11-Muiscas-Viaducto-Cooservicios-BrSantaMarta",
        "_segmentIndex": 0,
        "_position": 1
      },
      "geometry": {
        "type": "Point",
        "coordinates": [
          -73.3610655750145,
          5.530612400666499
        ]
      }
    },
    {
      "type": "Feature",
      "properties": {
        "_source": "Ruta11-Muiscas-Viaducto-Cooservicios-BrSantaMarta",
        "_segmentIndex": 0,
        "_position": 2
      },
      "geometry": {
        "type": "Point",
        "coordinates": [
          -73.3606367086324,
          5.530471175835486
        ]
      }
    },
    {
      "type": "Feature",
      "properties": {
        "_source": "Ruta11-Muiscas-Viaducto-Cooservicios-BrSantaMarta",
        "_segmentIndex": 0,
        "_position": 3
      },
      "geometry": {
        "type": "Point",
        "coordinates": [
          -73.36020567750631,
          5.530336520597329
        ]
      }
    },
    {
      "type": "Feature",
      "properties": {
        "_source": "Ruta11-Muiscas-Viaducto-Cooservicios-BrSantaMarta",
        "_segmentIndex": 0,
        "_position": 4
      },
      "geometry": {
        "type": "Point",
        "coordinates": [
          -73.3597746465764,
          5.530201865048127
        ]
      }
    },
    {
      "type": "Feature",
      "properties": {
        "_source": "Ruta11-Muiscas-Viaducto-Cooservicios-BrSantaMarta",
        "_segmentIndex": 0,
        "_position": 0
      },
      "geometry": {
        "type": "Point",
        "coordinates": [
          -73.359519,
          5.530122
        ]
      }
    },
    {
      "type": "Feature",
      "properties": {
        "_source": "Ruta11-Muiscas-Viaducto-Cooservicios-BrSantaMarta",
        "_segmentIndex": 0,
        "_position": 1
      },
      "geometry": {
        "type": "Point",
        "coordinates": [
          -73.3596296328105,
          5.5296860317434495
        ]
      }
    },
    {
      "type": "Feature",
      "properties": {
        "_source": "Ruta11-Muiscas-Viaducto-Cooservicios-BrSantaMarta",
        "_segmentIndex": 0,
        "_position": 2
      },
      "geometry": {
        "type": "Point",
        "coordinates": [
          -73.3597318211371,
          5.529248032374825
        ]
      }
    },
    {
      "type": "Feature",
      "properties": {
        "_source": "Ruta11-Muiscas-Viaducto-Cooservicios-BrSantaMarta",
        "_segmentIndex": 0,
        "_position": 3
      },
      "geometry": {
        "type": "Point",
        "coordinates": [
          -73.35986313464522,
          5.528818125588965
        ]
      }
    },
    {
      "type": "Feature",
      "properties": {
        "_source": "Ruta11-Muiscas-Viaducto-Cooservicios-BrSantaMarta",
        "_segmentIndex": 0,
        "_position": 4
      },
      "geometry": {
        "type": "Point",
        "coordinates": [
          -73.35999611672862,
          5.528388388241159
        ]
      }
    },
    {
      "type": "Feature",
      "properties": {
        "_source": "Ruta11-Muiscas-Viaducto-Cooservicios-BrSantaMarta",
        "_segmentIndex": 0,
        "_position": 0
      },
      "geometry": {
        "type": "Point",
        "coordinates": [
          -73.36009,
          5.528085
        ]
      }
    },
    {
      "type": "Feature",
      "properties": {
        "_source": "Ruta11-Muiscas-Viaducto-Cooservicios-BrSantaMarta",
        "_segmentIndex": 0,
        "_position": 1
      },
      "geometry": {
        "type": "Point",
        "coordinates": [
          -73.36021451396975,
          5.527652887340507
        ]
      }
    },
    {
      "type": "Feature",
      "properties": {
        "_source": "Ruta11-Muiscas-Viaducto-Cooservicios-BrSantaMarta",
        "_segmentIndex": 0,
        "_position": 2
      },
      "geometry": {
        "type": "Point",
        "coordinates": [
          -73.36038823161498,
          5.527240088407648
        ]
      }
    },
    {
      "type": "Feature",
      "properties": {
        "_source": "Ruta11-Muiscas-Viaducto-Cooservicios-BrSantaMarta",
        "_segmentIndex": 0,
        "_position": 3
      },
      "geometry": {
        "type": "Point",
        "coordinates": [
          -73.36017016750377,
          5.526985903608031
        ]
      }
    },
    {
      "type": "Feature",
      "properties": {
        "_source": "Ruta11-Muiscas-Viaducto-Cooservicios-BrSantaMarta",
        "_segmentIndex": 0,
        "_position": 0
      },
      "geometry": {
        "type": "Point",
        "coordinates": [
          -73.360077,
          5.526937
        ]
      }
    },
    {
      "type": "Feature",
      "properties": {
        "_source": "Ruta11-Muiscas-Viaducto-Cooservicios-BrSantaMarta",
        "_segmentIndex": 0,
        "_position": 1
      },
      "geometry": {
        "type": "Point",
        "coordinates": [
          -73.3597336308834,
          5.526644791901874
        ]
      }
    },
    {
      "type": "Feature",
      "properties": {
        "_source": "Ruta11-Muiscas-Viaducto-Cooservicios-BrSantaMarta",
        "_segmentIndex": 0,
        "_position": 2
      },
      "geometry": {
        "type": "Point",
        "coordinates": [
          -73.35938220854936,
          5.526362233191748
        ]
      }
    },
    {
      "type": "Feature",
      "properties": {
        "_source": "Ruta11-Muiscas-Viaducto-Cooservicios-BrSantaMarta",
        "_segmentIndex": 0,
        "_position": 3
      },
      "geometry": {
        "type": "Point",
        "coordinates": [
          -73.35902341686972,
          5.52608917238564
        ]
      }
    },
    {
      "type": "Feature",
      "properties": {
        "_source": "Ruta11-Muiscas-Viaducto-Cooservicios-BrSantaMarta",
        "_segmentIndex": 0,
        "_position": 4
      },
      "geometry": {
        "type": "Point",
        "coordinates": [
          -73.35863683753911,
          5.525856933520288
        ]
      }
    },
    {
      "type": "Feature",
      "properties": {
        "_source": "Ruta11-Muiscas-Viaducto-Cooservicios-BrSantaMarta",
        "_segmentIndex": 0,
        "_position": 0
      },
      "geometry": {
        "type": "Point",
        "coordinates": [
          -73.3585,
          5.525776
        ]
      }
    },
    {
      "type": "Feature",
      "properties": {
        "_source": "Ruta11-Muiscas-Viaducto-Cooservicios-BrSantaMarta",
        "_segmentIndex": 0,
        "_position": 1
      },
      "geometry": {
        "type": "Point",
        "coordinates": [
          -73.35867412596792,
          5.525361276343304
        ]
      }
    },
    {
      "type": "Feature",
      "properties": {
        "_source": "Ruta11-Muiscas-Viaducto-Cooservicios-BrSantaMarta",
        "_segmentIndex": 0,
        "_position": 2
      },
      "geometry": {
        "type": "Point",
        "coordinates": [
          -73.35888809296142,
          5.524965278857561
        ]
      }
    },
    {
      "type": "Feature",
      "properties": {
        "_source": "Ruta11-Muiscas-Viaducto-Cooservicios-BrSantaMarta",
        "_segmentIndex": 0,
        "_position": 3
      },
      "geometry": {
        "type": "Point",
        "coordinates": [
          -73.35909484846404,
          5.524565475563624
        ]
      }
    },
    {
      "type": "Feature",
      "properties": {
        "_source": "Ruta11-Muiscas-Viaducto-Cooservicios-BrSantaMarta",
        "_segmentIndex": 0,
        "_position": 4
      },
      "geometry": {
        "type": "Point",
        "coordinates": [
          -73.35930193257188,
          5.524165841178691
        ]
      }
    },
    {
      "type": "Feature",
      "properties": {
        "_source": "Ruta11-Muiscas-Viaducto-Cooservicios-BrSantaMarta",
        "_segmentIndex": 0,
        "_position": 5
      },
      "geometry": {
        "type": "Point",
        "coordinates": [
          -73.3595096113624,
          5.523766512413
        ]
      }
    },
    {
      "type": "Feature",
      "properties": {
        "_source": "Ruta11-Muiscas-Viaducto-Cooservicios-BrSantaMarta",
        "_segmentIndex": 0,
        "_position": 6
      },
      "geometry": {
        "type": "Point",
        "coordinates": [
          -73.35978096381079,
          5.523407681451518
        ]
      }
    },
    {
      "type": "Feature",
      "properties": {
        "_source": "Ruta11-Muiscas-Viaducto-Cooservicios-BrSantaMarta",
        "_segmentIndex": 0,
        "_position": 7
      },
      "geometry": {
        "type": "Point",
        "coordinates": [
          -73.36005793521232,
          5.523052446617489
        ]
      }
    },
    {
      "type": "Feature",
      "properties": {
        "_source": "Ruta11-Muiscas-Viaducto-Cooservicios-BrSantaMarta",
        "_segmentIndex": 0,
        "_position": 0
      },
      "geometry": {
        "type": "Point",
        "coordinates": [
          -73.360215,
          5.522851
        ]
      }
    },
    {
      "type": "Feature",
      "properties": {
        "_source": "Ruta11-Muiscas-Viaducto-Cooservicios-BrSantaMarta",
        "_segmentIndex": 0,
        "_position": 1
      },
      "geometry": {
        "type": "Point",
        "coordinates": [
          -73.35997321605632,
          5.522471162854524
        ]
      }
    },
    {
      "type": "Feature",
      "properties": {
        "_source": "Ruta11-Muiscas-Viaducto-Cooservicios-BrSantaMarta",
        "_segmentIndex": 0,
        "_position": 0
      },
      "geometry": {
        "type": "Point",
        "coordinates": [
          -73.359898,
          5.522353
        ]
      }
    },
    {
      "type": "Feature",
      "properties": {
        "_source": "Ruta11-Muiscas-Viaducto-Cooservicios-BrSantaMarta",
        "_segmentIndex": 0,
        "_position": 1
      },
      "geometry": {
        "type": "Point",
        "coordinates": [
          -73.3601626974699,
          5.521988623606726
        ]
      }
    },
    {
      "type": "Feature",
      "properties": {
        "_source": "Ruta11-Muiscas-Viaducto-Cooservicios-BrSantaMarta",
        "_segmentIndex": 0,
        "_position": 0
      },
      "geometry": {
        "type": "Point",
        "coordinates": [
          -73.360321,
          5.521712
        ]
      }
    },
    {
      "type": "Feature",
      "properties": {
        "_source": "Ruta11-Muiscas-Viaducto-Cooservicios-BrSantaMarta",
        "_segmentIndex": 0,
        "_position": 1
      },
      "geometry": {
        "type": "Point",
        "coordinates": [
          -73.35994984862506,
          5.521455740129295
        ]
      }
    },
    {
      "type": "Feature",
      "properties": {
        "_source": "Ruta11-Muiscas-Viaducto-Cooservicios-BrSantaMarta",
        "_segmentIndex": 0,
        "_position": 0
      },
      "geometry": {
        "type": "Point",
        "coordinates": [
          -73.359683,
          5.521252
        ]
      }
    },
    {
      "type": "Feature",
      "properties": {
        "_source": "Ruta11-Muiscas-Viaducto-Cooservicios-BrSantaMarta",
        "_segmentIndex": 0,
        "_position": 1
      },
      "geometry": {
        "type": "Point",
        "coordinates": [
          -73.35978963007014,
          5.5208158584099705
        ]
      }
    },
    {
      "type": "Feature",
      "properties": {
        "_source": "Ruta11-Muiscas-Viaducto-Cooservicios-BrSantaMarta",
        "_segmentIndex": 0,
        "_position": 2
      },
      "geometry": {
        "type": "Point",
        "coordinates": [
          -73.35983120528894,
          5.520368958017298
        ]
      }
    },
    {
      "type": "Feature",
      "properties": {
        "_source": "Ruta11-Muiscas-Viaducto-Cooservicios-BrSantaMarta",
        "_segmentIndex": 0,
        "_position": 3
      },
      "geometry": {
        "type": "Point",
        "coordinates": [
          -73.3598218628378,
          5.519943467686364
        ]
      }
    },
    {
      "type": "Feature",
      "properties": {
        "_source": "Ruta11-Muiscas-Viaducto-Cooservicios-BrSantaMarta",
        "_segmentIndex": 0,
        "_position": 4
      },
      "geometry": {
        "type": "Point",
        "coordinates": [
          -73.36000451390986,
          5.519532206084549
        ]
      }
    },
    {
      "type": "Feature",
      "properties": {
        "_source": "Ruta11-Muiscas-Viaducto-Cooservicios-BrSantaMarta",
        "_segmentIndex": 0,
        "_position": 5
      },
      "geometry": {
        "type": "Point",
        "coordinates": [
          -73.36018601028302,
          5.519120431779435
        ]
      }
    },
    {
      "type": "Feature",
      "properties": {
        "_source": "Ruta11-Muiscas-Viaducto-Cooservicios-BrSantaMarta",
        "_segmentIndex": 0,
        "_position": 6
      },
      "geometry": {
        "type": "Point",
        "coordinates": [
          -73.36036750640409,
          5.518708657419283
        ]
      }
    },
    {
      "type": "Feature",
      "properties": {
        "_source": "Ruta11-Muiscas-Viaducto-Cooservicios-BrSantaMarta",
        "_segmentIndex": 0,
        "_position": 7
      },
      "geometry": {
        "type": "Point",
        "coordinates": [
          -73.36035037789974,
          5.518283642061162
        ]
      }
    },
    {
      "type": "Feature",
      "properties": {
        "_source": "Ruta11-Muiscas-Viaducto-Cooservicios-BrSantaMarta",
        "_segmentIndex": 0,
        "_position": 8
      },
      "geometry": {
        "type": "Point",
        "coordinates": [
          -73.36025141438233,
          5.517844904028671
        ]
      }
    },
    {
      "type": "Feature",
      "properties": {
        "_source": "Ruta11-Muiscas-Viaducto-Cooservicios-BrSantaMarta",
        "_segmentIndex": 0,
        "_position": 9
      },
      "geometry": {
        "type": "Point",
        "coordinates": [
          -73.36015667229077,
          5.517405307111674
        ]
      }
    },
    {
      "type": "Feature",
      "properties": {
        "_source": "Ruta11-Muiscas-Viaducto-Cooservicios-BrSantaMarta",
        "_segmentIndex": 0,
        "_position": 10
      },
      "geometry": {
        "type": "Point",
        "coordinates": [
          -73.36010792646549,
          5.516960514748184
        ]
      }
    },
    {
      "type": "Feature",
      "properties": {
        "_source": "Ruta11-Muiscas-Viaducto-Cooservicios-BrSantaMarta",
        "_segmentIndex": 0,
        "_position": 11
      },
      "geometry": {
        "type": "Point",
        "coordinates": [
          -73.36020043011706,
          5.516521916280404
        ]
      }
    },
    {
      "type": "Feature",
      "properties": {
        "_source": "Ruta11-Muiscas-Viaducto-Cooservicios-BrSantaMarta",
        "_segmentIndex": 0,
        "_position": 12
      },
      "geometry": {
        "type": "Point",
        "coordinates": [
          -73.36034584747603,
          5.516096205894147
        ]
      }
    },
    {
      "type": "Feature",
      "properties": {
        "_source": "Ruta11-Muiscas-Viaducto-Cooservicios-BrSantaMarta",
        "_segmentIndex": 0,
        "_position": 13
      },
      "geometry": {
        "type": "Point",
        "coordinates": [
          -73.36048796832446,
          5.515669377399744
        ]
      }
    },
    {
      "type": "Feature",
      "properties": {
        "_source": "Ruta11-Muiscas-Viaducto-Cooservicios-BrSantaMarta",
        "_segmentIndex": 0,
        "_position": 14
      },
      "geometry": {
        "type": "Point",
        "coordinates": [
          -73.36064722757926,
          5.51524919780625
        ]
      }
    },
    {
      "type": "Feature",
      "properties": {
        "_source": "Ruta11-Muiscas-Viaducto-Cooservicios-BrSantaMarta",
        "_segmentIndex": 0,
        "_position": 0
      },
      "geometry": {
        "type": "Point",
        "coordinates": [
          -73.360741,
          5.515042
        ]
      }
    },
    {
      "type": "Feature",
      "properties": {
        "_source": "Ruta11-Muiscas-Viaducto-Cooservicios-BrSantaMarta",
        "_segmentIndex": 0,
        "_position": 1
      },
      "geometry": {
        "type": "Point",
        "coordinates": [
          -73.36032083064235,
          5.514881885943287
        ]
      }
    },
    {
      "type": "Feature",
      "properties": {
        "_source": "Ruta11-Muiscas-Viaducto-Cooservicios-BrSantaMarta",
        "_segmentIndex": 0,
        "_position": 2
      },
      "geometry": {
        "type": "Point",
        "coordinates": [
          -73.3598884531257,
          5.5147516693042755
        ]
      }
    },
    {
      "type": "Feature",
      "properties": {
        "_source": "Ruta11-Muiscas-Viaducto-Cooservicios-BrSantaMarta",
        "_segmentIndex": 0,
        "_position": 3
      },
      "geometry": {
        "type": "Point",
        "coordinates": [
          -73.35945480023479,
          5.514625668474998
        ]
      }
    },
    {
      "type": "Feature",
      "properties": {
        "_source": "Ruta11-Muiscas-Viaducto-Cooservicios-BrSantaMarta",
        "_segmentIndex": 0,
        "_position": 4
      },
      "geometry": {
        "type": "Point",
        "coordinates": [
          -73.35902191166782,
          5.5144971159605625
        ]
      }
    },
    {
      "type": "Feature",
      "properties": {
        "_source": "Ruta11-Muiscas-Viaducto-Cooservicios-BrSantaMarta",
        "_segmentIndex": 0,
        "_position": 5
      },
      "geometry": {
        "type": "Point",
        "coordinates": [
          -73.3585897328776,
          5.5143661939057065
        ]
      }
    },
    {
      "type": "Feature",
      "properties": {
        "_source": "Ruta11-Muiscas-Viaducto-Cooservicios-BrSantaMarta",
        "_segmentIndex": 0,
        "_position": 0
      },
      "geometry": {
        "type": "Point",
        "coordinates": [
          -73.358292,
          5.514276
        ]
      }
    },
    {
      "type": "Feature",
      "properties": {
        "_source": "Ruta11-Muiscas-Viaducto-Cooservicios-BrSantaMarta",
        "_segmentIndex": 0,
        "_position": 1
      },
      "geometry": {
        "type": "Point",
        "coordinates": [
          -73.35817083305393,
          5.514709037247016
        ]
      }
    },
    {
      "type": "Feature",
      "properties": {
        "_source": "Ruta11-Muiscas-Viaducto-Cooservicios-BrSantaMarta",
        "_segmentIndex": 0,
        "_position": 2
      },
      "geometry": {
        "type": "Point",
        "coordinates": [
          -73.3580302660725,
          5.515136298860225
        ]
      }
    },
    {
      "type": "Feature",
      "properties": {
        "_source": "Ruta11-Muiscas-Viaducto-Cooservicios-BrSantaMarta",
        "_segmentIndex": 0,
        "_position": 0
      },
      "geometry": {
        "type": "Point",
        "coordinates": [
          -73.357954,
          5.515347
        ]
      }
    },
    {
      "type": "Feature",
      "properties": {
        "_source": "Ruta11-Muiscas-Viaducto-Cooservicios-BrSantaMarta",
        "_segmentIndex": 0,
        "_position": 1
      },
      "geometry": {
        "type": "Point",
        "coordinates": [
          -73.35752258669105,
          5.51521390331714
        ]
      }
    },
    {
      "type": "Feature",
      "properties": {
        "_source": "Ruta11-Muiscas-Viaducto-Cooservicios-BrSantaMarta",
        "_segmentIndex": 0,
        "_position": 2
      },
      "geometry": {
        "type": "Point",
        "coordinates": [
          -73.35709230520574,
          5.515076927900062
        ]
      }
    },
    {
      "type": "Feature",
      "properties": {
        "_source": "Ruta11-Muiscas-Viaducto-Cooservicios-BrSantaMarta",
        "_segmentIndex": 0,
        "_position": 3
      },
      "geometry": {
        "type": "Point",
        "coordinates": [
          -73.35666207427997,
          5.51493979610694
        ]
      }
    },
    {
      "type": "Feature",
      "properties": {
        "_source": "Ruta11-Muiscas-Viaducto-Cooservicios-BrSantaMarta",
        "_segmentIndex": 0,
        "_position": 4
      },
      "geometry": {
        "type": "Point",
        "coordinates": [
          -73.35623213728118,
          5.514801753751753
        ]
      }
    },
    {
      "type": "Feature",
      "properties": {
        "_source": "Ruta11-Muiscas-Viaducto-Cooservicios-BrSantaMarta",
        "_segmentIndex": 0,
        "_position": 5
      },
      "geometry": {
        "type": "Point",
        "coordinates": [
          -73.35580220048242,
          5.514663711087958
        ]
      }
    },
    {
      "type": "Feature",
      "properties": {
        "_source": "Ruta11-Muiscas-Viaducto-Cooservicios-BrSantaMarta",
        "_segmentIndex": 0,
        "_position": 6
      },
      "geometry": {
        "type": "Point",
        "coordinates": [
          -73.35537226388367,
          5.514525668115561
        ]
      }
    },
    {
      "type": "Feature",
      "properties": {
        "_source": "Ruta11-Muiscas-Viaducto-Cooservicios-BrSantaMarta",
        "_segmentIndex": 0,
        "_position": 7
      },
      "geometry": {
        "type": "Point",
        "coordinates": [
          -73.35494232748492,
          5.514387624834572
        ]
      }
    },
    {
      "type": "Feature",
      "properties": {
        "_source": "Ruta11-Muiscas-Viaducto-Cooservicios-BrSantaMarta",
        "_segmentIndex": 0,
        "_position": 8
      },
      "geometry": {
        "type": "Point",
        "coordinates": [
          -73.35453242870629,
          5.514301392304865
        ]
      }
    },
    {
      "type": "Feature",
      "properties": {
        "_source": "Ruta11-Muiscas-Viaducto-Cooservicios-BrSantaMarta",
        "_segmentIndex": 0,
        "_position": 9
      },
      "geometry": {
        "type": "Point",
        "coordinates": [
          -73.35430155397898,
          5.514687886294758
        ]
      }
    },
    {
      "type": "Feature",
      "properties": {
        "_source": "Ruta11-Muiscas-Viaducto-Cooservicios-BrSantaMarta",
        "_segmentIndex": 0,
        "_position": 10
      },
      "geometry": {
        "type": "Point",
        "coordinates": [
          -73.35406908701762,
          5.515073441108403
        ]
      }
    },
    {
      "type": "Feature",
      "properties": {
        "_source": "Ruta11-Muiscas-Viaducto-Cooservicios-BrSantaMarta",
        "_segmentIndex": 0,
        "_position": 11
      },
      "geometry": {
        "type": "Point",
        "coordinates": [
          -73.35386812305909,
          5.515460159467764
        ]
      }
    },
    {
      "type": "Feature",
      "properties": {
        "_source": "Ruta11-Muiscas-Viaducto-Cooservicios-BrSantaMarta",
        "_segmentIndex": 0,
        "_position": 12
      },
      "geometry": {
        "type": "Point",
        "coordinates": [
          -73.35381817592646,
          5.515797781955056
        ]
      }
    }
  ]
}