{
  "type": "FeatureCollection",
  "features": [
    {
      "type": "Feature",
      "properties": {
        "_source": "Ruta3-Arboleda-SantaInes-Escandinavo",
        "_segmentIndex": 0,
        "_position": 0
      },
      "geometry": {
        "type": "Point",
        "coordinates": [
          -73.332247,
          5.57348
        ]
      }
    },
    {
      "type": "Feature",
      "properties": {
        "_source": "Ruta3-Arboleda-SantaInes-Escandinavo",
        "_segmentIndex": 0,
        "_position": 1
      },
      "geometry": {
        "type": "Point",
        "coordinates": [
          -73.33261602574274,
          5.573229447470979
        ]
      }
    },
    {
      "type": "Feature",
      "properties": {
        "_source": "Ruta3-Arboleda-SantaInes-Escandinavo",
        "_segmentIndex": 0,
        "_position": 2
      },
      "geometry": {
        "type": "Point",
        "coordinates": [
          -73.33294107499879,
          5.572917146109254
        ]
      }
    },
    {
      "type": "Feature",
      "properties": {
        "_source": "Ruta3-Arboleda-SantaInes-Escandinavo",
        "_segmentIndex": 0,
        "_position": 3
      },
      "geometry": {
        "type": "Point",
        "coordinates": [
          -73.33323980425492,
          5.5725801770019485
        ]
      }
    },
    {
      "type": "Feature",
      "properties": {
        "_source": "Ruta3-Arboleda-SantaInes-Escandinavo",
        "_segmentIndex": 0,
        "_position": 4
      },
      "geometry": {
        "type": "Point",
        "coordinates": [
          -73.33353170909922,
          5.572236982183135
        ]
      }
    },
    {
      "type": "Feature",
      "properties": {
        "_source": "Ruta3-Arboleda-SantaInes-Escandinavo",
        "_segmentIndex": 0,
        "_position": 5
      },
      "geometry": {
        "type": "Point",
        "coordinates": [
          -73.33382099477369,
          5.571891588107836
        ]
      }
    },
    {
      "type": "Feature",
      "properties": {
        "_source": "Ruta3-Arboleda-SantaInes-Escandinavo",
        "_segmentIndex": 0,
        "_position": 0
      },
      "geometry": {
        "type": "Point",
        "coordinates": [
          -73.333995,
          5.571567
        ]
      }
    },
    {
      "type": "Feature",
      "properties": {
        "_source": "Ruta3-Arboleda-SantaInes-Escandinavo",
        "_segmentIndex": 0,
        "_position": 1
      },
      "geometry": {
        "type": "Point",
        "coordinates": [
          -73.33369611660672,
          5.571229798269839
        ]
      }
    },
    {
      "type": "Feature",
      "properties": {
        "_source": "Ruta3-Arboleda-SantaInes-Escandinavo",
        "_segmentIndex": 0,
        "_position": 2
      },
      "geometry": {
        "type": "Point",
        "coordinates": [
          -73.33338714036144,
          5.570901791378788
        ]
      }
    },
    {
      "type": "Feature",
      "properties": {
        "_source": "Ruta3-Arboleda-SantaInes-Escandinavo",
        "_segmentIndex": 0,
        "_position": 3
      },
      "geometry": {
        "type": "Point",
        "coordinates": [
          -73.33314960878953,
          5.570521634514488
        ]
      }
    },
    {
      "type": "Feature",
      "properties": {
        "_source": "Ruta3-Arboleda-SantaInes-Escandinavo",
        "_segmentIndex": 0,
        "_position": 4
      },
      "geometry": {
        "type": "Point",
        "coordinates": [
          -73.33292792722209,
          5.570129825136269
        ]
      }
    },
    {
      "type": "Feature",
      "properties": {
        "_source": "Ruta3-Arboleda-SantaInes-Escandinavo",
        "_segmentIndex": 0,
        "_position": 5
      },
      "geometry": {
        "type": "Point",
        "coordinates": [
          -73.33268449318119,
          5.56975191317092
        ]
      }
    },
    {
      "type": "Feature",
      "properties": {
        "_source": "Ruta3-Arboleda-SantaInes-Escandinavo",
        "_segmentIndex": 0,
        "_position": 6
      },
      "geometry": {
        "type": "Point",
        "coordinates": [
          -73.33241887599326,
          5.5693881737577815
        ]
      }
    },
    {
      "type": "Feature",
      "properties": {
        "_source": "Ruta3-Arboleda-SantaInes-Escandinavo",
        "_segmentIndex": 0,
        "_position": 7
      },
      "geometry": {
        "type": "Point",
        "coordinates": [
          -73.33226736974244,
          5.568971139676516
        ]
      }
    },
    {
      "type": "Feature",
      "properties": {
        "_source": "Ruta3-Arboleda-SantaInes-Escandinavo",
        "_segmentIndex": 0,
        "_position": 8
      },
      "geometry": {
        "type": "Point",
        "coordinates": [
          -73.33240827489129,
          5.568561485826376
        ]
      }
    },
    {
      "type": "Feature",
      "properties": {
        "_source": "Ruta3-Arboleda-SantaInes-Escandinavo",
        "_segmentIndex": 0,
        "_position": 9
      },
      "geometry": {
        "type": "Point",
        "coordinates": [
          -73.33273409123268,
          5.56825018158825
        ]
      }
    },
    {
      "type": "Feature",
      "properties": {
        "_source": "Ruta3-Arboleda-SantaInes-Escandinavo",
        "_segmentIndex": 0,
        "_position": 10
      },
      "geometry": {
        "type": "Point",
        "coordinates": [
          -73.33307957311618,
          5.567960422631689
        ]
      }
    },
    {
      "type": "Feature",
      "properties": {
        "_source": "Ruta3-Arboleda-SantaInes-Escandinavo",
        "_segmentIndex": 0,
        "_position": 11
      },
      "geometry": {
        "type": "Point",
        "coordinates": [
          -73.33342282770822,
          5.567668062266871
        ]
      }
    },
    {
      "type": "Feature",
      "properties": {
        "_source": "Ruta3-Arboleda-SantaInes-Escandinavo",
        "_segmentIndex": 0,
        "_position": 12
      },
      "geometry": {
        "type": "Point",
        "coordinates": [
          -73.33376510392978,
          5.567374559309962
        ]
      }
    },
    {
      "type": "Feature",
      "properties": {
        "_source": "Ruta3-Arboleda-SantaInes-Escandinavo",
        "_segmentIndex": 0,
        "_position": 13
      },
      "geometry": {
        "type": "Point",
        "coordinates": [
          -73.33410476382471,
          5.567078104002931
        ]
      }
    },
    {
      "type": "Feature",
      "properties": {
        "_source": "Ruta3-Arboleda-SantaInes-Escandinavo",
        "_segmentIndex": 0,
        "_position": 14
      },
      "geometry": {
        "type": "Point",
        "coordinates": [
          -73.33444011874337,
          5.566776790702745
        ]
      }
    },
    {
      "type": "Feature",
      "properties": {
        "_source": "Ruta3-Arboleda-SantaInes-Escandinavo",
        "_segmentIndex": 0,
        "_position": 15
      },
      "geometry": {
        "type": "Point",
        "coordinates": [
          -73.33477546132632,
          5.566475463994463
        ]
      }
    },
    {
      "type": "Feature",
      "properties": {
        "_source": "Ruta3-Arboleda-SantaInes-Escandinavo",
        "_segmentIndex": 0,
        "_position": 16
      },
      "geometry": {
        "type": "Point",
        "coordinates": [
          -73.33511840905852,
          5.566184030003312
        ]
      }
    },
    {
      "type": "Feature",
      "properties": {
        "_source": "Ruta3-Arboleda-SantaInes-Escandinavo",
        "_segmentIndex": 0,
        "_position": 17
      },
      "geometry": {
        "type": "Point",
        "coordinates": [
          -73.3354981276927,
          5.565940381688581
        ]
      }
    },
    {
      "type": "Feature",
      "properties": {
        "_source": "Ruta3-Arboleda-SantaInes-Escandinavo",
        "_segmentIndex": 0,
        "_position": 18
      },
      "geometry": {
        "type": "Point",
        "coordinates": [
          -73.33587784601218,
          5.56569673313092
        ]
      }
    },
    {
      "type": "Feature",
      "properties": {
        "_source": "Ruta3-Arboleda-SantaInes-Escandinavo",
        "_segmentIndex": 0,
        "_position": 19
      },
      "geometry": {
        "type": "Point",
        "coordinates": [
          -73.33625756401695,
          5.565453084330341
        ]
      }
    },
    {
      "type": "Feature",
      "properties": {
        "_source": "Ruta3-Arboleda-SantaInes-Escandinavo",
        "_segmentIndex": 0,
        "_position": 20
      },
      "geometry": {
        "type": "Point",
        "coordinates": [
          -73.33663728170704,
          5.565209435286854
        ]
      }
    },
    {
      "type": "Feature",
      "properties": {
        "_source": "Ruta3-Arboleda-SantaInes-Escandinavo",
        "_segmentIndex": 0,
        "_position": 21
      },
      "geometry": {
        "type": "Point",
        "coordinates": [
          -73.33701044332042,
          5.56495602563434
        ]
      }
    },
    {
      "type": "Feature",
      "properties": {
        "_source": "Ruta3-Arboleda-SantaInes-Escandinavo",
        "_segmentIndex": 0,
        "_position": 22
      },
      "geometry": {
        "type": "Point",
        "coordinates": [
          -73.33737343985736,
          5.564688696331111
        ]
      }
    },
    {
      "type": "Feature",
      "properties": {
        "_source": "Ruta3-Arboleda-SantaInes-Escandinavo",
        "_segmentIndex": 0,
        "_position": 23
      },
      "geometry": {
        "type": "Point",
        "coordinates": [
          -73.33772780588616,
          5.564409770295586
        ]
      }
    },
    {
      "type": "Feature",
      "properties": {
        "_source": "Ruta3-Arboleda-SantaInes-Escandinavo",
        "_segmentIndex": 0,
        "_position": 24
      },
      "geometry": {
        "type": "Point",
        "coordinates": [
          -73.33808217157883,
          5.564130844048545
        ]
      }
    },
    {
      "type": "Feature",
      "properties": {
        "_source": "Ruta3-Arboleda-SantaInes-Escandinavo",
        "_segmentIndex": 0,
        "_position": 25
      },
      "geometry": {
        "type": "Point",
        "coordinates": [
          -73.33843653693536,
          5.563851917589999
        ]
      }
    },
    {
      "type": "Feature",
      "properties": {
        "_source": "Ruta3-Arboleda-SantaInes-Escandinavo",
        "_segmentIndex": 0,
        "_position": 26
      },
      "geometry": {
        "type": "Point",
        "coordinates": [
          -73.3387909019558,
          5.563572990919957
        ]
      }
    },
    {
      "type": "Feature",
      "properties": {
        "_source": "Ruta3-Arboleda-SantaInes-Escandinavo",
        "_segmentIndex": 0,
        "_position": 27
      },
      "geometry": {
        "type": "Point",
        "coordinates": [
          -73.33914676742468,
          5.563295975987466
        ]
      }
    },
    {
      "type": "Feature",
      "properties": {
        "_source": "Ruta3-Arboleda-SantaInes-Escandinavo",
        "_segmentIndex": 0,
        "_position": 28
      },
      "geometry": {
        "type": "Point",
        "coordinates": [
          -73.33950442957297,
          5.563021250176122
        ]
      }
    },
    {
      "type": "Feature",
      "properties": {
        "_source": "Ruta3-Arboleda-SantaInes-Escandinavo",
        "_segmentIndex": 0,
        "_position": 29
      },
      "geometry": {
        "type": "Point",
        "coordinates": [
          -73.33986209138718,
          5.562746524149359
        ]
      }
    },
    {
      "type": "Feature",
      "properties": {
        "_source": "Ruta3-Arboleda-SantaInes-Escandinavo",
        "_segmentIndex": 0,
        "_position": 30
      },
      "geometry": {
        "type": "Point",
        "coordinates": [
          -73.34021798309738,
          5.562469535363132
        ]
      }
    },
    {
      "type": "Feature",
      "properties": {
        "_source": "Ruta3-Arboleda-SantaInes-Escandinavo",
        "_segmentIndex": 0,
        "_position": 31
      },
      "geometry": {
        "type": "Point",
        "coordinates": [
          -73.34057329772975,
          5.562191809033482
        ]
      }
    },
    {
      "type": "Feature",
      "properties": {
        "_source": "Ruta3-Arboleda-SantaInes-Escandinavo",
        "_segmentIndex": 0,
        "_position": 32
      },
      "geometry": {
        "type": "Point",
        "coordinates": [
          -73.34092684333493,
          5.561911899697708
        ]
      }
    },
    {
      "type": "Feature",
      "properties": {
        "_source": "Ruta3-Arboleda-SantaInes-Escandinavo",
        "_segmentIndex": 0,
        "_position": 33
      },
      "geometry": {
        "type": "Point",
        "coordinates": [
          -73.34127481672213,
          5.561625113736551
        ]
      }
    },
    {
      "type": "Feature",
      "properties": {
        "_source": "Ruta3-Arboleda-SantaInes-Escandinavo",
        "_segmentIndex": 0,
        "_position": 34
      },
      "geometry": {
        "type": "Point",
        "coordinates": [
          -73.34162071219873,
          5.561335999496872
        ]
      }
    },
    {
      "type": "Feature",
      "properties": {
        "_source": "Ruta3-Arboleda-SantaInes-Escandinavo",
        "_segmentIndex": 0,
        "_position": 35
      },
      "geometry": {
        "type": "Point",
        "coordinates": [
          -73.34193203956274,
          5.561010695058445
        ]
      }
    },
    {
      "type": "Feature",
      "properties": {
        "_source": "Ruta3-Arboleda-SantaInes-Escandinavo",
        "_segmentIndex": 0,
        "_position": 36
      },
      "geometry": {
        "type": "Point",
        "coordinates": [
          -73.34223160626605,
          5.5606740992443005
        ]
      }
    },
    {
      "type": "Feature",
      "properties": {
        "_source": "Ruta3-Arboleda-SantaInes-Escandinavo",
        "_segmentIndex": 0,
        "_position": 37
      },
      "geometry": {
        "type": "Point",
        "coordinates": [
          -73.34253117262674,
          5.560337503279101
        ]
      }
    },
    {
      "type": "Feature",
      "properties": {
        "_source": "Ruta3-Arboleda-SantaInes-Escandinavo",
        "_segmentIndex": 0,
        "_position": 38
      },
      "geometry": {
        "type": "Point",
        "coordinates": [
          -73.34283663248947,
          5.560006209666961
        ]
      }
    },
    {
      "type": "Feature",
      "properties": {
        "_source": "Ruta3-Arboleda-SantaInes-Escandinavo",
        "_segmentIndex": 0,
        "_position": 39
      },
      "geometry": {
        "type": "Point",
        "coordinates": [
          -73.34314294380658,
          5.559675682233115
        ]
      }
    },
    {
      "type": "Feature",
      "properties": {
        "_source": "Ruta3-Arboleda-SantaInes-Escandinavo",
        "_segmentIndex": 0,
        "_position": 40
      },
      "geometry": {
        "type": "Point",
        "coordinates": [
          -73.34344303953156,
          5.5593396483809245
        ]
      }
    },
    {
      "type": "Feature",
      "properties": {
        "_source": "Ruta3-Arboleda-SantaInes-Escandinavo",
        "_segmentIndex": 0,
        "_position": 41
      },
      "geometry": {
        "type": "Point",
        "coordinates": [
          -73.34373739574497,
          5.558998529890579
        ]
      }
    },
    {
      "type": "Feature",
      "properties": {
        "_source": "Ruta3-Arboleda-SantaInes-Escandinavo",
        "_segmentIndex": 0,
        "_position": 42
      },
      "geometry": {
        "type": "Point",
        "coordinates": [
          -73.34402858609621,
          5.558654756265709
        ]
      }
    },
    {
      "type": "Feature",
      "properties": {
        "_source": "Ruta3-Arboleda-SantaInes-Escandinavo",
        "_segmentIndex": 0,
        "_position": 43
      },
      "geometry": {
        "type": "Point",
        "coordinates": [
          -73.34431645968851,
          5.558308200949385
        ]
      }
    },
    {
      "type": "Feature",
      "properties": {
        "_source": "Ruta3-Arboleda-SantaInes-Escandinavo",
        "_segmentIndex": 0,
        "_position": 44
      },
      "geometry": {
        "type": "Point",
        "coordinates": [
          -73.34460433294191,
          5.557961645493625
        ]
      }
    },
    {
      "type": "Feature",
      "properties": {
        "_source": "Ruta3-Arboleda-SantaInes-Escandinavo",
        "_segmentIndex": 0,
        "_position": 45
      },
      "geometry": {
        "type": "Point",
        "coordinates": [
          -73.34478923566482,
          5.5575562950632795
        ]
      }
    },
    {
      "type": "Feature",
      "properties": {
        "_source": "Ruta3-Arboleda-SantaInes-Escandinavo",
        "_segmentIndex": 0,
        "_position": 46
      },
      "geometry": {
        "type": "Point",
        "coordinates": [
          -73.34493382970797,
          5.557130286942134
        ]
      }
    },
    {
      "type": "Feature",
      "properties": {
        "_source": "Ruta3-Arboleda-SantaInes-Escandinavo",
        "_segmentIndex": 0,
        "_position": 47
      },
      "geometry": {
        "type": "Point",
        "coordinates": [
          -73.34507525352949,
          5.556703252317293
        ]
      }
    },
    {
      "type": "Feature",
      "properties": {
        "_source": "Ruta3-Arboleda-SantaInes-Escandinavo",
        "_segmentIndex": 0,
        "_position": 48
      },
      "geometry": {
        "type": "Point",
        "coordinates": [
          -73.34521018183584,
          5.5562741144396215
        ]
      }
    },
    {
      "type": "Feature",
      "properties": {
        "_source": "Ruta3-Arboleda-SantaInes-Escandinavo",
        "_segmentIndex": 0,
        "_position": 49
      },
      "geometry": {
        "type": "Point",
        "coordinates": [
          -73.34534074174728,
          5.555843645758203
        ]
      }
    },
    {
      "type": "Feature",
      "properties": {
        "_source": "Ruta3-Arboleda-SantaInes-Escandinavo",
        "_segmentIndex": 0,
        "_position": 50
      },
      "geometry": {
        "type": "Point",
        "coordinates": [
          -73.3454702678435,
          5.555412862154089
        ]
      }
    },
    {
      "type": "Feature",
      "properties": {
        "_source": "Ruta3-Arboleda-SantaInes-Escandinavo",
        "_segmentIndex": 0,
        "_position": 51
      },
      "geometry": {
        "type": "Point",
        "coordinates": [
          -73.34561504343425,
          5.554987016434365
        ]
      }
    },
    {
      "type": "Feature",
      "properties": {
        "_source": "Ruta3-Arboleda-SantaInes-Escandinavo",
        "_segmentIndex": 0,
        "_position": 52
      },
      "geometry": {
        "type": "Point",
        "coordinates": [
          -73.34570242196823,
          5.554548249286168
        ]
      }
    },
    {
      "type": "Feature",
      "properties": {
        "_source": "Ruta3-Arboleda-SantaInes-Escandinavo",
        "_segmentIndex": 0,
        "_position": 53
      },
      "geometry": {
        "type": "Point",
        "coordinates": [
          -73.34574637552201,
          5.55410072223354
        ]
      }
    },
    {
      "type": "Feature",
      "properties": {
        "_source": "Ruta3-Arboleda-SantaInes-Escandinavo",
        "_segmentIndex": 0,
        "_position": 54
      },
      "geometry": {
        "type": "Point",
        "coordinates": [
          -73.34578848307588,
          5.553653024229205
        ]
      }
    },
    {
      "type": "Feature",
      "properties": {
        "_source": "Ruta3-Arboleda-SantaInes-Escandinavo",
        "_segmentIndex": 0,
        "_position": 55
      },
      "geometry": {
        "type": "Point",
        "coordinates": [
          -73.34582823891537,
          5.55320510843989
        ]
      }
    },
    {
      "type": "Feature",
      "properties": {
        "_source": "Ruta3-Arboleda-SantaInes-Escandinavo",
        "_segmentIndex": 0,
        "_position": 56
      },
      "geometry": {
        "type": "Point",
        "coordinates": [
          -73.34587303422475,
          5.552757687010966
        ]
      }
    },
    {
      "type": "Feature",
      "properties": {
        "_source": "Ruta3-Arboleda-SantaInes-Escandinavo",
        "_segmentIndex": 0,
        "_position": 57
      },
      "geometry": {
        "type": "Point",
        "coordinates": [
          -73.3459253310106,
          5.552311065959237
        ]
      }
    },
    {
      "type": "Feature",
      "properties": {
        "_source": "Ruta3-Arboleda-SantaInes-Escandinavo",
        "_segmentIndex": 0,
        "_position": 58
      },
      "geometry": {
        "type": "Point",
        "coordinates": [
          -73.34596380519959,
          5.551863057361565
        ]
      }
    },
    {
      "type": "Feature",
      "properties": {
        "_source": "Ruta3-Arboleda-SantaInes-Escandinavo",
        "_segmentIndex": 0,
        "_position": 59
      },
      "geometry": {
        "type": "Point",
        "coordinates": [
          -73.34600138484326,
          5.551414955512834
        ]
      }
    },
    {
      "type": "Feature",
      "properties": {
        "_source": "Ruta3-Arboleda-SantaInes-Escandinavo",
        "_segmentIndex": 0,
        "_position": 60
      },
      "geometry": {
        "type": "Point",
        "coordinates": [
          -73.34604942818099,
          5.550967866616066
        ]
      }
    },
    {
      "type": "Feature",
      "properties": {
        "_source": "Ruta3-Arboleda-SantaInes-Escandinavo",
        "_segmentIndex": 0,
        "_position": 61
      },
      "geometry": {
        "type": "Point",
        "coordinates": [
          -73.34611666191421,
          5.55052380826086
        ]
      }
    },
    {
      "type": "Feature",
      "properties": {
        "_source": "Ruta3-Arboleda-SantaInes-Escandinavo",
        "_segmentIndex": 0,
        "_position": 62
      },
      "geometry": {
        "type": "Point",
        "coordinates": [
          -73.34621436801642,
          5.550084794047488
        ]
      }
    },
    {
      "type": "Feature",
      "properties": {
        "_source": "Ruta3-Arboleda-SantaInes-Escandinavo",
        "_segmentIndex": 0,
        "_position": 63
      },
      "geometry": {
        "type": "Point",
        "coordinates": [
          -73.34631843584725,
          5.549647226705297
        ]
      }
    },
    {
      "type": "Feature",
      "properties": {
        "_source": "Ruta3-Arboleda-SantaInes-Escandinavo",
        "_segmentIndex": 0,
        "_position": 64
      },
      "geometry": {
        "type": "Point",
        "coordinates": [
          -73.34642699201639,
          5.549210740688978
        ]
      }
    },
    {
      "type": "Feature",
      "properties": {
        "_source": "Ruta3-Arboleda-SantaInes-Escandinavo",
        "_segmentIndex": 0,
        "_position": 65
      },
      "geometry": {
        "type": "Point",
        "coordinates": [
          -73.34653687670665,
          5.548774590733053
        ]
      }
    },
    {
      "type": "Feature",
      "properties": {
        "_source": "Ruta3-Arboleda-SantaInes-Escandinavo",
        "_segmentIndex": 0,
        "_position": 66
      },
      "geometry": {
        "type": "Point",
        "coordinates": [
          -73.3466508655835,
          5.548339478921368
        ]
      }
    },
    {
      "type": "Feature",
      "properties": {
        "_source": "Ruta3-Arboleda-SantaInes-Escandinavo",
        "_segmentIndex": 0,
        "_position": 67
      },
      "geometry": {
        "type": "Point",
        "coordinates": [
          -73.34676418646701,
          5.547904232253965
        ]
      }
    },
    {
      "type": "Feature",
      "properties": {
        "_source": "Ruta3-Arboleda-SantaInes-Escandinavo",
        "_segmentIndex": 0,
        "_position": 68
      },
      "geometry": {
        "type": "Point",
        "coordinates": [
          -73.34694423782413,
          5.5474933893161085
        ]
      }
    },
    {
      "type": "Feature",
      "properties": {
        "_source": "Ruta3-Arboleda-SantaInes-Escandinavo",
        "_segmentIndex": 0,
        "_position": 69
      },
      "geometry": {
        "type": "Point",
        "coordinates": [
          -73.34718659336676,
          5.547114252345866
        ]
      }
    },
    {
      "type": "Feature",
      "properties": {
        "_source": "Ruta3-Arboleda-SantaInes-Escandinavo",
        "_segmentIndex": 0,
        "_position": 70
      },
      "geometry": {
        "type": "Point",
        "coordinates": [
          -73.34745469515136,
          5.546752558603547
        ]
      }
    },
    {
      "type": "Feature",
      "properties": {
        "_source": "Ruta3-Arboleda-SantaInes-Escandinavo",
        "_segmentIndex": 0,
        "_position": 0
      },
      "geometry": {
        "type": "Point",
        "coordinates": [
          -73.347668,
          5.546484
        ]
      }
    },
    {
      "type": "Feature",
      "properties": {
        "_source": "Ruta3-Arboleda-SantaInes-Escandinavo",
        "_segmentIndex": 0,
        "_position": 1
      },
      "geometry": {
        "type": "Point",
        "coordinates": [
          -73.34804270093991,
          5.546728029612657
        ]
      }
    },
    {
      "type": "Feature",
      "properties": {
        "_source": "Ruta3-Arboleda-SantaInes-Escandinavo",
        "_segmentIndex": 0,
        "_position": 2
      },
      "geometry": {
        "type": "Point",
        "coordinates": [
          -73.34839419530029,
          5.547010519124127
        ]
      }
    },
    {
      "type": "Feature",
      "properties": {
        "_source": "Ruta3-Arboleda-SantaInes-Escandinavo",
        "_segmentIndex": 0,
        "_position": 3
      },
      "geometry": {
        "type": "Point",
        "coordinates": [
          -73.34874744376292,
          5.547290774913957
        ]
      }
    },
    {
      "type": "Feature",
      "properties": {
        "_source": "Ruta3-Arboleda-SantaInes-Escandinavo",
        "_segmentIndex": 0,
        "_position": 4
      },
      "geometry": {
        "type": "Point",
        "coordinates": [
          -73.34910717108994,
          5.547562794681517
        ]
      }
    },
    {
      "type": "Feature",
      "properties": {
        "_source": "Ruta3-Arboleda-SantaInes-Escandinavo",
        "_segmentIndex": 0,
        "_position": 5
      },
      "geometry": {
        "type": "Point",
        "coordinates": [
          -73.34946381331774,
          5.5478388188567545
        ]
      }
    },
    {
      "type": "Feature",
      "properties": {
        "_source": "Ruta3-Arboleda-SantaInes-Escandinavo",
        "_segmentIndex": 0,
        "_position": 6
      },
      "geometry": {
        "type": "Point",
        "coordinates": [
          -73.34982043294,
          5.548114872178399
        ]
      }
    },
    {
      "type": "Feature",
      "properties": {
        "_source": "Ruta3-Arboleda-SantaInes-Escandinavo",
        "_segmentIndex": 0,
        "_position": 7
      },
      "geometry": {
        "type": "Point",
        "coordinates": [
          -73.35017705289606,
          5.54839092528645
        ]
      }
    },
    {
      "type": "Feature",
      "properties": {
        "_source": "Ruta3-Arboleda-SantaInes-Escandinavo",
        "_segmentIndex": 0,
        "_position": 8
      },
      "geometry": {
        "type": "Point",
        "coordinates": [
          -73.3505314228796,
          5.548669822454401
        ]
      }
    },
    {
      "type": "Feature",
      "properties": {
        "_source": "Ruta3-Arboleda-SantaInes-Escandinavo",
        "_segmentIndex": 0,
        "_position": 9
      },
      "geometry": {
        "type": "Point",
        "coordinates": [
          -73.35088688494889,
          5.548947235674399
        ]
      }
    },
    {
      "type": "Feature",
      "properties": {
        "_source": "Ruta3-Arboleda-SantaInes-Escandinavo",
        "_segmentIndex": 0,
        "_position": 10
      },
      "geometry": {
        "type": "Point",
        "coordinates": [
          -73.35125289130735,
          5.549210829461029
        ]
      }
    },
    {
      "type": "Feature",
      "properties": {
        "_source": "Ruta3-Arboleda-SantaInes-Escandinavo",
        "_segmentIndex": 0,
        "_position": 11
      },
      "geometry": {
        "type": "Point",
        "coordinates": [
          -73.35160797987125,
          5.549488832158406
        ]
      }
    },
    {
      "type": "Feature",
      "properties": {
        "_source": "Ruta3-Arboleda-SantaInes-Escandinavo",
        "_segmentIndex": 0,
        "_position": 12
      },
      "geometry": {
        "type": "Point",
        "coordinates": [
          -73.35196306876993,
          5.5497668346439655
        ]
      }
    },
    {
      "type": "Feature",
      "properties": {
        "_source": "Ruta3-Arboleda-SantaInes-Escandinavo",
        "_segmentIndex": 0,
        "_position": 13
      },
      "geometry": {
        "type": "Point",
        "coordinates": [
          -73.35231610886422,
          5.5500473962776855
        ]
      }
    },
    {
      "type": "Feature",
      "properties": {
        "_source": "Ruta3-Arboleda-SantaInes-Escandinavo",
        "_segmentIndex": 0,
        "_position": 14
      },
      "geometry": {
        "type": "Point",
        "coordinates": [
          -73.35226667384883,
          5.55042754322833
        ]
      }
    },
    {
      "type": "Feature",
      "properties": {
        "_source": "Ruta3-Arboleda-SantaInes-Escandinavo",
        "_segmentIndex": 0,
        "_position": 15
      },
      "geometry": {
        "type": "Point",
        "coordinates": [
          -73.3520620278842,
          5.5508284249166575
        ]
      }
    },
    {
      "type": "Feature",
      "properties": {
        "_source": "Ruta3-Arboleda-SantaInes-Escandinavo",
        "_segmentIndex": 0,
        "_position": 16
      },
      "geometry": {
        "type": "Point",
        "coordinates": [
          -73.35191071211173,
          5.551245480034998
        ]
      }
    },
    {
      "type": "Feature",
      "properties": {
        "_source": "Ruta3-Arboleda-SantaInes-Escandinavo",
        "_segmentIndex": 0,
        "_position": 17
      },
      "geometry": {
        "type": "Point",
        "coordinates": [
          -73.35218396713766,
          5.551569351327203
        ]
      }
    },
    {
      "type": "Feature",
      "properties": {
        "_source": "Ruta3-Arboleda-SantaInes-Escandinavo",
        "_segmentIndex": 0,
        "_position": 0
      },
      "geometry": {
        "type": "Point",
        "coordinates": [
          -73.352206,
          5.551583
        ]
      }
    },
    {
      "type": "Feature",
      "properties": {
        "_source": "Ruta3-Arboleda-SantaInes-Escandinavo",
        "_segmentIndex": 0,
        "_position": 1
      },
      "geometry": {
        "type": "Point",
        "coordinates": [
          -73.35207897613083,
          5.552014520840028
        ]
      }
    },
    {
      "type": "Feature",
      "properties": {
        "_source": "Ruta3-Arboleda-SantaInes-Escandinavo",
        "_segmentIndex": 0,
        "_position": 2
      },
      "geometry": {
        "type": "Point",
        "coordinates": [
          -73.35194275303526,
          5.552443238883181
        ]
      }
    },
    {
      "type": "Feature",
      "properties": {
        "_source": "Ruta3-Arboleda-SantaInes-Escandinavo",
        "_segmentIndex": 0,
        "_position": 3
      },
      "geometry": {
        "type": "Point",
        "coordinates": [
          -73.35180651496057,
          5.552871960846899
        ]
      }
    },
    {
      "type": "Feature",
      "properties": {
        "_source": "Ruta3-Arboleda-SantaInes-Escandinavo",
        "_segmentIndex": 0,
        "_position": 4
      },
      "geometry": {
        "type": "Point",
        "coordinates": [
          -73.35166137850237,
          5.553297785854692
        ]
      }
    },
    {
      "type": "Feature",
      "properties": {
        "_source": "Ruta3-Arboleda-SantaInes-Escandinavo",
        "_segmentIndex": 0,
        "_position": 5
      },
      "geometry": {
        "type": "Point",
        "coordinates": [
          -73.35152387088468,
          5.553726060234135
        ]
      }
    },
    {
      "type": "Feature",
      "properties": {
        "_source": "Ruta3-Arboleda-SantaInes-Escandinavo",
        "_segmentIndex": 0,
        "_position": 6
      },
      "geometry": {
        "type": "Point",
        "coordinates": [
          -73.35138779464906,
          5.554154822646474
        ]
      }
    },
    {
      "type": "Feature",
      "properties": {
        "_source": "Ruta3-Arboleda-SantaInes-Escandinavo",
        "_segmentIndex": 0,
        "_position": 7
      },
      "geometry": {
        "type": "Point",
        "coordinates": [
          -73.35122889970987,
          5.554575423818225
        ]
      }
    },
    {
      "type": "Feature",
      "properties": {
        "_source": "Ruta3-Arboleda-SantaInes-Escandinavo",
        "_segmentIndex": 0,
        "_position": 8
      },
      "geometry": {
        "type": "Point",
        "coordinates": [
          -73.35105665784569,
          5.554991110761194
        ]
      }
    },
    {
      "type": "Feature",
      "properties": {
        "_source": "Ruta3-Arboleda-SantaInes-Escandinavo",
        "_segmentIndex": 0,
        "_position": 9
      },
      "geometry": {
        "type": "Point",
        "coordinates": [
          -73.3508728416961,
          5.555401869252054
        ]
      }
    },
    {
      "type": "Feature",
      "properties": {
        "_source": "Ruta3-Arboleda-SantaInes-Escandinavo",
        "_segmentIndex": 0,
        "_position": 10
      },
      "geometry": {
        "type": "Point",
        "coordinates": [
          -73.35068532487242,
          5.555810956225598
        ]
      }
    },
    {
      "type": "Feature",
      "properties": {
        "_source": "Ruta3-Arboleda-SantaInes-Escandinavo",
        "_segmentIndex": 0,
        "_position": 11
      },
      "geometry": {
        "type": "Point",
        "coordinates": [
          -73.35049574258218,
          5.556219110296438
        ]
      }
    },
    {
      "type": "Feature",
      "properties": {
        "_source": "Ruta3-Arboleda-SantaInes-Escandinavo",
        "_segmentIndex": 0,
        "_position": 0
      },
      "geometry": {
        "type": "Point",
        "coordinates": [
          -73.350435,
          5.556468
        ]
      }
    },
    {
      "type": "Feature",
      "properties": {
        "_source": "Ruta3-Arboleda-SantaInes-Escandinavo",
        "_segmentIndex": 0,
        "_position": 1
      },
      "geometry": {
        "type": "Point",
        "coordinates": [
          -73.35066786808139,
          5.556124584685038
        ]
      }
    },
    {
      "type": "Feature",
      "properties": {
        "_source": "Ruta3-Arboleda-SantaInes-Escandinavo",
        "_segmentIndex": 0,
        "_position": 2
      },
      "geometry": {
        "type": "Point",
        "coordinates": [
          -73.35085199746749,
          5.555713977755879
        ]
      }
    },
    {
      "type": "Feature",
      "properties": {
        "_source": "Ruta3-Arboleda-SantaInes-Escandinavo",
        "_segmentIndex": 0,
        "_position": 3
      },
      "geometry": {
        "type": "Point",
        "coordinates": [
          -73.35103333788008,
          5.5553021305365435
        ]
      }
    },
    {
      "type": "Feature",
      "properties": {
        "_source": "Ruta3-Arboleda-SantaInes-Escandinavo",
        "_segmentIndex": 0,
        "_position": 4
      },
      "geometry": {
        "type": "Point",
        "coordinates": [
          -73.35122153106985,
          5.554893342873059
        ]
      }
    },
    {
      "type": "Feature",
      "properties": {
        "_source": "Ruta3-Arboleda-SantaInes-Escandinavo",
        "_segmentIndex": 0,
        "_position": 5
      },
      "geometry": {
        "type": "Point",
        "coordinates": [
          -73.35139854254895,
          5.554479788346089
        ]
      }
    },
    {
      "type": "Feature",
      "properties": {
        "_source": "Ruta3-Arboleda-SantaInes-Escandinavo",
        "_segmentIndex": 0,
        "_position": 6
      },
      "geometry": {
        "type": "Point",
        "coordinates": [
          -73.35154327062182,
          5.55405411880954
        ]
      }
    },
    {
      "type": "Feature",
      "properties": {
        "_source": "Ruta3-Arboleda-SantaInes-Escandinavo",
        "_segmentIndex": 0,
        "_position": 7
      },
      "geometry": {
        "type": "Point",
        "coordinates": [
          -73.3516781763402,
          5.553624974085984
        ]
      }
    },
    {
      "type": "Feature",
      "properties": {
        "_source": "Ruta3-Arboleda-SantaInes-Escandinavo",
        "_segmentIndex": 0,
        "_position": 8
      },
      "geometry": {
        "type": "Point",
        "coordinates": [
          -73.35181938543823,
          5.553197848751824
        ]
      }
    },
    {
      "type": "Feature",
      "properties": {
        "_source": "Ruta3-Arboleda-SantaInes-Escandinavo",
        "_segmentIndex": 0,
        "_position": 9
      },
      "geometry": {
        "type": "Point",
        "coordinates": [
          -73.3519602351652,
          5.552770614453754
        ]
      }
    },
    {
      "type": "Feature",
      "properties": {
        "_source": "Ruta3-Arboleda-SantaInes-Escandinavo",
        "_segmentIndex": 0,
        "_position": 10
      },
      "geometry": {
        "type": "Point",
        "coordinates": [
          -73.35209066308174,
          5.552340100687176
        ]
      }
    },
    {
      "type": "Feature",
      "properties": {
        "_source": "Ruta3-Arboleda-SantaInes-Escandinavo",
        "_segmentIndex": 0,
        "_position": 11
      },
      "geometry": {
        "type": "Point",
        "coordinates": [
          -73.35222149816538,
          5.551909710742076
        ]
      }
    },
    {
      "type": "Feature",
      "properties": {
        "_source": "Ruta3-Arboleda-SantaInes-Escandinavo",
        "_segmentIndex": 0,
        "_position": 12
      },
      "geometry": {
        "type": "Point",
        "coordinates": [
          -73.35239290580631,
          5.5514955962766965
        ]
      }
    },
    {
      "type": "Feature",
      "properties": {
        "_source": "Ruta3-Arboleda-SantaInes-Escandinavo",
        "_segmentIndex": 0,
        "_position": 13
      },
      "geometry": {
        "type": "Point",
        "coordinates": [
          -73.35263121585876,
          5.551114536078534
        ]
      }
    },
    {
      "type": "Feature",
      "properties": {
        "_source": "Ruta3-Arboleda-SantaInes-Escandinavo",
        "_segmentIndex": 0,
        "_position": 14
      },
      "geometry": {
        "type": "Point",
        "coordinates": [
          -73.35290081403477,
          5.5507545195065555
        ]
      }
    },
    {
      "type": "Feature",
      "properties": {
        "_source": "Ruta3-Arboleda-SantaInes-Escandinavo",
        "_segmentIndex": 0,
        "_position": 15
      },
      "geometry": {
        "type": "Point",
        "coordinates": [
          -73.35319944088381,
          5.55041710195946
        ]
      }
    },
    {
      "type": "Feature",
      "properties": {
        "_source": "Ruta3-Arboleda-SantaInes-Escandinavo",
        "_segmentIndex": 0,
        "_position": 16
      },
      "geometry": {
        "type": "Point",
        "coordinates": [
          -73.35348825944149,
          5.5500714645163445
        ]
      }
    },
    {
      "type": "Feature",
      "properties": {
        "_source": "Ruta3-Arboleda-SantaInes-Escandinavo",
        "_segmentIndex": 0,
        "_position": 17
      },
      "geometry": {
        "type": "Point",
        "coordinates": [
          -73.35377746346526,
          5.5497260117490095
        ]
      }
    },
    {
      "type": "Feature",
      "properties": {
        "_source": "Ruta3-Arboleda-SantaInes-Escandinavo",
        "_segmentIndex": 0,
        "_position": 18
      },
      "geometry": {
        "type": "Point",
        "coordinates": [
          -73.35406337840567,
          5.549377904467395
        ]
      }
    },
    {
      "type": "Feature",
      "properties": {
        "_source": "Ruta3-Arboleda-SantaInes-Escandinavo",
        "_segmentIndex": 0,
        "_position": 19
      },
      "geometry": {
        "type": "Point",
        "coordinates": [
          -73.3543428190233,
          5.54902458147878
        ]
      }
    },
    {
      "type": "Feature",
      "properties": {
        "_source": "Ruta3-Arboleda-SantaInes-Escandinavo",
        "_segmentIndex": 0,
        "_position": 20
      },
      "geometry": {
        "type": "Point",
        "coordinates": [
          -73.35462183575494,
          5.548670926523434
        ]
      }
    },
    {
      "type": "Feature",
      "properties": {
        "_source": "Ruta3-Arboleda-SantaInes-Escandinavo",
        "_segmentIndex": 0,
        "_position": 21
      },
      "geometry": {
        "type": "Point",
        "coordinates": [
          -73.35489488740866,
          5.54831276842642
        ]
      }
    },
    {
      "type": "Feature",
      "properties": {
        "_source": "Ruta3-Arboleda-SantaInes-Escandinavo",
        "_segmentIndex": 0,
        "_position": 22
      },
      "geometry": {
        "type": "Point",
        "coordinates": [
          -73.35516021858894,
          5.547948830950494
        ]
      }
    },
    {
      "type": "Feature",
      "properties": {
        "_source": "Ruta3-Arboleda-SantaInes-Escandinavo",
        "_segmentIndex": 0,
        "_position": 23
      },
      "geometry": {
        "type": "Point",
        "coordinates": [
          -73.35542228695488,
          5.547582640284505
        ]
      }
    },
    {
      "type": "Feature",
      "properties": {
        "_source": "Ruta3-Arboleda-SantaInes-Escandinavo",
        "_segmentIndex": 0,
        "_position": 24
      },
      "geometry": {
        "type": "Point",
        "coordinates": [
          -73.35568860904137,
          5.547219689587725
        ]
      }
    },
    {
      "type": "Feature",
      "properties": {
        "_source": "Ruta3-Arboleda-SantaInes-Escandinavo",
        "_segmentIndex": 0,
        "_position": 25
      },
      "geometry": {
        "type": "Point",
        "coordinates": [
          -73.35595398631412,
          5.546855787658231
        ]
      }
    },
    {
      "type": "Feature",
      "properties": {
        "_source": "Ruta3-Arboleda-SantaInes-Escandinavo",
        "_segmentIndex": 0,
        "_position": 26
      },
      "geometry": {
        "type": "Point",
        "coordinates": [
          -73.3562191462944,
          5.546491725392848
        ]
      }
    },
    {
      "type": "Feature",
      "properties": {
        "_source": "Ruta3-Arboleda-SantaInes-Escandinavo",
        "_segmentIndex": 0,
        "_position": 27
      },
      "geometry": {
        "type": "Point",
        "coordinates": [
          -73.35648844135233,
          5.546130704187303
        ]
      }
    },
    {
      "type": "Feature",
      "properties": {
        "_source": "Ruta3-Arboleda-SantaInes-Escandinavo",
        "_segmentIndex": 0,
        "_position": 28
      },
      "geometry": {
        "type": "Point",
        "coordinates": [
          -73.35676019419924,
          5.545771490560435
        ]
      }
    },
    {
      "type": "Feature",
      "properties": {
        "_source": "Ruta3-Arboleda-SantaInes-Escandinavo",
        "_segmentIndex": 0,
        "_position": 29
      },
      "geometry": {
        "type": "Point",
        "coordinates": [
          -73.35702893549806,
          5.545410047532575
        ]
      }
    },
    {
      "type": "Feature",
      "properties": {
        "_source": "Ruta3-Arboleda-SantaInes-Escandinavo",
        "_segmentIndex": 0,
        "_position": 30
      },
      "geometry": {
        "type": "Point",
        "coordinates": [
          -73.35729642449324,
          5.545047677516756
        ]
      }
    },
    {
      "type": "Feature",
      "properties": {
        "_source": "Ruta3-Arboleda-SantaInes-Escandinavo",
        "_segmentIndex": 0,
        "_position": 31
      },
      "geometry": {
        "type": "Point",
        "coordinates": [
          -73.3576354571173,
          5.544789782056252
        ]
      }
    },
    {
      "type": "Feature",
      "properties": {
        "_source": "Ruta3-Arboleda-SantaInes-Escandinavo",
        "_segmentIndex": 0,
        "_position": 0
      },
      "geometry": {
        "type": "Point",
        "coordinates": [
          -73.357846,
          5.544456
        ]
      }
    },
    {
      "type": "Feature",
      "properties": {
        "_source": "Ruta3-Arboleda-SantaInes-Escandinavo",
        "_segmentIndex": 0,
        "_position": 1
      },
      "geometry": {
        "type": "Point",
        "coordinates": [
          -73.35805894096829,
          5.544063304275886
        ]
      }
    },
    {
      "type": "Feature",
      "properties": {
        "_source": "Ruta3-Arboleda-SantaInes-Escandinavo",
        "_segmentIndex": 0,
        "_position": 2
      },
      "geometry": {
        "type": "Point",
        "coordinates": [
          -73.35832450824716,
          5.543699547908944
        ]
      }
    },
    {
      "type": "Feature",
      "properties": {
        "_source": "Ruta3-Arboleda-SantaInes-Escandinavo",
        "_segmentIndex": 0,
        "_position": 3
      },
      "geometry": {
        "type": "Point",
        "coordinates": [
          -73.35859222394292,
          5.5433373443493315
        ]
      }
    },
    {
      "type": "Feature",
      "properties": {
        "_source": "Ruta3-Arboleda-SantaInes-Escandinavo",
        "_segmentIndex": 0,
        "_position": 4
      },
      "geometry": {
        "type": "Point",
        "coordinates": [
          -73.35885560503448,
          5.542972071668665
        ]
      }
    },
    {
      "type": "Feature",
      "properties": {
        "_source": "Ruta3-Arboleda-SantaInes-Escandinavo",
        "_segmentIndex": 0,
        "_position": 5
      },
      "geometry": {
        "type": "Point",
        "coordinates": [
          -73.35892680488006,
          5.54264429867317
        ]
      }
    },
    {
      "type": "Feature",
      "properties": {
        "_source": "Ruta3-Arboleda-SantaInes-Escandinavo",
        "_segmentIndex": 0,
        "_position": 6
      },
      "geometry": {
        "type": "Point",
        "coordinates": [
          -73.35896247014928,
          5.542196742292077
        ]
      }
    },
    {
      "type": "Feature",
      "properties": {
        "_source": "Ruta3-Arboleda-SantaInes-Escandinavo",
        "_segmentIndex": 0,
        "_position": 7
      },
      "geometry": {
        "type": "Point",
        "coordinates": [
          -73.35913209680069,
          5.541782809575419
        ]
      }
    },
    {
      "type": "Feature",
      "properties": {
        "_source": "Ruta3-Arboleda-SantaInes-Escandinavo",
        "_segmentIndex": 0,
        "_position": 8
      },
      "geometry": {
        "type": "Point",
        "coordinates": [
          -73.35933131627915,
          5.541379260806044
        ]
      }
    },
    {
      "type": "Feature",
      "properties": {
        "_source": "Ruta3-Arboleda-SantaInes-Escandinavo",
        "_segmentIndex": 0,
        "_position": 9
      },
      "geometry": {
        "type": "Point",
        "coordinates": [
          -73.35952196870342,
          5.540971751942234
        ]
      }
    },
    {
      "type": "Feature",
      "properties": {
        "_source": "Ruta3-Arboleda-SantaInes-Escandinavo",
        "_segmentIndex": 0,
        "_position": 10
      },
      "geometry": {
        "type": "Point",
        "coordinates": [
          -73.35969864526025,
          5.540557920095657
        ]
      }
    },
    {
      "type": "Feature",
      "properties": {
        "_source": "Ruta3-Arboleda-SantaInes-Escandinavo",
        "_segmentIndex": 0,
        "_position": 11
      },
      "geometry": {
        "type": "Point",
        "coordinates": [
          -73.35986640368729,
          5.540140561700712
        ]
      }
    },
    {
      "type": "Feature",
      "properties": {
        "_source": "Ruta3-Arboleda-SantaInes-Escandinavo",
        "_segmentIndex": 0,
        "_position": 12
      },
      "geometry": {
        "type": "Point",
        "coordinates": [
          -73.36000104602988,
          5.539711465953514
        ]
      }
    },
    {
      "type": "Feature",
      "properties": {
        "_source": "Ruta3-Arboleda-SantaInes-Escandinavo",
        "_segmentIndex": 0,
        "_position": 13
      },
      "geometry": {
        "type": "Point",
        "coordinates": [
          -73.36010826038226,
          5.539274879397099
        ]
      }
    },
    {
      "type": "Feature",
      "properties": {
        "_source": "Ruta3-Arboleda-SantaInes-Escandinavo",
        "_segmentIndex": 0,
        "_position": 14
      },
      "geometry": {
        "type": "Point",
        "coordinates": [
          -73.3602097360208,
          5.53883671803364
        ]
      }
    },
    {
      "type": "Feature",
      "properties": {
        "_source": "Ruta3-Arboleda-SantaInes-Escandinavo",
        "_segmentIndex": 0,
        "_position": 15
      },
      "geometry": {
        "type": "Point",
        "coordinates": [
          -73.36031157337456,
          5.538398706544048
        ]
      }
    },
    {
      "type": "Feature",
      "properties": {
        "_source": "Ruta3-Arboleda-SantaInes-Escandinavo",
        "_segmentIndex": 0,
        "_position": 16
      },
      "geometry": {
        "type": "Point",
        "coordinates": [
          -73.36048265912382,
          5.537985290669066
        ]
      }
    },
    {
      "type": "Feature",
      "properties": {
        "_source": "Ruta3-Arboleda-SantaInes-Escandinavo",
        "_segmentIndex": 0,
        "_position": 0
      },
      "geometry": {
        "type": "Point",
        "coordinates": [
          -73.36068,
          5.537794
        ]
      }
    },
    {
      "type": "Feature",
      "properties": {
        "_source": "Ruta3-Arboleda-SantaInes-Escandinavo",
        "_segmentIndex": 0,
        "_position": 1
      },
      "geometry": {
        "type": "Point",
        "coordinates": [
          -73.36106850503208,
          5.537565825117196
        ]
      }
    },
    {
      "type": "Feature",
      "properties": {
        "_source": "Ruta3-Arboleda-SantaInes-Escandinavo",
        "_segmentIndex": 0,
        "_position": 2
      },
      "geometry": {
        "type": "Point",
        "coordinates": [
          -73.361323877345,
          5.537203517855927
        ]
      }
    },
    {
      "type": "Feature",
      "properties": {
        "_source": "Ruta3-Arboleda-SantaInes-Escandinavo",
        "_segmentIndex": 0,
        "_position": 3
      },
      "geometry": {
        "type": "Point",
        "coordinates": [
          -73.36157303399801,
          5.536832722389732
        ]
      }
    },
    {
      "type": "Feature",
      "properties": {
        "_source": "Ruta3-Arboleda-SantaInes-Escandinavo",
        "_segmentIndex": 0,
        "_position": 4
      },
      "geometry": {
        "type": "Point",
        "coordinates": [
          -73.36192899313683,
          5.53656623301782
        ]
      }
    },
    {
      "type": "Feature",
      "properties": {
        "_source": "Ruta3-Arboleda-SantaInes-Escandinavo",
        "_segmentIndex": 0,
        "_position": 5
      },
      "geometry": {
        "type": "Point",
        "coordinates": [
          -73.36237057137248,
          5.536487609480432
        ]
      }
    },
    {
      "type": "Feature",
      "properties": {
        "_source": "Ruta3-Arboleda-SantaInes-Escandinavo",
        "_segmentIndex": 0,
        "_position": 6
      },
      "geometry": {
        "type": "Point",
        "coordinates": [
          -73.36281900710185,
          5.536433097920961
        ]
      }
    },
    {
      "type": "Feature",
      "properties": {
        "_source": "Ruta3-Arboleda-SantaInes-Escandinavo",
        "_segmentIndex": 0,
        "_position": 7
      },
      "geometry": {
        "type": "Point",
        "coordinates": [
          -73.36326777894863,
          5.536381923556735
        ]
      }
    },
    {
      "type": "Feature",
      "properties": {
        "_source": "Ruta3-Arboleda-SantaInes-Escandinavo",
        "_segmentIndex": 0,
        "_position": 8
      },
      "geometry": {
        "type": "Point",
        "coordinates": [
          -73.36371816131091,
          5.536346737447692
        ]
      }
    },
    {
      "type": "Feature",
      "properties": {
        "_source": "Ruta3-Arboleda-SantaInes-Escandinavo",
        "_segmentIndex": 0,
        "_position": 9
      },
      "geometry": {
        "type": "Point",
        "coordinates": [
          -73.36416760901945,
          5.536301591234094
        ]
      }
    },
    {
      "type": "Feature",
      "properties": {
        "_source": "Ruta3-Arboleda-SantaInes-Escandinavo",
        "_segmentIndex": 0,
        "_position": 10
      },
      "geometry": {
        "type": "Point",
        "coordinates": [
          -73.36461311745441,
          5.536237924006607
        ]
      }
    },
    {
      "type": "Feature",
      "properties": {
        "_source": "Ruta3-Arboleda-SantaInes-Escandinavo",
        "_segmentIndex": 0,
        "_position": 0
      },
      "geometry": {
        "type": "Point",
        "coordinates": [
          -73.364738,
          5.536155
        ]
      }
    },
    {
      "type": "Feature",
      "properties": {
        "_source": "Ruta3-Arboleda-SantaInes-Escandinavo",
        "_segmentIndex": 0,
        "_position": 1
      },
      "geometry": {
        "type": "Point",
        "coordinates": [
          -73.36490961947767,
          5.535741256627028
        ]
      }
    },
    {
      "type": "Feature",
      "properties": {
        "_source": "Ruta3-Arboleda-SantaInes-Escandinavo",
        "_segmentIndex": 0,
        "_position": 2
      },
      "geometry": {
        "type": "Point",
        "coordinates": [
          -73.36534041663448,
          5.535618298615104
        ]
      }
    },
    {
      "type": "Feature",
      "properties": {
        "_source": "Ruta3-Arboleda-SantaInes-Escandinavo",
        "_segmentIndex": 0,
        "_position": 0
      },
      "geometry": {
        "type": "Point",
        "coordinates": [
          -73.366935,
          5.531131
        ]
      }
    },
    {
      "type": "Feature",
      "properties": {
        "_source": "Ruta3-Arboleda-SantaInes-Escandinavo",
        "_segmentIndex": 0,
        "_position": 1
      },
      "geometry": {
        "type": "Point",
        "coordinates": [
          -73.36685560495745,
          5.531573646629418
        ]
      }
    },
    {
      "type": "Feature",
      "properties": {
        "_source": "Ruta3-Arboleda-SantaInes-Escandinavo",
        "_segmentIndex": 0,
        "_position": 2
      },
      "geometry": {
        "type": "Point",
        "coordinates": [
          -73.36677701456881,
          5.53201640001465
        ]
      }
    },
    {
      "type": "Feature",
      "properties": {
        "_source": "Ruta3-Arboleda-SantaInes-Escandinavo",
        "_segmentIndex": 0,
        "_position": 3
      },
      "geometry": {
        "type": "Point",
        "coordinates": [
          -73.3667248115615,
          5.5324629604116256
        ]
      }
    },
    {
      "type": "Feature",
      "properties": {
        "_source": "Ruta3-Arboleda-SantaInes-Escandinavo",
        "_segmentIndex": 0,
        "_position": 4
      },
      "geometry": {
        "type": "Point",
        "coordinates": [
          -73.36662266851758,
          5.532900464923805
        ]
      }
    },
    {
      "type": "Feature",
      "properties": {
        "_source": "Ruta3-Arboleda-SantaInes-Escandinavo",
        "_segmentIndex": 0,
        "_position": 5
      },
      "geometry": {
        "type": "Point",
        "coordinates": [
          -73.3664601934629,
          5.53331989480895
        ]
      }
    },
    {
      "type": "Feature",
      "properties": {
        "_source": "Ruta3-Arboleda-SantaInes-Escandinavo",
        "_segmentIndex": 0,
        "_position": 6
      },
      "geometry": {
        "type": "Point",
        "coordinates": [
          -73.36627329685528,
          5.533728890234571
        ]
      }
    },
    {
      "type": "Feature",
      "properties": {
        "_source": "Ruta3-Arboleda-SantaInes-Escandinavo",
        "_segmentIndex": 0,
        "_position": 7
      },
      "geometry": {
        "type": "Point",
        "coordinates": [
          -73.36607395509745,
          5.534132141246105
        ]
      }
    },
    {
      "type": "Feature",
      "properties": {
        "_source": "Ruta3-Arboleda-SantaInes-Escandinavo",
        "_segmentIndex": 0,
        "_position": 8
      },
      "geometry": {
        "type": "Point",
        "coordinates": [
          -73.36589045660925,
          5.5345411136986655
        ]
      }
    },
    {
      "type": "Feature",
      "properties": {
        "_source": "Ruta3-Arboleda-SantaInes-Escandinavo",
        "_segmentIndex": 0,
        "_position": 9
      },
      "geometry": {
        "type": "Point",
        "coordinates": [
          -73.36571696011056,
          5.534956084901892
        ]
      }
    },
    {
      "type": "Feature",
      "properties": {
        "_source": "Ruta3-Arboleda-SantaInes-Escandinavo",
        "_segmentIndex": 0,
        "_position": 10
      },
      "geometry": {
        "type": "Point",
        "coordinates": [
          -73.3655425821419,
          5.535370805881414
        ]
      }
    },
    {
      "type": "Feature",
      "properties": {
        "_source": "Ruta3-Arboleda-SantaInes-Escandinavo",
        "_segmentIndex": 0,
        "_position": 0
      },
      "geometry": {
        "type": "Point",
        "coordinates": [
          -73.366935,
          5.531131
        ]
      }
    },
    {
      "type": "Feature",
      "properties": {
        "_source": "Ruta3-Arboleda-SantaInes-Escandinavo",
        "_segmentIndex": 0,
        "_position": 1
      },
      "geometry": {
        "type": "Point",
        "coordinates": [
          -73.36649475299477,
          5.531030138988499
        ]
      }
    },
    {
      "type": "Feature",
      "properties": {
        "_source": "Ruta3-Arboleda-SantaInes-Escandinavo",
        "_segmentIndex": 0,
        "_position": 2
      },
      "geometry": {
        "type": "Point",
        "coordinates": [
          -73.36605466667868,
          5.53092900001672
        ]
      }
    },
    {
      "type": "Feature",
      "properties": {
        "_source": "Ruta3-Arboleda-SantaInes-Escandinavo",
        "_segmentIndex": 0,
        "_position": 3
      },
      "geometry": {
        "type": "Point",
        "coordinates": [
          -73.36561326724754,
          5.5308339206703305
        ]
      }
    },
    {
      "type": "Feature",
      "properties": {
        "_source": "Ruta3-Arboleda-SantaInes-Escandinavo",
        "_segmentIndex": 0,
        "_position": 4
      },
      "geometry": {
        "type": "Point",
        "coordinates": [
          -73.36517169208463,
          5.5307390890459605
        ]
      }
    },
    {
      "type": "Feature",
      "properties": {
        "_source": "Ruta3-Arboleda-SantaInes-Escandinavo",
        "_segmentIndex": 0,
        "_position": 5
      },
      "geometry": {
        "type": "Point",
        "coordinates": [
          -73.36473231273844,
          5.530636888634285
        ]
      }
    },
    {
      "type": "Feature",
      "properties": {
        "_source": "Ruta3-Arboleda-SantaInes-Escandinavo",
        "_segmentIndex": 0,
        "_position": 6
      },
      "geometry": {
        "type": "Point",
        "coordinates": [
          -73.36430334217324,
          5.53049595136955
        ]
      }
    },
    {
      "type": "Feature",
      "properties": {
        "_source": "Ruta3-Arboleda-SantaInes-Escandinavo",
        "_segmentIndex": 0,
        "_position": 7
      },
      "geometry": {
        "type": "Point",
        "coordinates": [
          -73.36387157620607,
          5.530363658306026
        ]
      }
    },
    {
      "type": "Feature",
      "properties": {
        "_source": "Ruta3-Arboleda-SantaInes-Escandinavo",
        "_segmentIndex": 0,
        "_position": 0
      },
      "geometry": {
        "type": "Point",
        "coordinates": [
          -73.363856,
          5.530359
        ]
      }
    },
    {
      "type": "Feature",
      "properties": {
        "_source": "Ruta3-Arboleda-SantaInes-Escandinavo",
        "_segmentIndex": 0,
        "_position": 1
      },
      "geometry": {
        "type": "Point",
        "coordinates": [
          -73.36398441606808,
          5.529927888943901
        ]
      }
    },
    {
      "type": "Feature",
      "properties": {
        "_source": "Ruta3-Arboleda-SantaInes-Escandinavo",
        "_segmentIndex": 0,
        "_position": 2
      },
      "geometry": {
        "type": "Point",
        "coordinates": [
          -73.36410726729044,
          5.529495191397572
        ]
      }
    },
    {
      "type": "Feature",
      "properties": {
        "_source": "Ruta3-Arboleda-SantaInes-Escandinavo",
        "_segmentIndex": 0,
        "_position": 3
      },
      "geometry": {
        "type": "Point",
        "coordinates": [
          -73.36422580815156,
          5.529061731160458
        ]
      }
    },
    {
      "type": "Feature",
      "properties": {
        "_source": "Ruta3-Arboleda-SantaInes-Escandinavo",
        "_segmentIndex": 0,
        "_position": 4
      },
      "geometry": {
        "type": "Point",
        "coordinates": [
          -73.36435186459484,
          5.528629992962758
        ]
      }
    },
    {
      "type": "Feature",
      "properties": {
        "_source": "Ruta3-Arboleda-SantaInes-Escandinavo",
        "_segmentIndex": 0,
        "_position": 5
      },
      "geometry": {
        "type": "Point",
        "coordinates": [
          -73.36448634577954,
          5.52820078036704
        ]
      }
    },
    {
      "type": "Feature",
      "properties": {
        "_source": "Ruta3-Arboleda-SantaInes-Escandinavo",
        "_segmentIndex": 0,
        "_position": 6
      },
      "geometry": {
        "type": "Point",
        "coordinates": [
          -73.36461912231745,
          5.527771042932217
        ]
      }
    },
    {
      "type": "Feature",
      "properties": {
        "_source": "Ruta3-Arboleda-SantaInes-Escandinavo",
        "_segmentIndex": 0,
        "_position": 7
      },
      "geometry": {
        "type": "Point",
        "coordinates": [
          -73.3647347715511,
          5.52733690056253
        ]
      }
    },
    {
      "type": "Feature",
      "properties": {
        "_source": "Ruta3-Arboleda-SantaInes-Escandinavo",
        "_segmentIndex": 0,
        "_position": 8
      },
      "geometry": {
        "type": "Point",
        "coordinates": [
          -73.36489157161971,
          5.526917482760362
        ]
      }
    },
    {
      "type": "Feature",
      "properties": {
        "_source": "Ruta3-Arboleda-SantaInes-Escandinavo",
        "_segmentIndex": 0,
        "_position": 9
      },
      "geometry": {
        "type": "Point",
        "coordinates": [
          -73.3652125335919,
          5.526608672746846
        ]
      }
    },
    {
      "type": "Feature",
      "properties": {
        "_source": "Ruta3-Arboleda-SantaInes-Escandinavo",
        "_segmentIndex": 0,
        "_position": 10
      },
      "geometry": {
        "type": "Point",
        "coordinates": [
          -73.36544312858537,
          5.526222250591961
        ]
      }
    },
    {
      "type": "Feature",
      "properties": {
        "_source": "Ruta3-Arboleda-SantaInes-Escandinavo",
        "_segmentIndex": 0,
        "_position": 11
      },
      "geometry": {
        "type": "Point",
        "coordinates": [
          -73.36564803688054,
          5.52582273807187
        ]
      }
    },
    {
      "type": "Feature",
      "properties": {
        "_source": "Ruta3-Arboleda-SantaInes-Escandinavo",
        "_segmentIndex": 0,
        "_position": 12
      },
      "geometry": {
        "type": "Point",
        "coordinates": [
          -73.36581898165686,
          5.525406529220941
        ]
      }
    },
    {
      "type": "Feature",
      "properties": {
        "_source": "Ruta3-Arboleda-SantaInes-Escandinavo",
        "_segmentIndex": 0,
        "_position": 13
      },
      "geometry": {
        "type": "Point",
        "coordinates": [
          -73.36597891593115,
          5.524986113368871
        ]
      }
    },
    {
      "type": "Feature",
      "properties": {
        "_source": "Ruta3-Arboleda-SantaInes-Escandinavo",
        "_segmentIndex": 0,
        "_position": 14
      },
      "geometry": {
        "type": "Point",
        "coordinates": [
          -73.36612407958812,
          5.524560299894818
        ]
      }
    },
    {
      "type": "Feature",
      "properties": {
        "_source": "Ruta3-Arboleda-SantaInes-Escandinavo",
        "_segmentIndex": 0,
        "_position": 15
      },
      "geometry": {
        "type": "Point",
        "coordinates": [
          -73.3662711459472,
          5.524135134032466
        ]
      }
    },
    {
      "type": "Feature",
      "properties": {
        "_source": "Ruta3-Arboleda-SantaInes-Escandinavo",
        "_segmentIndex": 0,
        "_position": 16
      },
      "geometry": {
        "type": "Point",
        "coordinates": [
          -73.36637477650748,
          5.523698668480145
        ]
      }
    },
    {
      "type": "Feature",
      "properties": {
        "_source": "Ruta3-Arboleda-SantaInes-Escandinavo",
        "_segmentIndex": 0,
        "_position": 17
      },
      "geometry": {
        "type": "Point",
        "coordinates": [
          -73.36649091541909,
          5.523264214318044
        ]
      }
    },
    {
      "type": "Feature",
      "properties": {
        "_source": "Ruta3-Arboleda-SantaInes-Escandinavo",
        "_segmentIndex": 0,
        "_position": 18
      },
      "geometry": {
        "type": "Point",
        "coordinates": [
          -73.36659134108699,
          5.522825827033964
        ]
      }
    },
    {
      "type": "Feature",
      "properties": {
        "_source": "Ruta3-Arboleda-SantaInes-Escandinavo",
        "_segmentIndex": 0,
        "_position": 19
      },
      "geometry": {
        "type": "Point",
        "coordinates": [
          -73.36669442976319,
          5.522388131952647
        ]
      }
    },
    {
      "type": "Feature",
      "properties": {
        "_source": "Ruta3-Arboleda-SantaInes-Escandinavo",
        "_segmentIndex": 0,
        "_position": 20
      },
      "geometry": {
        "type": "Point",
        "coordinates": [
          -73.36683262200748,
          5.521960079799267
        ]
      }
    },
    {
      "type": "Feature",
      "properties": {
        "_source": "Ruta3-Arboleda-SantaInes-Escandinavo",
        "_segmentIndex": 0,
        "_position": 21
      },
      "geometry": {
        "type": "Point",
        "coordinates": [
          -73.3669580370112,
          5.521528094857967
        ]
      }
    },
    {
      "type": "Feature",
      "properties": {
        "_source": "Ruta3-Arboleda-SantaInes-Escandinavo",
        "_segmentIndex": 0,
        "_position": 22
      },
      "geometry": {
        "type": "Point",
        "coordinates": [
          -73.36707060446142,
          5.52109271586043
        ]
      }
    },
    {
      "type": "Feature",
      "properties": {
        "_source": "Ruta3-Arboleda-SantaInes-Escandinavo",
        "_segmentIndex": 0,
        "_position": 0
      },
      "geometry": {
        "type": "Point",
        "coordinates": [
          -73.367093,
          5.521005
        ]
      }
    },
    {
      "type": "Feature",
      "properties": {
        "_source": "Ruta3-Arboleda-SantaInes-Escandinavo",
        "_segmentIndex": 0,
        "_position": 1
      },
      "geometry": {
        "type": "Point",
        "coordinates": [
          -73.36753941939237,
          5.521073572002819
        ]
      }
    },
    {
      "type": "Feature",
      "properties": {
        "_source": "Ruta3-Arboleda-SantaInes-Escandinavo",
        "_segmentIndex": 0,
        "_position": 2
      },
      "geometry": {
        "type": "Point",
        "coordinates": [
          -73.36798700297277,
          5.521134528959844
        ]
      }
    },
    {
      "type": "Feature",
      "properties": {
        "_source": "Ruta3-Arboleda-SantaInes-Escandinavo",
        "_segmentIndex": 0,
        "_position": 3
      },
      "geometry": {
        "type": "Point",
        "coordinates": [
          -73.36843445080808,
          5.521196392341129
        ]
      }
    },
    {
      "type": "Feature",
      "properties": {
        "_source": "Ruta3-Arboleda-SantaInes-Escandinavo",
        "_segmentIndex": 0,
        "_position": 4
      },
      "geometry": {
        "type": "Point",
        "coordinates": [
          -73.3688816622347,
          5.521259999398092
        ]
      }
    },
    {
      "type": "Feature",
      "properties": {
        "_source": "Ruta3-Arboleda-SantaInes-Escandinavo",
        "_segmentIndex": 0,
        "_position": 5
      },
      "geometry": {
        "type": "Point",
        "coordinates": [
          -73.36932987135256,
          5.521316200141351
        ]
      }
    },
    {
      "type": "Feature",
      "properties": {
        "_source": "Ruta3-Arboleda-SantaInes-Escandinavo",
        "_segmentIndex": 0,
        "_position": 6
      },
      "geometry": {
        "type": "Point",
        "coordinates": [
          -73.36977755642113,
          5.521376208689093
        ]
      }
    },
    {
      "type": "Feature",
      "properties": {
        "_source": "Ruta3-Arboleda-SantaInes-Escandinavo",
        "_segmentIndex": 0,
        "_position": 7
      },
      "geometry": {
        "type": "Point",
        "coordinates": [
          -73.37022442549345,
          5.521442149826195
        ]
      }
    },
    {
      "type": "Feature",
      "properties": {
        "_source": "Ruta3-Arboleda-SantaInes-Escandinavo",
        "_segmentIndex": 0,
        "_position": 0
      },
      "geometry": {
        "type": "Point",
        "coordinates": [
          -73.370408,
          5.521475
        ]
      }
    },
    {
      "type": "Feature",
      "properties": {
        "_source": "Ruta3-Arboleda-SantaInes-Escandinavo",
        "_segmentIndex": 0,
        "_position": 1
      },
      "geometry": {
        "type": "Point",
        "coordinates": [
          -73.37035674848123,
          5.521921755251289
        ]
      }
    },
    {
      "type": "Feature",
      "properties": {
        "_source": "Ruta3-Arboleda-SantaInes-Escandinavo",
        "_segmentIndex": 0,
        "_position": 2
      },
      "geometry": {
        "type": "Point",
        "coordinates": [
          -73.37030395829157,
          5.522368333669509
        ]
      }
    },
    {
      "type": "Feature",
      "properties": {
        "_source": "Ruta3-Arboleda-SantaInes-Escandinavo",
        "_segmentIndex": 0,
        "_position": 3
      },
      "geometry": {
        "type": "Point",
        "coordinates": [
          -73.37035044515436,
          5.522813996011259
        ]
      }
    },
    {
      "type": "Feature",
      "properties": {
        "_source": "Ruta3-Arboleda-SantaInes-Escandinavo",
        "_segmentIndex": 0,
        "_position": 4
      },
      "geometry": {
        "type": "Point",
        "coordinates": [
          -73.37037862628027,
          5.523257675887979
        ]
      }
    },
    {
      "type": "Feature",
      "properties": {
        "_source": "Ruta3-Arboleda-SantaInes-Escandinavo",
        "_segmentIndex": 0,
        "_position": 5
      },
      "geometry": {
        "type": "Point",
        "coordinates": [
          -73.37023730338804,
          5.52368420149207
        ]
      }
    },
    {
      "type": "Feature",
      "properties": {
        "_source": "Ruta3-Arboleda-SantaInes-Escandinavo",
        "_segmentIndex": 0,
        "_position": 6
      },
      "geometry": {
        "type": "Point",
        "coordinates": [
          -73.37008459470036,
          5.524107174557572
        ]
      }
    },
    {
      "type": "Feature",
      "properties": {
        "_source": "Ruta3-Arboleda-SantaInes-Escandinavo",
        "_segmentIndex": 0,
        "_position": 7
      },
      "geometry": {
        "type": "Point",
        "coordinates": [
          -73.37003180663638,
          5.524551749677162
        ]
      }
    },
    {
      "type": "Feature",
      "properties": {
        "_source": "Ruta3-Arboleda-SantaInes-Escandinavo",
        "_segmentIndex": 0,
        "_position": 0
      },
      "geometry": {
        "type": "Point",
        "coordinates": [
          -73.371246,
          5.524994
        ]
      }
    },
    {
      "type": "Feature",
      "properties": {
        "_source": "Ruta3-Arboleda-SantaInes-Escandinavo",
        "_segmentIndex": 0,
        "_position": 1
      },
      "geometry": {
        "type": "Point",
        "coordinates": [
          -73.37082231807334,
          5.524838345270657
        ]
      }
    },
    {
      "type": "Feature",
      "properties": {
        "_source": "Ruta3-Arboleda-SantaInes-Escandinavo",
        "_segmentIndex": 0,
        "_position": 2
      },
      "geometry": {
        "type": "Point",
        "coordinates": [
          -73.37039600800286,
          5.524689669335327
        ]
      }
    },
    {
      "type": "Feature",
      "properties": {
        "_source": "Ruta3-Arboleda-SantaInes-Escandinavo",
        "_segmentIndex": 0,
        "_position": 0
      },
      "geometry": {
        "type": "Point",
        "coordinates": [
          -73.371246,
          5.524994
        ]
      }
    },
    {
      "type": "Feature",
      "properties": {
        "_source": "Ruta3-Arboleda-SantaInes-Escandinavo",
        "_segmentIndex": 0,
        "_position": 1
      },
      "geometry": {
        "type": "Point",
        "coordinates": [
          -73.37111612311895,
          5.525411407564537
        ]
      }
    },
    {
      "type": "Feature",
      "properties": {
        "_source": "Ruta3-Arboleda-SantaInes-Escandinavo",
        "_segmentIndex": 0,
        "_position": 0
      },
      "geometry": {
        "type": "Point",
        "coordinates": [
          -73.371151,
          5.525476
        ]
      }
    },
    {
      "type": "Feature",
      "properties": {
        "_source": "Ruta3-Arboleda-SantaInes-Escandinavo",
        "_segmentIndex": 0,
        "_position": 1
      },
      "geometry": {
        "type": "Point",
        "coordinates": [
          -73.37157897054928,
          5.5256199902059615
        ]
      }
    },
    {
      "type": "Feature",
      "properties": {
        "_source": "Ruta3-Arboleda-SantaInes-Escandinavo",
        "_segmentIndex": 0,
        "_position": 2
      },
      "geometry": {
        "type": "Point",
        "coordinates": [
          -73.37201259241058,
          5.525740113744068
        ]
      }
    },
    {
      "type": "Feature",
      "properties": {
        "_source": "Ruta3-Arboleda-SantaInes-Escandinavo",
        "_segmentIndex": 0,
        "_position": 0
      },
      "geometry": {
        "type": "Point",
        "coordinates": [
          -73.37231,
          5.52557
        ]
      }
    },
    {
      "type": "Feature",
      "properties": {
        "_source": "Ruta3-Arboleda-SantaInes-Escandinavo",
        "_segmentIndex": 0,
        "_position": 1
      },
      "geometry": {
        "type": "Point",
        "coordinates": [
          -73.37275670731789,
          5.525557326136549
        ]
      }
    },
    {
      "type": "Feature",
      "properties": {
        "_source": "Ruta3-Arboleda-SantaInes-Escandinavo",
        "_segmentIndex": 0,
        "_position": 2
      },
      "geometry": {
        "type": "Point",
        "coordinates": [
          -73.37314099566386,
          5.525409952509377
        ]
      }
    },
    {
      "type": "Feature",
      "properties": {
        "_source": "Ruta3-Arboleda-SantaInes-Escandinavo",
        "_segmentIndex": 0,
        "_position": 3
      },
      "geometry": {
        "type": "Point",
        "coordinates": [
          -73.37340401652396,
          5.525049349799159
        ]
      }
    },
    {
      "type": "Feature",
      "properties": {
        "_source": "Ruta3-Arboleda-SantaInes-Escandinavo",
        "_segmentIndex": 0,
        "_position": 4
      },
      "geometry": {
        "type": "Point",
        "coordinates": [
          -73.37363483763835,
          5.524663230168087
        ]
      }
    },
    {
      "type": "Feature",
      "properties": {
        "_source": "Ruta3-Arboleda-SantaInes-Escandinavo",
        "_segmentIndex": 0,
        "_position": 5
      },
      "geometry": {
        "type": "Point",
        "coordinates": [
          -73.37377256412802,
          5.524235316163923
        ]
      }
    },
    {
      "type": "Feature",
      "properties": {
        "_source": "Ruta3-Arboleda-SantaInes-Escandinavo",
        "_segmentIndex": 0,
        "_position": 0
      },
      "geometry": {
        "type": "Point",
        "coordinates": [
          -73.373847,
          5.524015
        ]
      }
    },
    {
      "type": "Feature",
      "properties": {
        "_source": "Ruta3-Arboleda-SantaInes-Escandinavo",
        "_segmentIndex": 0,
        "_position": 1
      },
      "geometry": {
        "type": "Point",
        "coordinates": [
          -73.37343024421381,
          5.523841453727013
        ]
      }
    }
  ]
}