{
  "type": "FeatureCollection",
  "features": [
    {
      "type": "Feature",
      "properties": {
        "_source": "Ruta1-Arboleda-AvenidaNorte-TerminaldeTransporte",
        "_segmentIndex": 0,
        "_position": 0
      },
      "geometry": {
        "type": "Point",
        "coordinates": [
          -73.331541,
          5.575069,
          0
        ]
      }
    },
    {
      "type": "Feature",
      "properties": {
        "_source": "Ruta1-Arboleda-AvenidaNorte-TerminaldeTransporte",
        "_segmentIndex": 0,
        "_position": 1
      },
      "geometry": {
        "type": "Point",
        "coordinates": [
          -73.33162821450853,
          5.574627797447183,
          0
        ]
      }
    },
    {
      "type": "Feature",
      "properties": {
        "_source": "Ruta1-Arboleda-AvenidaNorte-TerminaldeTransporte",
        "_segmentIndex": 0,
        "_position": 2
      },
      "geometry": {
        "type": "Point",
        "coordinates": [
          -73.33171048039038,
          5.5741857411624105,
          0
        ]
      }
    },
    {
      "type": "Feature",
      "properties": {
        "_source": "Ruta1-Arboleda-AvenidaNorte-TerminaldeTransporte",
        "_segmentIndex": 0,
        "_position": 3
      },
      "geometry": {
        "type": "Point",
        "coordinates": [
          -73.33183462890429,
          5.573758901000175,
          0
        ]
      }
    },
    {
      "type": "Feature",
      "properties": {
        "_source": "Ruta1-Arboleda-AvenidaNorte-TerminaldeTransporte",
        "_segmentIndex": 0,
        "_position": 4
      },
      "geometry": {
        "type": "Point",
        "coordinates": [
          -73.33218041498685,
          5.573487141985835,
          0
        ]
      }
    },
    {
      "type": "Feature",
      "properties": {
        "_source": "Ruta1-Arboleda-AvenidaNorte-TerminaldeTransporte",
        "_segmentIndex": 0,
        "_position": 5
      },
      "geometry": {
        "type": "Point",
        "coordinates": [
          -73.33255626185695,
          5.5732430370906325,
          0
        ]
      }
    },
    {
      "type": "Feature",
      "properties": {
        "_source": "Ruta1-Arboleda-AvenidaNorte-TerminaldeTransporte",
        "_segmentIndex": 0,
        "_position": 6
      },
      "geometry": {
        "type": "Point",
        "coordinates": [
          -73.3328834624228,
          5.572933345565017,
          0
        ]
      }
    },
    {
      "type": "Feature",
      "properties": {
        "_source": "Ruta1-Arboleda-AvenidaNorte-TerminaldeTransporte",
        "_segmentIndex": 0,
        "_position": 7
      },
      "geometry": {
        "type": "Point",
        "coordinates": [
          -73.33318845096426,
          5.572601615779102,
          0
        ]
      }
    },
    {
      "type": "Feature",
      "properties": {
        "_source": "Ruta1-Arboleda-AvenidaNorte-TerminaldeTransporte",
        "_segmentIndex": 0,
        "_position": 8
      },
      "geometry": {
        "type": "Point",
        "coordinates": [
          -73.3334755006907,
          5.572254378576369,
          0
        ]
      }
    },
    {
      "type": "Feature",
      "properties": {
        "_source": "Ruta1-Arboleda-AvenidaNorte-TerminaldeTransporte",
        "_segmentIndex": 0,
        "_position": 9
      },
      "geometry": {
        "type": "Point",
        "coordinates": [
          -73.3337625500777,
          5.571907141234658,
          0
        ]
      }
    },
    {
      "type": "Feature",
      "properties": {
        "_source": "Ruta1-Arboleda-AvenidaNorte-TerminaldeTransporte",
        "_segmentIndex": 0,
        "_position": 10
      },
      "geometry": {
        "type": "Point",
        "coordinates": [
          -73.33406141503319,
          5.571570126068317,
          0
        ]
      }
    },
    {
      "type": "Feature",
      "properties": {
        "_source": "Ruta1-Arboleda-AvenidaNorte-TerminaldeTransporte",
        "_segmentIndex": 0,
        "_position": 11
      },
      "geometry": {
        "type": "Point",
        "coordinates": [
          -73.33436693737842,
          5.5712388705628975,
          0
        ]
      }
    },
    {
      "type": "Feature",
      "properties": {
        "_source": "Ruta1-Arboleda-AvenidaNorte-TerminaldeTransporte",
        "_segmentIndex": 0,
        "_position": 12
      },
      "geometry": {
        "type": "Point",
        "coordinates": [
          -73.33469949054415,
          5.570938104272241,
          0
        ]
      }
    },
    {
      "type": "Feature",
      "properties": {
        "_source": "Ruta1-Arboleda-AvenidaNorte-TerminaldeTransporte",
        "_segmentIndex": 0,
        "_position": 13
      },
      "geometry": {
        "type": "Point",
        "coordinates": [
          -73.33511675283039,
          5.5707684936992825,
          0
        ]
      }
    },
    {
      "type": "Feature",
      "properties": {
        "_source": "Ruta1-Arboleda-AvenidaNorte-TerminaldeTransporte",
        "_segmentIndex": 0,
        "_position": 14
      },
      "geometry": {
        "type": "Point",
        "coordinates": [
          -73.33554046653624,
          5.5706136330817415,
          0
        ]
      }
    },
    {
      "type": "Feature",
      "properties": {
        "_source": "Ruta1-Arboleda-AvenidaNorte-TerminaldeTransporte",
        "_segmentIndex": 0,
        "_position": 15
      },
      "geometry": {
        "type": "Point",
        "coordinates": [
          -73.33593401104459,
          5.5703934997172455,
          0
        ]
      }
    },
    {
      "type": "Feature",
      "properties": {
        "_source": "Ruta1-Arboleda-AvenidaNorte-TerminaldeTransporte",
        "_segmentIndex": 0,
        "_position": 16
      },
      "geometry": {
        "type": "Point",
        "coordinates": [
          -73.33632253362944,
          5.570164027123209,
          0
        ]
      }
    },
    {
      "type": "Feature",
      "properties": {
        "_source": "Ruta1-Arboleda-AvenidaNorte-TerminaldeTransporte",
        "_segmentIndex": 0,
        "_position": 17
      },
      "geometry": {
        "type": "Point",
        "coordinates": [
          -73.3367097959863,
          5.569932448537558,
          0
        ]
      }
    },
    {
      "type": "Feature",
      "properties": {
        "_source": "Ruta1-Arboleda-AvenidaNorte-TerminaldeTransporte",
        "_segmentIndex": 0,
        "_position": 0
      },
      "geometry": {
        "type": "Point",
        "coordinates": [
          -73.337018,
          5.569763,
          0
        ]
      }
    },
    {
      "type": "Feature",
      "properties": {
        "_source": "Ruta1-Arboleda-AvenidaNorte-TerminaldeTransporte",
        "_segmentIndex": 0,
        "_position": 1
      },
      "geometry": {
        "type": "Point",
        "coordinates": [
          -73.3374586924605,
          5.56969943796049,
          0
        ]
      }
    },
    {
      "type": "Feature",
      "properties": {
        "_source": "Ruta1-Arboleda-AvenidaNorte-TerminaldeTransporte",
        "_segmentIndex": 0,
        "_position": 2
      },
      "geometry": {
        "type": "Point",
        "coordinates": [
          -73.33786366887652,
          5.569512585507048,
          0
        ]
      }
    },
    {
      "type": "Feature",
      "properties": {
        "_source": "Ruta1-Arboleda-AvenidaNorte-TerminaldeTransporte",
        "_segmentIndex": 0,
        "_position": 3
      },
      "geometry": {
        "type": "Point",
        "coordinates": [
          -73.33804237884769,
          5.569103920744227,
          0
        ]
      }
    },
    {
      "type": "Feature",
      "properties": {
        "_source": "Ruta1-Arboleda-AvenidaNorte-TerminaldeTransporte",
        "_segmentIndex": 0,
        "_position": 4
      },
      "geometry": {
        "type": "Point",
        "coordinates": [
          -73.3382262261461,
          5.568694248364153,
          0
        ]
      }
    },
    {
      "type": "Feature",
      "properties": {
        "_source": "Ruta1-Arboleda-AvenidaNorte-TerminaldeTransporte",
        "_segmentIndex": 0,
        "_position": 5
      },
      "geometry": {
        "type": "Point",
        "coordinates": [
          -73.33836396938361,
          5.568891086401283,
          0
        ]
      }
    },
    {
      "type": "Feature",
      "properties": {
        "_source": "Ruta1-Arboleda-AvenidaNorte-TerminaldeTransporte",
        "_segmentIndex": 0,
        "_position": 6
      },
      "geometry": {
        "type": "Point",
        "coordinates": [
          -73.33849796378193,
          5.569312224910698,
          0
        ]
      }
    },
    {
      "type": "Feature",
      "properties": {
        "_source": "Ruta1-Arboleda-AvenidaNorte-TerminaldeTransporte",
        "_segmentIndex": 0,
        "_position": 7
      },
      "geometry": {
        "type": "Point",
        "coordinates": [
          -73.33880148334619,
          5.56964190378809,
          0
        ]
      }
    },
    {
      "type": "Feature",
      "properties": {
        "_source": "Ruta1-Arboleda-AvenidaNorte-TerminaldeTransporte",
        "_segmentIndex": 0,
        "_position": 8
      },
      "geometry": {
        "type": "Point",
        "coordinates": [
          -73.33916222146604,
          5.5699126216532795,
          0
        ]
      }
    },
    {
      "type": "Feature",
      "properties": {
        "_source": "Ruta1-Arboleda-AvenidaNorte-TerminaldeTransporte",
        "_segmentIndex": 0,
        "_position": 9
      },
      "geometry": {
        "type": "Point",
        "coordinates": [
          -73.33952050767135,
          5.57018653522713,
          0
        ]
      }
    },
    {
      "type": "Feature",
      "properties": {
        "_source": "Ruta1-Arboleda-AvenidaNorte-TerminaldeTransporte",
        "_segmentIndex": 0,
        "_position": 10
      },
      "geometry": {
        "type": "Point",
        "coordinates": [
          -73.33987788237158,
          5.5704616369536675,
          0
        ]
      }
    },
    {
      "type": "Feature",
      "properties": {
        "_source": "Ruta1-Arboleda-AvenidaNorte-TerminaldeTransporte",
        "_segmentIndex": 0,
        "_position": 11
      },
      "geometry": {
        "type": "Point",
        "coordinates": [
          -73.34023525740653,
          5.570736738464851,
          0
        ]
      }
    },
    {
      "type": "Feature",
      "properties": {
        "_source": "Ruta1-Arboleda-AvenidaNorte-TerminaldeTransporte",
        "_segmentIndex": 0,
        "_position": 12
      },
      "geometry": {
        "type": "Point",
        "coordinates": [
          -73.34059263277621,
          5.5710118397606685,
          0
        ]
      }
    },
    {
      "type": "Feature",
      "properties": {
        "_source": "Ruta1-Arboleda-AvenidaNorte-TerminaldeTransporte",
        "_segmentIndex": 0,
        "_position": 13
      },
      "geometry": {
        "type": "Point",
        "coordinates": [
          -73.34095325838929,
          5.571282697126992,
          0
        ]
      }
    },
    {
      "type": "Feature",
      "properties": {
        "_source": "Ruta1-Arboleda-AvenidaNorte-TerminaldeTransporte",
        "_segmentIndex": 0,
        "_position": 14
      },
      "geometry": {
        "type": "Point",
        "coordinates": [
          -73.34131450577827,
          5.571552742795844,
          0
        ]
      }
    },
    {
      "type": "Feature",
      "properties": {
        "_source": "Ruta1-Arboleda-AvenidaNorte-TerminaldeTransporte",
        "_segmentIndex": 0,
        "_position": 15
      },
      "geometry": {
        "type": "Point",
        "coordinates": [
          -73.34168389869517,
          5.571811382144314,
          0
        ]
      }
    },
    {
      "type": "Feature",
      "properties": {
        "_source": "Ruta1-Arboleda-AvenidaNorte-TerminaldeTransporte",
        "_segmentIndex": 0,
        "_position": 0
      },
      "geometry": {
        "type": "Point",
        "coordinates": [
          -73.342033,
          5.571906,
          0
        ]
      }
    },
    {
      "type": "Feature",
      "properties": {
        "_source": "Ruta1-Arboleda-AvenidaNorte-TerminaldeTransporte",
        "_segmentIndex": 0,
        "_position": 1
      },
      "geometry": {
        "type": "Point",
        "coordinates": [
          -73.34237379604002,
          5.571664049666586,
          0
        ]
      }
    },
    {
      "type": "Feature",
      "properties": {
        "_source": "Ruta1-Arboleda-AvenidaNorte-TerminaldeTransporte",
        "_segmentIndex": 0,
        "_position": 2
      },
      "geometry": {
        "type": "Point",
        "coordinates": [
          -73.3426246714727,
          5.57129008569398,
          0
        ]
      }
    },
    {
      "type": "Feature",
      "properties": {
        "_source": "Ruta1-Arboleda-AvenidaNorte-TerminaldeTransporte",
        "_segmentIndex": 0,
        "_position": 3
      },
      "geometry": {
        "type": "Point",
        "coordinates": [
          -73.34287554658592,
          5.570916121615235,
          0
        ]
      }
    },
    {
      "type": "Feature",
      "properties": {
        "_source": "Ruta1-Arboleda-AvenidaNorte-TerminaldeTransporte",
        "_segmentIndex": 0,
        "_position": 4
      },
      "geometry": {
        "type": "Point",
        "coordinates": [
          -73.34312642137971,
          5.570542157430355,
          0
        ]
      }
    },
    {
      "type": "Feature",
      "properties": {
        "_source": "Ruta1-Arboleda-AvenidaNorte-TerminaldeTransporte",
        "_segmentIndex": 0,
        "_position": 5
      },
      "geometry": {
        "type": "Point",
        "coordinates": [
          -73.34337729585408,
          5.570168193139348,
          0
        ]
      }
    },
    {
      "type": "Feature",
      "properties": {
        "_source": "Ruta1-Arboleda-AvenidaNorte-TerminaldeTransporte",
        "_segmentIndex": 0,
        "_position": 6
      },
      "geometry": {
        "type": "Point",
        "coordinates": [
          -73.34362858315171,
          5.5697945040690096,
          0
        ]
      }
    },
    {
      "type": "Feature",
      "properties": {
        "_source": "Ruta1-Arboleda-AvenidaNorte-TerminaldeTransporte",
        "_segmentIndex": 0,
        "_position": 7
      },
      "geometry": {
        "type": "Point",
        "coordinates": [
          -73.34388044250325,
          5.569421196333686,
          0
        ]
      }
    },
    {
      "type": "Feature",
      "properties": {
        "_source": "Ruta1-Arboleda-AvenidaNorte-TerminaldeTransporte",
        "_segmentIndex": 0,
        "_position": 8
      },
      "geometry": {
        "type": "Point",
        "coordinates": [
          -73.34413230153476,
          5.569047888491423,
          0
        ]
      }
    },
    {
      "type": "Feature",
      "properties": {
        "_source": "Ruta1-Arboleda-AvenidaNorte-TerminaldeTransporte",
        "_segmentIndex": 0,
        "_position": 9
      },
      "geometry": {
        "type": "Point",
        "coordinates": [
          -73.34438416024626,
          5.568674580542227,
          0
        ]
      }
    },
    {
      "type": "Feature",
      "properties": {
        "_source": "Ruta1-Arboleda-AvenidaNorte-TerminaldeTransporte",
        "_segmentIndex": 0,
        "_position": 10
      },
      "geometry": {
        "type": "Point",
        "coordinates": [
          -73.34463601863779,
          5.568301272486104,
          0
        ]
      }
    },
    {
      "type": "Feature",
      "properties": {
        "_source": "Ruta1-Arboleda-AvenidaNorte-TerminaldeTransporte",
        "_segmentIndex": 0,
        "_position": 11
      },
      "geometry": {
        "type": "Point",
        "coordinates": [
          -73.34488787670934,
          5.567927964323063,
          0
        ]
      }
    },
    {
      "type": "Feature",
      "properties": {
        "_source": "Ruta1-Arboleda-AvenidaNorte-TerminaldeTransporte",
        "_segmentIndex": 0,
        "_position": 12
      },
      "geometry": {
        "type": "Point",
        "coordinates": [
          -73.34513973446094,
          5.567554656053112,
          0
        ]
      }
    },
    {
      "type": "Feature",
      "properties": {
        "_source": "Ruta1-Arboleda-AvenidaNorte-TerminaldeTransporte",
        "_segmentIndex": 0,
        "_position": 13
      },
      "geometry": {
        "type": "Point",
        "coordinates": [
          -73.34539159189264,
          5.567181347676258,
          0
        ]
      }
    },
    {
      "type": "Feature",
      "properties": {
        "_source": "Ruta1-Arboleda-AvenidaNorte-TerminaldeTransporte",
        "_segmentIndex": 0,
        "_position": 14
      },
      "geometry": {
        "type": "Point",
        "coordinates": [
          -73.34564344900443,
          5.566808039192506,
          0
        ]
      }
    },
    {
      "type": "Feature",
      "properties": {
        "_source": "Ruta1-Arboleda-AvenidaNorte-TerminaldeTransporte",
        "_segmentIndex": 0,
        "_position": 15
      },
      "geometry": {
        "type": "Point",
        "coordinates": [
          -73.34586106012608,
          5.566415277498032,
          0
        ]
      }
    },
    {
      "type": "Feature",
      "properties": {
        "_source": "Ruta1-Arboleda-AvenidaNorte-TerminaldeTransporte",
        "_segmentIndex": 0,
        "_position": 16
      },
      "geometry": {
        "type": "Point",
        "coordinates": [
          -73.34605591285803,
          5.566009588085402,
          0
        ]
      }
    },
    {
      "type": "Feature",
      "properties": {
        "_source": "Ruta1-Arboleda-AvenidaNorte-TerminaldeTransporte",
        "_segmentIndex": 0,
        "_position": 17
      },
      "geometry": {
        "type": "Point",
        "coordinates": [
          -73.34625076532107,
          5.565603898608803,
          0
        ]
      }
    },
    {
      "type": "Feature",
      "properties": {
        "_source": "Ruta1-Arboleda-AvenidaNorte-TerminaldeTransporte",
        "_segmentIndex": 0,
        "_position": 18
      },
      "geometry": {
        "type": "Point",
        "coordinates": [
          -73.34644561751523,
          5.565198209068239,
          0
        ]
      }
    },
    {
      "type": "Feature",
      "properties": {
        "_source": "Ruta1-Arboleda-AvenidaNorte-TerminaldeTransporte",
        "_segmentIndex": 0,
        "_position": 19
      },
      "geometry": {
        "type": "Point",
        "coordinates": [
          -73.34664046944052,
          5.5647925194637144,
          0
        ]
      }
    },
    {
      "type": "Feature",
      "properties": {
        "_source": "Ruta1-Arboleda-AvenidaNorte-TerminaldeTransporte",
        "_segmentIndex": 0,
        "_position": 20
      },
      "geometry": {
        "type": "Point",
        "coordinates": [
          -73.34682923407816,
          5.564384017200172,
          0
        ]
      }
    },
    {
      "type": "Feature",
      "properties": {
        "_source": "Ruta1-Arboleda-AvenidaNorte-TerminaldeTransporte",
        "_segmentIndex": 0,
        "_position": 21
      },
      "geometry": {
        "type": "Point",
        "coordinates": [
          -73.34701484252462,
          5.5639740566341835,
          0
        ]
      }
    },
    {
      "type": "Feature",
      "properties": {
        "_source": "Ruta1-Arboleda-AvenidaNorte-TerminaldeTransporte",
        "_segmentIndex": 0,
        "_position": 22
      },
      "geometry": {
        "type": "Point",
        "coordinates": [
          -73.34720045071232,
          5.56356409601017,
          0
        ]
      }
    },
    {
      "type": "Feature",
      "properties": {
        "_source": "Ruta1-Arboleda-AvenidaNorte-TerminaldeTransporte",
        "_segmentIndex": 0,
        "_position": 23
      },
      "geometry": {
        "type": "Point",
        "coordinates": [
          -73.34738605864132,
          5.563154135328138,
          0
        ]
      }
    },
    {
      "type": "Feature",
      "properties": {
        "_source": "Ruta1-Arboleda-AvenidaNorte-TerminaldeTransporte",
        "_segmentIndex": 0,
        "_position": 24
      },
      "geometry": {
        "type": "Point",
        "coordinates": [
          -73.34757166631158,
          5.562744174588091,
          0
        ]
      }
    },
    {
      "type": "Feature",
      "properties": {
        "_source": "Ruta1-Arboleda-AvenidaNorte-TerminaldeTransporte",
        "_segmentIndex": 0,
        "_position": 25
      },
      "geometry": {
        "type": "Point",
        "coordinates": [
          -73.34776199132021,
          5.562336374291599,
          0
        ]
      }
    },
    {
      "type": "Feature",
      "properties": {
        "_source": "Ruta1-Arboleda-AvenidaNorte-TerminaldeTransporte",
        "_segmentIndex": 0,
        "_position": 26
      },
      "geometry": {
        "type": "Point",
        "coordinates": [
          -73.34795407142266,
          5.561929377829031,
          0
        ]
      }
    },
    {
      "type": "Feature",
      "properties": {
        "_source": "Ruta1-Arboleda-AvenidaNorte-TerminaldeTransporte",
        "_segmentIndex": 0,
        "_position": 27
      },
      "geometry": {
        "type": "Point",
        "coordinates": [
          -73.34814615125937,
          5.5615223813043455,
          0
        ]
      }
    },
    {
      "type": "Feature",
      "properties": {
        "_source": "Ruta1-Arboleda-AvenidaNorte-TerminaldeTransporte",
        "_segmentIndex": 0,
        "_position": 28
      },
      "geometry": {
        "type": "Point",
        "coordinates": [
          -73.34833823083038,
          5.561115384717547,
          0
        ]
      }
    },
    {
      "type": "Feature",
      "properties": {
        "_source": "Ruta1-Arboleda-AvenidaNorte-TerminaldeTransporte",
        "_segmentIndex": 0,
        "_position": 29
      },
      "geometry": {
        "type": "Point",
        "coordinates": [
          -73.34853031013567,
          5.560708388068641,
          0
        ]
      }
    },
    {
      "type": "Feature",
      "properties": {
        "_source": "Ruta1-Arboleda-AvenidaNorte-TerminaldeTransporte",
        "_segmentIndex": 0,
        "_position": 30
      },
      "geometry": {
        "type": "Point",
        "coordinates": [
          -73.34872238917528,
          5.560301391357632,
          0
        ]
      }
    },
    {
      "type": "Feature",
      "properties": {
        "_source": "Ruta1-Arboleda-AvenidaNorte-TerminaldeTransporte",
        "_segmentIndex": 0,
        "_position": 31
      },
      "geometry": {
        "type": "Point",
        "coordinates": [
          -73.34891446794926,
          5.559894394584523,
          0
        ]
      }
    },
    {
      "type": "Feature",
      "properties": {
        "_source": "Ruta1-Arboleda-AvenidaNorte-TerminaldeTransporte",
        "_segmentIndex": 0,
        "_position": 32
      },
      "geometry": {
        "type": "Point",
        "coordinates": [
          -73.34910654645758,
          5.559487397749322,
          0
        ]
      }
    },
    {
      "type": "Feature",
      "properties": {
        "_source": "Ruta1-Arboleda-AvenidaNorte-TerminaldeTransporte",
        "_segmentIndex": 0,
        "_position": 33
      },
      "geometry": {
        "type": "Point",
        "coordinates": [
          -73.3492986247003,
          5.55908040085203,
          0
        ]
      }
    },
    {
      "type": "Feature",
      "properties": {
        "_source": "Ruta1-Arboleda-AvenidaNorte-TerminaldeTransporte",
        "_segmentIndex": 0,
        "_position": 34
      },
      "geometry": {
        "type": "Point",
        "coordinates": [
          -73.34949070267741,
          5.558673403892654,
          0
        ]
      }
    },
    {
      "type": "Feature",
      "properties": {
        "_source": "Ruta1-Arboleda-AvenidaNorte-TerminaldeTransporte",
        "_segmentIndex": 0,
        "_position": 35
      },
      "geometry": {
        "type": "Point",
        "coordinates": [
          -73.34968278038895,
          5.558266406871198,
          0
        ]
      }
    },
    {
      "type": "Feature",
      "properties": {
        "_source": "Ruta1-Arboleda-AvenidaNorte-TerminaldeTransporte",
        "_segmentIndex": 0,
        "_position": 36
      },
      "geometry": {
        "type": "Point",
        "coordinates": [
          -73.34987485783493,
          5.557859409787667,
          0
        ]
      }
    },
    {
      "type": "Feature",
      "properties": {
        "_source": "Ruta1-Arboleda-AvenidaNorte-TerminaldeTransporte",
        "_segmentIndex": 0,
        "_position": 37
      },
      "geometry": {
        "type": "Point",
        "coordinates": [
          -73.35006284559248,
          5.557450545045559,
          0
        ]
      }
    },
    {
      "type": "Feature",
      "properties": {
        "_source": "Ruta1-Arboleda-AvenidaNorte-TerminaldeTransporte",
        "_segmentIndex": 0,
        "_position": 38
      },
      "geometry": {
        "type": "Point",
        "coordinates": [
          -73.35024757707511,
          5.557040193256877,
          0
        ]
      }
    },
    {
      "type": "Feature",
      "properties": {
        "_source": "Ruta1-Arboleda-AvenidaNorte-TerminaldeTransporte",
        "_segmentIndex": 0,
        "_position": 39
      },
      "geometry": {
        "type": "Point",
        "coordinates": [
          -73.35043230830031,
          5.556629841410788,
          0
        ]
      }
    },
    {
      "type": "Feature",
      "properties": {
        "_source": "Ruta1-Arboleda-AvenidaNorte-TerminaldeTransporte",
        "_segmentIndex": 0,
        "_position": 40
      },
      "geometry": {
        "type": "Point",
        "coordinates": [
          -73.35061703926809,
          5.5562194895073,
          0
        ]
      }
    },
    {
      "type": "Feature",
      "properties": {
        "_source": "Ruta1-Arboleda-AvenidaNorte-TerminaldeTransporte",
        "_segmentIndex": 0,
        "_position": 41
      },
      "geometry": {
        "type": "Point",
        "coordinates": [
          -73.35080176997845,
          5.555809137546413,
          0
        ]
      }
    },
    {
      "type": "Feature",
      "properties": {
        "_source": "Ruta1-Arboleda-AvenidaNorte-TerminaldeTransporte",
        "_segmentIndex": 0,
        "_position": 42
      },
      "geometry": {
        "type": "Point",
        "coordinates": [
          -73.3509865004314,
          5.555398785528136,
          0
        ]
      }
    },
    {
      "type": "Feature",
      "properties": {
        "_source": "Ruta1-Arboleda-AvenidaNorte-TerminaldeTransporte",
        "_segmentIndex": 0,
        "_position": 43
      },
      "geometry": {
        "type": "Point",
        "coordinates": [
          -73.35117123062702,
          5.554988433452469,
          0
        ]
      }
    },
    {
      "type": "Feature",
      "properties": {
        "_source": "Ruta1-Arboleda-AvenidaNorte-TerminaldeTransporte",
        "_segmentIndex": 0,
        "_position": 44
      },
      "geometry": {
        "type": "Point",
        "coordinates": [
          -73.35133663174554,
          5.554570257535346,
          0
        ]
      }
    },
    {
      "type": "Feature",
      "properties": {
        "_source": "Ruta1-Arboleda-AvenidaNorte-TerminaldeTransporte",
        "_segmentIndex": 0,
        "_position": 45
      },
      "geometry": {
        "type": "Point",
        "coordinates": [
          -73.35149208468994,
          5.554148054915157,
          0
        ]
      }
    },
    {
      "type": "Feature",
      "properties": {
        "_source": "Ruta1-Arboleda-AvenidaNorte-TerminaldeTransporte",
        "_segmentIndex": 0,
        "_position": 46
      },
      "geometry": {
        "type": "Point",
        "coordinates": [
          -73.35164753741157,
          5.553725852254338,
          0
        ]
      }
    },
    {
      "type": "Feature",
      "properties": {
        "_source": "Ruta1-Arboleda-AvenidaNorte-TerminaldeTransporte",
        "_segmentIndex": 0,
        "_position": 47
      },
      "geometry": {
        "type": "Point",
        "coordinates": [
          -73.35179414095421,
          5.553300710545828,
          0
        ]
      }
    },
    {
      "type": "Feature",
      "properties": {
        "_source": "Ruta1-Arboleda-AvenidaNorte-TerminaldeTransporte",
        "_segmentIndex": 0,
        "_position": 48
      },
      "geometry": {
        "type": "Point",
        "coordinates": [
          -73.35192457790454,
          5.5528701994553815,
          0
        ]
      }
    },
    {
      "type": "Feature",
      "properties": {
        "_source": "Ruta1-Arboleda-AvenidaNorte-TerminaldeTransporte",
        "_segmentIndex": 0,
        "_position": 49
      },
      "geometry": {
        "type": "Point",
        "coordinates": [
          -73.3520550146643,
          5.552439688336335,
          0
        ]
      }
    },
    {
      "type": "Feature",
      "properties": {
        "_source": "Ruta1-Arboleda-AvenidaNorte-TerminaldeTransporte",
        "_segmentIndex": 0,
        "_position": 50
      },
      "geometry": {
        "type": "Point",
        "coordinates": [
          -73.35218545123352,
          5.552009177188693,
          0
        ]
      }
    },
    {
      "type": "Feature",
      "properties": {
        "_source": "Ruta1-Arboleda-AvenidaNorte-TerminaldeTransporte",
        "_segmentIndex": 0,
        "_position": 51
      },
      "geometry": {
        "type": "Point",
        "coordinates": [
          -73.3523242043234,
          5.551582593019975,
          0
        ]
      }
    },
    {
      "type": "Feature",
      "properties": {
        "_source": "Ruta1-Arboleda-AvenidaNorte-TerminaldeTransporte",
        "_segmentIndex": 0,
        "_position": 52
      },
      "geometry": {
        "type": "Point",
        "coordinates": [
          -73.35257669808057,
          5.551209715283755,
          0
        ]
      }
    },
    {
      "type": "Feature",
      "properties": {
        "_source": "Ruta1-Arboleda-AvenidaNorte-TerminaldeTransporte",
        "_segmentIndex": 0,
        "_position": 53
      },
      "geometry": {
        "type": "Point",
        "coordinates": [
          -73.3528561087112,
          5.550856790513513,
          0
        ]
      }
    },
    {
      "type": "Feature",
      "properties": {
        "_source": "Ruta1-Arboleda-AvenidaNorte-TerminaldeTransporte",
        "_segmentIndex": 0,
        "_position": 54
      },
      "geometry": {
        "type": "Point",
        "coordinates": [
          -73.35314272180818,
          5.550509204874109,
          0
        ]
      }
    },
    {
      "type": "Feature",
      "properties": {
        "_source": "Ruta1-Arboleda-AvenidaNorte-TerminaldeTransporte",
        "_segmentIndex": 0,
        "_position": 55
      },
      "geometry": {
        "type": "Point",
        "coordinates": [
          -73.35342933456724,
          5.550161619096676,
          0
        ]
      }
    },
    {
      "type": "Feature",
      "properties": {
        "_source": "Ruta1-Arboleda-AvenidaNorte-TerminaldeTransporte",
        "_segmentIndex": 0,
        "_position": 56
      },
      "geometry": {
        "type": "Point",
        "coordinates": [
          -73.35371594698834,
          5.54981403318123,
          0
        ]
      }
    },
    {
      "type": "Feature",
      "properties": {
        "_source": "Ruta1-Arboleda-AvenidaNorte-TerminaldeTransporte",
        "_segmentIndex": 0,
        "_position": 57
      },
      "geometry": {
        "type": "Point",
        "coordinates": [
          -73.35400255907159,
          5.549466447127775,
          0
        ]
      }
    },
    {
      "type": "Feature",
      "properties": {
        "_source": "Ruta1-Arboleda-AvenidaNorte-TerminaldeTransporte",
        "_segmentIndex": 0,
        "_position": 58
      },
      "geometry": {
        "type": "Point",
        "coordinates": [
          -73.35427783643532,
          5.549110062943445,
          0
        ]
      }
    },
    {
      "type": "Feature",
      "properties": {
        "_source": "Ruta1-Arboleda-AvenidaNorte-TerminaldeTransporte",
        "_segmentIndex": 0,
        "_position": 59
      },
      "geometry": {
        "type": "Point",
        "coordinates": [
          -73.35454671267624,
          5.548748710201228,
          0
        ]
      }
    },
    {
      "type": "Feature",
      "properties": {
        "_source": "Ruta1-Arboleda-AvenidaNorte-TerminaldeTransporte",
        "_segmentIndex": 0,
        "_position": 60
      },
      "geometry": {
        "type": "Point",
        "coordinates": [
          -73.35481558858764,
          5.548387357337578,
          0
        ]
      }
    },
    {
      "type": "Feature",
      "properties": {
        "_source": "Ruta1-Arboleda-AvenidaNorte-TerminaldeTransporte",
        "_segmentIndex": 0,
        "_position": 61
      },
      "geometry": {
        "type": "Point",
        "coordinates": [
          -73.35508446416961,
          5.5480260043525025,
          0
        ]
      }
    },
    {
      "type": "Feature",
      "properties": {
        "_source": "Ruta1-Arboleda-AvenidaNorte-TerminaldeTransporte",
        "_segmentIndex": 0,
        "_position": 62
      },
      "geometry": {
        "type": "Point",
        "coordinates": [
          -73.35535333942215,
          5.547664651246012,
          0
        ]
      }
    },
    {
      "type": "Feature",
      "properties": {
        "_source": "Ruta1-Arboleda-AvenidaNorte-TerminaldeTransporte",
        "_segmentIndex": 0,
        "_position": 63
      },
      "geometry": {
        "type": "Point",
        "coordinates": [
          -73.35562221434527,
          5.547303298018112,
          0
        ]
      }
    },
    {
      "type": "Feature",
      "properties": {
        "_source": "Ruta1-Arboleda-AvenidaNorte-TerminaldeTransporte",
        "_segmentIndex": 0,
        "_position": 64
      },
      "geometry": {
        "type": "Point",
        "coordinates": [
          -73.35589108893902,
          5.546941944668813,
          0
        ]
      }
    },
    {
      "type": "Feature",
      "properties": {
        "_source": "Ruta1-Arboleda-AvenidaNorte-TerminaldeTransporte",
        "_segmentIndex": 0,
        "_position": 65
      },
      "geometry": {
        "type": "Point",
        "coordinates": [
          -73.35615996320338,
          5.54658059119812,
          0
        ]
      }
    },
    {
      "type": "Feature",
      "properties": {
        "_source": "Ruta1-Arboleda-AvenidaNorte-TerminaldeTransporte",
        "_segmentIndex": 0,
        "_position": 66
      },
      "geometry": {
        "type": "Point",
        "coordinates": [
          -73.35642883713841,
          5.546219237606045,
          0
        ]
      }
    },
    {
      "type": "Feature",
      "properties": {
        "_source": "Ruta1-Arboleda-AvenidaNorte-TerminaldeTransporte",
        "_segmentIndex": 0,
        "_position": 67
      },
      "geometry": {
        "type": "Point",
        "coordinates": [
          -73.35669771074411,
          5.545857883892594,
          0
        ]
      }
    },
    {
      "type": "Feature",
      "properties": {
        "_source": "Ruta1-Arboleda-AvenidaNorte-TerminaldeTransporte",
        "_segmentIndex": 0,
        "_position": 68
      },
      "geometry": {
        "type": "Point",
        "coordinates": [
          -73.35696658402053,
          5.545496530057774,
          0
        ]
      }
    },
    {
      "type": "Feature",
      "properties": {
        "_source": "Ruta1-Arboleda-AvenidaNorte-TerminaldeTransporte",
        "_segmentIndex": 0,
        "_position": 69
      },
      "geometry": {
        "type": "Point",
        "coordinates": [
          -73.35723545696764,
          5.545135176101595,
          0
        ]
      }
    },
    {
      "type": "Feature",
      "properties": {
        "_source": "Ruta1-Arboleda-AvenidaNorte-TerminaldeTransporte",
        "_segmentIndex": 0,
        "_position": 0
      },
      "geometry": {
        "type": "Point",
        "coordinates": [
          -73.357325,
          5.545021,
          0
        ]
      }
    },
    {
      "type": "Feature",
      "properties": {
        "_source": "Ruta1-Arboleda-AvenidaNorte-TerminaldeTransporte",
        "_segmentIndex": 0,
        "_position": 1
      },
      "geometry": {
        "type": "Point",
        "coordinates": [
          -73.35772926686576,
          5.544820280100203,
          0
        ]
      }
    },
    {
      "type": "Feature",
      "properties": {
        "_source": "Ruta1-Arboleda-AvenidaNorte-TerminaldeTransporte",
        "_segmentIndex": 0,
        "_position": 2
      },
      "geometry": {
        "type": "Point",
        "coordinates": [
          -73.35787449936791,
          5.544403245798311,
          0
        ]
      }
    },
    {
      "type": "Feature",
      "properties": {
        "_source": "Ruta1-Arboleda-AvenidaNorte-TerminaldeTransporte",
        "_segmentIndex": 0,
        "_position": 3
      },
      "geometry": {
        "type": "Point",
        "coordinates": [
          -73.35809810005613,
          5.544017989065956,
          0
        ]
      }
    },
    {
      "type": "Feature",
      "properties": {
        "_source": "Ruta1-Arboleda-AvenidaNorte-TerminaldeTransporte",
        "_segmentIndex": 0,
        "_position": 4
      },
      "geometry": {
        "type": "Point",
        "coordinates": [
          -73.35835811779448,
          5.543650271716399,
          0
        ]
      }
    },
    {
      "type": "Feature",
      "properties": {
        "_source": "Ruta1-Arboleda-AvenidaNorte-TerminaldeTransporte",
        "_segmentIndex": 0,
        "_position": 5
      },
      "geometry": {
        "type": "Point",
        "coordinates": [
          -73.3586226919246,
          5.543286111854754,
          0
        ]
      }
    },
    {
      "type": "Feature",
      "properties": {
        "_source": "Ruta1-Arboleda-AvenidaNorte-TerminaldeTransporte",
        "_segmentIndex": 0,
        "_position": 6
      },
      "geometry": {
        "type": "Point",
        "coordinates": [
          -73.35891957899442,
          5.542947180062339,
          0
        ]
      }
    },
    {
      "type": "Feature",
      "properties": {
        "_source": "Ruta1-Arboleda-AvenidaNorte-TerminaldeTransporte",
        "_segmentIndex": 0,
        "_position": 7
      },
      "geometry": {
        "type": "Point",
        "coordinates": [
          -73.35893645278611,
          5.542573581546328,
          0
        ]
      }
    },
    {
      "type": "Feature",
      "properties": {
        "_source": "Ruta1-Arboleda-AvenidaNorte-TerminaldeTransporte",
        "_segmentIndex": 0,
        "_position": 8
      },
      "geometry": {
        "type": "Point",
        "coordinates": [
          -73.35901757731513,
          5.542132377233009,
          0
        ]
      }
    },
    {
      "type": "Feature",
      "properties": {
        "_source": "Ruta1-Arboleda-AvenidaNorte-TerminaldeTransporte",
        "_segmentIndex": 0,
        "_position": 9
      },
      "geometry": {
        "type": "Point",
        "coordinates": [
          -73.35916861928635,
          5.541709444196061,
          0
        ]
      }
    },
    {
      "type": "Feature",
      "properties": {
        "_source": "Ruta1-Arboleda-AvenidaNorte-TerminaldeTransporte",
        "_segmentIndex": 0,
        "_position": 10
      },
      "geometry": {
        "type": "Point",
        "coordinates": [
          -73.35936927282538,
          5.541306569669244,
          0
        ]
      }
    },
    {
      "type": "Feature",
      "properties": {
        "_source": "Ruta1-Arboleda-AvenidaNorte-TerminaldeTransporte",
        "_segmentIndex": 0,
        "_position": 11
      },
      "geometry": {
        "type": "Point",
        "coordinates": [
          -73.3595615805925,
          5.540899934736246,
          0
        ]
      }
    },
    {
      "type": "Feature",
      "properties": {
        "_source": "Ruta1-Arboleda-AvenidaNorte-TerminaldeTransporte",
        "_segmentIndex": 0,
        "_position": 12
      },
      "geometry": {
        "type": "Point",
        "coordinates": [
          -73.35973332520379,
          5.540484034455356,
          0
        ]
      }
    },
    {
      "type": "Feature",
      "properties": {
        "_source": "Ruta1-Arboleda-AvenidaNorte-TerminaldeTransporte",
        "_segmentIndex": 0,
        "_position": 13
      },
      "geometry": {
        "type": "Point",
        "coordinates": [
          -73.35989745166361,
          5.540065590136096,
          0
        ]
      }
    },
    {
      "type": "Feature",
      "properties": {
        "_source": "Ruta1-Arboleda-AvenidaNorte-TerminaldeTransporte",
        "_segmentIndex": 0,
        "_position": 14
      },
      "geometry": {
        "type": "Point",
        "coordinates": [
          -73.36001248337065,
          5.539630750734657,
          0
        ]
      }
    },
    {
      "type": "Feature",
      "properties": {
        "_source": "Ruta1-Arboleda-AvenidaNorte-TerminaldeTransporte",
        "_segmentIndex": 0,
        "_position": 15
      },
      "geometry": {
        "type": "Point",
        "coordinates": [
          -73.36012751490834,
          5.53919591131103,
          0
        ]
      }
    },
    {
      "type": "Feature",
      "properties": {
        "_source": "Ruta1-Arboleda-AvenidaNorte-TerminaldeTransporte",
        "_segmentIndex": 0,
        "_position": 16
      },
      "geometry": {
        "type": "Point",
        "coordinates": [
          -73.36024254627671,
          5.538761071865211,
          0
        ]
      }
    },
    {
      "type": "Feature",
      "properties": {
        "_source": "Ruta1-Arboleda-AvenidaNorte-TerminaldeTransporte",
        "_segmentIndex": 0,
        "_position": 17
      },
      "geometry": {
        "type": "Point",
        "coordinates": [
          -73.36035757747574,
          5.538326232397209,
          0
        ]
      }
    },
    {
      "type": "Feature",
      "properties": {
        "_source": "Ruta1-Arboleda-AvenidaNorte-TerminaldeTransporte",
        "_segmentIndex": 0,
        "_position": 0
      },
      "geometry": {
        "type": "Point",
        "coordinates": [
          -73.360437,
          5.538026,
          0
        ]
      }
    },
    {
      "type": "Feature",
      "properties": {
        "_source": "Ruta1-Arboleda-AvenidaNorte-TerminaldeTransporte",
        "_segmentIndex": 0,
        "_position": 1
      },
      "geometry": {
        "type": "Point",
        "coordinates": [
          -73.36025729982893,
          5.537628356714411,
          0
        ]
      }
    },
    {
      "type": "Feature",
      "properties": {
        "_source": "Ruta1-Arboleda-AvenidaNorte-TerminaldeTransporte",
        "_segmentIndex": 0,
        "_position": 2
      },
      "geometry": {
        "type": "Point",
        "coordinates": [
          -73.35983110331176,
          5.53747921834741,
          0
        ]
      }
    },
    {
      "type": "Feature",
      "properties": {
        "_source": "Ruta1-Arboleda-AvenidaNorte-TerminaldeTransporte",
        "_segmentIndex": 0,
        "_position": 0
      },
      "geometry": {
        "type": "Point",
        "coordinates": [
          -73.359579,
          5.537391,
          0
        ]
      }
    },
    {
      "type": "Feature",
      "properties": {
        "_source": "Ruta1-Arboleda-AvenidaNorte-TerminaldeTransporte",
        "_segmentIndex": 0,
        "_position": 1
      },
      "geometry": {
        "type": "Point",
        "coordinates": [
          -73.35969986187683,
          5.536957730232249,
          0
        ]
      }
    },
    {
      "type": "Feature",
      "properties": {
        "_source": "Ruta1-Arboleda-AvenidaNorte-TerminaldeTransporte",
        "_segmentIndex": 0,
        "_position": 2
      },
      "geometry": {
        "type": "Point",
        "coordinates": [
          -73.35982072357649,
          5.536524460440012,
          0
        ]
      }
    },
    {
      "type": "Feature",
      "properties": {
        "_source": "Ruta1-Arboleda-AvenidaNorte-TerminaldeTransporte",
        "_segmentIndex": 0,
        "_position": 3
      },
      "geometry": {
        "type": "Point",
        "coordinates": [
          -73.35994082950097,
          5.536090982801659,
          0
        ]
      }
    },
    {
      "type": "Feature",
      "properties": {
        "_source": "Ruta1-Arboleda-AvenidaNorte-TerminaldeTransporte",
        "_segmentIndex": 0,
        "_position": 4
      },
      "geometry": {
        "type": "Point",
        "coordinates": [
          -73.36006062380775,
          5.535657419479436,
          0
        ]
      }
    },
    {
      "type": "Feature",
      "properties": {
        "_source": "Ruta1-Arboleda-AvenidaNorte-TerminaldeTransporte",
        "_segmentIndex": 0,
        "_position": 5
      },
      "geometry": {
        "type": "Point",
        "coordinates": [
          -73.36018513979874,
          5.535225199893208,
          0
        ]
      }
    },
    {
      "type": "Feature",
      "properties": {
        "_source": "Ruta1-Arboleda-AvenidaNorte-TerminaldeTransporte",
        "_segmentIndex": 0,
        "_position": 6
      },
      "geometry": {
        "type": "Point",
        "coordinates": [
          -73.36031412681791,
          5.534794260765197,
          0
        ]
      }
    },
    {
      "type": "Feature",
      "properties": {
        "_source": "Ruta1-Arboleda-AvenidaNorte-TerminaldeTransporte",
        "_segmentIndex": 0,
        "_position": 7
      },
      "geometry": {
        "type": "Point",
        "coordinates": [
          -73.36044956999716,
          5.534365285163552,
          0
        ]
      }
    },
    {
      "type": "Feature",
      "properties": {
        "_source": "Ruta1-Arboleda-AvenidaNorte-TerminaldeTransporte",
        "_segmentIndex": 0,
        "_position": 8
      },
      "geometry": {
        "type": "Point",
        "coordinates": [
          -73.36058501297991,
          5.533936309531171,
          0
        ]
      }
    },
    {
      "type": "Feature",
      "properties": {
        "_source": "Ruta1-Arboleda-AvenidaNorte-TerminaldeTransporte",
        "_segmentIndex": 0,
        "_position": 9
      },
      "geometry": {
        "type": "Point",
        "coordinates": [
          -73.36068898026113,
          5.533499229773924,
          0
        ]
      }
    },
    {
      "type": "Feature",
      "properties": {
        "_source": "Ruta1-Arboleda-AvenidaNorte-TerminaldeTransporte",
        "_segmentIndex": 0,
        "_position": 10
      },
      "geometry": {
        "type": "Point",
        "coordinates": [
          -73.36083976611204,
          5.533075952531176,
          0
        ]
      }
    },
    {
      "type": "Feature",
      "properties": {
        "_source": "Ruta1-Arboleda-AvenidaNorte-TerminaldeTransporte",
        "_segmentIndex": 0,
        "_position": 11
      },
      "geometry": {
        "type": "Point",
        "coordinates": [
          -73.36101143739991,
          5.53266099607128,
          0
        ]
      }
    },
    {
      "type": "Feature",
      "properties": {
        "_source": "Ruta1-Arboleda-AvenidaNorte-TerminaldeTransporte",
        "_segmentIndex": 0,
        "_position": 12
      },
      "geometry": {
        "type": "Point",
        "coordinates": [
          -73.3611698090474,
          5.532239871590323,
          0
        ]
      }
    },
    {
      "type": "Feature",
      "properties": {
        "_source": "Ruta1-Arboleda-AvenidaNorte-TerminaldeTransporte",
        "_segmentIndex": 0,
        "_position": 13
      },
      "geometry": {
        "type": "Point",
        "coordinates": [
          -73.36124131971953,
          5.531815614934715,
          0
        ]
      }
    },
    {
      "type": "Feature",
      "properties": {
        "_source": "Ruta1-Arboleda-AvenidaNorte-TerminaldeTransporte",
        "_segmentIndex": 0,
        "_position": 14
      },
      "geometry": {
        "type": "Point",
        "coordinates": [
          -73.36133332035439,
          5.5313817412640205,
          0
        ]
      }
    },
    {
      "type": "Feature",
      "properties": {
        "_source": "Ruta1-Arboleda-AvenidaNorte-TerminaldeTransporte",
        "_segmentIndex": 0,
        "_position": 15
      },
      "geometry": {
        "type": "Point",
        "coordinates": [
          -73.36145508965528,
          5.530948738623422,
          0
        ]
      }
    },
    {
      "type": "Feature",
      "properties": {
        "_source": "Ruta1-Arboleda-AvenidaNorte-TerminaldeTransporte",
        "_segmentIndex": 0,
        "_position": 16
      },
      "geometry": {
        "type": "Point",
        "coordinates": [
          -73.36158080539633,
          5.530516839746689,
          0
        ]
      }
    },
    {
      "type": "Feature",
      "properties": {
        "_source": "Ruta1-Arboleda-AvenidaNorte-TerminaldeTransporte",
        "_segmentIndex": 0,
        "_position": 17
      },
      "geometry": {
        "type": "Point",
        "coordinates": [
          -73.36170652095387,
          5.530084940843494,
          0
        ]
      }
    },
    {
      "type": "Feature",
      "properties": {
        "_source": "Ruta1-Arboleda-AvenidaNorte-TerminaldeTransporte",
        "_segmentIndex": 0,
        "_position": 0
      },
      "geometry": {
        "type": "Point",
        "coordinates": [
          -73.361811,
          5.529726,
          0
        ]
      }
    },
    {
      "type": "Feature",
      "properties": {
        "_source": "Ruta1-Arboleda-AvenidaNorte-TerminaldeTransporte",
        "_segmentIndex": 0,
        "_position": 1
      },
      "geometry": {
        "type": "Point",
        "coordinates": [
          -73.36139538180164,
          5.529561237629085,
          0
        ]
      }
    },
    {
      "type": "Feature",
      "properties": {
        "_source": "Ruta1-Arboleda-AvenidaNorte-TerminaldeTransporte",
        "_segmentIndex": 0,
        "_position": 2
      },
      "geometry": {
        "type": "Point",
        "coordinates": [
          -73.3609611032411,
          5.5294373525010965,
          0
        ]
      }
    },
    {
      "type": "Feature",
      "properties": {
        "_source": "Ruta1-Arboleda-AvenidaNorte-TerminaldeTransporte",
        "_segmentIndex": 0,
        "_position": 3
      },
      "geometry": {
        "type": "Point",
        "coordinates": [
          -73.36052543300102,
          5.52931854602181,
          0
        ]
      }
    },
    {
      "type": "Feature",
      "properties": {
        "_source": "Ruta1-Arboleda-AvenidaNorte-TerminaldeTransporte",
        "_segmentIndex": 0,
        "_position": 4
      },
      "geometry": {
        "type": "Point",
        "coordinates": [
          -73.36008810468677,
          5.5292057902334095,
          0
        ]
      }
    },
    {
      "type": "Feature",
      "properties": {
        "_source": "Ruta1-Arboleda-AvenidaNorte-TerminaldeTransporte",
        "_segmentIndex": 0,
        "_position": 0
      },
      "geometry": {
        "type": "Point",
        "coordinates": [
          -73.359767,
          5.529123,
          0
        ]
      }
    },
    {
      "type": "Feature",
      "properties": {
        "_source": "Ruta1-Arboleda-AvenidaNorte-TerminaldeTransporte",
        "_segmentIndex": 0,
        "_position": 1
      },
      "geometry": {
        "type": "Point",
        "coordinates": [
          -73.35989464525079,
          5.528691662291578,
          0
        ]
      }
    },
    {
      "type": "Feature",
      "properties": {
        "_source": "Ruta1-Arboleda-AvenidaNorte-TerminaldeTransporte",
        "_segmentIndex": 0,
        "_position": 2
      },
      "geometry": {
        "type": "Point",
        "coordinates": [
          -73.36002229031554,
          5.528260324555886,
          0
        ]
      }
    },
    {
      "type": "Feature",
      "properties": {
        "_source": "Ruta1-Arboleda-AvenidaNorte-TerminaldeTransporte",
        "_segmentIndex": 0,
        "_position": 3
      },
      "geometry": {
        "type": "Point",
        "coordinates": [
          -73.36015790767735,
          5.527831444400613,
          0
        ]
      }
    },
    {
      "type": "Feature",
      "properties": {
        "_source": "Ruta1-Arboleda-AvenidaNorte-TerminaldeTransporte",
        "_segmentIndex": 0,
        "_position": 4
      },
      "geometry": {
        "type": "Point",
        "coordinates": [
          -73.36029536406473,
          5.527403184525443,
          0
        ]
      }
    },
    {
      "type": "Feature",
      "properties": {
        "_source": "Ruta1-Arboleda-AvenidaNorte-TerminaldeTransporte",
        "_segmentIndex": 0,
        "_position": 5
      },
      "geometry": {
        "type": "Point",
        "coordinates": [
          -73.36048983170788,
          5.527002426396493,
          0
        ]
      }
    },
    {
      "type": "Feature",
      "properties": {
        "_source": "Ruta1-Arboleda-AvenidaNorte-TerminaldeTransporte",
        "_segmentIndex": 0,
        "_position": 6
      },
      "geometry": {
        "type": "Point",
        "coordinates": [
          -73.36074189944848,
          5.526629270251591,
          0
        ]
      }
    },
    {
      "type": "Feature",
      "properties": {
        "_source": "Ruta1-Arboleda-AvenidaNorte-TerminaldeTransporte",
        "_segmentIndex": 0,
        "_position": 7
      },
      "geometry": {
        "type": "Point",
        "coordinates": [
          -73.3609939668714,
          5.526256114000387,
          0
        ]
      }
    },
    {
      "type": "Feature",
      "properties": {
        "_source": "Ruta1-Arboleda-AvenidaNorte-TerminaldeTransporte",
        "_segmentIndex": 0,
        "_position": 8
      },
      "geometry": {
        "type": "Point",
        "coordinates": [
          -73.36124603397666,
          5.525882957642884,
          0
        ]
      }
    },
    {
      "type": "Feature",
      "properties": {
        "_source": "Ruta1-Arboleda-AvenidaNorte-TerminaldeTransporte",
        "_segmentIndex": 0,
        "_position": 9
      },
      "geometry": {
        "type": "Point",
        "coordinates": [
          -73.36149810076427,
          5.525509801179093,
          0
        ]
      }
    },
    {
      "type": "Feature",
      "properties": {
        "_source": "Ruta1-Arboleda-AvenidaNorte-TerminaldeTransporte",
        "_segmentIndex": 0,
        "_position": 10
      },
      "geometry": {
        "type": "Point",
        "coordinates": [
          -73.36175016723423,
          5.525136644609019,
          0
        ]
      }
    },
    {
      "type": "Feature",
      "properties": {
        "_source": "Ruta1-Arboleda-AvenidaNorte-TerminaldeTransporte",
        "_segmentIndex": 0,
        "_position": 11
      },
      "geometry": {
        "type": "Point",
        "coordinates": [
          -73.36200223338663,
          5.52476348793267,
          0
        ]
      }
    },
    {
      "type": "Feature",
      "properties": {
        "_source": "Ruta1-Arboleda-AvenidaNorte-TerminaldeTransporte",
        "_segmentIndex": 0,
        "_position": 0
      },
      "geometry": {
        "type": "Point",
        "coordinates": [
          -73.362087,
          5.524638,
          0
        ]
      }
    },
    {
      "type": "Feature",
      "properties": {
        "_source": "Ruta1-Arboleda-AvenidaNorte-TerminaldeTransporte",
        "_segmentIndex": 0,
        "_position": 1
      },
      "geometry": {
        "type": "Point",
        "coordinates": [
          -73.36186021406176,
          5.52425120618003,
          0
        ]
      }
    },
    {
      "type": "Feature",
      "properties": {
        "_source": "Ruta1-Arboleda-AvenidaNorte-TerminaldeTransporte",
        "_segmentIndex": 0,
        "_position": 2
      },
      "geometry": {
        "type": "Point",
        "coordinates": [
          -73.36159566257373,
          5.523886712908495,
          0
        ]
      }
    },
    {
      "type": "Feature",
      "properties": {
        "_source": "Ruta1-Arboleda-AvenidaNorte-TerminaldeTransporte",
        "_segmentIndex": 0,
        "_position": 3
      },
      "geometry": {
        "type": "Point",
        "coordinates": [
          -73.36119075412164,
          5.523790503099873,
          0
        ]
      }
    },
    {
      "type": "Feature",
      "properties": {
        "_source": "Ruta1-Arboleda-AvenidaNorte-TerminaldeTransporte",
        "_segmentIndex": 0,
        "_position": 4
      },
      "geometry": {
        "type": "Point",
        "coordinates": [
          -73.36086491002528,
          5.5234790490264345,
          0
        ]
      }
    },
    {
      "type": "Feature",
      "properties": {
        "_source": "Ruta1-Arboleda-AvenidaNorte-TerminaldeTransporte",
        "_segmentIndex": 0,
        "_position": 5
      },
      "geometry": {
        "type": "Point",
        "coordinates": [
          -73.3605390662715,
          5.523167594775459,
          0
        ]
      }
    },
    {
      "type": "Feature",
      "properties": {
        "_source": "Ruta1-Arboleda-AvenidaNorte-TerminaldeTransporte",
        "_segmentIndex": 0,
        "_position": 6
      },
      "geometry": {
        "type": "Point",
        "coordinates": [
          -73.36021802880936,
          5.522852138304156,
          0
        ]
      }
    },
    {
      "type": "Feature",
      "properties": {
        "_source": "Ruta1-Arboleda-AvenidaNorte-TerminaldeTransporte",
        "_segmentIndex": 0,
        "_position": 7
      },
      "geometry": {
        "type": "Point",
        "coordinates": [
          -73.35996755635486,
          5.522477920591676,
          0
        ]
      }
    },
    {
      "type": "Feature",
      "properties": {
        "_source": "Ruta1-Arboleda-AvenidaNorte-TerminaldeTransporte",
        "_segmentIndex": 0,
        "_position": 0
      },
      "geometry": {
        "type": "Point",
        "coordinates": [
          -73.359898,
          5.522374,
          0
        ]
      }
    },
    {
      "type": "Feature",
      "properties": {
        "_source": "Ruta1-Arboleda-AvenidaNorte-TerminaldeTransporte",
        "_segmentIndex": 0,
        "_position": 1
      },
      "geometry": {
        "type": "Point",
        "coordinates": [
          -73.36015665061623,
          5.522005335296705,
          0
        ]
      }
    },
    {
      "type": "Feature",
      "properties": {
        "_source": "Ruta1-Arboleda-AvenidaNorte-TerminaldeTransporte",
        "_segmentIndex": 0,
        "_position": 2
      },
      "geometry": {
        "type": "Point",
        "coordinates": [
          -73.36024599448126,
          5.52165287659539,
          0
        ]
      }
    },
    {
      "type": "Feature",
      "properties": {
        "_source": "Ruta1-Arboleda-AvenidaNorte-TerminaldeTransporte",
        "_segmentIndex": 0,
        "_position": 3
      },
      "geometry": {
        "type": "Point",
        "coordinates": [
          -73.35987559068028,
          5.521395455689662,
          0
        ]
      }
    },
    {
      "type": "Feature",
      "properties": {
        "_source": "Ruta1-Arboleda-AvenidaNorte-TerminaldeTransporte",
        "_segmentIndex": 0,
        "_position": 4
      },
      "geometry": {
        "type": "Point",
        "coordinates": [
          -73.35958330817675,
          5.521456401670279,
          0
        ]
      }
    },
    {
      "type": "Feature",
      "properties": {
        "_source": "Ruta1-Arboleda-AvenidaNorte-TerminaldeTransporte",
        "_segmentIndex": 0,
        "_position": 0
      },
      "geometry": {
        "type": "Point",
        "coordinates": [
          -73.359353,
          5.521794,
          0
        ]
      }
    },
    {
      "type": "Feature",
      "properties": {
        "_source": "Ruta1-Arboleda-AvenidaNorte-TerminaldeTransporte",
        "_segmentIndex": 0,
        "_position": 1
      },
      "geometry": {
        "type": "Point",
        "coordinates": [
          -73.35897695075175,
          5.52154482025606,
          0
        ]
      }
    },
    {
      "type": "Feature",
      "properties": {
        "_source": "Ruta1-Arboleda-AvenidaNorte-TerminaldeTransporte",
        "_segmentIndex": 0,
        "_position": 2
      },
      "geometry": {
        "type": "Point",
        "coordinates": [
          -73.3586009018197,
          5.521295640275743,
          0
        ]
      }
    },
    {
      "type": "Feature",
      "properties": {
        "_source": "Ruta1-Arboleda-AvenidaNorte-TerminaldeTransporte",
        "_segmentIndex": 0,
        "_position": 3
      },
      "geometry": {
        "type": "Point",
        "coordinates": [
          -73.35823302634206,
          5.521035283590267,
          0
        ]
      }
    },
    {
      "type": "Feature",
      "properties": {
        "_source": "Ruta1-Arboleda-AvenidaNorte-TerminaldeTransporte",
        "_segmentIndex": 0,
        "_position": 4
      },
      "geometry": {
        "type": "Point",
        "coordinates": [
          -73.35787728917644,
          5.520758328660174,
          0
        ]
      }
    },
    {
      "type": "Feature",
      "properties": {
        "_source": "Ruta1-Arboleda-AvenidaNorte-TerminaldeTransporte",
        "_segmentIndex": 0,
        "_position": 5
      },
      "geometry": {
        "type": "Point",
        "coordinates": [
          -73.35750122089385,
          5.520509178360898,
          0
        ]
      }
    },
    {
      "type": "Feature",
      "properties": {
        "_source": "Ruta1-Arboleda-AvenidaNorte-TerminaldeTransporte",
        "_segmentIndex": 0,
        "_position": 6
      },
      "geometry": {
        "type": "Point",
        "coordinates": [
          -73.35712515292735,
          5.520260027825261,
          0
        ]
      }
    },
    {
      "type": "Feature",
      "properties": {
        "_source": "Ruta1-Arboleda-AvenidaNorte-TerminaldeTransporte",
        "_segmentIndex": 0,
        "_position": 7
      },
      "geometry": {
        "type": "Point",
        "coordinates": [
          -73.35675165268404,
          5.5200070942688,
          0
        ]
      }
    },
    {
      "type": "Feature",
      "properties": {
        "_source": "Ruta1-Arboleda-AvenidaNorte-TerminaldeTransporte",
        "_segmentIndex": 0,
        "_position": 8
      },
      "geometry": {
        "type": "Point",
        "coordinates": [
          -73.35637905950712,
          5.519752824490064,
          0
        ]
      }
    },
    {
      "type": "Feature",
      "properties": {
        "_source": "Ruta1-Arboleda-AvenidaNorte-TerminaldeTransporte",
        "_segmentIndex": 0,
        "_position": 9
      },
      "geometry": {
        "type": "Point",
        "coordinates": [
          -73.35598357183373,
          5.519537081368124,
          0
        ]
      }
    },
    {
      "type": "Feature",
      "properties": {
        "_source": "Ruta1-Arboleda-AvenidaNorte-TerminaldeTransporte",
        "_segmentIndex": 0,
        "_position": 10
      },
      "geometry": {
        "type": "Point",
        "coordinates": [
          -73.35557146085655,
          5.519352880345705,
          0
        ]
      }
    },
    {
      "type": "Feature",
      "properties": {
        "_source": "Ruta1-Arboleda-AvenidaNorte-TerminaldeTransporte",
        "_segmentIndex": 0,
        "_position": 11
      },
      "geometry": {
        "type": "Point",
        "coordinates": [
          -73.35515840383927,
          5.51917080874257,
          0
        ]
      }
    },
    {
      "type": "Feature",
      "properties": {
        "_source": "Ruta1-Arboleda-AvenidaNorte-TerminaldeTransporte",
        "_segmentIndex": 0,
        "_position": 12
      },
      "geometry": {
        "type": "Point",
        "coordinates": [
          -73.35474422616122,
          5.518991259543572,
          0
        ]
      }
    },
    {
      "type": "Feature",
      "properties": {
        "_source": "Ruta1-Arboleda-AvenidaNorte-TerminaldeTransporte",
        "_segmentIndex": 0,
        "_position": 0
      },
      "geometry": {
        "type": "Point",
        "coordinates": [
          -73.354393,
          5.518839,
          0
        ]
      }
    },
    {
      "type": "Feature",
      "properties": {
        "_source": "Ruta1-Arboleda-AvenidaNorte-TerminaldeTransporte",
        "_segmentIndex": 0,
        "_position": 1
      },
      "geometry": {
        "type": "Point",
        "coordinates": [
          -73.3544282659372,
          5.519280504910207,
          0
        ]
      }
    },
    {
      "type": "Feature",
      "properties": {
        "_source": "Ruta1-Arboleda-AvenidaNorte-TerminaldeTransporte",
        "_segmentIndex": 0,
        "_position": 2
      },
      "geometry": {
        "type": "Point",
        "coordinates": [
          -73.35451661811923,
          5.519720724535415,
          0
        ]
      }
    },
    {
      "type": "Feature",
      "properties": {
        "_source": "Ruta1-Arboleda-AvenidaNorte-TerminaldeTransporte",
        "_segmentIndex": 0,
        "_position": 3
      },
      "geometry": {
        "type": "Point",
        "coordinates": [
          -73.35463158094504,
          5.520155572684954,
          0
        ]
      }
    },
    {
      "type": "Feature",
      "properties": {
        "_source": "Ruta1-Arboleda-AvenidaNorte-TerminaldeTransporte",
        "_segmentIndex": 0,
        "_position": 4
      },
      "geometry": {
        "type": "Point",
        "coordinates": [
          -73.35474358137803,
          5.520587908009738,
          0
        ]
      }
    },
    {
      "type": "Feature",
      "properties": {
        "_source": "Ruta1-Arboleda-AvenidaNorte-TerminaldeTransporte",
        "_segmentIndex": 0,
        "_position": 0
      },
      "geometry": {
        "type": "Point",
        "coordinates": [
          -73.354949,
          5.520826,
          0
        ]
      }
    },
    {
      "type": "Feature",
      "properties": {
        "_source": "Ruta1-Arboleda-AvenidaNorte-TerminaldeTransporte",
        "_segmentIndex": 0,
        "_position": 1
      },
      "geometry": {
        "type": "Point",
        "coordinates": [
          -73.35458846394486,
          5.521096945067924,
          0
        ]
      }
    },
    {
      "type": "Feature",
      "properties": {
        "_source": "Ruta1-Arboleda-AvenidaNorte-TerminaldeTransporte",
        "_segmentIndex": 0,
        "_position": 2
      },
      "geometry": {
        "type": "Point",
        "coordinates": [
          -73.35422792756012,
          5.5213678899185865,
          0
        ]
      }
    },
    {
      "type": "Feature",
      "properties": {
        "_source": "Ruta1-Arboleda-AvenidaNorte-TerminaldeTransporte",
        "_segmentIndex": 0,
        "_position": 3
      },
      "geometry": {
        "type": "Point",
        "coordinates": [
          -73.35386739084574,
          5.521638834551973,
          0
        ]
      }
    },
    {
      "type": "Feature",
      "properties": {
        "_source": "Ruta1-Arboleda-AvenidaNorte-TerminaldeTransporte",
        "_segmentIndex": 0,
        "_position": 0
      },
      "geometry": {
        "type": "Point",
        "coordinates": [
          -73.353786,
          5.5217,
          0
        ]
      }
    },
    {
      "type": "Feature",
      "properties": {
        "_source": "Ruta1-Arboleda-AvenidaNorte-TerminaldeTransporte",
        "_segmentIndex": 0,
        "_position": 1
      },
      "geometry": {
        "type": "Point",
        "coordinates": [
          -73.35354200064535,
          5.521355157489031,
          0
        ]
      }
    },
    {
      "type": "Feature",
      "properties": {
        "_source": "Ruta1-Arboleda-AvenidaNorte-TerminaldeTransporte",
        "_segmentIndex": 0,
        "_position": 0
      },
      "geometry": {
        "type": "Point",
        "coordinates": [
          -73.35349,
          5.521388,
          0
        ]
      }
    },
    {
      "type": "Feature",
      "properties": {
        "_source": "Ruta1-Arboleda-AvenidaNorte-TerminaldeTransporte",
        "_segmentIndex": 0,
        "_position": 1
      },
      "geometry": {
        "type": "Point",
        "coordinates": [
          -73.35369726871528,
          5.521777930844732,
          0
        ]
      }
    },
    {
      "type": "Feature",
      "properties": {
        "_source": "Ruta1-Arboleda-AvenidaNorte-TerminaldeTransporte",
        "_segmentIndex": 0,
        "_position": 2
      },
      "geometry": {
        "type": "Point",
        "coordinates": [
          -73.35393739273854,
          5.522158809240376,
          0
        ]
      }
    },
    {
      "type": "Feature",
      "properties": {
        "_source": "Ruta1-Arboleda-AvenidaNorte-TerminaldeTransporte",
        "_segmentIndex": 0,
        "_position": 3
      },
      "geometry": {
        "type": "Point",
        "coordinates": [
          -73.35417655466624,
          5.522540287372642,
          0
        ]
      }
    },
    {
      "type": "Feature",
      "properties": {
        "_source": "Ruta1-Arboleda-AvenidaNorte-TerminaldeTransporte",
        "_segmentIndex": 0,
        "_position": 4
      },
      "geometry": {
        "type": "Point",
        "coordinates": [
          -73.35442215915113,
          5.52291760843169,
          0
        ]
      }
    },
    {
      "type": "Feature",
      "properties": {
        "_source": "Ruta1-Arboleda-AvenidaNorte-TerminaldeTransporte",
        "_segmentIndex": 0,
        "_position": 5
      },
      "geometry": {
        "type": "Point",
        "coordinates": [
          -73.35467441024925,
          5.523290640743322,
          0
        ]
      }
    },
    {
      "type": "Feature",
      "properties": {
        "_source": "Ruta1-Arboleda-AvenidaNorte-TerminaldeTransporte",
        "_segmentIndex": 0,
        "_position": 6
      },
      "geometry": {
        "type": "Point",
        "coordinates": [
          -73.35494716931626,
          5.523648540282466,
          0
        ]
      }
    },
    {
      "type": "Feature",
      "properties": {
        "_source": "Ruta1-Arboleda-AvenidaNorte-TerminaldeTransporte",
        "_segmentIndex": 0,
        "_position": 7
      },
      "geometry": {
        "type": "Point",
        "coordinates": [
          -73.35526356514578,
          5.523969383728338,
          0
        ]
      }
    },
    {
      "type": "Feature",
      "properties": {
        "_source": "Ruta1-Arboleda-AvenidaNorte-TerminaldeTransporte",
        "_segmentIndex": 0,
        "_position": 8
      },
      "geometry": {
        "type": "Point",
        "coordinates": [
          -73.3555813078953,
          5.524289023241851,
          0
        ]
      }
    },
    {
      "type": "Feature",
      "properties": {
        "_source": "Ruta1-Arboleda-AvenidaNorte-TerminaldeTransporte",
        "_segmentIndex": 0,
        "_position": 0
      },
      "geometry": {
        "type": "Point",
        "coordinates": [
          -73.355629,
          5.524337,
          0
        ]
      }
    },
    {
      "type": "Feature",
      "properties": {
        "_source": "Ruta1-Arboleda-AvenidaNorte-TerminaldeTransporte",
        "_segmentIndex": 0,
        "_position": 1
      },
      "geometry": {
        "type": "Point",
        "coordinates": [
          -73.35530600553778,
          5.524651381553479,
          0
        ]
      }
    },
    {
      "type": "Feature",
      "properties": {
        "_source": "Ruta1-Arboleda-AvenidaNorte-TerminaldeTransporte",
        "_segmentIndex": 0,
        "_position": 2
      },
      "geometry": {
        "type": "Point",
        "coordinates": [
          -73.35498301073272,
          5.524965762932474,
          0
        ]
      }
    },
    {
      "type": "Feature",
      "properties": {
        "_source": "Ruta1-Arboleda-AvenidaNorte-TerminaldeTransporte",
        "_segmentIndex": 0,
        "_position": 3
      },
      "geometry": {
        "type": "Point",
        "coordinates": [
          -73.35466228311543,
          5.525282434136735,
          0
        ]
      }
    },
    {
      "type": "Feature",
      "properties": {
        "_source": "Ruta1-Arboleda-AvenidaNorte-TerminaldeTransporte",
        "_segmentIndex": 0,
        "_position": 4
      },
      "geometry": {
        "type": "Point",
        "coordinates": [
          -73.35434177891794,
          5.525599331149076,
          0
        ]
      }
    },
    {
      "type": "Feature",
      "properties": {
        "_source": "Ruta1-Arboleda-AvenidaNorte-TerminaldeTransporte",
        "_segmentIndex": 0,
        "_position": 5
      },
      "geometry": {
        "type": "Point",
        "coordinates": [
          -73.35403969790129,
          5.52593364737829,
          0
        ]
      }
    },
    {
      "type": "Feature",
      "properties": {
        "_source": "Ruta1-Arboleda-AvenidaNorte-TerminaldeTransporte",
        "_segmentIndex": 0,
        "_position": 6
      },
      "geometry": {
        "type": "Point",
        "coordinates": [
          -73.35373819635494,
          5.526268511665039,
          0
        ]
      }
    },
    {
      "type": "Feature",
      "properties": {
        "_source": "Ruta1-Arboleda-AvenidaNorte-TerminaldeTransporte",
        "_segmentIndex": 0,
        "_position": 7
      },
      "geometry": {
        "type": "Point",
        "coordinates": [
          -73.35348459391416,
          5.526636763806135,
          0
        ]
      }
    },
    {
      "type": "Feature",
      "properties": {
        "_source": "Ruta1-Arboleda-AvenidaNorte-TerminaldeTransporte",
        "_segmentIndex": 0,
        "_position": 8
      },
      "geometry": {
        "type": "Point",
        "coordinates": [
          -73.35327152582568,
          5.5270332702756235,
          0
        ]
      }
    },
    {
      "type": "Feature",
      "properties": {
        "_source": "Ruta1-Arboleda-AvenidaNorte-TerminaldeTransporte",
        "_segmentIndex": 0,
        "_position": 9
      },
      "geometry": {
        "type": "Point",
        "coordinates": [
          -73.35305845745184,
          5.527429776669154,
          0
        ]
      }
    },
    {
      "type": "Feature",
      "properties": {
        "_source": "Ruta1-Arboleda-AvenidaNorte-TerminaldeTransporte",
        "_segmentIndex": 0,
        "_position": 10
      },
      "geometry": {
        "type": "Point",
        "coordinates": [
          -73.3528453887926,
          5.527826282986717,
          0
        ]
      }
    },
    {
      "type": "Feature",
      "properties": {
        "_source": "Ruta1-Arboleda-AvenidaNorte-TerminaldeTransporte",
        "_segmentIndex": 0,
        "_position": 0
      },
      "geometry": {
        "type": "Point",
        "coordinates": [
          -73.352809,
          5.527894,
          0
        ]
      }
    },
    {
      "type": "Feature",
      "properties": {
        "_source": "Ruta1-Arboleda-AvenidaNorte-TerminaldeTransporte",
        "_segmentIndex": 0,
        "_position": 1
      },
      "geometry": {
        "type": "Point",
        "coordinates": [
          -73.35235968234413,
          5.527847295407632,
          0
        ]
      }
    },
    {
      "type": "Feature",
      "properties": {
        "_source": "Ruta1-Arboleda-AvenidaNorte-TerminaldeTransporte",
        "_segmentIndex": 0,
        "_position": 2
      },
      "geometry": {
        "type": "Point",
        "coordinates": [
          -73.35191036475912,
          5.5278005904774155,
          0
        ]
      }
    },
    {
      "type": "Feature",
      "properties": {
        "_source": "Ruta1-Arboleda-AvenidaNorte-TerminaldeTransporte",
        "_segmentIndex": 0,
        "_position": 3
      },
      "geometry": {
        "type": "Point",
        "coordinates": [
          -73.35145986384401,
          5.52776852058769,
          0
        ]
      }
    },
    {
      "type": "Feature",
      "properties": {
        "_source": "Ruta1-Arboleda-AvenidaNorte-TerminaldeTransporte",
        "_segmentIndex": 0,
        "_position": 0
      },
      "geometry": {
        "type": "Point",
        "coordinates": [
          -73.351149,
          5.527751,
          0
        ]
      }
    },
    {
      "type": "Feature",
      "properties": {
        "_source": "Ruta1-Arboleda-AvenidaNorte-TerminaldeTransporte",
        "_segmentIndex": 0,
        "_position": 1
      },
      "geometry": {
        "type": "Point",
        "coordinates": [
          -73.35109036853072,
          5.528196857074259,
          0
        ]
      }
    },
    {
      "type": "Feature",
      "properties": {
        "_source": "Ruta1-Arboleda-AvenidaNorte-TerminaldeTransporte",
        "_segmentIndex": 0,
        "_position": 2
      },
      "geometry": {
        "type": "Point",
        "coordinates": [
          -73.35104320501638,
          5.528643878628834,
          0
        ]
      }
    },
    {
      "type": "Feature",
      "properties": {
        "_source": "Ruta1-Arboleda-AvenidaNorte-TerminaldeTransporte",
        "_segmentIndex": 0,
        "_position": 3
      },
      "geometry": {
        "type": "Point",
        "coordinates": [
          -73.3510101755316,
          5.529092335381849,
          0
        ]
      }
    },
    {
      "type": "Feature",
      "properties": {
        "_source": "Ruta1-Arboleda-AvenidaNorte-TerminaldeTransporte",
        "_segmentIndex": 0,
        "_position": 0
      },
      "geometry": {
        "type": "Point",
        "coordinates": [
          -73.350987,
          5.529407,
          0
        ]
      }
    },
    {
      "type": "Feature",
      "properties": {
        "_source": "Ruta1-Arboleda-AvenidaNorte-TerminaldeTransporte",
        "_segmentIndex": 0,
        "_position": 1
      },
      "geometry": {
        "type": "Point",
        "coordinates": [
          -73.35059526697772,
          5.529629707356925,
          0
        ]
      }
    },
    {
      "type": "Feature",
      "properties": {
        "_source": "Ruta1-Arboleda-AvenidaNorte-TerminaldeTransporte",
        "_segmentIndex": 0,
        "_position": 2
      },
      "geometry": {
        "type": "Point",
        "coordinates": [
          -73.3501501159261,
          5.529696783752575,
          0
        ]
      }
    },
    {
      "type": "Feature",
      "properties": {
        "_source": "Ruta1-Arboleda-AvenidaNorte-TerminaldeTransporte",
        "_segmentIndex": 0,
        "_position": 3
      },
      "geometry": {
        "type": "Point",
        "coordinates": [
          -73.34969868234835,
          5.529686690995783,
          0
        ]
      }
    },
    {
      "type": "Feature",
      "properties": {
        "_source": "Ruta1-Arboleda-AvenidaNorte-TerminaldeTransporte",
        "_segmentIndex": 0,
        "_position": 4
      },
      "geometry": {
        "type": "Point",
        "coordinates": [
          -73.34924872235105,
          5.529646563036907,
          0
        ]
      }
    },
    {
      "type": "Feature",
      "properties": {
        "_source": "Ruta1-Arboleda-AvenidaNorte-TerminaldeTransporte",
        "_segmentIndex": 0,
        "_position": 5
      },
      "geometry": {
        "type": "Point",
        "coordinates": [
          -73.3487983028424,
          5.529612265978177,
          0
        ]
      }
    },
    {
      "type": "Feature",
      "properties": {
        "_source": "Ruta1-Arboleda-AvenidaNorte-TerminaldeTransporte",
        "_segmentIndex": 0,
        "_position": 6
      },
      "geometry": {
        "type": "Point",
        "coordinates": [
          -73.34834858185974,
          5.529570296301131,
          0
        ]
      }
    },
    {
      "type": "Feature",
      "properties": {
        "_source": "Ruta1-Arboleda-AvenidaNorte-TerminaldeTransporte",
        "_segmentIndex": 0,
        "_position": 7
      },
      "geometry": {
        "type": "Point",
        "coordinates": [
          -73.34790005589035,
          5.529517398393564,
          0
        ]
      }
    },
    {
      "type": "Feature",
      "properties": {
        "_source": "Ruta1-Arboleda-AvenidaNorte-TerminaldeTransporte",
        "_segmentIndex": 0,
        "_position": 0
      },
      "geometry": {
        "type": "Point",
        "coordinates": [
          -73.34755,
          5.529464,
          0
        ]
      }
    },
    {
      "type": "Feature",
      "properties": {
        "_source": "Ruta1-Arboleda-AvenidaNorte-TerminaldeTransporte",
        "_segmentIndex": 0,
        "_position": 1
      },
      "geometry": {
        "type": "Point",
        "coordinates": [
          -73.34736866630323,
          5.529852829830271,
          0
        ]
      }
    },
    {
      "type": "Feature",
      "properties": {
        "_source": "Ruta1-Arboleda-AvenidaNorte-TerminaldeTransporte",
        "_segmentIndex": 0,
        "_position": 2
      },
      "geometry": {
        "type": "Point",
        "coordinates": [
          -73.34720708697694,
          5.530272066809472,
          0
        ]
      }
    },
    {
      "type": "Feature",
      "properties": {
        "_source": "Ruta1-Arboleda-AvenidaNorte-TerminaldeTransporte",
        "_segmentIndex": 0,
        "_position": 3
      },
      "geometry": {
        "type": "Point",
        "coordinates": [
          -73.34705719841355,
          5.530695730971807,
          0
        ]
      }
    },
    {
      "type": "Feature",
      "properties": {
        "_source": "Ruta1-Arboleda-AvenidaNorte-TerminaldeTransporte",
        "_segmentIndex": 0,
        "_position": 4
      },
      "geometry": {
        "type": "Point",
        "coordinates": [
          -73.34688478598557,
          5.531111356256412,
          0
        ]
      }
    },
    {
      "type": "Feature",
      "properties": {
        "_source": "Ruta1-Arboleda-AvenidaNorte-TerminaldeTransporte",
        "_segmentIndex": 0,
        "_position": 5
      },
      "geometry": {
        "type": "Point",
        "coordinates": [
          -73.34680309492869,
          5.531546552917036,
          0
        ]
      }
    },
    {
      "type": "Feature",
      "properties": {
        "_source": "Ruta1-Arboleda-AvenidaNorte-TerminaldeTransporte",
        "_segmentIndex": 0,
        "_position": 6
      },
      "geometry": {
        "type": "Point",
        "coordinates": [
          -73.34696893191395,
          5.53191281762205,
          0
        ]
      }
    },
    {
      "type": "Feature",
      "properties": {
        "_source": "Ruta1-Arboleda-AvenidaNorte-TerminaldeTransporte",
        "_segmentIndex": 0,
        "_position": 7
      },
      "geometry": {
        "type": "Point",
        "coordinates": [
          -73.34709230546525,
          5.532314527536102,
          0
        ]
      }
    },
    {
      "type": "Feature",
      "properties": {
        "_source": "Ruta1-Arboleda-AvenidaNorte-TerminaldeTransporte",
        "_segmentIndex": 0,
        "_position": 8
      },
      "geometry": {
        "type": "Point",
        "coordinates": [
          -73.34702332447758,
          5.532748981229671,
          0
        ]
      }
    },
    {
      "type": "Feature",
      "properties": {
        "_source": "Ruta1-Arboleda-AvenidaNorte-TerminaldeTransporte",
        "_segmentIndex": 0,
        "_position": 9
      },
      "geometry": {
        "type": "Point",
        "coordinates": [
          -73.3470898824886,
          5.533193648040733,
          0
        ]
      }
    },
    {
      "type": "Feature",
      "properties": {
        "_source": "Ruta1-Arboleda-AvenidaNorte-TerminaldeTransporte",
        "_segmentIndex": 0,
        "_position": 10
      },
      "geometry": {
        "type": "Point",
        "coordinates": [
          -73.34714781390748,
          5.533639006897345,
          0
        ]
      }
    },
    {
      "type": "Feature",
      "properties": {
        "_source": "Ruta1-Arboleda-AvenidaNorte-TerminaldeTransporte",
        "_segmentIndex": 0,
        "_position": 0
      },
      "geometry": {
        "type": "Point",
        "coordinates": [
          -73.347159,
          5.533859,
          0
        ]
      }
    },
    {
      "type": "Feature",
      "properties": {
        "_source": "Ruta1-Arboleda-AvenidaNorte-TerminaldeTransporte",
        "_segmentIndex": 0,
        "_position": 1
      },
      "geometry": {
        "type": "Point",
        "coordinates": [
          -73.3467140778477,
          5.533886981255913,
          0
        ]
      }
    },
    {
      "type": "Feature",
      "properties": {
        "_source": "Ruta1-Arboleda-AvenidaNorte-TerminaldeTransporte",
        "_segmentIndex": 0,
        "_position": 2
      },
      "geometry": {
        "type": "Point",
        "coordinates": [
          -73.3463304611105,
          5.5341149832003715,
          0
        ]
      }
    },
    {
      "type": "Feature",
      "properties": {
        "_source": "Ruta1-Arboleda-AvenidaNorte-TerminaldeTransporte",
        "_segmentIndex": 0,
        "_position": 3
      },
      "geometry": {
        "type": "Point",
        "coordinates": [
          -73.3460182196274,
          5.534439500843204,
          0
        ]
      }
    },
    {
      "type": "Feature",
      "properties": {
        "_source": "Ruta1-Arboleda-AvenidaNorte-TerminaldeTransporte",
        "_segmentIndex": 0,
        "_position": 4
      },
      "geometry": {
        "type": "Point",
        "coordinates": [
          -73.34571846056534,
          5.534775915202815,
          0
        ]
      }
    },
    {
      "type": "Feature",
      "properties": {
        "_source": "Ruta1-Arboleda-AvenidaNorte-TerminaldeTransporte",
        "_segmentIndex": 0,
        "_position": 5
      },
      "geometry": {
        "type": "Point",
        "coordinates": [
          -73.34530643529257,
          5.5349211841735695,
          0
        ]
      }
    },
    {
      "type": "Feature",
      "properties": {
        "_source": "Ruta1-Arboleda-AvenidaNorte-TerminaldeTransporte",
        "_segmentIndex": 0,
        "_position": 6
      },
      "geometry": {
        "type": "Point",
        "coordinates": [
          -73.3450953045442,
          5.534524232096845,
          0
        ]
      }
    },
    {
      "type": "Feature",
      "properties": {
        "_source": "Ruta1-Arboleda-AvenidaNorte-TerminaldeTransporte",
        "_segmentIndex": 0,
        "_position": 7
      },
      "geometry": {
        "type": "Point",
        "coordinates": [
          -73.34490695798733,
          5.534115518776403,
          0
        ]
      }
    },
    {
      "type": "Feature",
      "properties": {
        "_source": "Ruta1-Arboleda-AvenidaNorte-TerminaldeTransporte",
        "_segmentIndex": 0,
        "_position": 8
      },
      "geometry": {
        "type": "Point",
        "coordinates": [
          -73.34471013773558,
          5.533710776486725,
          0
        ]
      }
    },
    {
      "type": "Feature",
      "properties": {
        "_source": "Ruta1-Arboleda-AvenidaNorte-TerminaldeTransporte",
        "_segmentIndex": 0,
        "_position": 9
      },
      "geometry": {
        "type": "Point",
        "coordinates": [
          -73.34451331775321,
          5.533306034132154,
          0
        ]
      }
    },
    {
      "type": "Feature",
      "properties": {
        "_source": "Ruta1-Arboleda-AvenidaNorte-TerminaldeTransporte",
        "_segmentIndex": 0,
        "_position": 10
      },
      "geometry": {
        "type": "Point",
        "coordinates": [
          -73.34431649804023,
          5.532901291712692,
          0
        ]
      }
    },
    {
      "type": "Feature",
      "properties": {
        "_source": "Ruta1-Arboleda-AvenidaNorte-TerminaldeTransporte",
        "_segmentIndex": 0,
        "_position": 11
      },
      "geometry": {
        "type": "Point",
        "coordinates": [
          -73.344125738517,
          5.532494330986445,
          0
        ]
      }
    },
    {
      "type": "Feature",
      "properties": {
        "_source": "Ruta1-Arboleda-AvenidaNorte-TerminaldeTransporte",
        "_segmentIndex": 0,
        "_position": 12
      },
      "geometry": {
        "type": "Point",
        "coordinates": [
          -73.3441489094624,
          5.532081393353317,
          0
        ]
      }
    },
    {
      "type": "Feature",
      "properties": {
        "_source": "Ruta1-Arboleda-AvenidaNorte-TerminaldeTransporte",
        "_segmentIndex": 0,
        "_position": 13
      },
      "geometry": {
        "type": "Point",
        "coordinates": [
          -73.34443752224358,
          5.53174280994328,
          0
        ]
      }
    },
    {
      "type": "Feature",
      "properties": {
        "_source": "Ruta1-Arboleda-AvenidaNorte-TerminaldeTransporte",
        "_segmentIndex": 0,
        "_position": 14
      },
      "geometry": {
        "type": "Point",
        "coordinates": [
          -73.34466237835545,
          5.5313530388500025,
          0
        ]
      }
    },
    {
      "type": "Feature",
      "properties": {
        "_source": "Ruta1-Arboleda-AvenidaNorte-TerminaldeTransporte",
        "_segmentIndex": 0,
        "_position": 15
      },
      "geometry": {
        "type": "Point",
        "coordinates": [
          -73.34487833254279,
          5.530958081700653,
          0
        ]
      }
    }
  ]
}